AOGNOGN
HFDTE170825
HFFXA050
HFPLTPILOTINCHARGE:
HFGTYGLIDERTYPE:PA-25 Pawnee
HFGIDGLIDERID:OY-CYP
HFDTM100GPSDATUM:WGS-1984
HFRFWFIRMWAREVERSION:
HFRHWHARDWAREVERSION:
HFFTYFRTYPE:OGN-FLIGHTBOOK
HFGPSGENERIC
HFPRSPRESSALTSENSOR:
HFCIDCOMPETITIONID:YP
B1358405553127N01213910EA0000000019
B1358445553131N01213838EA0000000020
B1358475553135N01213771EA0000000020
B1358535553145N01213613EA0000000026
B1359005553150N01213412EA0000000049
B1359055553148N01213262EA0000000061
B1359105553129N01213111EA0000000088
B1359175553066N01212926EA0000000122
B1359225553003N01212803EA0000000136
B1359355552813N01212494EA0000000168
B1359415552718N01212358EA0000000189
B1359465552638N01212245EA0000000206
B1359515552555N01212139EA0000000234
B1359585552435N01211990EA0000000257
B1400095552255N01211734EA0000000279
B1400165552149N01211554EA0000000292
B1400255552058N01211294EA0000000315
B1400305552035N01211146EA0000000342
B1400375552033N01210955EA0000000381
B1400425552053N01210829EA0000000402
B1400485552099N01210707EA0000000426
B1400565552178N01210599EA0000000453
B1401015552236N01210570EA0000000466
B1401095552329N01210617EA0000000496
B1401195552412N01210813EA0000000520
B1401265552446N01210994EA0000000534
B1401325552459N01211165EA0000000552
B1401385552456N01211355EA0000000566
B1401465552415N01211608EA0000000598
B1401535552356N01211818EA0000000626
B1401585552313N01211977EA0000000630
B1402085552210N01212300EA0000000640
B1402145552078N01212430EA0000000612
B1402255551850N01212671EA0000000604
B1402325551750N01212852EA0000000593
B1402405551670N01213092EA0000000568
B1402455551621N01213247EA0000000556
B1402525551565N01213463EA0000000535
B1402575551540N01213622EA0000000523
B1403045551508N01213836EA0000000515
B1403095551494N01213977EA0000000505
B1403145551503N01214113EA0000000491
B1403205551528N01214272EA0000000475
B1403265551571N01214405EA0000000459
B1403315551613N01214505EA0000000449
B1403365551664N01214592EA0000000440
B1403445551754N01214722EA0000000435
B1403525551849N01214812EA0000000421
B1404015551953N01214852EA0000000398
B1404105552054N01214855EA0000000374
B1404155552108N01214853EA0000000362
B1404225552188N01214840EA0000000343
B1404285552261N01214830EA0000000330
B1404345552337N01214815EA0000000319
B1404395552396N01214807EA0000000313
B1404445552455N01214789EA0000000298
B1404505552525N01214780EA0000000279
B1404565552596N01214778EA0000000268
B1405025552665N01214769EA0000000255
B1405095552745N01214747EA0000000241
B1405165552820N01214709EA0000000214
B1405265552925N01214637EA0000000168
B1405355553007N01214533EA0000000136
B1405425553060N01214423EA0000000109
B1405475553083N01214314EA0000000085
B1405575553113N01214068EA0000000043
B1406045553125N01213891EA0000000021
B1406105553135N01213757EA0000000019
B1406155553142N01213676EA0000000020
