AOGNOGN
HFDTE170825
HFFXA050
HFPLTPILOTINCHARGE:
HFGTYGLIDERTYPE:ASK-21
HFGIDGLIDERID:OY-XKI
HFDTM100GPSDATUM:WGS-1984
HFRFWFIRMWAREVERSION:
HFRHWHARDWAREVERSION:
HFFTYFRTYPE:OGN-FLIGHTBOOK
HFGPSGENERIC
HFPRSPRESSALTSENSOR:
HFCIDCOMPETITIONID:KI
B0944565553124N01213921EA0000000019
B0945005553128N01213836EA0000000020
B0945075553141N01213649EA0000000025
B0945135553146N01213483EA0000000055
B0945215553159N01213267EA0000000072
B0945315553184N01212978EA0000000093
B0945365553237N01212868EA0000000106
B0945415553310N01212808EA0000000126
B0945475553407N01212830EA0000000158
B0945525553480N01212897EA0000000185
B0945575553547N01212991EA0000000195
B0946045553646N01213096EA0000000219
B0946105553730N01213176EA0000000229
B0946185553839N01213270EA0000000251
B0946325554030N01213409EA0000000287
B0946395554126N01213474EA0000000303
B0946485554253N01213561EA0000000329
B0946555554351N01213620EA0000000349
B0947025554450N01213678EA0000000380
B0947095554551N01213729EA0000000415
B0947155554635N01213772EA0000000435
B0947235554752N01213809EA0000000472
B0947305554851N01213843EA0000000504
B0947355554923N01213848EA0000000523
B0947465555081N01213860EA0000000570
B0947525555162N01213829EA0000000591
B0947595555213N01213677EA0000000609
B0948045555191N01213536EA0000000626
B0948095555132N01213413EA0000000636
B0948145555038N01213382EA0000000635
B0948195554970N01213485EA0000000643
B0948245554959N01213612EA0000000637
B0948305555007N01213672EA0000000627
B0948365555032N01213573EA0000000624
B0948415554982N01213478EA0000000618
B0948475554878N01213447EA0000000609
B0948585554681N01213426EA0000000603
B0949035554630N01213325EA0000000597
B0949105554630N01213182EA0000000588
B0949195554697N01213212EA0000000565
B0949245554685N01213334EA0000000555
B0949295554622N01213428EA0000000547
B0949355554525N01213422EA0000000541
B0949405554458N01213337EA0000000529
B0949455554391N01213242EA0000000517
B0949535554295N01213080EA0000000522
B0950015554209N01212918EA0000000512
B0950075554149N01212784EA0000000504
B0950135554094N01212652EA0000000500
B0950195554041N01212531EA0000000492
B0950275553971N01212372EA0000000483
B0950365553883N01212199EA0000000470
B0950455553786N01212020EA0000000475
B0950535553785N01211857EA0000000473
B0950585553831N01211863EA0000000465
B0951045553851N01211984EA0000000456
B0951095553803N01212086EA0000000454
B0951145553722N01212103EA0000000451
B0951215553621N01212016EA0000000450
B0951285553598N01211878EA0000000454
B0951335553642N01211872EA0000000448
B0951395553657N01211995EA0000000440
B0951445553596N01212083EA0000000429
B0951515553480N01212051EA0000000425
B0951565553395N01212001EA0000000422
B0952025553290N01211953EA0000000415
B0952105553146N01211899EA0000000408
B0952175553019N01211867EA0000000401
B0952295552800N01211833EA0000000389
B0952345552711N01211838EA0000000382
B0952395552624N01211891EA0000000376
B0952455552527N01211982EA0000000369
B0952515552435N01212077EA0000000358
B0953005552307N01212235EA0000000353
B0953055552254N01212348EA0000000345
B0953105552262N01212478EA0000000334
B0953185552337N01212480EA0000000333
B0953255552359N01212346EA0000000325
B0953315552374N01212228EA0000000325
B0953365552397N01212159EA0000000318
B0953425552450N01212157EA0000000307
B0953475552494N01212204EA0000000299
B0953545552535N01212334EA0000000289
B0953595552532N01212462EA0000000282
B0954065552509N01212642EA0000000271
B0954115552450N01212738EA0000000284
B0954165552374N01212727EA0000000284
B0954215552332N01212636EA0000000281
B0954265552334N01212540EA0000000274
B0954325552378N01212486EA0000000266
B0954395552436N01212557EA0000000256
B0954445552483N01212592EA0000000238
B0954495552530N01212537EA0000000228
B0954545552577N01212499EA0000000223
B0954595552630N01212536EA0000000215
B0955075552665N01212751EA0000000205
B0955145552669N01212965EA0000000215
B0955235552661N01213240EA0000000208
B0955305552653N01213450EA0000000198
B0955355552647N01213603EA0000000189
B0955405552642N01213760EA0000000185
B0955475552640N01213984EA0000000174
B0955525552638N01214142EA0000000167
B0955585552641N01214327EA0000000155
B0956035552681N01214441EA0000000155
B0956155552807N01214594EA0000000124
B0956215552878N01214595EA0000000109
B0956275552944N01214574EA0000000097
B0956325552982N01214505EA0000000079
B0956375552994N01214393EA0000000063
B0956435553012N01214250EA0000000043
B0956485553031N01214136EA0000000029
B0956555553054N01213973EA0000000018
B0957015553065N01213877EA0000000018
