AOGNOGN
HFDTE170825
HFFXA050
HFPLTPILOTINCHARGE:
HFGTYGLIDERTYPE:ASK-21
HFGIDGLIDERID:OY-XKI
HFDTM100GPSDATUM:WGS-1984
HFRFWFIRMWAREVERSION:
HFRHWHARDWAREVERSION:
HFFTYFRTYPE:OGN-FLIGHTBOOK
HFGPSGENERIC
HFPRSPRESSALTSENSOR:
HFCIDCOMPETITIONID:KI
B1401565553093N01213962EA0000000021
B1402015553101N01213833EA0000000093
B1402065553102N01213719EA0000000161
B1402115553105N01213608EA0000000226
B1402165553115N01213491EA0000000288
B1402235553130N01213313EA0000000351
B1402295553150N01213183EA0000000371
B1402345553163N01213081EA0000000365
B1402405553176N01212966EA0000000361
B1402485553191N01212826EA0000000353
B1402535553185N01212738EA0000000343
B1402585553131N01212648EA0000000344
B1403035553047N01212614EA0000000353
B1403085552998N01212528EA0000000352
B1403145552995N01212405EA0000000353
B1403215553036N01212323EA0000000357
B1403315553094N01212426EA0000000349
B1403365553080N01212556EA0000000346
B1403425552984N01212606EA0000000355
B1403495552951N01212481EA0000000340
B1403545552990N01212443EA0000000338
B1403595553019N01212532EA0000000334
B1404055552967N01212682EA0000000341
B1404105552880N01212704EA0000000353
B1404155552823N01212625EA0000000346
B1404225552825N01212502EA0000000340
B1404275552861N01212548EA0000000334
B1404325552837N01212678EA0000000336
B1404395552727N01212697EA0000000338
B1404445552704N01212604EA0000000333
B1404495552733N01212581EA0000000334
B1404565552733N01212732EA0000000327
B1405015552653N01212801EA0000000333
B1405065552583N01212744EA0000000327
B1405135552584N01212623EA0000000326
B1405185552614N01212573EA0000000322
B1405235552653N01212530EA0000000318
B1405305552706N01212573EA0000000325
B1405355552659N01212705EA0000000318
B1405415552554N01212682EA0000000318
B1405475552568N01212604EA0000000319
B1405535552586N01212725EA0000000326
B1405585552516N01212818EA0000000323
B1406045552431N01212755EA0000000317
B1406095552446N01212682EA0000000313
B1406145552491N01212640EA0000000304
B1406215552553N01212598EA0000000325
B1406285552593N01212549EA0000000311
B1406355552625N01212452EA0000000299
B1406415552674N01212416EA0000000286
B1406465552718N01212402EA0000000282
B1406555552777N01212309EA0000000267
B1407025552811N01212190EA0000000259
B1407075552840N01212130EA0000000252
B1407125552857N01212046EA0000000245
B1407175552812N01211941EA0000000239
B1407225552719N01211939EA0000000236
B1407305552669N01212127EA0000000218
B1407355552705N01212219EA0000000208
B1407425552716N01212397EA0000000208
B1407505552720N01212613EA0000000196
B1407555552720N01212758EA0000000183
B1408025552709N01212981EA0000000168
B1408085552694N01213184EA0000000162
B1408155552677N01213429EA0000000160
B1408215552660N01213635EA0000000175
B1408265552648N01213774EA0000000190
B1408315552635N01213910EA0000000179
B1408385552616N01214113EA0000000163
B1408455552601N01214324EA0000000153
B1408535552637N01214507EA0000000136
B1408585552675N01214596EA0000000130
B1409035552715N01214675EA0000000124
B1409105552775N01214771EA0000000128
B1409155552820N01214800EA0000000110
B1409215552884N01214806EA0000000104
B1409275552931N01214738EA0000000100
B1409335552961N01214620EA0000000087
B1409385552982N01214507EA0000000076
B1409445553005N01214360EA0000000051
B1409495553021N01214236EA0000000036
B1410015553059N01213970EA0000000015
