AOGNOGN
HFDTE170825
HFFXA050
HFPLTPILOTINCHARGE:
HFGTYGLIDERTYPE:ASK-21
HFGIDGLIDERID:OY-XVC
HFDTM100GPSDATUM:WGS-1984
HFRFWFIRMWAREVERSION:
HFRHWHARDWAREVERSION:
HFFTYFRTYPE:OGN-FLIGHTBOOK
HFGPSGENERIC
HFPRSPRESSALTSENSOR:
HFCIDCOMPETITIONID:VC
B1524465553093N01213991EA0000000018
B1524525553108N01213822EA0000000107
B1524575553124N01213690EA0000000204
B1525025553133N01213557EA0000000278
B1525095553160N01213368EA0000000369
B1525185553190N01213150EA0000000398
B1525265553212N01212967EA0000000398
B1525315553222N01212863EA0000000395
B1525385553230N01212720EA0000000391
B1525435553218N01212624EA0000000395
B1525495553168N01212515EA0000000384
B1525545553161N01212418EA0000000380
B1526005553199N01212446EA0000000364
B1526065553152N01212589EA0000000352
B1526145553006N01212708EA0000000336
B1526195552911N01212724EA0000000345
B1526245552861N01212630EA0000000336
B1526305552899N01212578EA0000000328
B1526365552905N01212704EA0000000323
B1526415552833N01212778EA0000000318
B1526475552751N01212700EA0000000306
B1526535552732N01212556EA0000000294
B1526585552672N01212454EA0000000286
B1527045552574N01212528EA0000000281
B1527115552605N01212648EA0000000264
B1527165552627N01212572EA0000000266
B1527215552575N01212480EA0000000260
B1527275552478N01212530EA0000000252
B1527325552464N01212648EA0000000247
B1527375552503N01212697EA0000000242
B1527425552530N01212632EA0000000238
B1527475552480N01212543EA0000000239
B1527525552398N01212580EA0000000228
B1527595552376N01212755EA0000000226
B1528065552440N01212848EA0000000210
B1528125552513N01212905EA0000000197
B1528185552585N01212965EA0000000193
B1528235552623N01213077EA0000000190
B1528295552608N01213269EA0000000184
B1528345552592N01213432EA0000000182
B1528415552577N01213652EA0000000192
B1528465552571N01213803EA0000000194
B1528525552568N01213970EA0000000196
B1528575552572N01214106EA0000000191
B1529025552576N01214241EA0000000187
B1529075552596N01214350EA0000000181
B1529135552644N01214457EA0000000159
B1529245552755N01214636EA0000000138
B1529305552823N01214695EA0000000131
B1529405552936N01214708EA0000000110
B1529455552975N01214651EA0000000095
B1529535552995N01214482EA0000000074
B1529595553008N01214355EA0000000058
B1530055553029N01214230EA0000000039
B1530145553056N01214031EA0000000018
B1530215553072N01213889EA0000000016
