AOGNOGN
HFDTE170825
HFFXA050
HFPLTPILOTINCHARGE:
HFGTYGLIDERTYPE:ASK-21
HFGIDGLIDERID:OY-XVC
HFDTM100GPSDATUM:WGS-1984
HFRFWFIRMWAREVERSION:
HFRHWHARDWAREVERSION:
HFFTYFRTYPE:OGN-FLIGHTBOOK
HFGPSGENERIC
HFPRSPRESSALTSENSOR:
HFCIDCOMPETITIONID:VC
B1227575553127N01213954EA0000000017
B1228015553129N01213881EA0000000017
B1228075553136N01213738EA0000000018
B1228145553150N01213547EA0000000033
B1228195553164N01213411EA0000000048
B1228245553173N01213282EA0000000074
B1228315553212N01213126EA0000000096
B1228375553271N01213045EA0000000120
B1228425553331N01213016EA0000000148
B1228485553411N01213040EA0000000178
B1228545553487N01213106EA0000000208
B1229005553563N01213172EA0000000231
B1229085553660N01213266EA0000000258
B1229145553732N01213328EA0000000284
B1229195553795N01213372EA0000000298
B1229255553874N01213440EA0000000325
B1229305553935N01213487EA0000000347
B1229365554010N01213554EA0000000361
B1229435554106N01213602EA0000000380
B1229495554175N01213694EA0000000394
B1230015554317N01213820EA0000000427
B1230075554386N01213806EA0000000435
B1230165554471N01213695EA0000000449
B1230225554517N01213587EA0000000459
B1230325554570N01213377EA0000000484
B1230375554593N01213262EA0000000494
B1230435554614N01213118EA0000000527
B1230495554628N01212961EA0000000551
B1230575554650N01212756EA0000000571
B1231035554651N01212599EA0000000580
B1231085554622N01212466EA0000000593
B1231145554550N01212314EA0000000601
B1231205554443N01212210EA0000000619
B1231255554350N01212142EA0000000635
B1231345554190N01212144EA0000000650
B1231405554134N01212303EA0000000627
B1231485554134N01212544EA0000000614
B1231575554131N01212798EA0000000605
B1232045554127N01212997EA0000000588
B1232095554123N01213132EA0000000582
B1232155554117N01213288EA0000000572
B1232205554104N01213418EA0000000581
B1232255554050N01213520EA0000000590
B1232315553955N01213555EA0000000586
B1232365553895N01213483EA0000000585
B1232415553891N01213385EA0000000592
B1232485553950N01213369EA0000000584
B1232535553967N01213481EA0000000596
B1232585553922N01213591EA0000000608
B1233055553811N01213619EA0000000602
B1233105553762N01213528EA0000000597
B1233155553776N01213430EA0000000601
B1233225553845N01213427EA0000000596
B1233275553871N01213531EA0000000598
B1233325553845N01213659EA0000000607
B1233395553741N01213734EA0000000616
B1233445553679N01213658EA0000000616
B1233495553680N01213558EA0000000621
B1233565553735N01213592EA0000000627
B1234015553721N01213708EA0000000628
B1234075553634N01213778EA0000000637
B1234135553553N01213700EA0000000640
B1234185553549N01213595EA0000000638
B1234235553597N01213568EA0000000633
B1234305553639N01213700EA0000000629
B1234355553600N01213824EA0000000635
B1234405553519N01213889EA0000000637
B1234475553409N01213832EA0000000644
B1234545553410N01213697EA0000000639
B1234595553454N01213735EA0000000630
B1235045553442N01213863EA0000000627
B1235095553372N01213954EA0000000632
B1235165553260N01213916EA0000000637
B1235215553250N01213809EA0000000628
B1235295553320N01213846EA0000000615
B1235345553295N01213981EA0000000616
B1235395553220N01214078EA0000000615
B1235445553132N01214074EA0000000631
B1235495553083N01213984EA0000000635
B1235555553102N01213884EA0000000623
B1236025553151N01213957EA0000000611
B1236075553124N01214090EA0000000608
B1236125553050N01214190EA0000000606
B1236175552959N01214184EA0000000614
B1236225552897N01214098EA0000000618
B1236295552922N01213991EA0000000614
B1236345552960N01214063EA0000000602
B1236395552916N01214188EA0000000597
B1236465552791N01214165EA0000000604
B1236525552764N01214036EA0000000603
B1236575552806N01213999EA0000000590
B1237025552841N01214084EA0000000585
B1237075552826N01214216EA0000000577
B1237125552763N01214330EA0000000573
B1237195552633N01214345EA0000000573
B1237245552573N01214256EA0000000568
B1237295552562N01214150EA0000000565
B1237365552615N01214136EA0000000552
B1237415552619N01214261EA0000000547
B1237465552557N01214373EA0000000541
B1237535552423N01214394EA0000000536
B1237585552362N01214310EA0000000530
B1238035552368N01214215EA0000000517
B1238105552421N01214263EA0000000508
B1238155552413N01214385EA0000000503
B1238205552367N01214506EA0000000498
B1238275552257N01214566EA0000000492
B1238325552195N01214488EA0000000486
B1238385552147N01214372EA0000000480
B1238445552137N01214255EA0000000471
B1238505552162N01214169EA0000000457
B1238575552202N01214071EA0000000439
B1239065552251N01213943EA0000000423
B1239155552298N01213823EA0000000405
B1239265552362N01213692EA0000000383
B1239365552436N01213581EA0000000366
B1239465552516N01213493EA0000000364
B1239525552560N01213534EA0000000367
B1239575552540N01213658EA0000000351
B1240025552457N01213698EA0000000339
B1240095552403N01213572EA0000000332
B1240165552418N01213455EA0000000334
B1240215552443N01213383EA0000000333
B1240265552484N01213400EA0000000343
B1240315552478N01213513EA0000000345
B1240365552401N01213579EA0000000333
B1240435552332N01213459EA0000000342
B1240485552359N01213396EA0000000345
B1240535552398N01213453EA0000000356
B1241005552346N01213614EA0000000354
B1241055552263N01213592EA0000000349
B1241135552248N01213418EA0000000357
B1241185552278N01213340EA0000000375
B1241235552318N01213383EA0000000380
B1241315552228N01213510EA0000000400
B1241365552215N01213414EA0000000408
B1241415552250N01213463EA0000000430
B1241465552208N01213575EA0000000432
B1241535552118N01213521EA0000000453
B1241585552145N01213461EA0000000460
B1242035552168N01213547EA0000000476
B1242095552092N01213652EA0000000487
B1242145552035N01213591EA0000000501
B1242205552063N01213529EA0000000511
B1242255552074N01213625EA0000000521
B1242315551985N01213695EA0000000521
B1242365551944N01213602EA0000000538
B1242425551976N01213580EA0000000555
B1242475551972N01213686EA0000000543
B1242525551891N01213742EA0000000555
B1242595551857N01213624EA0000000572
B1243055551898N01213648EA0000000572
B1243105551866N01213776EA0000000572
B1243165551765N01213777EA0000000592
B1243215551745N01213680EA0000000589
B1243265551786N01213685EA0000000593
B1243325551776N01213828EA0000000597
B1243385551678N01213891EA0000000605
B1243455551583N01213796EA0000000621
B1243505551592N01213719EA0000000618
B1243555551632N01213773EA0000000620
B1244005551605N01213901EA0000000629
B1244065551509N01213957EA0000000641
B1244125551471N01213867EA0000000633
B1244185551525N01213900EA0000000637
B1244265551448N01214083EA0000000642
B1244325551355N01214029EA0000000654
B1244375551351N01213947EA0000000658
B1244425551396N01213993EA0000000656
B1244475551372N01214127EA0000000664
B1244525551287N01214163EA0000000664
B1244575551233N01214083EA0000000667
B1245025551250N01214008EA0000000672
B1245075551291N01214063EA0000000677
B1245155551216N01214237EA0000000670
B1245215551124N01214192EA0000000673
B1245265551113N01214091EA0000000678
B1245335551166N01214094EA0000000681
B1245405551109N01214259EA0000000683
B1245455551023N01214254EA0000000689
B1245515550994N01214138EA0000000695
B1245565551035N01214114EA0000000693
B1246015551063N01214203EA0000000698
B1246065551041N01214339EA0000000701
B1246135550952N01214489EA0000000703
B1246225550878N01214384EA0000000695
B1246315550946N01214423EA0000000705
B1246365550932N01214552EA0000000699
B1246415550848N01214611EA0000000696
B1246465550792N01214536EA0000000697
B1246515550802N01214454EA0000000696
B1246565550830N01214387EA0000000694
B1247045550880N01214292EA0000000697
B1247095550911N01214238EA0000000694
B1247145550942N01214187EA0000000692
B1247225550995N01214115EA0000000689
B1247275551029N01214081EA0000000681
B1247335551073N01214034EA0000000674
B1247445551162N01213948EA0000000659
B1247525551235N01213889EA0000000646
B1247585551286N01213848EA0000000642
B1248045551333N01213809EA0000000643
B1248105551377N01213769EA0000000641
B1248175551425N01213730EA0000000642
B1248235551471N01213704EA0000000636
B1248295551523N01213675EA0000000629
B1248355551578N01213644EA0000000625
B1248445551659N01213582EA0000000627
B1248505551714N01213528EA0000000629
B1248555551764N01213484EA0000000629
B1249015551830N01213436EA0000000625
B1249075551896N01213392EA0000000634
B1249125551944N01213353EA0000000639
B1249175551957N01213275EA0000000645
B1249225551898N01213196EA0000000640
B1249295551805N01213302EA0000000649
B1249355551842N01213388EA0000000636
B1249405551872N01213313EA0000000649
B1249485551772N01213210EA0000000649
B1249535551702N01213284EA0000000651
B1249585551689N01213396EA0000000652
B1250125551808N01213530EA0000000646
B1250205551885N01213559EA0000000632
B1250265551935N01213556EA0000000628
B1250315551965N01213519EA0000000617
B1250365551989N01213458EA0000000600
B1250455552042N01213336EA0000000580
B1250535552090N01213237EA0000000573
B1251015552146N01213149EA0000000569
B1251075552191N01213077EA0000000564
B1251145552240N01212996EA0000000569
B1251205552280N01212936EA0000000573
B1251275552259N01212816EA0000000578
B1251335552158N01212822EA0000000574
B1251395552120N01212982EA0000000578
B1251445552166N01213011EA0000000578
B1251495552174N01212920EA0000000589
B1251545552106N01212855EA0000000588
B1252015552028N01212990EA0000000597
B1252065552064N01213042EA0000000596
B1252115552059N01212948EA0000000592
B1252185551941N01213000EA0000000603
B1252235551938N01213114EA0000000607
B1252285551982N01213111EA0000000598
B1252355551986N01212985EA0000000614
B1252425551881N01212941EA0000000608
B1252475551822N01213044EA0000000615
B1252525551842N01213133EA0000000610
B1252575551879N01213093EA0000000611
B1253115551723N01213021EA0000000625
B1253165551708N01213140EA0000000630
B1253225551753N01213171EA0000000630
B1253285551750N01213063EA0000000633
B1253335551669N01213038EA0000000635
B1253475551668N01213282EA0000000632
B1253525551715N01213271EA0000000628
B1253575551758N01213221EA0000000625
B1254025551796N01213162EA0000000638
B1254075551805N01213077EA0000000641
B1254135551730N01212992EA0000000639
B1254195551647N01213083EA0000000662
B1254285551671N01213245EA0000000656
B1254345551706N01213184EA0000000653
B1254435551605N01213064EA0000000659
B1254515551525N01213218EA0000000667
B1254565551551N01213287EA0000000672
B1255015551578N01213253EA0000000655
B1255085551523N01213114EA0000000652
B1255155551405N01213104EA0000000662
B1255225551351N01213261EA0000000672
B1255315551404N01213318EA0000000674
B1255375551385N01213207EA0000000668
B1255435551285N01213160EA0000000677
B1255505551201N01213285EA0000000689
B1256025551248N01213482EA0000000686
B1256085551304N01213494EA0000000673
B1256165551372N01213465EA0000000675
B1256235551421N01213428EA0000000671
B1256285551457N01213384EA0000000662
B1256355551507N01213310EA0000000661
B1256405551550N01213265EA0000000655
B1256465551605N01213223EA0000000648
B1256555551695N01213170EA0000000640
B1257005551746N01213146EA0000000643
B1257065551795N01213115EA0000000650
B1257135551848N01213067EA0000000644
B1257235551925N01212999EA0000000638
B1257285551962N01212960EA0000000639
B1257345552000N01212912EA0000000645
B1257415552021N01212823EA0000000642
B1257465552012N01212734EA0000000642
B1257515552025N01212657EA0000000646
B1257575552057N01212582EA0000000638
B1258035552092N01212511EA0000000630
B1258115552136N01212416EA0000000620
B1258175552183N01212363EA0000000600
B1258235552245N01212330EA0000000587
B1258285552304N01212314EA0000000579
B1258345552366N01212295EA0000000581
B1258395552414N01212275EA0000000575
B1258485552493N01212235EA0000000567
B1258545552543N01212201EA0000000553
B1258595552586N01212166EA0000000539
B1259055552639N01212120EA0000000530
B1259115552693N01212075EA0000000532
B1259175552747N01212028EA0000000530
B1259225552777N01211960EA0000000523
B1259275552743N01211852EA0000000519
B1259325552659N01211815EA0000000506
B1259395552570N01211963EA0000000486
B1259445552588N01212083EA0000000472
B1259525552661N01212171EA0000000460
B1259585552719N01212182EA0000000462
B1300055552777N01212150EA0000000469
B1300135552829N01212061EA0000000442
B1300185552869N01212014EA0000000445
B1300245552926N01212037EA0000000442
B1300305552979N01212063EA0000000441
B1300355553016N01212032EA0000000434
B1300425553007N01211890EA0000000451
B1300475552937N01211845EA0000000443
B1300525552896N01211960EA0000000432
B1300575552942N01212016EA0000000439
B1301045552980N01211943EA0000000453
B1301105552885N01211916EA0000000440
B1301165552868N01212057EA0000000466
B1301215552911N01212076EA0000000475
B1301265552915N01211992EA0000000466
B1301315552838N01211951EA0000000451
B1301395552776N01212129EA0000000462
B1301445552812N01212193EA0000000468
B1301495552845N01212159EA0000000457
B1301555552809N01212049EA0000000448
B1302035552683N01212069EA0000000426
B1302085552663N01212191EA0000000431
B1302145552709N01212213EA0000000435
B1302205552692N01212112EA0000000422
B1302255552610N01212102EA0000000404
B1302305552550N01212204EA0000000408
B1302355552563N01212303EA0000000404
B1302405552608N01212295EA0000000402
B1302465552651N01212235EA0000000391
B1302515552688N01212186EA0000000390
B1302565552733N01212162EA0000000389
B1303035552801N01212156EA0000000382
B1303085552838N01212121EA0000000373
B1303155552811N01211975EA0000000352
B1303245552682N01211817EA0000000344
B1303325552569N01211694EA0000000340
B1303415552444N01211554EA0000000325
B1303465552358N01211527EA0000000314
B1303535552262N01211680EA0000000308
B1303585552269N01211808EA0000000303
B1304035552313N01211898EA0000000304
B1304105552365N01211890EA0000000314
B1304195552248N01211821EA0000000314
B1304245552230N01211937EA0000000321
B1304295552265N01211938EA0000000321
B1304345552244N01211845EA0000000315
B1304405552142N01211857EA0000000301
B1304475552110N01212016EA0000000315
B1304525552148N01212039EA0000000310
B1305015552214N01211999EA0000000310
B1305065552253N01211976EA0000000304
B1305125552303N01211952EA0000000292
B1305185552357N01211929EA0000000285
B1305235552401N01211921EA0000000283
B1305285552444N01211959EA0000000275
B1305355552520N01212036EA0000000262
B1305455552633N01212129EA0000000265
B1305535552726N01212174EA0000000267
B1305585552784N01212188EA0000000277
B1306045552795N01212080EA0000000285
B1306095552711N01212040EA0000000287
B1306145552630N01212145EA0000000272
B1306195552638N01212290EA0000000294
B1306265552686N01212240EA0000000304
B1306315552641N01212128EA0000000307
B1306365552548N01212146EA0000000320
B1306445552540N01212336EA0000000328
B1306495552582N01212300EA0000000334
B1306545552558N01212189EA0000000345
B1307025552428N01212235EA0000000351
B1307075552418N01212374EA0000000360
B1307125552464N01212419EA0000000364
B1307175552484N01212332EA0000000372
B1307225552425N01212244EA0000000385
B1307275552335N01212277EA0000000391
B1307375552337N01212478EA0000000406
B1307435552361N01212387EA0000000412
B1307485552303N01212307EA0000000418
B1307535552220N01212356EA0000000425
B1307585552204N01212485EA0000000435
B1308035552244N01212520EA0000000437
B1308085552253N01212427EA0000000438
B1308135552185N01212361EA0000000444
B1308225552115N01212531EA0000000459
B1308275552156N01212548EA0000000462
B1308325552155N01212448EA0000000466
B1308375552084N01212389EA0000000473
B1308555552072N01212625EA0000000490
B1309005552093N01212556EA0000000496
B1309055552052N01212468EA0000000504
B1309205551953N01212696EA0000000515
B1309255551991N01212692EA0000000523
B1309305552000N01212614EA0000000529
B1309365551925N01212534EA0000000534
B1309525551894N01212744EA0000000553
B1309585551887N01212644EA0000000558
B1310035551804N01212617EA0000000563
B1310125551765N01212797EA0000000573
B1310175551797N01212762EA0000000576
B1310255551721N01212630EA0000000588
B1310325551627N01212741EA0000000595
B1310405551675N01212813EA0000000608
B1310455551666N01212714EA0000000612
B1310525551553N01212657EA0000000622
B1310575551478N01212748EA0000000628
B1311035551483N01212882EA0000000637
B1311085551522N01212849EA0000000638
B1311155551454N01212714EA0000000642
B1311325551378N01212998EA0000000657
B1311395551432N01212992EA0000000668
B1311455551403N01212877EA0000000665
B1311505551313N01212869EA0000000665
B1311575551230N01213028EA0000000674
B1312065551271N01213175EA0000000679
B1312165551365N01213212EA0000000677
B1312255551445N01213226EA0000000668
B1312325551508N01213224EA0000000672
B1312395551570N01213214EA0000000665
B1312455551622N01213207EA0000000656
B1312505551664N01213201EA0000000662
B1312575551693N01213118EA0000000654
B1313025551661N01213014EA0000000648
B1313105551522N01213018EA0000000631
B1313155551497N01213147EA0000000626
B1313225551545N01213163EA0000000621
B1313275551522N01213052EA0000000611
B1313355551383N01213003EA0000000606
B1313405551305N01213090EA0000000595
B1313475551294N01213263EA0000000580
B1313555551361N01213345EA0000000579
B1314055551453N01213301EA0000000567
B1314115551504N01213251EA0000000557
B1314215551591N01213179EA0000000540
B1314285551645N01213139EA0000000518
B1314345551697N01213129EA0000000497
B1314405551741N01213121EA0000000490
B1314465551779N01213089EA0000000481
B1314515551801N01213021EA0000000449
B1314575551813N01212895EA0000000448
B1315045551852N01212836EA0000000444
B1315095551883N01212804EA0000000430
B1315145551910N01212761EA0000000397
B1315205551964N01212704EA0000000369
B1315255552007N01212680EA0000000364
B1315305552044N01212659EA0000000348
B1315355552085N01212653EA0000000321
B1315415552136N01212655EA0000000319
B1315465552167N01212647EA0000000303
B1315555552225N01212591EA0000000288
B1316025552268N01212529EA0000000294
B1316085552303N01212474EA0000000298
B1316135552296N01212392EA0000000302
B1316205552194N01212427EA0000000285
B1316255552209N01212535EA0000000292
B1316315552235N01212464EA0000000297
B1316365552157N01212417EA0000000290
B1316415552095N01212533EA0000000293
B1316465552109N01212658EA0000000305
B1316535552160N01212664EA0000000293
B1316595552209N01212617EA0000000290
B1317045552251N01212585EA0000000286
B1317105552304N01212536EA0000000284
B1317165552357N01212480EA0000000291
B1317235552411N01212417EA0000000291
B1317305552457N01212347EA0000000284
B1317365552493N01212288EA0000000277
B1317445552544N01212211EA0000000262
B1317495552583N01212158EA0000000248
B1317545552629N01212119EA0000000241
B1318045552732N01212160EA0000000244
B1318125552763N01212329EA0000000256
B1318195552760N01212528EA0000000249
B1318255552754N01212707EA0000000245
B1318315552737N01212879EA0000000243
B1318375552717N01213065EA0000000225
B1318425552701N01213235EA0000000216
B1318485552684N01213436EA0000000211
B1318565552673N01213695EA0000000198
B1319025552653N01213884EA0000000198
B1319095552638N01214098EA0000000194
B1319155552644N01214283EA0000000184
B1319235552714N01214464EA0000000183
B1319285552765N01214566EA0000000185
B1319335552814N01214655EA0000000196
B1319405552896N01214716EA0000000199
B1319455552955N01214704EA0000000210
B1319565552978N01214444EA0000000180
B1320025553002N01214304EA0000000145
B1320075553029N01214190EA0000000108
B1320135553056N01214034EA0000000057
B1320195553075N01213874EA0000000022
B1320255553088N01213744EA0000000016
