AOGNOGN
HFDTE300625
HFFXA050
HFPLTPILOTINCHARGE:
HFGTYGLIDERTYPE:SF-25
HFGIDGLIDERID:OY-XXV
HFDTM100GPSDATUM:WGS-1984
HFRFWFIRMWAREVERSION:
HFRHWHARDWAREVERSION:
HFFTYFRTYPE:OGN-FLIGHTBOOK
HFGPSGENERIC
HFPRSPRESSALTSENSOR:
HFCIDCOMPETITIONID:XV
B1029425537889N00845541EA0000000038
B1029445537893N00845509EA0000000036
B1029505537907N00845392EA0000000044
B1029585537924N00845223EA0000000067
B1030055537941N00845069EA0000000086
B1030175537960N00844802EA0000000123
B1030235537966N00844668EA0000000146
B1030325537971N00844475EA0000000191
B1030405537966N00844300EA0000000201
B1030485537901N00844155EA0000000218
B1030575537761N00844201EA0000000238
B1031025537683N00844279EA0000000240
B1031085537615N00844427EA0000000249
B1031145537578N00844606EA0000000251
B1031265537522N00844966EA0000000258
B1031315537502N00845118EA0000000260
B1031385537471N00845320EA0000000251
B1031435537446N00845464EA0000000239
B1032045537337N00846070EA0000000204
B1032135537350N00846340EA0000000192
B1032435537735N00846719EA0000000147
B1032485537786N00846658EA0000000145
B1032555537815N00846504EA0000000135
B1033025537834N00846329EA0000000114
B1033115537856N00846098EA0000000082
B1033185537873N00845925EA0000000060
B1033275537892N00845705EA0000000035
B1033345537906N00845561EA0000000034
B1033395537913N00845476EA0000000034
B1033485537924N00845288EA0000000048
B1033535537935N00845168EA0000000058
B1033585537945N00845044EA0000000078
B1034045537954N00844901EA0000000106
B1034125537960N00844714EA0000000133
B1034175537961N00844597EA0000000149
B1034245537959N00844437EA0000000172
B1034415537941N00844062EA0000000233
B1034485537871N00843944EA0000000240
B1034565537750N00843993EA0000000260
B1035035537671N00844151EA0000000262
B1035105537626N00844348EA0000000265
B1035155537601N00844488EA0000000271
B1035235537562N00844712EA0000000274
B1035315537521N00844937EA0000000273
B1035385537483N00845146EA0000000263
B1035435537458N00845300EA0000000264
B1035515537420N00845544EA0000000265
B1036545537754N00846652EA0000000147
B1037005537807N00846559EA0000000131
B1037085537836N00846384EA0000000113
B1037185537862N00846162EA0000000090
B1037265537876N00845967EA0000000068
B1037355537890N00845734EA0000000042
B1037425537903N00845572EA0000000034
B1037505537915N00845443EA0000000032
