AOGNOGN
HFDTE300625
HFFXA050
HFPLTPILOTINCHARGE:
HFGTYGLIDERTYPE:ASK-21
HFGIDGLIDERID:OY-XDB
HFDTM100GPSDATUM:WGS-1984
HFRFWFIRMWAREVERSION:
HFRHWHARDWAREVERSION:
HFFTYFRTYPE:OGN-FLIGHTBOOK
HFGPSGENERIC
HFPRSPRESSALTSENSOR:
HFCIDCOMPETITIONID:V1
B1421345537922N00845627EA0000000053
B1421365537932N00845582EA0000000092
B1421415537963N00845480EA0000000200
B1421505537998N00845276EA0000000327
B1422115538054N00844770EA0000000372
B1422165538034N00844646EA0000000362
B1422225537955N00844565EA0000000367
B1422275537871N00844596EA0000000360
B1422345537769N00844728EA0000000360
B1422395537698N00844822EA0000000352
B1422455537605N00844913EA0000000355
B1422565537509N00844705EA0000000345
B1423025537550N00844580EA0000000334
B1423075537628N00844594EA0000000327
B1423145537668N00844798EA0000000324
B1423215537634N00844998EA0000000332
B1423315537507N00845195EA0000000321
B1423485537244N00845452EA0000000322
B1423585537157N00845325EA0000000339
B1424035537198N00845239EA0000000331
B1424095537280N00845277EA0000000329
B1424145537310N00845394EA0000000335
B1424205537284N00845549EA0000000320
B1424275537182N00845624EA0000000340
B1424335537110N00845571EA0000000343
B1424455537222N00845501EA0000000344
B1424515537243N00845655EA0000000353
B1424565537191N00845756EA0000000351
B1425015537114N00845748EA0000000362
B1425075537080N00845634EA0000000362
B1425185537206N00845561EA0000000376
B1425235537247N00845669EA0000000376
B1425405537058N00845804EA0000000376
B1425525537165N00845653EA0000000386
B1425575537219N00845747EA0000000389
B1426045537185N00845930EA0000000382
B1426125537076N00845890EA0000000386
B1426175537077N00845775EA0000000382
B1426245537166N00845718EA0000000384
B1426295537225N00845795EA0000000390
B1426465537081N00845906EA0000000384
B1426515537097N00845793EA0000000388
B1426575537171N00845750EA0000000389
B1427195537045N00845999EA0000000388
B1427255537053N00845862EA0000000393
B1427385537203N00845856EA0000000402
B1427435537228N00845981EA0000000408
B1427585537087N00846038EA0000000406
B1430035537271N00845656EA0000000313
B1430105537174N00845627EA0000000307
B1430165537141N00845789EA0000000296
B1430225537217N00845855EA0000000306
B1430275537263N00845775EA0000000313
B1430335537230N00845634EA0000000329
B1430415537116N00845647EA0000000324
B1430465537101N00845783EA0000000315
B1430525537171N00845842EA0000000307
B1430575537210N00845751EA0000000310
B1431035537209N00845615EA0000000325
B1431085537183N00845510EA0000000320
B1431175537071N00845491EA0000000305
B1431225537059N00845631EA0000000284
B1431285537130N00845692EA0000000277
B1431345537159N00845566EA0000000266
B1431455537279N00845519EA0000000252
B1431505537333N00845627EA0000000262
B1431555537375N00845738EA0000000274
B1432005537343N00845859EA0000000266
B1432055537269N00845830EA0000000260
B1432105537278N00845718EA0000000276
B1432155537334N00845693EA0000000277
B1432205537359N00845806EA0000000274
B1432255537298N00845892EA0000000272
B1432315537245N00845786EA0000000265
B1432405537345N00845711EA0000000285
B1432485537347N00845894EA0000000287
B1432535537274N00845883EA0000000277
B1432585537264N00845761EA0000000284
B1433085537365N00845690EA0000000296
B1433135537401N00845788EA0000000292
B1433185537368N00845907EA0000000284
B1433235537294N00845890EA0000000278
B1433285537296N00845774EA0000000286
B1433395537414N00845788EA0000000284
B1433455537401N00845947EA0000000274
B1433535537284N00845925EA0000000255
B1433585537274N00845794EA0000000257
B1434165537429N00845831EA0000000267
B1434215537347N00845867EA0000000253
B1434265537331N00845747EA0000000251
B1434375537463N00845685EA0000000263
B1434435537500N00845826EA0000000268
B1434485537444N00845921EA0000000251
B1434535537381N00845846EA0000000240
B1435015537459N00845758EA0000000246
B1435065537522N00845786EA0000000240
B1435115537554N00845898EA0000000229
B1435235537470N00846235EA0000000202
B1435285537486N00846379EA0000000192
B1435355537542N00846549EA0000000180
B1435415537616N00846640EA0000000168
B1435495537732N00846707EA0000000157
B1436125537842N00846138EA0000000098
B1436185537857N00845977EA0000000075
B1436235537865N00845849EA0000000056
B1436335537880N00845612EA0000000030
