AOGNOGN
HFDTE300625
HFFXA050
HFPLTPILOTINCHARGE:
HFGTYGLIDERTYPE:ASK-21
HFGIDGLIDERID:OY-XDB
HFDTM100GPSDATUM:WGS-1984
HFRFWFIRMWAREVERSION:
HFRHWHARDWAREVERSION:
HFFTYFRTYPE:OGN-FLIGHTBOOK
HFGPSGENERIC
HFPRSPRESSALTSENSOR:
HFCIDCOMPETITIONID:V1
B1511305537917N00845641EA0000000037
B1511315537921N00845614EA0000000049
B1511365537936N00845492EA0000000148
B1511415537943N00845376EA0000000245
B1511575537971N00844990EA0000000351
B1512045537964N00844823EA0000000332
B1512095537914N00844726EA0000000323
B1512145537830N00844722EA0000000319
B1512215537738N00844866EA0000000313
B1512285537644N00844998EA0000000302
B1512405537486N00845242EA0000000289
B1512495537380N00845422EA0000000284
B1513035537200N00845692EA0000000273
B1513145537047N00845615EA0000000265
B1513325537214N00845262EA0000000235
B1513385537292N00845155EA0000000231
B1513435537364N00845106EA0000000246
B1513505537459N00845071EA0000000249
B1514035537622N00845159EA0000000228
B1514085537638N00845297EA0000000216
B1514135537607N00845446EA0000000211
B1514205537547N00845635EA0000000205
B1514265537497N00845802EA0000000189
B1514315537474N00845960EA0000000182
B1514365537494N00846108EA0000000176
B1514415537525N00846242EA0000000173
B1514465537573N00846355EA0000000166
B1514535537676N00846446EA0000000171
B1514585537741N00846510EA0000000173
B1515045537824N00846486EA0000000172
B1515165537843N00846162EA0000000138
B1515295537862N00845800EA0000000053
B1515365537878N00845608EA0000000028
B1515445537892N00845436EA0000000025
