AOGNOGN
HFDTE010725
HFFXA050
HFPLTPILOTINCHARGE:
HFGTYGLIDERTYPE:HK36 Super Dimona
HFGIDGLIDERID:OY-EXN
HFDTM100GPSDATUM:WGS-1984
HFRFWFIRMWAREVERSION:
HFRHWHARDWAREVERSION:
HFFTYFRTYPE:OGN-FLIGHTBOOK
HFGPSGENERIC
HFPRSPRESSALTSENSOR:
HFCIDCOMPETITIONID:EXN
B1449335605856N00923978EA0000000318
B1449385605848N00923829EA0000000335
B1449435605842N00923661EA0000000344
B1449565605841N00923175EA0000000355
B1450025605848N00922941EA0000000369
B1450085605859N00922704EA0000000357
B1450135605865N00922497EA0000000355
B1450185605869N00922286EA0000000357
B1450245605877N00922044EA0000000357
B1450315605867N00921781EA0000000358
B1450375605833N00921571EA0000000354
B1450455605792N00921289EA0000000354
B1450525605757N00921040EA0000000362
B1450575605729N00920858EA0000000353
B1451065605680N00920519EA0000000350
B1451125605645N00920292EA0000000367
B1451175605622N00920106EA0000000375
B1451235605596N00919877EA0000000380
B1451285605574N00919686EA0000000383
B1451345605548N00919462EA0000000375
B1451415605517N00919203EA0000000374
B1451475605489N00918986EA0000000380
B1451585605440N00918557EA0000000356
B1452035605421N00918356EA0000000355
B1452135605375N00917962EA0000000367
B1452235605330N00917586EA0000000366
B1452295605304N00917358EA0000000359
B1452345605277N00917168EA0000000359
B1452395605251N00916977EA0000000367
B1452445605224N00916787EA0000000376
B1452505605191N00916555EA0000000374
B1453005605136N00916171EA0000000375
B1453055605107N00915980EA0000000382
B1453125605065N00915708EA0000000373
B1453175605030N00915513EA0000000370
B1453225604997N00915319EA0000000369
B1453325604927N00914935EA0000000368
B1453375604894N00914742EA0000000362
B1453435604851N00914507EA0000000362
B1453485604809N00914308EA0000000365
B1453535604767N00914115EA0000000370
B1453585604726N00913917EA0000000379
B1454055604673N00913641EA0000000378
B1454105604637N00913436EA0000000377
B1454155604600N00913233EA0000000374
B1454205604563N00913026EA0000000367
B1454255604525N00912829EA0000000366
B1454305604486N00912622EA0000000379
B1454355604445N00912412EA0000000379
B1454415604393N00912169EA0000000382
B1454465604353N00911967EA0000000383
B1454515604308N00911772EA0000000380
B1454565604265N00911575EA0000000384
B1455015604223N00911380EA0000000390
B1455075604168N00911148EA0000000398
B1455145604104N00910874EA0000000402
B1455205604049N00910645EA0000000403
B1455265603997N00910418EA0000000397
B1455325603938N00910194EA0000000398
B1455375603886N00910003EA0000000394
B1455425603831N00909815EA0000000397
B1455485603763N00909586EA0000000397
B1455535603709N00909397EA0000000397
B1455585603657N00909211EA0000000397
B1456065603581N00908904EA0000000394
B1456125603516N00908684EA0000000384
B1456195603440N00908432EA0000000379
B1456255603379N00908212EA0000000368
B1456315603316N00907998EA0000000361
B1456375603255N00907781EA0000000355
B1456425603198N00907606EA0000000352
B1456475603144N00907432EA0000000351
B1456545603065N00907191EA0000000344
B1456595603007N00907014EA0000000339
B1457065602929N00906760EA0000000342
B1457125602862N00906543EA0000000354
B1457175602809N00906364EA0000000359
B1457225602758N00906185EA0000000364
B1457285602694N00905969EA0000000366
B1457335602639N00905788EA0000000367
B1457385602584N00905604EA0000000366
B1457475602483N00905283EA0000000362
B1457525602428N00905111EA0000000363
B1457575602374N00904942EA0000000355
B1458035602310N00904735EA0000000351
B1458105602236N00904488EA0000000347
B1458195602140N00904164EA0000000347
B1458285602040N00903844EA0000000353
B1458355601959N00903585EA0000000353
B1458405601895N00903399EA0000000354
B1458455601834N00903225EA0000000358
B1458525601756N00902984EA0000000346
B1458575601696N00902813EA0000000340
B1459025601638N00902637EA0000000343
B1459075601589N00902451EA0000000349
B1459145601519N00902208EA0000000344
B1459205601451N00901997EA0000000344
B1459265601384N00901785EA0000000344
B1459335601316N00901531EA0000000351
B1459405601265N00901273EA0000000359
B1459455601231N00901087EA0000000356
B1459505601204N00900901EA0000000358
B1459575601183N00900630EA0000000363
B1500025601184N00900429EA0000000369
B1500075601194N00900226EA0000000369
B1500135601207N00859975EA0000000365
B1500185601212N00859764EA0000000368
B1500255601223N00859466EA0000000369
B1500315601235N00859211EA0000000373
B1500365601241N00858998EA0000000373
B1500415601248N00858784EA0000000373
B1500465601254N00858567EA0000000383
B1500525601267N00858307EA0000000392
B1500575601280N00858090EA0000000391
B1501035601291N00857830EA0000000401
B1501085601295N00857616EA0000000406
B1501135601300N00857403EA0000000415
B1501185601303N00857188EA0000000413
B1501325601305N00856598EA0000000397
B1501385601306N00856349EA0000000394
B1501445601304N00856109EA0000000396
B1501515601301N00855829EA0000000406
B1501565601299N00855634EA0000000416
B1502025601292N00855391EA0000000423
B1502075601282N00855194EA0000000425
B1502125601276N00855000EA0000000432
B1502175601277N00854811EA0000000430
B1502235601271N00854587EA0000000432
B1502315601269N00854286EA0000000437
B1502365601262N00854087EA0000000448
B1502435601254N00853800EA0000000457
B1502505601252N00853531EA0000000464
B1502555601247N00853340EA0000000455
B1503015601236N00853106EA0000000454
B1503065601223N00852912EA0000000454
B1503125601206N00852681EA0000000456
B1503175601189N00852495EA0000000455
B1503245601161N00852228EA0000000457
B1503295601147N00852037EA0000000449
B1503355601129N00851809EA0000000448
B1503405601114N00851618EA0000000443
B1503465601093N00851387EA0000000449
B1503515601077N00851200EA0000000450
B1503565601061N00851010EA0000000453
B1504025601040N00850773EA0000000455
B1504075601021N00850576EA0000000457
B1504125601003N00850370EA0000000460
B1504185600980N00850130EA0000000456
B1504245600957N00849886EA0000000452
B1504295600939N00849682EA0000000450
B1504355600917N00849440EA0000000452
B1504405600901N00849247EA0000000449
B1504465600873N00849002EA0000000449
B1504545600839N00848676EA0000000451
B1504595600816N00848463EA0000000453
B1505065600790N00848165EA0000000461
B1505135600768N00847873EA0000000459
B1505205600752N00847573EA0000000447
B1505255600740N00847354EA0000000448
B1505315600728N00847095EA0000000450
B1505375600729N00846853EA0000000444
B1505425600730N00846653EA0000000440
B1505495600737N00846357EA0000000436
B1505555600747N00846096EA0000000443
B1506015600758N00845838EA0000000448
B1506065600769N00845624EA0000000445
B1506125600792N00845364EA0000000439
B1506185600819N00845104EA0000000440
B1506255600865N00844814EA0000000439
B1506315600921N00844568EA0000000433
B1506365600978N00844361EA0000000426
B1506415601041N00844157EA0000000424
B1506475601118N00843917EA0000000422
B1506555601225N00843599EA0000000423
B1507015601307N00843360EA0000000421
B1507105601444N00843021EA0000000416
B1507155601521N00842856EA0000000413
B1507205601596N00842698EA0000000403
B1507255601670N00842543EA0000000393
B1507315601759N00842357EA0000000374
B1507375601842N00842173EA0000000356
B1507425601902N00842012EA0000000344
B1507485601965N00841812EA0000000328
B1507535602008N00841642EA0000000314
B1507595602029N00841431EA0000000295
B1508045602033N00841261EA0000000289
B1508165602029N00840874EA0000000256
B1508235601988N00840674EA0000000229
B1508285601927N00840578EA0000000219
B1508355601836N00840460EA0000000206
B1508435601714N00840387EA0000000171
B1508485601628N00840431EA0000000147
B1508535601573N00840580EA0000000136
B1536585601074N00842082EA0000000154
B1537085600997N00842366EA0000000193
B1537165600939N00842604EA0000000224
B1537225600896N00842791EA0000000247
B1537275600860N00842955EA0000000265
B1537335600818N00843166EA0000000283
B1537385600786N00843339EA0000000311
B1537455600749N00843559EA0000000349
B1537505600722N00843715EA0000000366
B1537565600692N00843908EA0000000385
B1538015600669N00844071EA0000000404
B1538085600637N00844306EA0000000420
B1538145600607N00844529EA0000000407
B1538205600571N00844765EA0000000410
B1538265600535N00845004EA0000000411
B1538315600503N00845207EA0000000416
B1538365600467N00845405EA0000000417
B1538415600432N00845606EA0000000415
B1538465600400N00845809EA0000000418
B1538515600367N00846006EA0000000416
B1538585600323N00846280EA0000000421
B1539075600263N00846631EA0000000419
B1539145600212N00846898EA0000000419
B1539195600177N00847085EA0000000436
B1539255600135N00847311EA0000000427
B1539305600098N00847501EA0000000421
B1539355600065N00847698EA0000000426
B1539415600025N00847937EA0000000438
B1539465559988N00848134EA0000000439
B1539515559955N00848332EA0000000432
B1539565559921N00848540EA0000000432
B1540025559879N00848788EA0000000442
B1540075559844N00848992EA0000000441
B1540135559802N00849242EA0000000448
B1540185559766N00849446EA0000000457
B1540255559723N00849734EA0000000458
B1540315559682N00849983EA0000000445
B1540375559645N00850235EA0000000435
B1540425559611N00850440EA0000000429
B1540485559571N00850690EA0000000427
B1540545559534N00850944EA0000000437
B1540595559504N00851156EA0000000444
B1541045559474N00851360EA0000000447
B1541115559431N00851645EA0000000440
B1541165559398N00851851EA0000000438
B1541215559368N00852063EA0000000438
B1541265559338N00852276EA0000000434
B1541315559306N00852489EA0000000433
B1541365559274N00852702EA0000000440
B1541415559239N00852916EA0000000445
B1541465559204N00853125EA0000000456
B1541535559155N00853412EA0000000459
B1541585559122N00853618EA0000000464
B1542035559091N00853820EA0000000467
B1542115559041N00854136EA0000000465
B1542165559012N00854333EA0000000461
B1542215558982N00854527EA0000000458
B1542265558951N00854720EA0000000449
B1542325558914N00854953EA0000000447
B1542375558883N00855150EA0000000456
B1542425558851N00855346EA0000000461
B1542475558819N00855541EA0000000465
B1542535558786N00855774EA0000000460
B1542585558760N00855972EA0000000462
B1543045558729N00856209EA0000000472
B1543095558702N00856407EA0000000481
B1543145558675N00856609EA0000000477
B1543195558650N00856812EA0000000476
B1543245558624N00857014EA0000000483
B1543305558599N00857257EA0000000483
B1543365558577N00857500EA0000000486
B1543415558553N00857701EA0000000491
B1543465558529N00857908EA0000000496
B1543515558509N00858116EA0000000496
B1543565558486N00858321EA0000000502
B1544015558461N00858524EA0000000507
B1544065558440N00858726EA0000000502
B1544115558416N00858926EA0000000490
B1544185558377N00859209EA0000000485
B1544235558346N00859413EA0000000480
B1544285558310N00859619EA0000000486
B1544345558270N00859864EA0000000477
B1544395558241N00900072EA0000000483
B1544445558212N00900280EA0000000481
B1544495558181N00900487EA0000000479
B1544545558151N00900695EA0000000484
B1544595558121N00900898EA0000000477
B1545045558097N00901102EA0000000480
B1545095558070N00901309EA0000000483
B1545145558042N00901518EA0000000485
B1545195558015N00901725EA0000000484
B1545245557994N00901937EA0000000482
B1545295557968N00902146EA0000000482
B1545345557946N00902357EA0000000477
B1545395557923N00902576EA0000000476
B1545455557899N00902833EA0000000472
B1545505557879N00903049EA0000000467
B1545565557857N00903301EA0000000457
B1546015557835N00903515EA0000000453
B1546075557806N00903773EA0000000459
B1546125557783N00903988EA0000000456
B1546185557753N00904246EA0000000454
B1546235557729N00904456EA0000000448
B1546295557703N00904713EA0000000441
B1546345557681N00904925EA0000000440
B1546425557646N00905256EA0000000425
B1546475557624N00905475EA0000000434
B1546535557598N00905730EA0000000434
B1546585557574N00905942EA0000000436
B1547035557548N00906159EA0000000439
B1547105557512N00906455EA0000000443
B1547155557482N00906675EA0000000441
B1547205557456N00906893EA0000000436
B1547265557423N00907156EA0000000429
B1547315557397N00907376EA0000000435
B1547365557370N00907587EA0000000449
B1547425557333N00907834EA0000000451
B1547485557302N00908078EA0000000448
B1547535557278N00908286EA0000000447
B1547595557244N00908532EA0000000447
B1548045557218N00908745EA0000000441
B1548115557181N00909044EA0000000449
B1548165557153N00909260EA0000000454
B1548215557122N00909467EA0000000464
B1548265557094N00909673EA0000000459
B1548315557063N00909876EA0000000445
B1548365557035N00910082EA0000000444
B1548425557005N00910323EA0000000438
B1548475556975N00910521EA0000000439
B1548555556918N00910840EA0000000430
B1549015556875N00911083EA0000000424
B1549065556840N00911288EA0000000421
B1549125556803N00911532EA0000000426
B1549185556763N00911777EA0000000433
B1549275556705N00912144EA0000000437
B1549325556675N00912345EA0000000444
B1549385556642N00912589EA0000000452
B1549445556602N00912830EA0000000449
B1549515556561N00913112EA0000000450
B1550015556500N00913516EA0000000436
B1550075556465N00913761EA0000000427
B1550125556434N00913967EA0000000424
B1550205556389N00914302EA0000000430
B1550265556354N00914552EA0000000425
B1550315556322N00914757EA0000000433
B1550395556268N00915080EA0000000440
B1550445556231N00915279EA0000000435
B1550515556184N00915558EA0000000423
B1550585556142N00915837EA0000000423
B1551045556102N00916074EA0000000428
B1551095556065N00916267EA0000000428
B1551165556012N00916544EA0000000431
B1551215555972N00916744EA0000000428
B1551265555938N00916945EA0000000423
B1551315555908N00917153EA0000000422
B1551375555875N00917399EA0000000418
B1551465555825N00917776EA0000000416
B1551555555779N00918151EA0000000414
B1552035555746N00918474EA0000000399
B1552115555705N00918792EA0000000404
B1552165555677N00918989EA0000000403
B1552215555657N00919182EA0000000395
B1552265555627N00919376EA0000000395
B1552325555593N00919604EA0000000394
B1552385555548N00919831EA0000000396
B1552435555516N00920019EA0000000396
B1552505555464N00920278EA0000000394
B1552575555416N00920544EA0000000393
B1553055555354N00920850EA0000000401
B1553125555303N00921113EA0000000399
B1553185555265N00921340EA0000000411
B1553235555235N00921529EA0000000420
B1553285555199N00921711EA0000000420
B1553355555150N00921971EA0000000415
B1553415555111N00922184EA0000000400
B1553485555067N00922454EA0000000398
B1553535555047N00922650EA0000000401
B1553595555067N00922902EA0000000382
B1554045555099N00923111EA0000000378
B1554095555132N00923317EA0000000387
B1554145555165N00923516EA0000000390
B1554195555191N00923714EA0000000390
B1554245555192N00923911EA0000000387
B1554295555167N00924104EA0000000393
B1554355555130N00924331EA0000000413
B1554445555072N00924663EA0000000432
B1554505555032N00924885EA0000000440
B1554555554999N00925063EA0000000449
B1555015554960N00925273EA0000000446
B1555065554933N00925442EA0000000442
B1555125554910N00925639EA0000000434
B1555185554895N00925833EA0000000428
B1555235554887N00925991EA0000000414
B1555285554879N00926145EA0000000399
B1555345554866N00926333EA0000000383
B1555395554850N00926492EA0000000376
B1555465554817N00926720EA0000000378
B1555525554785N00926918EA0000000365
B1555585554769N00927129EA0000000364
B1556035554828N00927276EA0000000349
B1556085554940N00927281EA0000000331
B1556135555019N00927146EA0000000325
B1556185555047N00926977EA0000000309
B1556245555054N00926767EA0000000281
B1556295555026N00926606EA0000000262
B1556365554978N00926400EA0000000257
B1556415554947N00926244EA0000000247
B1556485554898N00926026EA0000000236
B1556535554844N00925900EA0000000223
B1556585554766N00925857EA0000000204
B1557045554671N00925854EA0000000199
B1557095554610N00925925EA0000000180
B1557165554580N00926129EA0000000143
B1557225554563N00926294EA0000000119
B1557285554541N00926459EA0000000095
B1557345554521N00926608EA0000000096
B1557405554509N00926710EA0000000093
