AOGNOGN
HFDTE210625
HFFXA050
HFPLTPILOTINCHARGE:
HFGTYGLIDERTYPE:ASK-23
HFGIDGLIDERID:OY-CXL
HFDTM100GPSDATUM:WGS-1984
HFRFWFIRMWAREVERSION:
HFRHWHARDWAREVERSION:
HFFTYFRTYPE:OGN-FLIGHTBOOK
HFGPSGENERIC
HFPRSPRESSALTSENSOR:
HFCIDCOMPETITIONID:CL
B1110325553050N01213995EA0000000023
B1110325553050N01213995EA0000000023
B1110375553060N01213913EA0000000090
B1110425553070N01213833EA0000000164
B1110495553086N01213714EA0000000267
B1110545553096N01213620EA0000000330
B1110595553105N01213523EA0000000387
B1111065553119N01213382EA0000000442
B1111115553130N01213284EA0000000465
B1111165553137N01213212EA0000000461
B1111235553093N01213108EA0000000455
B1111295553035N01213047EA0000000453
B1111435552919N01212909EA0000000447
B1111505552871N01212836EA0000000442
B1111575552820N01212758EA0000000431
B1112085552719N01212638EA0000000415
B1112165552642N01212556EA0000000403
B1112255552566N01212442EA0000000386
B1112325552518N01212343EA0000000377
B1112385552477N01212254EA0000000367
B1112445552437N01212164EA0000000362
B1112515552389N01212062EA0000000350
B1112585552352N01211947EA0000000346
B1113085552357N01211783EA0000000338
B1113135552365N01211698EA0000000332
B1113185552323N01211633EA0000000325
B1113235552257N01211691EA0000000321
B1113315552215N01211939EA0000000306
B1113405552180N01212234EA0000000303
B1113475552148N01212462EA0000000303
B1113525552126N01212606EA0000000314
B1113575552126N01212755EA0000000298
B1114025552088N01212878EA0000000297
B1114075552054N01212841EA0000000287
B1114135552104N01212775EA0000000278
B1114185552138N01212702EA0000000279
B1114245552176N01212613EA0000000275
B1114305552241N01212574EA0000000277
B1114365552317N01212564EA0000000263
B1114445552413N01212532EA0000000258
B1114495552395N01212468EA0000000250
B1114545552350N01212560EA0000000246
B1114595552396N01212668EA0000000240
B1115055552472N01212667EA0000000230
B1115125552567N01212678EA0000000225
B1115175552638N01212736EA0000000222
B1115235552686N01212890EA0000000224
B1115285552694N01213041EA0000000213
B1115385552660N01213358EA0000000196
B1115455552628N01213579EA0000000179
B1115525552596N01213809EA0000000168
B1115575552574N01213971EA0000000160
B1116025552557N01214136EA0000000155
B1116095552569N01214373EA0000000146
B1116145552605N01214518EA0000000141
B1116205552684N01214621EA0000000129
B1116295552816N01214703EA0000000122
B1116385552951N01214740EA0000000119
B1116435553010N01214696EA0000000113
B1116495553030N01214572EA0000000105
B1116545553043N01214471EA0000000099
B1117005553054N01214366EA0000000078
B1117085553063N01214236EA0000000051
B1117155553075N01214122EA0000000027
B1117235553086N01213999EA0000000013
