AOGNOGN
HFDTE210625
HFFXA050
HFPLTPILOTINCHARGE:
HFGTYGLIDERTYPE:ASK-21
HFGIDGLIDERID:OY-XVC
HFDTM100GPSDATUM:WGS-1984
HFRFWFIRMWAREVERSION:
HFRHWHARDWAREVERSION:
HFFTYFRTYPE:OGN-FLIGHTBOOK
HFGPSGENERIC
HFPRSPRESSALTSENSOR:
HFCIDCOMPETITIONID:VC
B1002095553049N01213995EA0000000028
B1002105553051N01213972EA0000000039
B1002155553062N01213872EA0000000109
B1002205553073N01213771EA0000000175
B1002265553093N01213645EA0000000268
B1002315553112N01213538EA0000000339
B1002375553132N01213394EA0000000405
B1002435553148N01213236EA0000000442
B1002505553161N01213093EA0000000456
B1002555553169N01213015EA0000000455
B1003015553173N01212917EA0000000448
B1003065553163N01212833EA0000000442
B1003125553108N01212770EA0000000440
B1003175553043N01212776EA0000000439
B1003235552960N01212835EA0000000436
B1003315552871N01213025EA0000000433
B1003365552815N01213140EA0000000427
B1003415552753N01213135EA0000000419
B1003475552724N01213051EA0000000414
B1003565552687N01212915EA0000000409
B1004015552633N01212894EA0000000407
B1004085552553N01213051EA0000000402
B1004165552484N01213296EA0000000392
B1004215552444N01213453EA0000000390
B1004275552474N01213651EA0000000390
B1004345552584N01213703EA0000000380
B1004425552629N01213574EA0000000374
B1004475552637N01213486EA0000000375
B1004555552643N01213352EA0000000367
B1005005552645N01213268EA0000000361
B1005055552645N01213186EA0000000354
B1005115552601N01213124EA0000000353
B1005165552540N01213118EA0000000347
B1005275552407N01213080EA0000000335
B1005335552340N01213043EA0000000332
B1005385552291N01212997EA0000000326
B1005435552296N01212912EA0000000329
B1005505552384N01212887EA0000000323
B1005555552440N01213003EA0000000318
B1006005552435N01213158EA0000000314
B1006075552354N01213235EA0000000306
B1006125552318N01213168EA0000000308
B1006195552329N01213046EA0000000301
B1006255552354N01212942EA0000000294
B1006325552385N01212822EA0000000284
B1006405552426N01212672EA0000000273
B1006465552469N01212555EA0000000275
B1006535552544N01212463EA0000000272
B1006585552620N01212479EA0000000265
B1007035552691N01212586EA0000000256
B1007085552722N01212754EA0000000250
B1007145552716N01212973EA0000000237
B1007195552708N01213160EA0000000227
B1007255552698N01213387EA0000000223
B1007325552678N01213645EA0000000217
B1007375552649N01213818EA0000000217
B1007425552613N01213974EA0000000216
B1007485552572N01214161EA0000000205
B1007535552547N01214330EA0000000205
B1007585552544N01214509EA0000000204
B1008075552616N01214802EA0000000207
B1008135552698N01214945EA0000000205
B1008225552838N01215106EA0000000179
B1008275552922N01215131EA0000000168
B1008325552973N01215056EA0000000163
B1008395552998N01214918EA0000000145
B1008445553009N01214811EA0000000136
B1008495553022N01214705EA0000000121
B1008565553040N01214563EA0000000091
B1009015553050N01214465EA0000000074
B1009085553064N01214323EA0000000046
B1009145553073N01214198EA0000000032
B1009195553080N01214096EA0000000020
B1009275553090N01213948EA0000000017
