AOGNOGN
HFDTE210625
HFFXA050
HFPLTPILOTINCHARGE:
HFGTYGLIDERTYPE:ASK-21
HFGIDGLIDERID:OY-XVC
HFDTM100GPSDATUM:WGS-1984
HFRFWFIRMWAREVERSION:
HFRHWHARDWAREVERSION:
HFFTYFRTYPE:OGN-FLIGHTBOOK
HFGPSGENERIC
HFPRSPRESSALTSENSOR:
HFCIDCOMPETITIONID:VC
B1311435553055N01213961EA0000000022
B1311505553070N01213843EA0000000087
B1311505553070N01213843EA0000000087
B1312015553108N01213667EA0000000194
B1312105553131N01213507EA0000000290
B1312165553150N01213391EA0000000335
B1312235553170N01213256EA0000000370
B1312285553180N01213179EA0000000390
B1312335553195N01213134EA0000000375
B1312385553215N01213054EA0000000359
B1312435553235N01212967EA0000000356
B1312485553254N01212884EA0000000354
B1312555553273N01212776EA0000000347
B1313005553288N01212693EA0000000343
B1313215553352N01212369EA0000000323
B1313265553299N01212321EA0000000311
B1313315553227N01212314EA0000000313
B1313375553145N01212311EA0000000311
B1313425553078N01212309EA0000000301
B1314025552813N01212268EA0000000282
B1314075552770N01212203EA0000000284
B1314145552818N01212123EA0000000283
B1314265552850N01212420EA0000000279
B1314315552784N01212419EA0000000273
B1314365552781N01212327EA0000000281
B1314415552839N01212305EA0000000280
B1315185552810N01212768EA0000000265
B1315235552784N01212682EA0000000259
B1315415552870N01212924EA0000000268
B1315465552804N01212926EA0000000258
B1315525552801N01212828EA0000000259
B1315575552872N01212829EA0000000256
B1316055552892N01213047EA0000000265
B1316145552784N01213085EA0000000259
B1316195552779N01213002EA0000000258
B1316245552837N01212972EA0000000252
B1316295552898N01213072EA0000000251
B1316355552887N01213251EA0000000256
B1316405552823N01213317EA0000000252
B1316455552779N01213258EA0000000247
B1316525552836N01213186EA0000000248
B1316575552891N01213284EA0000000245
B1317055552837N01213473EA0000000251
B1317105552783N01213436EA0000000244
B1317155552805N01213360EA0000000244
B1317205552873N01213402EA0000000241
B1317265552884N01213580EA0000000248
B1317315552825N01213667EA0000000247
B1317365552772N01213632EA0000000240
B1317435552817N01213555EA0000000244
B1317485552874N01213662EA0000000239
B1317535552865N01213818EA0000000246
B1318065552739N01213807EA0000000237
B1318215552699N01213616EA0000000228
B1318275552620N01213687EA0000000209
B1318345552625N01213924EA0000000197
B1318395552698N01213985EA0000000187
B1318465552723N01213883EA0000000175
B1319145552685N01214454EA0000000146
B1319275552829N01214746EA0000000140
B1319365552945N01214835EA0000000133
B1319485553016N01214672EA0000000112
B1319565553029N01214510EA0000000090
B1320085553064N01214247EA0000000050
B1320165553083N01214084EA0000000023
B1320555553090N01213931EA0000000019
