AOGNOGN
HFDTE200825
HFFXA050
HFPLTPILOTINCHARGE:
HFGTYGLIDERTYPE:Duo Discus xlt
HFGIDGLIDERID:OY-HXD
HFDTM100GPSDATUM:WGS-1984
HFRFWFIRMWAREVERSION:
HFRHWHARDWAREVERSION:
HFFTYFRTYPE:OGN-FLIGHTBOOK
HFGPSGENERIC
HFPRSPRESSALTSENSOR:
HFCIDCOMPETITIONID:HD
B0920515554516N00926479EA0000000087
B0920545554512N00926556EA0000000110
B0920595554511N00926681EA0000000218
B0921055554510N00926828EA0000000328
B0921105554502N00926964EA0000000407
B0921155554493N00927119EA0000000464
B0921205554482N00927284EA0000000480
B0921365554682N00927368EA0000000509
B0921415554754N00927254EA0000000513
B0921485554855N00927090EA0000000513
B0921535554904N00926944EA0000000509
B0921585554928N00926760EA0000000510
B0922035554948N00926594EA0000000541
B0922085554966N00926430EA0000000552
B0922145555031N00926362EA0000000578
B0922195555035N00926469EA0000000578
B0922245554959N00926535EA0000000585
B0922315554866N00926402EA0000000611
B0922365554887N00926258EA0000000625
B0922415554950N00926218EA0000000641
B0922465554982N00926313EA0000000637
B0922515554926N00926409EA0000000651
B0922595554817N00926268EA0000000669
B0923045554847N00926113EA0000000687
B0923095554915N00926105EA0000000683
B0923165554866N00926273EA0000000695
B0923225554753N00926264EA0000000718
B0923275554713N00926110EA0000000724
B0923345554800N00926046EA0000000744
B0923395554795N00926178EA0000000746
B0923445554704N00926223EA0000000760
B0923505554629N00926068EA0000000779
B0923555554656N00925924EA0000000787
B0924005554724N00925928EA0000000789
B0924085554674N00926123EA0000000803
B0924135554590N00926018EA0000000810
B0924185554620N00925873EA0000000831
B0924235554685N00925881EA0000000846
B0924315554649N00926049EA0000000861
B0924385554541N00925925EA0000000887
B0924435554583N00925809EA0000000877
B0924485554644N00925869EA0000000904
B0924535554605N00925991EA0000000905
B0924595554488N00925911EA0000000911
B0925045554511N00925750EA0000000923
B0925165554566N00925946EA0000000955
B0925225554432N00925925EA0000000965
B0925275554373N00925751EA0000000972
B0925335554422N00925548EA0000000969
B0925385554512N00925514EA0000000976
B0925445554642N00925519EA0000000947
B0925495554753N00925530EA0000000946
B0925565554902N00925566EA0000000946
B0926015555004N00925597EA0000000945
B0926065555105N00925637EA0000000943
B0926115555203N00925660EA0000000951
B0926195555309N00925440EA0000000966
B0926245555273N00925255EA0000000966
B0926295555173N00925172EA0000000957
B0926355555057N00925248EA0000000955
B0926405555004N00925378EA0000000946
B0927015554794N00925932EA0000000937
B0927075554668N00925837EA0000000960
B0927145554622N00925578EA0000000970
B0927195554696N00925464EA0000000965
B0927245554776N00925523EA0000000968
B0927325554745N00925728EA0000000980
B0927395554607N00925695EA0000001008
B0927455554574N00925497EA0000001026
B0927505554639N00925413EA0000001023
B0928035554648N00925651EA0000001036
B0928085554557N00925629EA0000001057
B0928155554519N00925402EA0000001071
B0928205554589N00925307EA0000001072
B0928295554651N00925464EA0000001075
B0928365554537N00925499EA0000001095
B0928415554479N00925361EA0000001103
B0928465554516N00925196EA0000001106
B0928515554601N00925183EA0000001119
B0928585554615N00925343EA0000001123
B0929035554536N00925390EA0000001138
B0929135554470N00925086EA0000001162
B0929185554541N00924993EA0000001176
B0929315554538N00925213EA0000001166
B0929365554438N00925192EA0000001176
B0929445554360N00924959EA0000001204
B0929495554427N00924831EA0000001208
B0930025554435N00925039EA0000001216
B0930115554331N00924797EA0000001250
B0930165554395N00924664EA0000001261
B0930295554411N00924898EA0000001267
B0930355554291N00924834EA0000001286
B0930435554249N00924563EA0000001318
B0931035554330N00924749EA0000001360
B0931125554257N00924485EA0000001382
B0931185554354N00924400EA0000001392
B0931305554360N00924644EA0000001397
B0931355554265N00924631EA0000001392
B0931515554249N00924152EA0000001415
B0932035554299N00924374EA0000001447
B0932105554178N00924317EA0000001456
B0932155554148N00924138EA0000001459
B0932205554203N00923985EA0000001453
B0932255554293N00923950EA0000001465
B0932315554349N00924074EA0000001473
B0932375554282N00924190EA0000001467
B0932425554185N00924104EA0000001475
B0932475554149N00923921EA0000001491
B0932525554206N00923784EA0000001484
B0933015554319N00923915EA0000001487
B0933075554260N00924050EA0000001483
B0933125554160N00924047EA0000001484
B0933175554078N00923920EA0000001494
B0933235554079N00923694EA0000001488
B0933305554200N00923588EA0000001472
B0933355554295N00923598EA0000001479
B0933425554389N00923710EA0000001462
B0933485554483N00923813EA0000001443
B0933535554568N00923884EA0000001447
B0933585554650N00923948EA0000001442
B0934195554975N00924246EA0000001456
B0934245555038N00924317EA0000001469
B0934305555127N00924283EA0000001469
B0934375555151N00924033EA0000001454
B0934445555036N00923907EA0000001454
B0936495553626N00926356EA0000001412
B0937435553925N00927656EA0000001410
B0937545554068N00927606EA0000001406
B0938045554042N00927249EA0000001383
B0938185553783N00927109EA0000001418
B0938245553799N00927254EA0000001420
B0939045553874N00927130EA0000001456
B0939335553725N00927103EA0000001472
B0939455553913N00927027EA0000001461
B0939515553961N00926826EA0000001451
B0939575554014N00926602EA0000001434
B0940525554472N00924802EA0000001430
B0941155554209N00925171EA0000001437
B0941245554339N00925064EA0000001433
B0941555554121N00925201EA0000001463
B0942045554252N00925246EA0000001457
B0942455554259N00926225EA0000001459
B0942545554218N00925959EA0000001462
B0943195554204N00926150EA0000001448
B0943295554033N00925950EA0000001470
B0943395553957N00926144EA0000001469
B0943485554082N00926084EA0000001457
B0944145553812N00926022EA0000001465
B0944245553935N00925923EA0000001451
B0944295553977N00925756EA0000001445
B0944345554023N00925603EA0000001457
B0945105554512N00926260EA0000001375
B0945155554587N00926412EA0000001359
B0945215554718N00926515EA0000001338
B0945275554867N00926513EA0000001346
B0945395555156N00926451EA0000001335
B0945465555319N00926428EA0000001321
B0945525555463N00926425EA0000001335
B0946015555667N00926445EA0000001312
B0946075555805N00926466EA0000001309
B0946145555965N00926494EA0000001296
B0946205556101N00926518EA0000001295
B0946255556214N00926538EA0000001283
B0946325556379N00926572EA0000001270
B0946375556496N00926595EA0000001263
B0946435556637N00926612EA0000001257
B0946505556802N00926641EA0000001240
B0946565556937N00926663EA0000001248
B0947035557092N00926681EA0000001234
B0947105557254N00926709EA0000001215
B0947185557446N00926743EA0000001200
B0947245557590N00926767EA0000001193
B0947335557809N00926812EA0000001174
B0947395557957N00926851EA0000001165
B0947465558123N00926892EA0000001163
B0947555558337N00926937EA0000001142
B0948035558520N00926980EA0000001146
B0948115558696N00927018EA0000001139
B0948245558987N00927072EA0000001114
B0948325559169N00927101EA0000001100
B0948385559306N00927127EA0000001090
B0948465559481N00927161EA0000001085
B0950355601146N00927651EA0000001157
B0950545601005N00927413EA0000001187
B0951085601215N00927491EA0000001222
B0951315601591N00927974EA0000001223
B0954035604530N00930149EA0000001043
B0954135604699N00930214EA0000001065
B0955355606054N00931724EA0000000927
B0956055606677N00931433EA0000000881
B0956165606909N00931311EA0000000875
B0956275607109N00931199EA0000000909
B0956345607220N00931142EA0000000914
B0956415607336N00931120EA0000000895
B0957245607942N00931989EA0000000797
B0957335608130N00932083EA0000000766
B0957425608324N00932137EA0000000761
B0957495608477N00932169EA0000000754
B0957545608586N00932200EA0000000750
B0957595608693N00932220EA0000000749
B0958215609170N00932304EA0000000711
B0958275609297N00932329EA0000000704
B0958355609466N00932390EA0000000675
B0958415609596N00932441EA0000000668
B0958505609788N00932496EA0000000662
B0958565609917N00932527EA0000000651
B0959155610085N00932299EA0000000725
B0959435609914N00932257EA0000000779
B1000025609901N00932454EA0000000812
B1000145609803N00932118EA0000000824
B1000245609643N00932236EA0000000853
B1000505609763N00932065EA0000000870
B1001505609554N00932082EA0000000960
B1001585609587N00932285EA0000000960
B1002225609541N00932025EA0000001016
B1002445609595N00931855EA0000001047
B1002535609453N00931962EA0000001081
B1003575609355N00931618EA0000001155
B1004175609588N00931707EA0000001165
B1004255609743N00931641EA0000001129
B1004305609850N00931634EA0000001113
B1004365609984N00931646EA0000001101
B1004425610114N00931679EA0000001093
B1004545610384N00931693EA0000001067
B1004595610498N00931686EA0000001058
B1005065610655N00931677EA0000001052
B1005135610806N00931659EA0000001044
B1005315611211N00931592EA0000001004
B1005405611413N00931536EA0000000997
B1005475611569N00931494EA0000000988
B1005565611769N00931436EA0000000975
B1006055611969N00931376EA0000000957
B1006265612398N00931138EA0000000985
B1006385612549N00930852EA0000000993
B1006465612680N00930902EA0000000996
B1006515612761N00930969EA0000000984
B1006565612850N00931036EA0000000994
B1007055613000N00931167EA0000000978
B1007105613094N00931256EA0000000964
B1007175613225N00931381EA0000000980
B1007235613333N00931493EA0000000982
B1007285613416N00931584EA0000001006
B1007435613653N00931820EA0000001011
B1007485613738N00931874EA0000001024
B1008165613785N00931763EA0000001052
B1008225613895N00931776EA0000001043
B1008365614119N00931978EA0000001020
B1008485614336N00932147EA0000000994
B1009025614634N00932216EA0000000955
B1009255615119N00932290EA0000000913
B1009365615343N00932279EA0000000912
B1009415615445N00932267EA0000000896
B1009475615574N00932242EA0000000885
B1009535615688N00932250EA0000000929
B1009585615774N00932299EA0000000909
B1010055615907N00932389EA0000000892
B1010125616028N00932527EA0000000876
B1010175616113N00932639EA0000000863
B1010265616259N00932846EA0000000864
B1011105616513N00934198EA0000000823
B1011155616597N00934275EA0000000805
B1011215616704N00934369EA0000000786
B1011285616832N00934496EA0000000775
B1011335616924N00934578EA0000000780
B1011395617025N00934660EA0000000781
B1011445617115N00934731EA0000000768
B1011495617210N00934806EA0000000783
B1011545617287N00934858EA0000000802
B1012025617418N00934938EA0000000762
B1012145617651N00935100EA0000000746
B1012195617738N00935152EA0000000775
B1012325617976N00935291EA0000000750
B1012425618165N00935425EA0000000730
B1012495618302N00935526EA0000000724
B1013555619062N00936172EA0000000772
B1014065619101N00935867EA0000000786
B1014175619086N00936098EA0000000791
B1014295619017N00935797EA0000000816
B1014465619080N00936085EA0000000810
B1015155619045N00936014EA0000000836
B1015295619028N00935663EA0000000869
B1015415619029N00935930EA0000000868
B1015465618935N00935849EA0000000868
B1015535618934N00935610EA0000000894
B1016105618937N00935860EA0000000885
B1016155618828N00935796EA0000000902
B1016255618828N00935521EA0000000912
B1016365618826N00935741EA0000000919
B1016415618717N00935690EA0000000937
B1016515618747N00935438EA0000000941
B1017045618712N00935702EA0000000958
B1017185618794N00935374EA0000000964
B1017315618765N00935619EA0000000972
B1017475618810N00935142EA0000001004
B1018135618536N00935217EA0000001015
B1018215618379N00935017EA0000000982
B1018275618247N00934861EA0000000973
B1018345618089N00934680EA0000000972
B1018435617899N00934473EA0000000992
B1018485617796N00934366EA0000000982
B1018535617690N00934256EA0000000970
B1018595617561N00934115EA0000000956
B1019045617453N00933990EA0000000944
B1019105617319N00933841EA0000000927
B1019155617208N00933717EA0000000935
B1019235617043N00933516EA0000000944
B1019325616855N00933267EA0000000922
B1021565614370N00930199EA0000000874
B1022235614285N00930081EA0000000918
B1022285614377N00930093EA0000000912
B1022475614345N00930430EA0000000923
B1026425609697N00926444EA0000000719
B1026495609525N00926456EA0000000705
B1026555609380N00926466EA0000000707
B1027015609240N00926485EA0000000733
B1027135609081N00926669EA0000000740
B1027415609054N00926406EA0000000722
B1027555608722N00926436EA0000000688
B1028035608528N00926468EA0000000692
B1028105608359N00926492EA0000000703
B1028155608241N00926512EA0000000700
B1028265607973N00926565EA0000000682
B1028325607826N00926592EA0000000676
B1028385607681N00926625EA0000000667
B1028435607558N00926654EA0000000655
B1028595607169N00926767EA0000000636
B1029065606998N00926822EA0000000622
B1029175606730N00926902EA0000000597
B1030135605532N00926741EA0000000595
B1030185605477N00926567EA0000000590
B1030235605422N00926390EA0000000595
B1030305605347N00926146EA0000000592
B1030365605281N00925933EA0000000582
B1030435605199N00925668EA0000000568
B1030515605114N00925371EA0000000581
B1030595605032N00925108EA0000000596
B1031075604956N00924818EA0000000586
B1031145604909N00924542EA0000000589
B1031435604921N00924508EA0000000545
B1031505604766N00924487EA0000000540
B1031585604588N00924370EA0000000533
B1032275604525N00924245EA0000000569
B1034205603594N00923763EA0000000514
B1034345603740N00923740EA0000000542
B1034595603709N00923721EA0000000565
B1035235603596N00923568EA0000000592
B1035385603601N00923475EA0000000623
B1035545603607N00923337EA0000000654
B1035595603558N00923425EA0000000643
B1036225603608N00923247EA0000000659
B1036275603525N00923287EA0000000660
B1036425603258N00923171EA0000000677
B1036535603045N00923063EA0000000665
B1037015602876N00922966EA0000000673
B1037145602729N00923040EA0000000718
B1037195602788N00922944EA0000000729
B1037365602659N00922978EA0000000772
B1039565602432N00922180EA0000001114
B1040025602500N00922054EA0000001131
B1040225602373N00922056EA0000001184
B1040285602442N00921935EA0000001192
B1040355602362N00921753EA0000001202
B1040485602304N00921981EA0000001245
B1040545602383N00921868EA0000001270
B1041015602310N00921659EA0000001282
B1041145602277N00921858EA0000001322
B1041195602346N00921743EA0000001325
B1041325602185N00921492EA0000001368
B1041395602182N00921662EA0000001383
B1041495602302N00921484EA0000001410
B1041545602259N00921312EA0000001409
B1042035602118N00921393EA0000001424
B1042095602180N00921515EA0000001431
B1042145602257N00921421EA0000001449
B1042215602234N00921153EA0000001459
B1042285602108N00921063EA0000001472
B1042335602062N00921174EA0000001479
B1042385602108N00921267EA0000001494
B1042435602182N00921199EA0000001489
B1042505602164N00920934EA0000001488
B1042555602076N00920811EA0000001475
B1043025601929N00920640EA0000001451
B1043075601815N00920514EA0000001441
B1043165601598N00920285EA0000001422
B1043215601480N00920160EA0000001423
B1043265601366N00920049EA0000001426
B1043355601152N00919859EA0000001418
B1043425600985N00919722EA0000001408
B1043475600860N00919644EA0000001397
B1043565600627N00919509EA0000001376
B1044015600497N00919427EA0000001361
B1044115600234N00919273EA0000001347
B1044215559982N00919084EA0000001333
B1044275559834N00918965EA0000001326
B1044325559713N00918867EA0000001315
B1044385559570N00918726EA0000001301
B1044475559360N00918479EA0000001278
B1044585559110N00918166EA0000001267
B1045035558998N00918020EA0000001263
B1045105558886N00917740EA0000001245
B1045165558868N00917432EA0000001231
B1045265558850N00916919EA0000001221
B1045325558839N00916615EA0000001206
B1045395558814N00916262EA0000001201
B1045475558782N00915865EA0000001184
B1045545558749N00915515EA0000001168
B1046025558708N00915120EA0000001158
B1046075558684N00914877EA0000001152
B1046135558655N00914585EA0000001134
B1046185558633N00914331EA0000001135
B1046235558615N00914090EA0000001169
B1046285558602N00913876EA0000001175
B1046335558591N00913657EA0000001161
B1046385558611N00913441EA0000001148
B1046455558616N00913119EA0000001119
B1046505558606N00912881EA0000001110
B1046555558596N00912664EA0000001141
B1047025558577N00912382EA0000001116
B1047075558567N00912153EA0000001111
B1047265558493N00911279EA0000001089
B1047405558379N00910645EA0000001062
B1047455558337N00910407EA0000001088
B1047515558303N00910166EA0000001123
B1047565558270N00909959EA0000001108
B1048035558256N00909643EA0000001124
B1048105558242N00909389EA0000001113
B1048165558176N00909138EA0000001056
B1048225558093N00908868EA0000001039
B1048305557977N00908517EA0000001019
B1048355557902N00908298EA0000001001
B1048405557829N00908077EA0000000983
B1048455557754N00907855EA0000000965
B1048505557688N00907623EA0000000955
B1048555557646N00907390EA0000000959
B1049025557590N00907071EA0000000946
B1049115557497N00906676EA0000000937
B1049175557429N00906424EA0000000916
B1049245557318N00906143EA0000000892
B1049295557235N00905945EA0000000881
B1049375557103N00905625EA0000000857
B1049445556989N00905342EA0000000834
B1049495556899N00905148EA0000000813
B1049545556796N00904967EA0000000792
B1050005556676N00904741EA0000000780
B1050065556568N00904501EA0000000771
B1050135556444N00904214EA0000000759
B1050185556365N00904000EA0000000770
B1050235556308N00903794EA0000000808
B1050295556237N00903589EA0000000816
B1050345556179N00903400EA0000000817
B1050395556136N00903216EA0000000827
B1050445556100N00903012EA0000000804
B1050505556059N00902746EA0000000793
B1050555556025N00902521EA0000000785
B1051005555999N00902290EA0000000777
B1051065555979N00902011EA0000000765
B1051115555965N00901777EA0000000759
B1051195555946N00901408EA0000000750
B1051265555924N00901081EA0000000726
B1051325555906N00900795EA0000000718
B1051375555891N00900560EA0000000722
B1051425555881N00900328EA0000000711
B1051495555865N00859988EA0000000701
B1051545555849N00859755EA0000000743
B1052005555862N00859562EA0000000781
B1052075555958N00859624EA0000000758
B1052195555808N00859936EA0000000777
B1052245555710N00859897EA0000000783
B1052315555725N00859679EA0000000808
B1052365555787N00859728EA0000000815
B1052425555751N00859876EA0000000821
B1052475555671N00859942EA0000000844
B1052525555592N00859898EA0000000845
B1053025555667N00859712EA0000000875
B1053095555651N00859856EA0000000878
B1053145555560N00859833EA0000000884
B1053195555509N00859685EA0000000902
B1053245555550N00859555EA0000000894
B1053325555649N00859664EA0000000895
B1053375555610N00859789EA0000000913
B1053425555528N00859843EA0000000936
B1053495555505N00859971EA0000000925
B1053545555579N00859962EA0000000916
B1053595555614N00859808EA0000000899
B1054055555596N00859577EA0000000912
B1054115555574N00859344EA0000000917
B1054165555561N00859156EA0000000935
B1054215555554N00858964EA0000000910
B1054275555543N00858704EA0000000899
B1054325555534N00858486EA0000000902
B1054395555526N00858189EA0000000883
B1054445555527N00857980EA0000000878
B1054505555529N00857733EA0000000861
B1054575555529N00857430EA0000000820
B1055025555530N00857194EA0000000793
B1055095555519N00856849EA0000000771
B1055155555505N00856547EA0000000772
B1055205555497N00856298EA0000000791
B1055255555487N00856077EA0000000843
B1055305555516N00855926EA0000000878
B1055355555584N00855983EA0000000880
B1055445555475N00856084EA0000000901
B1055505555436N00855881EA0000000907
B1055565555525N00855768EA0000000917
B1056025555587N00855888EA0000000928
B1056075555528N00855996EA0000000931
B1056165555358N00855917EA0000000968
B1056215555334N00855773EA0000000982
B1056295555447N00855732EA0000000978
B1056345555442N00855865EA0000000988
B1056435555293N00855885EA0000001006
B1056485555275N00855710EA0000001014
B1056535555351N00855610EA0000001016
B1057055555358N00855875EA0000001041
B1057105555261N00855822EA0000001039
B1057155555221N00855631EA0000001051
B1057205555268N00855490EA0000001068
B1057275555362N00855588EA0000001051
B1057325555332N00855745EA0000001067
B1057395555228N00855858EA0000001101
B1057445555158N00855747EA0000001103
B1057495555187N00855588EA0000001098
B1057545555276N00855571EA0000001108
B1058095555223N00855781EA0000001133
B1058145555166N00855614EA0000001154
B1058215555245N00855456EA0000001156
B1058265555320N00855534EA0000001177
B1058355555222N00855712EA0000001184
B1058405555136N00855612EA0000001204
B1058455555130N00855446EA0000001209
B1058515555227N00855354EA0000001205
B1058565555295N00855452EA0000001220
B1059065555181N00855661EA0000001215
B1059115555090N00855560EA0000001241
B1059165555045N00855397EA0000001256
B1059225555098N00855228EA0000001270
B1059275555167N00855251EA0000001285
B1059365555105N00855429EA0000001286
B1059415555015N00855358EA0000001291
B1059465554960N00855212EA0000001315
B1059545555034N00855046EA0000001320
B1059595555092N00855135EA0000001323
B1100135554912N00855225EA0000001338
B1100185554855N00855071EA0000001351
B1100245554828N00854847EA0000001366
B1100305554805N00854623EA0000001358
B1100355554773N00854420EA0000001341
B1100405554739N00854204EA0000001324
B1100455554713N00853987EA0000001318
B1100505554699N00853754EA0000001294
B1100555554655N00853527EA0000001297
B1101045554504N00853196EA0000001285
B1101235554100N00852590EA0000001245
B1103065551492N00851610EA0000001103
B1103125551456N00851791EA0000001102
B1103225551639N00851861EA0000001103
B1103295551782N00851762EA0000001103
B1103345551882N00851676EA0000001119
B1103415551909N00851418EA0000001121
B1103495551777N00851246EA0000001125
B1103545551704N00851341EA0000001120
B1103595551728N00851480EA0000001115
B1104045551819N00851466EA0000001107
B1104105551886N00851266EA0000001100
B1104165551844N00851014EA0000001086
B1104225551796N00850749EA0000001069
B1104295551749N00850421EA0000001050
B1104355551706N00850139EA0000001033
B1104425551641N00849800EA0000001007
B1104475551611N00849550EA0000000999
B1104535551584N00849245EA0000000977
B1104585551553N00848987EA0000000963
B1105085551435N00848484EA0000000921
B1105155551339N00848166EA0000000941
B1105265551190N00847668EA0000000871
B1105315551119N00847426EA0000000857
B1105395551013N00847047EA0000000837
B1105465550942N00846703EA0000000812
B1105535550875N00846349EA0000000790
B1106045550772N00845771EA0000000754
B1106095550723N00845518EA0000000760
B1106285550507N00844739EA0000000826
B1106365550491N00844931EA0000000853
B1106465550618N00844768EA0000000865
B1107085550338N00844637EA0000000907
B1107165550446N00844632EA0000000916
B1107295550360N00844367EA0000000939
B1107385550333N00844551EA0000000963
B1107445550418N00844592EA0000000971
B1107495550485N00844498EA0000000991
B1108005550395N00844241EA0000000991
B1108055550323N00844320EA0000000993
B1108105550300N00844444EA0000001011
B1108195550408N00844438EA0000001028
B1108325550306N00844126EA0000001042
B1108395550243N00844255EA0000001057
B1108455550320N00844303EA0000001062
B1108515550365N00844122EA0000001070
B1110355548463N00841433EA0000001027
B1119395538658N00842944EA0000000682
B1120275538184N00842583EA0000000676
B1202225538293N00844251EA0000000803
B1202465538223N00844131EA0000000829
B1203325538102N00843992EA0000000906
B1204245537933N00843946EA0000000997
B1204315538037N00843826EA0000001008
B1204515537902N00843938EA0000001030
B1212595545539N00843016EA0000000770
B1213055545631N00842972EA0000000784
B1213115545727N00843017EA0000000800
B1213195545860N00843030EA0000000809
B1213325546068N00842941EA0000000830
B1213385546165N00843017EA0000000818
B1213495546325N00843237EA0000000808
B1214205546851N00843620EA0000000763
B1214265546957N00843682EA0000000757
B1214455547309N00843878EA0000000739
B1216445548171N00847122EA0000000616
B1217175548145N00847028EA0000000659
B1217315548330N00846795EA0000000681
B1217535548253N00847029EA0000000686
B1217585548259N00846855EA0000000698
B1218085548425N00846772EA0000000713
B1220515549381N00851410EA0000000489
B1221055549354N00851886EA0000000451
B1221215549324N00852408EA0000000434
B1221265549315N00852571EA0000000422
B1221405549289N00853037EA0000000431
B1221485549266N00853265EA0000000431
B1221545549247N00853433EA0000000438
B1222065549270N00853773EA0000000451
B1222135549354N00853831EA0000000435
B1222195549428N00853668EA0000000438
B1222245549412N00853499EA0000000442
B1222425549080N00853521EA0000000435
B1222485549031N00853656EA0000000431
B1222555549127N00853729EA0000000417
B1223025549177N00853526EA0000000435
B1223075549124N00853376EA0000000444
B1223175548983N00853279EA0000000452
B1223235548976N00853424EA0000000442
B1223295549071N00853421EA0000000422
B1223355549144N00853270EA0000000442
B1223415549170N00853107EA0000000446
B1224015548893N00852937EA0000000422
B1224075548852N00853086EA0000000417
B1224125548875N00853211EA0000000404
B1224205548918N00853409EA0000000390
B1224275548974N00853566EA0000000374
B1224365549115N00853642EA0000000393
B1224465549270N00853666EA0000000396
B1224525549361N00853660EA0000000421
B1225065549324N00853802EA0000000409
B1225115549287N00853642EA0000000425
B1225315549249N00853600EA0000000450
B1225365549247N00853456EA0000000447
B1225555549258N00853494EA0000000470
B1226105549371N00853307EA0000000470
B1226215549251N00853441EA0000000489
B1226265549217N00853299EA0000000490
B1226325549288N00853187EA0000000481
B1226445549294N00853421EA0000000499
B1226505549211N00853306EA0000000495
B1226555549239N00853140EA0000000488
B1227015549334N00853042EA0000000490
B1227125549435N00853245EA0000000492
B1227195549393N00853421EA0000000489
B1227245549355N00853545EA0000000489
B1227295549368N00853680EA0000000486
B1227415549464N00853967EA0000000476
B1227565549609N00854311EA0000000463
B1228325549300N00854538EA0000000458
B1228375549286N00854668EA0000000450
B1228445549373N00854622EA0000000446
B1228495549356N00854453EA0000000455
B1229065549094N00854183EA0000000456
B1229155549003N00853906EA0000000451
B1230345547948N00855110EA0000000397
B1230465548055N00855025EA0000000391
B1230545547940N00854905EA0000000417
B1231035547958N00855103EA0000000418
B1231245547873N00854831EA0000000463
B1231295547888N00854961EA0000000466
B1231495547838N00854815EA0000000520
B1231545547875N00854924EA0000000517
B1232125547831N00854624EA0000000566
B1232345547814N00854566EA0000000615
B1232435547815N00854785EA0000000637
B1232525547916N00854618EA0000000632
B1233045547768N00854456EA0000000693
B1233095547777N00854590EA0000000690
B1233205547906N00854456EA0000000732
B1233315547757N00854310EA0000000762
B1233405547761N00854534EA0000000776
B1233465547852N00854505EA0000000801
B1233515547854N00854340EA0000000801
B1233595547722N00854268EA0000000848
B1234085547727N00854491EA0000000860
B1234135547806N00854484EA0000000877
B1234185547841N00854344EA0000000886
B1234295547674N00854201EA0000000941
B1234395547689N00854438EA0000000943
B1234445547768N00854432EA0000000957
B1234505547816N00854270EA0000000960
B1235035547616N00854108EA0000001015
B1235085547579N00854228EA0000001014
B1235135547609N00854349EA0000001006
B1235185547686N00854367EA0000001010
B1235265547741N00854146EA0000001022
B1235365547574N00854085EA0000001055
B1235415547544N00854209EA0000001058
B1235465547594N00854311EA0000001044
B1235515547672N00854270EA0000001058
B1235575547675N00854072EA0000001055
B1236045547539N00854004EA0000001076
B1236205547596N00854414EA0000001066
B1236445547880N00855072EA0000001013
B1236515547969N00855279EA0000000999
B1238045548671N00857585EA0000001028
B1238105548698N00857815EA0000001027
B1238255548802N00858381EA0000000990
B1238505549001N00859171EA0000001075
B1238555549033N00859323EA0000001063
B1239015549079N00859539EA0000001057
B1239435549478N00900985EA0000001078
B1239555549566N00901372EA0000001129
B1240015549607N00901563EA0000001092
B1240115549700N00901915EA0000001060
B1240185549768N00902174EA0000001050
B1240295549885N00902592EA0000001013
B1240355549953N00902822EA0000001012
B1240405550007N00903003EA0000001018
B1240545550166N00903490EA0000000994
B1241025550258N00903766EA0000000968
B1241075550325N00903935EA0000000961
B1241145550446N00904120EA0000000958
B1241215550575N00904277EA0000000949
B1241285550688N00904473EA0000000948
B1241355550768N00904695EA0000000979
B1241435550852N00904909EA0000000996
B1241485550888N00905031EA0000001030
B1241535550912N00905178EA0000001010
B1241595550918N00905382EA0000001040
B1242045550920N00905542EA0000001050
B1242105550939N00905713EA0000001068
B1242155550955N00905868EA0000001058
B1242205550971N00906035EA0000001054
B1242285551011N00906312EA0000001039
B1242345551056N00906521EA0000001035
B1242415551114N00906764EA0000001010
B1242475551158N00906978EA0000001001
B1242535551207N00907189EA0000000987
B1242585551250N00907358EA0000000979
B1243065551309N00907633EA0000000958
B1243165551378N00907983EA0000000933
B1243235551431N00908225EA0000000918
B1243285551467N00908394EA0000000912
B1243365551525N00908653EA0000000894
B1243415551566N00908813EA0000000879
B1243505551677N00909064EA0000000851
B1243575551779N00909234EA0000000838
B1244035551872N00909364EA0000000832
B1244125552020N00909527EA0000000834
B1244215552184N00909667EA0000000812
B1244305552353N00909821EA0000000809
B1244365552454N00909918EA0000000818
B1244425552542N00910022EA0000000793
B1244495552651N00910164EA0000000771
B1244545552720N00910276EA0000000758
B1245015552823N00910435EA0000000738
B1245065552899N00910548EA0000000737
B1245145553025N00910695EA0000000724
B1245235553168N00910837EA0000000704
B1245285553226N00910959EA0000000686
B1245395553310N00911308EA0000000644
B1245445553360N00911461EA0000000633
B1245545553492N00911728EA0000000612
B1246125553633N00912263EA0000000619
B1246185553687N00912417EA0000000605
B1246355553803N00912912EA0000000556
B1246405553857N00913039EA0000000544
B1247255554221N00914295EA0000000464
B1247435554276N00914748EA0000000489
B1247485554182N00914707EA0000000482
B1248145554249N00914567EA0000000481
B1248195554161N00914473EA0000000470
B1248285554149N00914179EA0000000491
B1248335554091N00914071EA0000000488
B1248485554004N00914383EA0000000477
B1250165554360N00916804EA0000000392
B1250535554497N00917100EA0000000419
B1252555554207N00917875EA0000000428
B1253225554180N00917715EA0000000463
B1253465554142N00917682EA0000000482
B1254085554154N00917655EA0000000495
B1254315554118N00917648EA0000000520
B1254555554126N00917588EA0000000549
B1255235554053N00917555EA0000000580
B1255485554076N00917549EA0000000618
B1256155554041N00917491EA0000000640
B1256205553940N00917449EA0000000646
B1259185555022N00922551EA0000000453
B1259255555119N00922546EA0000000444
B1259345555097N00922279EA0000000464
B1259505554851N00922428EA0000000497
B1259565554868N00922564EA0000000474
B1300015554946N00922597EA0000000468
B1300065555028N00922546EA0000000467
B1300145555117N00922379EA0000000491
B1300205555200N00922430EA0000000488
B1300305555149N00922664EA0000000490
B1300425555015N00922422EA0000000463
B1300475555099N00922384EA0000000459
B1300545555187N00922538EA0000000488
B1300595555209N00922657EA0000000489
B1301045555197N00922803EA0000000467
B1301105555153N00922992EA0000000454
B1301275554926N00923483EA0000000414
B1301345554865N00923708EA0000000415
B1301395554828N00923875EA0000000399
B1301455554793N00924095EA0000000396
B1301505554770N00924284EA0000000369
B1301555554746N00924469EA0000000345
B1302015554716N00924674EA0000000305
B1302075554690N00924879EA0000000270
B1302145554663N00925117EA0000000235
B1302195554644N00925276EA0000000218
B1302265554624N00925497EA0000000188
B1302315554608N00925656EA0000000170
B1302365554589N00925814EA0000000154
B1302465554556N00926135EA0000000126
B1302545554531N00926408EA0000000105
B1303005554513N00926622EA0000000095
B1303065554493N00926814EA0000000091
B1303125554477N00926973EA0000000089
B1303195554461N00927109EA0000000090
