AOGNOGN
HFDTE290625
HFFXA050
HFPLTPILOTINCHARGE:
HFGTYGLIDERTYPE:ASK-21
HFGIDGLIDERID:OY-XMF
HFDTM100GPSDATUM:WGS-1984
HFRFWFIRMWAREVERSION:
HFRHWHARDWAREVERSION:
HFFTYFRTYPE:OGN-FLIGHTBOOK
HFGPSGENERIC
HFPRSPRESSALTSENSOR:
HFCIDCOMPETITIONID:X1
B1248275650821N00925746EA0000000443
B1248315650792N00925717EA0000000429
B1248375650745N00925665EA0000000411
B1248435650699N00925607EA0000000400
B1248485650662N00925559EA0000000397
B1248555650596N00925511EA0000000401
B1249025650540N00925483EA0000000417
B1249075650521N00925450EA0000000415
B1249125650510N00925413EA0000000420
B1249175650492N00925375EA0000000428
B1249225650432N00925401EA0000000417
B1249275650385N00925568EA0000000401
B1249325650423N00925725EA0000000383
B1249395650498N00925903EA0000000401
B1249445650550N00925941EA0000000399
B1249495650537N00925900EA0000000411
B1249565650462N00926039EA0000000424
B1250015650480N00926193EA0000000442
B1250065650526N00926226EA0000000435
B1250135650491N00926198EA0000000437
B1250185650427N00926314EA0000000436
B1250235650399N00926495EA0000000455
B1250305650445N00926694EA0000000462
B1250355650489N00926695EA0000000467
B1250405650461N00926662EA0000000466
B1250475650375N00926810EA0000000470
B1250525650386N00926984EA0000000481
B1250575650437N00927039EA0000000478
B1251045650462N00926976EA0000000477
B1251125650475N00926895EA0000000474
B1251185650483N00926830EA0000000481
B1251235650490N00926798EA0000000495
B1251315650489N00926749EA0000000498
B1251385650472N00926690EA0000000503
B1251435650455N00926642EA0000000502
B1251505650437N00926579EA0000000517
B1251555650438N00926550EA0000000531
B1252005650435N00926519EA0000000542
B1252055650433N00926488EA0000000547
B1252125650427N00926425EA0000000555
B1252185650420N00926365EA0000000559
B1252295650419N00926251EA0000000561
B1252365650413N00926193EA0000000560
B1252415650405N00926153EA0000000552
B1252465650416N00926116EA0000000536
B1252525650445N00926074EA0000000544
B1252575650460N00926044EA0000000553
B1253025650476N00926013EA0000000551
B1253085650492N00925980EA0000000559
B1253135650511N00925950EA0000000555
B1253195650529N00925912EA0000000575
B1253255650544N00925877EA0000000586
B1253335650566N00925802EA0000000585
B1253385650579N00925753EA0000000591
B1253445650592N00925698EA0000000597
B1253505650603N00925641EA0000000608
B1253565650609N00925585EA0000000615
B1254035650612N00925515EA0000000621
B1254115650616N00925443EA0000000646
B1254195650618N00925375EA0000000645
B1254245650623N00925337EA0000000657
B1254295650624N00925302EA0000000666
B1254385650630N00925239EA0000000666
B1254455650638N00925182EA0000000651
B1254535650648N00925091EA0000000631
B1255015650659N00924989EA0000000625
B1255075650664N00924930EA0000000623
B1255145650681N00924867EA0000000615
B1255225650747N00924858EA0000000613
B1255275650787N00924862EA0000000615
B1255325650829N00924864EA0000000614
B1255375650871N00924857EA0000000627
B1255455650932N00924858EA0000000640
B1255525650986N00924853EA0000000652
B1255585651029N00924845EA0000000644
B1256045651075N00924821EA0000000622
B1256115651136N00924779EA0000000614
B1256185651198N00924751EA0000000609
B1256235651241N00924741EA0000000596
B1256295651295N00924732EA0000000577
B1256365651375N00924745EA0000000551
B1256435651460N00924755EA0000000531
B1256515651546N00924751EA0000000528
B1257005651622N00924735EA0000000523
B1257085651685N00924712EA0000000517
B1257175651744N00924675EA0000000510
B1257225651778N00924645EA0000000503
B1257295651824N00924595EA0000000504
B1257345651852N00924572EA0000000506
B1257405651880N00924541EA0000000494
B1257465651905N00924484EA0000000483
B1257515651927N00924440EA0000000480
B1257565651948N00924388EA0000000477
B1258035651966N00924319EA0000000471
B1258085651943N00924280EA0000000464
B1258145651885N00924256EA0000000454
B1258195651828N00924237EA0000000438
B1258255651753N00924214EA0000000423
B1258315651676N00924194EA0000000415
B1258375651606N00924164EA0000000402
B1258425651550N00924129EA0000000386
B1258485651479N00924085EA0000000374
B1258565651389N00924014EA0000000367
B1259015651348N00923953EA0000000371
B1259115651297N00923869EA0000000410
B1259165651278N00923823EA0000000438
B1259225651212N00923874EA0000000440
B1259275651191N00924064EA0000000425
B1259325651241N00924153EA0000000443
B1259375651277N00924132EA0000000461
B1259435651243N00924122EA0000000471
B1259495651196N00924318EA0000000479
B1259545651247N00924419EA0000000478
B1259595651267N00924395EA0000000500
B1300065651196N00924422EA0000000519
B1300115651155N00924582EA0000000506
B1300165651188N00924758EA0000000512
B1300235651242N00924794EA0000000540
B1300295651206N00924782EA0000000548
B1300345651147N00924894EA0000000558
B1300405651154N00925116EA0000000544
B1300455651210N00925205EA0000000564
B1300505651213N00925186EA0000000579
B1300575651137N00925271EA0000000591
B1301025651121N00925462EA0000000582
B1301075651176N00925585EA0000000589
B1301145651169N00925561EA0000000617
B1301195651104N00925639EA0000000626
B1301245651083N00925828EA0000000634
B1301315651153N00925969EA0000000637
B1301365651136N00925938EA0000000652
B1301415651069N00926027EA0000000665
B1301485651082N00926287EA0000000677
B1301535651134N00926346EA0000000693
B1301585651130N00926319EA0000000706
B1302055651041N00926415EA0000000721
B1302105651040N00926608EA0000000734
B1302155651089N00926712EA0000000741
B1302225651112N00926688EA0000000750
B1302275651057N00926683EA0000000764
B1302325650996N00926825EA0000000775
B1302395651036N00927059EA0000000779
B1302445651061N00927045EA0000000795
B1302495651008N00927046EA0000000803
B1302565650943N00927260EA0000000817
B1303015650981N00927417EA0000000817
B1303065651029N00927454EA0000000827
B1303135651002N00927425EA0000000836
B1303195650922N00927528EA0000000852
B1303245650900N00927713EA0000000853
B1303305650956N00927888EA0000000853
B1303355651002N00927925EA0000000864
B1303405650990N00927892EA0000000857
B1303475650894N00928002EA0000000870
B1303525650880N00928194EA0000000869
B1303585650942N00928303EA0000000871
B1304045650940N00928275EA0000000880
B1304095650878N00928305EA0000000883
B1304145650819N00928444EA0000000893
B1304215650835N00928698EA0000000887
B1304265650887N00928761EA0000000886
B1304315650890N00928739EA0000000889
B1304385650801N00928825EA0000000889
B1304445650779N00929058EA0000000895
B1304495650821N00929198EA0000000889
B1304555650875N00929244EA0000000890
B1305015650893N00929217EA0000000888
B1305075650880N00929166EA0000000867
B1305125650862N00929108EA0000000845
B1305175650838N00929045EA0000000841
B1305245650804N00928966EA0000000856
B1305305650780N00928917EA0000000857
B1305355650763N00928868EA0000000868
B1305425650766N00928799EA0000000871
B1305475650775N00928755EA0000000873
B1305535650798N00928711EA0000000881
B1305585650813N00928681EA0000000890
B1306035650827N00928656EA0000000893
B1306085650840N00928630EA0000000897
B1306135650850N00928601EA0000000900
B1306205650861N00928558EA0000000901
B1306255650865N00928526EA0000000897
B1306315650864N00928482EA0000000893
B1306365650859N00928446EA0000000877
B1306415650855N00928393EA0000000853
B1306505650849N00928276EA0000000831
B1306555650843N00928215EA0000000833
B1307025650833N00928151EA0000000836
B1307075650827N00928104EA0000000833
B1307155650831N00928032EA0000000828
B1307215650852N00927983EA0000000822
B1307275650875N00927938EA0000000825
B1307355650892N00927882EA0000000826
B1307445650907N00927808EA0000000798
B1307495650911N00927764EA0000000804
B1307545650912N00927726EA0000000809
B1308075650915N00927641EA0000000832
B1308145650917N00927596EA0000000837
B1308205650922N00927554EA0000000836
B1308295650931N00927478EA0000000835
B1308355650944N00927431EA0000000844
B1308425650969N00927393EA0000000851
B1308475650990N00927361EA0000000857
B1308525651009N00927338EA0000000866
B1309015651046N00927295EA0000000862
B1309095651084N00927252EA0000000849
B1309155651117N00927208EA0000000847
B1309205651140N00927167EA0000000861
B1309265651165N00927122EA0000000884
B1309325651200N00927099EA0000000902
B1309375651230N00927090EA0000000918
B1309435651260N00927077EA0000000917
B1309505651302N00927064EA0000000906
B1310005651361N00927066EA0000000903
B1310085651395N00927046EA0000000887
B1310175651435N00926994EA0000000879
B1310225651460N00926973EA0000000875
B1310285651490N00926956EA0000000867
B1310365651536N00926939EA0000000852
B1310425651570N00926929EA0000000846
B1310485651595N00926908EA0000000842
B1310535651615N00926888EA0000000834
B1311015651628N00926847EA0000000820
B1311085651635N00926803EA0000000809
B1311155651643N00926764EA0000000809
B1311255651656N00926719EA0000000803
B1311335651657N00926675EA0000000786
B1311425651655N00926603EA0000000774
B1311525651676N00926531EA0000000762
B1311595651688N00926485EA0000000760
B1312045651685N00926447EA0000000760
B1312105651678N00926398EA0000000756
B1312165651681N00926349EA0000000753
B1312265651687N00926270EA0000000744
B1312335651668N00926220EA0000000738
B1312385651645N00926191EA0000000732
B1312435651601N00926179EA0000000719
B1312495651531N00926160EA0000000703
B1312565651443N00926137EA0000000690
B1313065651318N00926113EA0000000677
B1313135651229N00926091EA0000000662
B1313195651152N00926063EA0000000652
B1313285651045N00926013EA0000000634
B1313345650986N00925972EA0000000626
B1313435650920N00925904EA0000000623
B1313495650873N00925865EA0000000610
B1313575650809N00925802EA0000000600
B1314045650758N00925763EA0000000577
B1314145650691N00925694EA0000000539
B1314205650646N00925651EA0000000527
B1314275650582N00925599EA0000000533
B1314355650563N00925527EA0000000547
B1314405650560N00925482EA0000000567
B1314485650562N00925439EA0000000577
B1314555650558N00925388EA0000000591
B1315055650551N00925328EA0000000600
B1315135650546N00925269EA0000000568
B1315185650550N00925220EA0000000549
B1315235650552N00925157EA0000000540
B1315285650553N00925099EA0000000544
B1315345650550N00925062EA0000000551
B1315395650546N00925023EA0000000540
B1315505650532N00924937EA0000000516
B1315585650519N00924869EA0000000509
B1316055650508N00924810EA0000000501
B1316135650501N00924752EA0000000495
B1316205650487N00924707EA0000000485
B1316265650467N00924668EA0000000483
B1316335650455N00924627EA0000000490
B1316425650443N00924589EA0000000478
B1316475650441N00924565EA0000000476
B1316525650437N00924538EA0000000464
B1316575650441N00924499EA0000000455
B1317045650447N00924438EA0000000439
B1317115650451N00924367EA0000000428
B1317215650452N00924279EA0000000421
B1317295650444N00924211EA0000000412
B1317345650438N00924182EA0000000415
B1317405650429N00924146EA0000000402
B1317455650422N00924092EA0000000398
B1317555650424N00924021EA0000000410
B1318005650472N00924058EA0000000405
B1318055650497N00924235EA0000000399
B1318125650414N00924404EA0000000395
B1318175650388N00924375EA0000000381
B1318245650413N00924309EA0000000374
B1318295650435N00924268EA0000000378
B1318345650456N00924232EA0000000385
B1318435650485N00924195EA0000000386
B1318515650511N00924163EA0000000374
B1318565650557N00924218EA0000000374
B1319025650592N00924419EA0000000370
B1319085650628N00924610EA0000000394
B1319135650662N00924666EA0000000379
B1319195650626N00924628EA0000000381
B1319245650557N00924744EA0000000377
B1319295650559N00924930EA0000000389
B1319365650615N00925014EA0000000383
B1319425650597N00924965EA0000000388
B1319475650535N00924949EA0000000396
B1319545650439N00925046EA0000000406
B1319595650425N00925249EA0000000390
B1320045650481N00925362EA0000000384
B1320105650488N00925318EA0000000406
B1320155650418N00925380EA0000000404
B1320205650390N00925574EA0000000398
B1320275650457N00925681EA0000000405
B1320325650433N00925660EA0000000406
B1320375650360N00925793EA0000000399
B1320445650380N00926040EA0000000405
B1320495650420N00926063EA0000000405
B1320545650398N00926021EA0000000406
B1321015650303N00926147EA0000000414
B1321065650299N00926341EA0000000405
B1321115650350N00926447EA0000000409
B1321185650371N00926406EA0000000401
B1321235650307N00926397EA0000000408
B1321285650245N00926537EA0000000417
B1321355650274N00926772EA0000000411
B1321405650308N00926766EA0000000409
B1321455650270N00926727EA0000000418
B1321525650185N00926901EA0000000422
B1321575650206N00927091EA0000000414
B1322025650259N00927168EA0000000415
B1322095650250N00927131EA0000000427
B1322145650184N00927172EA0000000429
B1322195650135N00927342EA0000000422
B1322265650181N00927569EA0000000420
B1322315650229N00927587EA0000000415
B1322365650205N00927544EA0000000432
B1322435650112N00927677EA0000000437
B1322485650126N00927869EA0000000426
B1322545650185N00927919EA0000000442
B1323005650140N00927891EA0000000452
B1323055650069N00927996EA0000000461
B1323105650054N00928187EA0000000447
B1323175650127N00928349EA0000000447
B1323225650155N00928329EA0000000450
B1323275650108N00928305EA0000000456
B1323345650031N00928507EA0000000460
B1323395650059N00928687EA0000000460
B1323445650118N00928749EA0000000459
B1323515650091N00928713EA0000000479
B1323565650031N00928827EA0000000479
B1324015650046N00929024EA0000000475
B1324085650125N00929137EA0000000486
B1324135650151N00929106EA0000000474
B1324185650164N00929055EA0000000474
B1324255650172N00928996EA0000000487
B1324315650173N00928950EA0000000498
B1324365650177N00928917EA0000000504
B1324425650184N00928873EA0000000508
B1324475650192N00928831EA0000000519
B1324525650201N00928793EA0000000532
B1324595650214N00928743EA0000000518
B1325055650234N00928710EA0000000511
B1325165650274N00928646EA0000000517
B1325235650293N00928582EA0000000513
B1325285650314N00928531EA0000000514
B1325335650334N00928487EA0000000528
B1325385650345N00928448EA0000000537
B1325455650355N00928375EA0000000548
B1325545650373N00928286EA0000000552
B1326005650386N00928233EA0000000553
B1326065650400N00928180EA0000000564
B1326135650420N00928139EA0000000574
B1326195650441N00928105EA0000000574
B1326255650462N00928079EA0000000580
B1326335650489N00928052EA0000000576
B1326405650510N00928032EA0000000575
B1326455650519N00928014EA0000000568
B1326525650532N00927976EA0000000559
B1326575650542N00927949EA0000000551
B1327035650553N00927913EA0000000537
B1327105650569N00927870EA0000000524
B1327185650577N00927814EA0000000511
B1327245650587N00927779EA0000000505
B1327315650638N00927790EA0000000494
B1327365650686N00927821EA0000000488
B1327455650771N00927871EA0000000477
B1327515650823N00927873EA0000000460
B1327585650871N00927841EA0000000452
B1328055650904N00927795EA0000000442
B1328145650923N00927719EA0000000430
B1328235650940N00927630EA0000000410
B1328305650956N00927547EA0000000390
B1328395650986N00927439EA0000000376
B1328445651010N00927393EA0000000376
B1328515651028N00927348EA0000000389
B1328565651034N00927320EA0000000388
B1329015651036N00927292EA0000000387
B1329075651040N00927252EA0000000382
B1329155651037N00927202EA0000000377
B1329215651035N00927164EA0000000367
B1329275651035N00927115EA0000000354
B1329365651038N00927037EA0000000349
B1329415651042N00927003EA0000000342
B1329475651048N00926953EA0000000329
B1329525651055N00926910EA0000000323
B1329585651061N00926858EA0000000310
B1330095651062N00926767EA0000000309
B1330155651067N00926720EA0000000292
B1330215651076N00926650EA0000000291
B1330275651081N00926607EA0000000302
B1330335651081N00926561EA0000000300
B1330385651083N00926514EA0000000296
B1330475651080N00926449EA0000000296
B1330525651071N00926412EA0000000283
B1330575651078N00926369EA0000000281
B1331035651115N00926335EA0000000270
B1331095651149N00926305EA0000000270
B1331165651180N00926268EA0000000254
B1331245651205N00926208EA0000000249
B1331295651244N00926223EA0000000239
B1331345651278N00926368EA0000000232
B1331395651274N00926564EA0000000216
B1331465651235N00926869EA0000000191
B1331525651195N00927140EA0000000201
B1331575651164N00927357EA0000000209
B1332035651132N00927618EA0000000207
B1332095651104N00927884EA0000000200
B1332145651071N00928099EA0000000200
B1332195651003N00928255EA0000000194
B1332255650904N00928385EA0000000201
B1332305650819N00928464EA0000000178
B1332365650718N00928481EA0000000162
B1332415650669N00928422EA0000000152
B1332465650672N00928326EA0000000129
B1332535650691N00928191EA0000000107
B1332595650705N00928092EA0000000071
B1333065650725N00927975EA0000000040
B1333145650746N00927848EA0000000031
