AOGNOGN
HFDTE290625
HFFXA050
HFPLTPILOTINCHARGE:
HFGTYGLIDERTYPE:ASK-21
HFGIDGLIDERID:OY-XMF
HFDTM100GPSDATUM:WGS-1984
HFRFWFIRMWAREVERSION:
HFRHWHARDWAREVERSION:
HFFTYFRTYPE:OGN-FLIGHTBOOK
HFGPSGENERIC
HFPRSPRESSALTSENSOR:
HFCIDCOMPETITIONID:X1
B1113005650893N00927178EA0000000488
B1113025650915N00927182EA0000000485
B1113085650990N00927273EA0000000477
B1113145651062N00927401EA0000000468
B1113195651125N00927509EA0000000452
B1113255651215N00927664EA0000000442
B1113305651280N00927797EA0000000457
B1113355651277N00927989EA0000000467
B1113405651207N00928074EA0000000470
B1113455651181N00928038EA0000000468
B1113525651207N00927975EA0000000462
B1113595651223N00927902EA0000000468
B1114055651232N00927835EA0000000465
B1114105651243N00927772EA0000000454
B1114165651251N00927688EA0000000458
B1114255651260N00927572EA0000000446
B1114325651257N00927456EA0000000412
B1114375651255N00927356EA0000000408
B1114425651258N00927267EA0000000410
B1114485651260N00927166EA0000000429
B1114545651264N00927093EA0000000440
B1114595651269N00927029EA0000000434
B1115045651217N00926986EA0000000439
B1115095651139N00927085EA0000000445
B1115165651133N00927362EA0000000445
B1115215651198N00927472EA0000000440
B1115265651250N00927459EA0000000442
B1115325651263N00927374EA0000000443
B1115375651267N00927298EA0000000457
B1115425651265N00927233EA0000000466
B1115495651260N00927137EA0000000458
B1115555651259N00927030EA0000000480
B1116005651255N00926953EA0000000501
B1116065651259N00926873EA0000000519
B1116115651216N00926806EA0000000532
B1116165651127N00926870EA0000000545
B1116235651107N00927147EA0000000540
B1116285651172N00927255EA0000000533
B1116355651275N00927259EA0000000555
B1116405651319N00927219EA0000000570
B1116455651283N00927162EA0000000556
B1116505651198N00927242EA0000000551
B1116575651188N00927511EA0000000553
B1117025651250N00927574EA0000000563
B1117075651267N00927533EA0000000554
B1117145651261N00927425EA0000000530
B1117195651262N00927332EA0000000534
B1117255651241N00927234EA0000000540
B1117315651214N00927152EA0000000553
B1117385651195N00927061EA0000000547
B1117435651192N00926982EA0000000554
B1117555651175N00926799EA0000000587
B1118025651152N00926697EA0000000587
B1118095651136N00926598EA0000000592
B1118145651120N00926520EA0000000580
B1118195651102N00926446EA0000000585
B1118245651086N00926362EA0000000590
B1118305651068N00926271EA0000000609
B1118405651041N00926122EA0000000639
B1118535651035N00925948EA0000000655
B1119025651039N00925823EA0000000658
B1119135651039N00925681EA0000000671
B1119205651045N00925592EA0000000663
B1119265651049N00925522EA0000000671
B1119335651051N00925435EA0000000653
B1119385651054N00925363EA0000000660
B1119475651057N00925262EA0000000666
B1119565651062N00925159EA0000000650
B1120015651061N00925085EA0000000639
B1120085651061N00924988EA0000000625
B1120155651072N00924877EA0000000606
B1120215651080N00924791EA0000000607
B1120275651088N00924723EA0000000608
B1120335651105N00924660EA0000000607
B1120385651116N00924598EA0000000596
B1120435651126N00924526EA0000000591
B1120485651135N00924451EA0000000589
B1120555651145N00924359EA0000000578
B1121045651158N00924242EA0000000566
B1121095651166N00924182EA0000000554
B1121165651181N00924090EA0000000537
B1121225651189N00924022EA0000000530
B1121295651204N00923933EA0000000506
B1121345651212N00923859EA0000000502
B1121415651225N00923763EA0000000498
B1121475651239N00923686EA0000000490
B1121525651258N00923636EA0000000489
B1121575651315N00923663EA0000000469
B1122025651360N00923840EA0000000464
B1122085651365N00924092EA0000000456
B1122165651373N00924459EA0000000437
B1122215651380N00924691EA0000000445
B1122265651388N00924913EA0000000460
B1122365651396N00925328EA0000000485
B1122435651405N00925608EA0000000500
B1122485651412N00925809EA0000000502
B1122535651410N00926018EA0000000502
B1122585651392N00926229EA0000000498
B1123035651313N00926345EA0000000491
B1123105651272N00926274EA0000000502
B1123165651274N00926199EA0000000506
B1123245651275N00926106EA0000000520
B1123305651274N00926031EA0000000524
B1123355651275N00925963EA0000000525
B1123465651261N00925795EA0000000550
B1123525651258N00925711EA0000000568
B1124015651257N00925598EA0000000587
B1124095651269N00925494EA0000000588
B1124145651277N00925436EA0000000592
B1124225651293N00925334EA0000000578
B1124275651298N00925265EA0000000590
B1124365651292N00925148EA0000000577
B1124425651286N00925066EA0000000577
B1124475651281N00924999EA0000000576
B1124575651275N00924867EA0000000574
B1125095651274N00924739EA0000000564
B1125145651272N00924681EA0000000555
B1125225651276N00924594EA0000000551
B1125315651264N00924495EA0000000545
B1125445651260N00924346EA0000000541
B1125525651257N00924243EA0000000536
B1126005651260N00924138EA0000000535
B1126065651254N00924052EA0000000551
B1126175651249N00923920EA0000000557
B1126265651245N00923798EA0000000548
B1126345651243N00923680EA0000000560
B1126415651244N00923586EA0000000568
B1126475651241N00923503EA0000000573
B1126555651237N00923391EA0000000583
B1127115651242N00923177EA0000000602
B1127195651240N00923059EA0000000612
B1127255651235N00922981EA0000000639
B1127315651227N00922907EA0000000641
B1127375651221N00922812EA0000000648
B1127425651219N00922739EA0000000661
B1127505651224N00922618EA0000000663
B1128085651229N00922352EA0000000678
B1128435651250N00921876EA0000000694
B1128545651257N00921741EA0000000699
B1129035651276N00921641EA0000000692
B1129085651282N00921575EA0000000697
B1129165651291N00921468EA0000000684
B1129235651298N00921361EA0000000686
B1129295651304N00921280EA0000000691
B1129345651310N00921212EA0000000693
B1129405651320N00921135EA0000000699
B1129505651326N00920988EA0000000716
B1129575651332N00920889EA0000000739
B1130075651333N00920749EA0000000754
B1130145651343N00920653EA0000000758
B1130215651348N00920564EA0000000773
B1130285651360N00920478EA0000000791
B1130335651372N00920423EA0000000792
B1130385651423N00920460EA0000000799
B1130485651368N00920768EA0000000804
B1130535651282N00920800EA0000000795
B1130585651214N00920766EA0000000806
B1131055651210N00920687EA0000000819
B1131145651217N00920589EA0000000822
B1131195651218N00920531EA0000000831
B1131265651223N00920448EA0000000830
B1131345651222N00920345EA0000000831
B1131415651267N00920315EA0000000827
B1131505651337N00920671EA0000000831
B1132035651281N00921214EA0000000867
B1132085651254N00921416EA0000000870
B1132135651228N00921622EA0000000884
B1132185651206N00921813EA0000000899
B1132245651177N00922052EA0000000893
B1132335651122N00922428EA0000000888
B1132385651078N00922639EA0000000899
B1132435651034N00922837EA0000000916
B1132535650964N00923226EA0000000931
B1132585650934N00923419EA0000000946
B1133045650906N00923651EA0000000953
B1133095650885N00923841EA0000000959
B1133145650866N00924033EA0000000950
B1133205650836N00924280EA0000000954
B1133255650807N00924477EA0000000958
B1133305650776N00924687EA0000000962
B1133365650749N00924925EA0000000989
B1133415650724N00925125EA0000000982
B1133465650696N00925332EA0000000995
B1133525650664N00925568EA0000000984
B1133575650635N00925776EA0000000995
B1134065650587N00926113EA0000000996
B1134125650560N00926347EA0000000975
B1134175650535N00926557EA0000000973
B1134235650496N00926802EA0000000974
B1134295650443N00927035EA0000000966
B1134345650400N00927236EA0000000948
B1134435650333N00927615EA0000000932
B1134555650248N00928126EA0000000920
B1135035650194N00928465EA0000000929
B1135095650146N00928695EA0000000921
B1135145650118N00928898EA0000000903
B1135195650176N00928988EA0000000882
B1135255650203N00928910EA0000000879
B1135325650211N00928811EA0000000879
B1135395650215N00928709EA0000000878
B1135475650211N00928613EA0000000884
B1135535650210N00928532EA0000000868
B1135585650217N00928462EA0000000862
B1136035650225N00928390EA0000000857
B1136105650233N00928282EA0000000846
B1136175650239N00928162EA0000000853
B1136225650229N00928078EA0000000856
B1136305650207N00927951EA0000000842
B1136355650200N00927871EA0000000833
B1136445650207N00927751EA0000000830
B1136505650218N00927683EA0000000830
B1136555650228N00927631EA0000000828
B1137015650243N00927559EA0000000823
B1137095650260N00927465EA0000000830
B1137185650278N00927372EA0000000834
B1137255650289N00927288EA0000000831
B1137305650298N00927223EA0000000841
B1137395650297N00927111EA0000000867
B1137465650312N00927042EA0000000871
B1137525650345N00927001EA0000000877
B1138005650398N00926950EA0000000888
B1138065650437N00926911EA0000000875
B1138115650466N00926865EA0000000865
B1138175650498N00926801EA0000000847
B1138225650538N00926749EA0000000837
B1138295650595N00926677EA0000000831
B1138375650653N00926586EA0000000820
B1138435650695N00926517EA0000000821
B1138525650757N00926411EA0000000822
B1139005650808N00926321EA0000000818
B1139065650845N00926258EA0000000814
B1139115650875N00926214EA0000000807
B1139175650913N00926150EA0000000789
B1139255650961N00926062EA0000000786
B1139345651015N00925970EA0000000770
B1139405651048N00925907EA0000000765
B1139465651079N00925846EA0000000754
B1139525651113N00925787EA0000000744
B1140015651155N00925671EA0000000724
B1140085651189N00925582EA0000000723
B1140165651225N00925485EA0000000736
B1140215651241N00925434EA0000000735
B1140295651270N00925339EA0000000740
B1140355651291N00925274EA0000000746
B1140425651313N00925192EA0000000739
B1140485651330N00925128EA0000000746
B1140555651354N00925061EA0000000761
B1141025651374N00924998EA0000000762
B1141075651395N00924940EA0000000750
B1141135651417N00924862EA0000000764
B1141195651437N00924791EA0000000784
B1141255651460N00924741EA0000000789
B1141325651488N00924668EA0000000792
B1141395651506N00924604EA0000000799
B1141445651514N00924555EA0000000793
B1141495651522N00924491EA0000000776
B1141545651530N00924418EA0000000781
B1141595651539N00924358EA0000000786
B1142065651549N00924282EA0000000782
B1142165651559N00924162EA0000000778
B1142285651558N00924025EA0000000779
B1142375651553N00923913EA0000000756
B1142425651550N00923843EA0000000736
B1142505651544N00923721EA0000000733
B1142585651532N00923603EA0000000710
B1143065651516N00923478EA0000000725
B1143115651456N00923463EA0000000736
B1143185651370N00923648EA0000000734
B1143235651400N00923806EA0000000729
B1143285651439N00923816EA0000000732
B1143345651424N00923758EA0000000733
B1143395651367N00923744EA0000000728
B1143445651286N00923824EA0000000716
B1143495651245N00924001EA0000000707
B1143545651257N00924196EA0000000688
B1143595651277N00924394EA0000000682
B1144055651303N00924625EA0000000685
B1144105651328N00924808EA0000000677
B1144155651359N00924985EA0000000662
B1144225651401N00925263EA0000000641
B1144285651419N00925513EA0000000656
B1144345651447N00925740EA0000000673
B1144395651453N00925933EA0000000675
B1144445651394N00926090EA0000000665
B1144495651332N00926078EA0000000657
B1144565651398N00926098EA0000000664
B1145025651417N00926324EA0000000669
B1145075651395N00926521EA0000000661
B1145135651352N00926756EA0000000665
B1145185651315N00926946EA0000000682
B1145245651275N00927166EA0000000690
B1145305651233N00927389EA0000000682
B1145365651185N00927622EA0000000675
B1145415651140N00927830EA0000000669
B1145475651086N00928075EA0000000671
B1145525651042N00928272EA0000000672
B1145575651000N00928465EA0000000675
B1146045650943N00928714EA0000000685
B1146105650888N00928923EA0000000679
B1146155650817N00928999EA0000000680
B1146215650805N00928944EA0000000687
B1146265650853N00928931EA0000000691
B1146315650881N00928881EA0000000692
B1146385650894N00928804EA0000000702
B1146455650904N00928734EA0000000699
B1146505650910N00928686EA0000000692
B1146555650913N00928626EA0000000678
B1147015650912N00928560EA0000000671
B1147075650910N00928497EA0000000664
B1147125650911N00928442EA0000000650
B1147195650913N00928361EA0000000638
B1147245650917N00928290EA0000000618
B1147295650920N00928214EA0000000618
B1147365650924N00928123EA0000000614
B1147425650930N00928058EA0000000603
B1147495650937N00927975EA0000000594
B1147555650945N00927912EA0000000602
B1148025650958N00927851EA0000000602
B1148095650957N00927781EA0000000594
B1148195650956N00927657EA0000000600
B1148265650967N00927563EA0000000595
B1148335650974N00927473EA0000000593
B1148425650980N00927348EA0000000612
B1148475650983N00927286EA0000000625
B1148535650986N00927215EA0000000643
B1149015650988N00927132EA0000000648
B1149105650990N00927032EA0000000660
B1149155650998N00926964EA0000000656
B1149245651005N00926862EA0000000675
B1149295651008N00926806EA0000000682
B1149475651013N00926602EA0000000653
B1149535651018N00926512EA0000000640
B1149585651026N00926442EA0000000646
B1150035651036N00926384EA0000000643
B1150095651049N00926315EA0000000641
B1150145651055N00926248EA0000000650
B1150235651052N00926139EA0000000677
B1150285651059N00926073EA0000000685
B1150355651075N00925992EA0000000694
B1150425651085N00925908EA0000000694
B1150525651101N00925784EA0000000708
B1150575651107N00925728EA0000000719
B1151065651114N00925638EA0000000730
B1151115651117N00925577EA0000000730
B1151165651129N00925516EA0000000744
B1151215651141N00925468EA0000000761
B1151265651150N00925420EA0000000755
B1151345651170N00925333EA0000000752
B1151405651188N00925267EA0000000770
B1151475651208N00925193EA0000000770
B1151525651223N00925142EA0000000775
B1151575651237N00925090EA0000000769
B1152045651254N00925014EA0000000778
B1152105651261N00924949EA0000000797
B1152195651264N00924867EA0000000814
B1152265651261N00924799EA0000000788
B1152345651269N00924703EA0000000782
B1152405651277N00924643EA0000000783
B1152465651287N00924585EA0000000787
B1152515651297N00924533EA0000000783
B1153005651314N00924440EA0000000785
B1153085651326N00924363EA0000000784
B1153135651333N00924306EA0000000780
B1153185651338N00924236EA0000000776
B1153255651352N00924134EA0000000775
B1153325651361N00924039EA0000000780
B1153375651363N00923972EA0000000782
B1153425651365N00923907EA0000000785
B1153485651370N00923831EA0000000791
B1153595651399N00923713EA0000000815
B1154055651415N00923647EA0000000816
B1154115651431N00923565EA0000000826
B1154165651439N00923510EA0000000825
B1154215651446N00923450EA0000000810
B1154265651458N00923377EA0000000808
B1154335651488N00923291EA0000000827
B1154405651532N00923223EA0000000830
B1154495651575N00923135EA0000000860
B1154555651596N00923074EA0000000857
B1155015651617N00923007EA0000000861
B1155075651637N00922940EA0000000870
B1155145651672N00922867EA0000000882
B1155255651716N00922737EA0000000902
B1155355651738N00922612EA0000000912
B1155415651754N00922537EA0000000914
B1155475651765N00922462EA0000000925
B1155535651780N00922402EA0000000934
B1156005651805N00922335EA0000000919
B1156055651822N00922274EA0000000913
B1156145651850N00922164EA0000000906
B1156245651867N00922024EA0000000880
B1156315651863N00921923EA0000000862
B1156395651862N00921805EA0000000851
B1156455651868N00921728EA0000000853
B1156545651884N00921630EA0000000849
B1157015651907N00921547EA0000000839
B1157115651953N00921430EA0000000838
B1157165652015N00921442EA0000000834
B1157235652065N00921707EA0000000816
B1157285652019N00921932EA0000000810
B1157365651933N00922254EA0000000808
B1157415651889N00922455EA0000000806
B1157465651851N00922655EA0000000807
B1157535651803N00922946EA0000000784
B1158015651744N00923294EA0000000769
B1158065651704N00923497EA0000000761
B1158165651630N00923917EA0000000741
B1158245651572N00924248EA0000000726
B1158305651535N00924499EA0000000719
B1158365651489N00924743EA0000000697
B1158415651443N00924956EA0000000704
B1158475651391N00925206EA0000000709
B1158535651341N00925450EA0000000706
B1158585651300N00925660EA0000000714
B1159045651260N00925897EA0000000737
B1159095651228N00926093EA0000000731
B1159185651169N00926465EA0000000734
B1159265651112N00926793EA0000000741
B1159335651075N00927079EA0000000748
B1159385651045N00927280EA0000000746
B1159435651012N00927502EA0000000737
B1159495650970N00927769EA0000000749
B1159555650929N00928017EA0000000765
B1200005650896N00928221EA0000000772
B1200085650852N00928532EA0000000801
B1200145650810N00928761EA0000000821
B1200195650779N00928950EA0000000830
B1200255650744N00929185EA0000000822
B1200315650710N00929428EA0000000854
B1200385650676N00929700EA0000000845
B1200435650625N00929886EA0000000848
B1200485650544N00929892EA0000000830
B1200535650504N00929828EA0000000844
B1200585650508N00929769EA0000000845
B1201045650519N00929696EA0000000847
B1201095650530N00929635EA0000000848
B1201165650535N00929539EA0000000857
B1201215650538N00929481EA0000000860
B1201275650546N00929409EA0000000858
B1201395650548N00929279EA0000000864
B1201445650544N00929236EA0000000867
B1201495650546N00929195EA0000000860
B1201545650556N00929142EA0000000853
B1202005650576N00929086EA0000000868
B1202075650596N00929036EA0000000866
B1202135650614N00928982EA0000000858
B1202185650626N00928927EA0000000855
B1202275650648N00928831EA0000000859
B1202345650667N00928760EA0000000854
B1202395650680N00928713EA0000000857
B1202445650688N00928668EA0000000858
B1202495650697N00928625EA0000000861
B1202565650715N00928570EA0000000867
B1203015650718N00928520EA0000000866
B1203085650721N00928449EA0000000866
B1203185650734N00928352EA0000000878
B1203255650762N00928295EA0000000889
B1203355650801N00928202EA0000000905
B1203415650825N00928147EA0000000927
B1203465650844N00928102EA0000000921
B1203525650866N00928045EA0000000925
B1203575650877N00927983EA0000000897
B1204045650857N00927877EA0000000907
B1204105650863N00927806EA0000000908
B1204185650891N00927727EA0000000910
B1204265650924N00927656EA0000000909
B1204325650943N00927602EA0000000901
B1204405650968N00927529EA0000000912
B1204455650991N00927505EA0000000916
B1204535651022N00927449EA0000000894
B1205005651033N00927380EA0000000891
B1205055651044N00927339EA0000000882
B1205105651045N00927289EA0000000886
B1205185651045N00927211EA0000000867
B1205255651072N00927134EA0000000857
B1205315651102N00927079EA0000000860
B1205415651165N00927011EA0000000865
B1205475651193N00926963EA0000000882
B1205535651214N00926929EA0000000875
B1205585651245N00926895EA0000000863
B1206085651320N00926840EA0000000862
B1206145651363N00926809EA0000000857
B1206195651394N00926780EA0000000853
B1206255651429N00926746EA0000000846
B1206335651500N00926731EA0000000865
B1206425651581N00926720EA0000000865
B1206475651631N00926733EA0000000872
B1206535651684N00926751EA0000000883
B1206595651737N00926758EA0000000867
B1207065651801N00926737EA0000000855
B1207115651788N00926681EA0000000850
B1207165651710N00926762EA0000000865
B1207215651702N00926952EA0000000854
B1207265651754N00927008EA0000000863
B1207335651747N00926929EA0000000811
B1207385651756N00926774EA0000000741
B1207555651766N00926686EA0000000952
B1208015651716N00926696EA0000000867
B1208065651617N00926800EA0000000850
B1208115651532N00926901EA0000000853
B1208165651462N00926928EA0000000845
B1208255651455N00926841EA0000000855
B1208335651452N00926806EA0000000825
B1208405651447N00926791EA0000000827
B1208455651445N00926761EA0000000811
B1208505651466N00926772EA0000000771
B1208575651590N00926874EA0000000714
B1209025651656N00926956EA0000000760
B1209075651683N00927033EA0000000743
B1209145651785N00927138EA0000000721
B1209195651824N00927199EA0000000750
B1209245651868N00927267EA0000000695
B1209315651928N00927265EA0000000691
B1209385651854N00927248EA0000000699
B1209435651806N00927269EA0000000681
B1209485651749N00927236EA0000000660
B1209535651711N00927236EA0000000689
B1209585651682N00927225EA0000000621
B1210055651654N00927129EA0000000657
B1210105651643N00927144EA0000000635
B1210155651639N00927066EA0000000578
B1210225651581N00926982EA0000000613
B1210295651503N00927006EA0000000619
B1210345651443N00927004EA0000000569
B1210395651379N00926980EA0000000593
B1210445651334N00926998EA0000000582
B1210495651277N00926956EA0000000525
B1210565651235N00926899EA0000000568
B1211015651241N00926893EA0000000527
B1211065651276N00926862EA0000000545
B1211135651325N00926857EA0000000525
B1211185651376N00926882EA0000000513
B1211255651464N00926975EA0000000506
B1211315651481N00927189EA0000000500
B1211365651421N00927362EA0000000491
B1211415651340N00927464EA0000000485
B1211475651265N00927452EA0000000462
B1211525651276N00927401EA0000000451
B1211575651333N00927451EA0000000452
B1212055651353N00927749EA0000000445
B1212105651291N00927916EA0000000440
B1212175651190N00927965EA0000000426
B1212255651147N00927888EA0000000414
B1212325651146N00927823EA0000000404
B1212385651151N00927774EA0000000399
B1212435651150N00927719EA0000000382
B1212485651152N00927665EA0000000384
B1212575651169N00927594EA0000000365
B1213065651196N00927521EA0000000365
B1213135651257N00927539EA0000000361
B1213195651317N00927574EA0000000349
B1213255651336N00927526EA0000000337
B1213315651329N00927457EA0000000328
B1213375651318N00927393EA0000000318
B1213425651300N00927340EA0000000308
B1213495651271N00927274EA0000000305
B1213575651253N00927188EA0000000301
B1214025651192N00927180EA0000000285
B1214075651147N00927388EA0000000258
B1214125651139N00927646EA0000000256
B1214195651123N00927979EA0000000259
B1214255651090N00928257EA0000000243
B1214325651001N00928544EA0000000235
B1214395650881N00928785EA0000000232
B1214455650762N00928851EA0000000216
B1214535650612N00928844EA0000000214
B1214585650602N00928743EA0000000205
B1215075650628N00928568EA0000000189
B1215145650648N00928440EA0000000163
B1215195650665N00928352EA0000000136
B1215275650686N00928208EA0000000092
B1215325650701N00928113EA0000000067
B1215385650718N00927990EA0000000037
B1215445650733N00927877EA0000000030
