AOGNOGN
HFDTE240825
HFFXA050
HFPLTPILOTINCHARGE:
HFGTYGLIDERTYPE:PA-25 Pawnee
HFGIDGLIDERID:OY-CYP
HFDTM100GPSDATUM:WGS-1984
HFRFWFIRMWAREVERSION:
HFRHWHARDWAREVERSION:
HFFTYFRTYPE:OGN-FLIGHTBOOK
HFGPSGENERIC
HFPRSPRESSALTSENSOR:
HFCIDCOMPETITIONID:YP
B1050295553131N01213865EA0000000016
B1050335553137N01213778EA0000000016
B1050395553149N01213618EA0000000022
B1050475553162N01213400EA0000000061
B1050535553161N01213247EA0000000078
B1050595553120N01213101EA0000000098
B1051045553053N01213008EA0000000113
B1051105552950N01212955EA0000000138
B1051225552717N01213006EA0000000183
B1051295552581N01213043EA0000000208
B1051385552409N01213079EA0000000235
B1051435552311N01213102EA0000000253
B1051485552217N01213125EA0000000274
B1051545552105N01213152EA0000000294
B1052015551970N01213174EA0000000320
B1052115551786N01213135EA0000000360
B1052165551723N01213042EA0000000380
B1052225551697N01212889EA0000000398
B1052295551738N01212721EA0000000412
B1052445551880N01212407EA0000000457
B1052505551941N01212284EA0000000473
B1052555551989N01212178EA0000000491
B1053015552047N01212055EA0000000516
B1053065552088N01211952EA0000000533
B1053115552119N01211838EA0000000549
B1053185552161N01211669EA0000000564
B1053245552194N01211516EA0000000586
B1053295552215N01211392EA0000000604
B1053365552237N01211218EA0000000625
B1053455552274N01210990EA0000000642
B1053545552406N01211076EA0000000611
B1053595552412N01211286EA0000000586
B1054065552355N01211582EA0000000546
B1054125552311N01211840EA0000000522
B1054195552297N01212158EA0000000487
B1054315552295N01212724EA0000000446
B1054365552303N01212958EA0000000421
B1054435552328N01213280EA0000000382
B1054545552385N01213781EA0000000325
B1055005552418N01214047EA0000000308
B1055075552454N01214343EA0000000281
B1055145552493N01214608EA0000000260
B1055195552554N01214761EA0000000233
B1055245552644N01214828EA0000000208
B1055315552769N01214794EA0000000177
B1055405552907N01214659EA0000000138
B1055455552970N01214561EA0000000115
B1055515553038N01214432EA0000000092
B1055595553120N01214254EA0000000058
B1056085553135N01214023EA0000000017
B1056135553129N01213905EA0000000015
B1056195553137N01213797EA0000000015
B1056255553142N01213734EA0000000016
