AOGNOGN
HFDTE240825
HFFXA050
HFPLTPILOTINCHARGE:
HFGTYGLIDERTYPE:ASK-21
HFGIDGLIDERID:OY-XKI
HFDTM100GPSDATUM:WGS-1984
HFRFWFIRMWAREVERSION:
HFRHWHARDWAREVERSION:
HFFTYFRTYPE:OGN-FLIGHTBOOK
HFGPSGENERIC
HFPRSPRESSALTSENSOR:
HFCIDCOMPETITIONID:KI
B1136495553124N01213963EA0000000014
B1136525553126N01213914EA0000000015
B1136595553138N01213759EA0000000016
B1137075553152N01213553EA0000000040
B1137155553161N01213358EA0000000072
B1137205553163N01213238EA0000000085
B1137255553154N01213119EA0000000100
B1137325553083N01212974EA0000000115
B1137375553007N01212901EA0000000127
B1137455552871N01212815EA0000000154
B1137515552757N01212795EA0000000174
B1137575552642N01212789EA0000000208
B1138025552551N01212793EA0000000244
B1138085552442N01212813EA0000000268
B1138205552227N01212811EA0000000302
B1138365551977N01212662EA0000000351
B1138415551936N01212551EA0000000370
B1138485551922N01212385EA0000000391
B1138545551940N01212244EA0000000400
B1139015551974N01212085EA0000000415
B1139065551996N01211970EA0000000423
B1139115552025N01211859EA0000000433
B1139175552073N01211736EA0000000454
B1139225552117N01211637EA0000000471
B1139275552157N01211527EA0000000489
B1139325552200N01211420EA0000000518
B1139395552259N01211270EA0000000552
B1139445552292N01211154EA0000000580
B1139505552318N01211012EA0000000606
B1139565552340N01210869EA0000000639
B1140025552351N01210725EA0000000656
B1140075552293N01210675EA0000000667
B1140135552225N01210822EA0000000675
B1140215552200N01211084EA0000000672
B1140275552183N01211298EA0000000671
B1140335552168N01211509EA0000000687
B1140385552159N01211672EA0000000698
B1140435552151N01211839EA0000000701
B1140515552139N01212111EA0000000714
B1140585552132N01212350EA0000000712
B1141045552121N01212558EA0000000711
B1141145552061N01212902EA0000000702
B1141215552026N01213154EA0000000698
B1141265552020N01213329EA0000000701
B1141315552041N01213488EA0000000698
B1141385552017N01213721EA0000000694
B1141445551980N01213920EA0000000698
B1141525551922N01214180EA0000000702
B1141575551886N01214339EA0000000702
B1142045551814N01214525EA0000000683
B1142095551743N01214509EA0000000672
B1142165551734N01214381EA0000000659
B1142245551832N01214372EA0000000654
B1142295551877N01214491EA0000000653
B1142375551837N01214723EA0000000640
B1142465551716N01214730EA0000000616
B1142525551723N01214617EA0000000598
B1142575551751N01214523EA0000000594
B1143025551774N01214429EA0000000589
B1143095551786N01214295EA0000000583
B1143195551758N01214107EA0000000569
B1143245551762N01214015EA0000000561
B1143305551764N01213908EA0000000557
B1143365551766N01213791EA0000000540
B1143435551770N01213638EA0000000521
B1143485551776N01213528EA0000000525
B1143535551782N01213422EA0000000532
B1144025551787N01213256EA0000000538
B1144105551829N01213135EA0000000532
B1144185551874N01213011EA0000000546
B1144245551906N01212920EA0000000542
B1144335551954N01212777EA0000000536
B1144385551972N01212686EA0000000545
B1144445551981N01212566EA0000000551
B1144495552021N01212496EA0000000552
B1144545552087N01212462EA0000000550
B1145015552103N01212330EA0000000567
B1145065552030N01212360EA0000000581
B1145115552022N01212513EA0000000589
B1145185552109N01212550EA0000000592
B1145265552073N01212418EA0000000594
B1145315551988N01212443EA0000000601
B1145365551946N01212595EA0000000603
B1145535552151N01212726EA0000000618
B1145585552149N01212648EA0000000623
B1146035552097N01212627EA0000000623
B1146095552033N01212768EA0000000613
B1146145552059N01212919EA0000000623
B1146195552128N01212951EA0000000629
B1146265552174N01212843EA0000000619
B1146335552205N01212702EA0000000598
B1146405552219N01212542EA0000000599
B1146455552217N01212431EA0000000592
B1146535552209N01212245EA0000000577
B1147015552196N01212047EA0000000578
B1147075552183N01211901EA0000000587
B1147145552196N01211747EA0000000609
B1147215552201N01211614EA0000000616
B1147295552222N01211460EA0000000619
B1147345552237N01211365EA0000000630
B1147405552248N01211261EA0000000635
B1147475552260N01211142EA0000000630
B1147565552278N01210955EA0000000639
B1148015552302N01210873EA0000000637
B1148085552345N01210760EA0000000631
B1148185552416N01210604EA0000000622
B1148255552465N01210496EA0000000613
B1148355552445N01210332EA0000000616
B1148425552348N01210400EA0000000612
B1148495552313N01210610EA0000000607
B1149035552256N01211049EA0000000584
B1149085552231N01211220EA0000000576
B1149175552185N01211533EA0000000595
B1149225552161N01211693EA0000000605
B1149285552130N01211881EA0000000619
B1149365552089N01212116EA0000000645
B1149425552059N01212284EA0000000650
B1149495552020N01212484EA0000000657
B1149545551996N01212631EA0000000656
B1150015551962N01212853EA0000000654
B1150115551912N01213163EA0000000676
B1150165551889N01213314EA0000000679
B1150235551857N01213526EA0000000680
B1150285551831N01213684EA0000000688
B1150365551798N01213923EA0000000711
B1150445551771N01214150EA0000000711
B1151005551713N01214626EA0000000716
B1151065551689N01214808EA0000000721
B1151145551597N01214970EA0000000721
B1151195551528N01214967EA0000000727
B1151255551488N01214877EA0000000724
B1151335551528N01214745EA0000000713
B1151385551548N01214654EA0000000711
B1151435551541N01214548EA0000000702
B1151485551562N01214451EA0000000698
B1151545551604N01214343EA0000000683
B1152085551688N01214125EA0000000693
B1152145551720N01214042EA0000000694
B1152225551763N01213927EA0000000684
B1152275551785N01213845EA0000000688
B1152325551804N01213761EA0000000691
B1152415551829N01213604EA0000000706
B1152535551853N01213414EA0000000707
B1152585551864N01213325EA0000000712
B1153075551879N01213178EA0000000726
B1153135551889N01213079EA0000000728
B1153205551903N01212959EA0000000731
B1153255551912N01212871EA0000000736
B1153305551918N01212782EA0000000734
B1153355551924N01212696EA0000000732
B1153415551951N01212601EA0000000723
B1153505551897N01212452EA0000000703
B1153555551846N01212376EA0000000698
B1154005551804N01212303EA0000000698
B1154055551768N01212240EA0000000700
B1154105551732N01212169EA0000000691
B1154175551674N01212067EA0000000713
B1154225551635N01211998EA0000000722
B1154285551592N01211909EA0000000727
B1154395551517N01211735EA0000000712
B1154465551464N01211617EA0000000703
B1154525551416N01211502EA0000000698
B1155045551296N01211315EA0000000677
B1155125551169N01211449EA0000000660
B1155235551002N01211695EA0000000637
B1155295550910N01211821EA0000000633
B1155345550831N01211887EA0000000626
B1155435550684N01212009EA0000000608
B1155485550606N01212092EA0000000600
B1155545550547N01212266EA0000000592
B1155595550512N01212426EA0000000592
B1156065550465N01212661EA0000000600
B1156125550427N01212855EA0000000617
B1156195550397N01213060EA0000000614
B1156255550375N01213249EA0000000593
B1156325550412N01213446EA0000000579
B1156385550489N01213479EA0000000563
B1156455550581N01213446EA0000000558
B1156505550647N01213416EA0000000555
B1156565550725N01213360EA0000000554
B1157035550814N01213285EA0000000544
B1157105550894N01213217EA0000000538
B1157155550944N01213164EA0000000530
B1157245551027N01213066EA0000000514
B1157295551070N01213013EA0000000505
B1157375551140N01212934EA0000000479
B1157445551236N01212947EA0000000466
B1157505551323N01212987EA0000000468
B1157565551406N01213021EA0000000476
B1158015551472N01213044EA0000000478
B1158065551537N01213063EA0000000476
B1158155551651N01213070EA0000000465
B1158215551723N01213083EA0000000458
B1158295551822N01213157EA0000000427
B1158385551938N01213256EA0000000403
B1158435551998N01213332EA0000000404
B1158485552011N01213483EA0000000396
B1158545551933N01213611EA0000000400
B1158595551862N01213602EA0000000394
B1159055551818N01213505EA0000000395
B1159105551835N01213418EA0000000379
B1159155551895N01213384EA0000000364
B1159205551972N01213418EA0000000356
B1159275552080N01213442EA0000000367
B1159345552172N01213443EA0000000403
B1159395552216N01213407EA0000000408
B1159445552198N01213328EA0000000399
B1159495552126N01213327EA0000000399
B1159545552075N01213451EA0000000419
B1200015552117N01213614EA0000000437
B1200075552175N01213579EA0000000444
B1200175552086N01213522EA0000000445
B1200225552042N01213648EA0000000457
B1200275552064N01213779EA0000000471
B1200345552134N01213781EA0000000483
B1200395552127N01213699EA0000000474
B1200455552037N01213697EA0000000472
B1200515551980N01213868EA0000000491
B1200565552012N01214005EA0000000508
B1201015552071N01214011EA0000000518
B1201085552055N01213900EA0000000526
B1201135551980N01213928EA0000000534
B1201195551953N01214106EA0000000551
B1201255552016N01214195EA0000000563
B1201315552040N01214105EA0000000565
B1201375551959N01214082EA0000000577
B1201425551911N01214214EA0000000585
B1201495551968N01214364EA0000000598
B1201555552012N01214287EA0000000602
B1202005551961N01214219EA0000000606
B1202055551887N01214282EA0000000613
B1202105551873N01214440EA0000000616
B1202175551961N01214532EA0000000624
B1202225551998N01214448EA0000000628
B1202275551974N01214355EA0000000639
B1202325551902N01214357EA0000000639
B1202375551848N01214475EA0000000649
B1202425551865N01214617EA0000000654
B1202515551960N01214609EA0000000668
B1202575551929N01214517EA0000000670
B1203025551858N01214520EA0000000667
B1203075551780N01214544EA0000000668
B1203125551721N01214493EA0000000668
B1203205551738N01214334EA0000000685
B1203315551790N01214124EA0000000684
B1203375551808N01213989EA0000000672
B1203515551820N01213725EA0000000642
B1203585551821N01213570EA0000000652
B1204055551801N01213443EA0000000652
B1204115551786N01213328EA0000000621
B1204185551784N01213157EA0000000632
B1204275551774N01212971EA0000000651
B1204335551758N01212856EA0000000639
B1204405551711N01212729EA0000000604
B1204455551670N01212643EA0000000563
B1204505551644N01212540EA0000000539
B1204585551600N01212377EA0000000524
B1205085551565N01212188EA0000000470
B1205155551562N01212031EA0000000442
B1205225551559N01211887EA0000000447
B1205275551567N01211801EA0000000443
B1205325551614N01211759EA0000000431
B1205405551711N01211714EA0000000415
B1205565551907N01211617EA0000000419
B1206035551984N01211559EA0000000419
B1206095552056N01211542EA0000000413
B1206215552216N01211641EA0000000391
B1206325552299N01211889EA0000000409
B1206375552246N01212006EA0000000410
B1206435552160N01212001EA0000000413
B1206485552141N01211920EA0000000402
B1206535552196N01211867EA0000000384
B1207065552399N01211930EA0000000385
B1207135552489N01211960EA0000000383
B1207185552548N01212026EA0000000379
B1207245552555N01212212EA0000000366
B1207325552526N01212469EA0000000368
B1207415552416N01212544EA0000000355
B1207465552419N01212460EA0000000351
B1207515552476N01212461EA0000000349
B1207565552515N01212580EA0000000351
B1208015552488N01212731EA0000000345
B1208065552417N01212799EA0000000342
B1208125552363N01212729EA0000000331
B1208175552403N01212665EA0000000322
B1208225552471N01212706EA0000000330
B1208295552493N01212908EA0000000329
B1208345552468N01213072EA0000000324
B1208395552514N01213179EA0000000316
B1208465552563N01213086EA0000000299
B1208535552500N01212978EA0000000302
B1208595552420N01212933EA0000000293
B1209055552401N01212827EA0000000286
B1209105552434N01212752EA0000000275
B1209165552516N01212754EA0000000258
B1209215552560N01212886EA0000000251
B1209275552533N01213101EA0000000237
B1209325552508N01213285EA0000000229
B1209385552481N01213506EA0000000225
B1209435552461N01213684EA0000000220
B1209535552425N01214039EA0000000209
B1209585552428N01214206EA0000000213
B1210045552480N01214351EA0000000205
B1210105552552N01214470EA0000000193
B1210155552615N01214565EA0000000184
B1210225552709N01214682EA0000000172
B1210275552782N01214755EA0000000162
B1210335552873N01214801EA0000000163
B1210385552942N01214805EA0000000160
B1210445552981N01214701EA0000000126
B1210525552994N01214491EA0000000083
B1211015553011N01214281EA0000000050
B1211095553025N01214099EA0000000018
B1211155553035N01213987EA0000000016
