AOGNOGN
HFDTE240825
HFFXA050
HFPLTPILOTINCHARGE:
HFGTYGLIDERTYPE:ASK-21
HFGIDGLIDERID:OY-XKI
HFDTM100GPSDATUM:WGS-1984
HFRFWFIRMWAREVERSION:
HFRHWHARDWAREVERSION:
HFFTYFRTYPE:OGN-FLIGHTBOOK
HFGPSGENERIC
HFPRSPRESSALTSENSOR:
HFCIDCOMPETITIONID:KI
B1301195553130N01213831EA0000000015
B1301195553130N01213831EA0000000015
B1301245553137N01213709EA0000000015
B1301305553148N01213543EA0000000027
B1301365553161N01213380EA0000000050
B1301435553173N01213202EA0000000069
B1301495553217N01213068EA0000000082
B1301545553282N01212993EA0000000092
B1302015553404N01212969EA0000000112
B1302065553493N01212976EA0000000135
B1302125553594N01212972EA0000000161
B1302175553677N01212953EA0000000176
B1302245553771N01212864EA0000000194
B1302315553833N01212728EA0000000222
B1302365553874N01212634EA0000000236
B1302415553916N01212532EA0000000253
B1302475553965N01212418EA0000000279
B1302525554005N01212321EA0000000292
B1302585554053N01212205EA0000000309
B1303055554105N01212078EA0000000337
B1303115554150N01211960EA0000000349
B1303185554198N01211808EA0000000367
B1303245554249N01211690EA0000000388
B1303295554293N01211589EA0000000404
B1303355554344N01211468EA0000000424
B1303415554394N01211350EA0000000441
B1303465554442N01211254EA0000000465
B1303525554514N01211158EA0000000490
B1303575554597N01211136EA0000000502
B1304025554677N01211194EA0000000521
B1304095554745N01211382EA0000000539
B1304155554798N01211539EA0000000540
B1304215554874N01211637EA0000000544
B1304315554992N01211600EA0000000543
B1304365555012N01211512EA0000000537
B1304435555062N01211388EA0000000528
B1304485555081N01211288EA0000000535
B1304535555088N01211224EA0000000557
B1305015555107N01211101EA0000000519
B1305075555108N01210969EA0000000513
B1305125555077N01210862EA0000000500
B1305175555017N01210771EA0000000507
B1305225554949N01210720EA0000000514
B1305485554476N01210859EA0000000458
B1305535554385N01210894EA0000000482
B1306015554256N01210942EA0000000484
B1306085554157N01211075EA0000000473
B1306135554155N01211235EA0000000472
B1306195554225N01211321EA0000000479
B1306275554325N01211274EA0000000478
B1306345554388N01211180EA0000000493
B1306395554377N01211086EA0000000500
B1306445554315N01211035EA0000000502
B1306505554220N01211091EA0000000502
B1307015554139N01211408EA0000000481
B1307085554044N01211580EA0000000469
B1307135553964N01211552EA0000000461
B1307185553884N01211492EA0000000453
B1307245553775N01211479EA0000000457
B1307295553683N01211489EA0000000459
B1307345553591N01211503EA0000000476
B1307395553506N01211520EA0000000487
B1307445553424N01211507EA0000000484
B1307535553369N01211333EA0000000472
B1307585553322N01211257EA0000000458
B1308035553241N01211324EA0000000458
B1308085553230N01211478EA0000000454
B1308155553307N01211551EA0000000429
B1308205553325N01211475EA0000000424
B1308315553394N01211394EA0000000417
B1308365553417N01211536EA0000000409
B1308415553359N01211663EA0000000399
B1308465553276N01211651EA0000000379
B1308535553175N01211520EA0000000349
B1308595553073N01211411EA0000000338
B1309045552971N01211376EA0000000331
B1309095552864N01211410EA0000000330
B1309145552778N01211488EA0000000363
B1309195552704N01211580EA0000000358
B1309315552596N01211929EA0000000342
B1309375552569N01212131EA0000000328
B1309445552531N01212373EA0000000319
B1309505552485N01212571EA0000000321
B1309555552426N01212700EA0000000318
B1310005552359N01212819EA0000000308
B1310055552331N01212975EA0000000300
B1310125552392N01213143EA0000000279
B1310175552453N01213140EA0000000269
B1310225552480N01213057EA0000000254
B1310285552481N01212923EA0000000238
B1310345552509N01212798EA0000000236
B1310405552542N01212681EA0000000235
B1310455552601N01212639EA0000000231
B1310505552672N01212690EA0000000224
B1310565552738N01212835EA0000000207
B1311045552784N01213100EA0000000188
B1311105552795N01213318EA0000000178
B1311165552788N01213539EA0000000171
B1311265552728N01213885EA0000000161
B1311345552663N01214156EA0000000145
B1311395552638N01214336EA0000000143
B1311445552658N01214510EA0000000135
B1311505552724N01214679EA0000000134
B1311555552797N01214743EA0000000132
B1312005552876N01214750EA0000000129
B1312055552938N01214702EA0000000137
B1312115552966N01214584EA0000000122
B1312175552984N01214454EA0000000095
B1312265553015N01214249EA0000000055
B1312385553045N01213978EA0000000016
