AOGNOGN
HFDTE240825
HFFXA050
HFPLTPILOTINCHARGE:
HFGTYGLIDERTYPE:ASK-21
HFGIDGLIDERID:OY-XKI
HFDTM100GPSDATUM:WGS-1984
HFRFWFIRMWAREVERSION:
HFRHWHARDWAREVERSION:
HFFTYFRTYPE:OGN-FLIGHTBOOK
HFGPSGENERIC
HFPRSPRESSALTSENSOR:
HFCIDCOMPETITIONID:KI
B0943255553107N01214005EA0000000017
B0943275553109N01213962EA0000000023
B0943325553116N01213823EA0000000102
B0943375553123N01213683EA0000000195
B0943425553128N01213563EA0000000268
B0943475553132N01213451EA0000000333
B0943525553139N01213335EA0000000380
B0943585553146N01213192EA0000000404
B0944045553152N01213068EA0000000397
B0944095553156N01212970EA0000000388
B0944145553137N01212872EA0000000382
B0944215553053N01212804EA0000000376
B0944275552972N01212762EA0000000374
B0944345552883N01212699EA0000000374
B0944405552809N01212641EA0000000371
B0944465552738N01212584EA0000000362
B0944555552634N01212493EA0000000353
B0945005552562N01212498EA0000000355
B0945055552514N01212622EA0000000350
B0945125552551N01212825EA0000000335
B0945175552615N01212861EA0000000335
B0945225552649N01212796EA0000000335
B0945295552614N01212690EA0000000328
B0945355552553N01212609EA0000000322
B0945425552526N01212478EA0000000311
B0945475552581N01212425EA0000000309
B0945535552660N01212513EA0000000306
B0945595552664N01212700EA0000000295
B0946075552563N01212760EA0000000282
B0946125552520N01212686EA0000000280
B0946195552464N01212579EA0000000275
B0946255552419N01212488EA0000000268
B0946405552454N01212323EA0000000244
B0946455552503N01212452EA0000000235
B0946535552564N01212694EA0000000228
B0947015552605N01212963EA0000000217
B0947075552578N01213170EA0000000211
B0947175552502N01213506EA0000000210
B0947225552466N01213680EA0000000204
B0947275552433N01213856EA0000000198
B0947335552397N01214065EA0000000189
B0947415552422N01214346EA0000000182
B0947495552487N01214609EA0000000175
B0948015552672N01214771EA0000000161
B0948075552762N01214820EA0000000137
B0948125552839N01214853EA0000000129
B0948185552927N01214844EA0000000114
B0948235552958N01214737EA0000000101
B0948305552978N01214567EA0000000078
B0948355552993N01214450EA0000000061
B0948415553013N01214311EA0000000043
B0948465553028N01214203EA0000000031
B0948525553046N01214083EA0000000019
B0948585553060N01213980EA0000000017
