AOGNOGN
HFDTE210625
HFFXA050
HFPLTPILOTINCHARGE:
HFGTYGLIDERTYPE:SZD-51 Junior
HFGIDGLIDERID:OY-RXB
HFDTM100GPSDATUM:WGS-1984
HFRFWFIRMWAREVERSION:
HFRHWHARDWAREVERSION:
HFFTYFRTYPE:OGN-FLIGHTBOOK
HFGPSGENERIC
HFPRSPRESSALTSENSOR:
HFCIDCOMPETITIONID:RB
B1200205720619N01024871EA0000000040
B1200255720643N01024782EA0000000116
B1200335720675N01024651EA0000000252
B1200405720715N01024540EA0000000344
B1200465720755N01024435EA0000000411
B1201225720592N01023994EA0000000414
B1201345720537N01023821EA0000000399
B1201395720520N01023748EA0000000398
B1201455720503N01023668EA0000000391
B1201595720514N01023464EA0000000378
B1202315720496N01022953EA0000000341
B1202495720609N01022767EA0000000320
B1202545720659N01022912EA0000000309
B1203055720586N01023251EA0000000294
B1203185720434N01023211EA0000000288
B1203245720423N01023115EA0000000278
B1203295720451N01023042EA0000000267
B1203345720502N01023003EA0000000266
B1203395720561N01022989EA0000000260
B1203525720722N01022941EA0000000238
B1204075720628N01022765EA0000000223
B1204225720472N01023234EA0000000191
B1204285720451N01023482EA0000000181
B1204385720381N01023883EA0000000173
B1204465720310N01024188EA0000000151
B1204585720251N01024676EA0000000124
B1205035720272N01024885EA0000000114
B1205085720329N01025054EA0000000109
B1205225720543N01025199EA0000000095
B1205365720630N01024923EA0000000029
B1205415720654N01024832EA0000000027
