AOGNOGN
HFDTE210625
HFFXA050
HFPLTPILOTINCHARGE:
HFGTYGLIDERTYPE:SZD-51 Junior
HFGIDGLIDERID:OY-RXB
HFDTM100GPSDATUM:WGS-1984
HFRFWFIRMWAREVERSION:
HFRHWHARDWAREVERSION:
HFFTYFRTYPE:OGN-FLIGHTBOOK
HFGPSGENERIC
HFPRSPRESSALTSENSOR:
HFCIDCOMPETITIONID:RB
B1141515720622N01024887EA0000000041
B1141565720645N01024785EA0000000124
B1142065720686N01024635EA0000000296
B1142185720751N01024437EA0000000424
B1142265720790N01024288EA0000000449
B1142325720795N01024196EA0000000447
B1142385720730N01024121EA0000000428
B1142435720643N01024153EA0000000432
B1142545720480N01024191EA0000000421
B1143005720415N01024147EA0000000418
B1143075720350N01024093EA0000000404
B1143365720230N01023707EA0000000377
B1143445720253N01023617EA0000000363
B1143505720266N01023545EA0000000358
B1143565720277N01023473EA0000000349
B1144125720299N01023303EA0000000347
B1144195720294N01023225EA0000000341
B1144525720462N01022958EA0000000294
B1145065720647N01023117EA0000000279
B1145155720759N01023123EA0000000278
B1145205720766N01023040EA0000000265
B1145265720726N01022948EA0000000257
B1145345720628N01022906EA0000000253
B1145435720511N01023107EA0000000245
B1145485720470N01023283EA0000000229
B1145545720422N01023520EA0000000205
B1146025720343N01023838EA0000000189
B1146105720250N01024133EA0000000178
B1146195720201N01024506EA0000000176
B1146335720259N01025059EA0000000132
B1146425720405N01025217EA0000000113
B1146575720590N01025068EA0000000066
B1147025720617N01024966EA0000000039
B1147105720658N01024820EA0000000028
B1147155720674N01024759EA0000000030
