AOGNOGN
HFDTE210625
HFFXA050
HFPLTPILOTINCHARGE:
HFGTYGLIDERTYPE:SZD-50 Puchacz
HFGIDGLIDERID:OY-XRA
HFDTM100GPSDATUM:WGS-1984
HFRFWFIRMWAREVERSION:
HFRHWHARDWAREVERSION:
HFFTYFRTYPE:OGN-FLIGHTBOOK
HFGPSGENERIC
HFPRSPRESSALTSENSOR:
HFCIDCOMPETITIONID:RA
B0952095720623N01024870EA0000000039
B0952105720628N01024850EA0000000050
B0952175720670N01024741EA0000000149
B0955595720617N01024930EA0000000036
B0956055720648N01024808EA0000000024
B1000165720682N01024772EA0000000030
