AOGNOGN
HFDTE170825
HFFXA050
HFPLTPILOTINCHARGE:
HFGTYGLIDERTYPE:ASK-21
HFGIDGLIDERID:OY-XKO
HFDTM100GPSDATUM:WGS-1984
HFRFWFIRMWAREVERSION:
HFRHWHARDWAREVERSION:
HFFTYFRTYPE:OGN-FLIGHTBOOK
HFGPSGENERIC
HFPRSPRESSALTSENSOR:
HFCIDCOMPETITIONID:R2
B1107095514624N01203478EA0000000520
B1107195514476N01203609EA0000000531
B1107195514476N01203609EA0000000531
B1107565514385N01203535EA0000000559
B1108215514330N01203512EA0000000575
B1108285514230N01203625EA0000000569
B1109175514343N01203720EA0000000572
B1109395514502N01204081EA0000000589
B1110035514467N01203848EA0000000582
B1110525514296N01204248EA0000000558
B1111435514107N01204314EA0000000634
B1112075514053N01204331EA0000000671
B1112275513993N01204411EA0000000706
B1112485513922N01204469EA0000000733
B1113115513824N01204576EA0000000751
B1113395513769N01204617EA0000000795
B1114335513605N01204756EA0000000835
B1118275514028N01200414EA0000000601
B1118395513824N01200598EA0000000572
B1118445513796N01200750EA0000000565
B1118595513831N01201167EA0000000556
B1126365513810N01205884EA0000000516
B1127095513726N01205853EA0000000518
B1128195514055N01206042EA0000000550
B1128485513965N01206331EA0000000565
B1129165513881N01206511EA0000000580
B1132465515065N01204667EA0000000476
B1133125514985N01204717EA0000000492
B1133385514882N01204810EA0000000532
B1134055514789N01204852EA0000000572
B1134315514714N01204868EA0000000593
B1134375514685N01205030EA0000000603
B1135015514621N01205053EA0000000644
B1135285514577N01205104EA0000000679
B1135565514497N01205213EA0000000728
B1136285514398N01205258EA0000000769
B1136565514274N01205328EA0000000816
B1137015514251N01205460EA0000000821
B1137295514174N01205436EA0000000835
B1137345514156N01205555EA0000000849
B1138065514009N01205644EA0000000862
B1138315513909N01205697EA0000000878
B1139325513680N01205926EA0000000903
B1140485513424N01206217EA0000000879
B1141215513356N01206336EA0000000866
B1141575513355N01206525EA0000000850
B1142125513413N01206854EA0000000853
B1142175513463N01206893EA0000000852
B1144335514315N01205767EA0000000726
B1145015514147N01205781EA0000000779
B1145275514032N01205861EA0000000814
B1148095514670N01203854EA0000000690
B1148235514799N01204037EA0000000706
B1148345514911N01204149EA0000000690
B1148415514992N01204217EA0000000683
B1149025515233N01204429EA0000000654
B1150565514979N01205611EA0000000631
B1151205514904N01205555EA0000000633
B1154325514918N01204998EA0000000391
B1156075515862N01205656EA0000000288
