AOGNOGN
HFDTE220625
HFFXA050
HFPLTPILOTINCHARGE:
HFGTYGLIDERTYPE:ASK-21
HFGIDGLIDERID:OY-XKO
HFDTM100GPSDATUM:WGS-1984
HFRFWFIRMWAREVERSION:
HFRHWHARDWAREVERSION:
HFFTYFRTYPE:OGN-FLIGHTBOOK
HFGPSGENERIC
HFPRSPRESSALTSENSOR:
HFCIDCOMPETITIONID:R2
B1142565515080N01203409EA0000000038
B1142585515080N01203442EA0000000039
B1143035515083N01203548EA0000000092
B1143095515083N01203674EA0000000196
B1143155515088N01203822EA0000000285
B1143205515095N01203967EA0000000355
B1143265515100N01204168EA0000000391
B1143325515111N01204355EA0000000397
B1143425515133N01204628EA0000000396
B1143495515104N01204772EA0000000388
B1143565515034N01204719EA0000000392
B1144015515035N01204582EA0000000380
B1144065515108N01204471EA0000000372
B1144115515201N01204478EA0000000369
B1144165515257N01204574EA0000000362
B1144315515329N01204930EA0000000350
B1144365515406N01204979EA0000000343
B1144425515520N01204972EA0000000336
B1144475515608N01204951EA0000000339
B1144555515742N01204905EA0000000328
B1145005515829N01204868EA0000000321
B1145095515979N01204885EA0000000310
B1145145515988N01204986EA0000000314
B1145195515934N01205004EA0000000300
B1145245515910N01204873EA0000000292
B1145295515979N01204766EA0000000286
B1145365516104N01204735EA0000000282
B1145415516189N01204695EA0000000283
B1145475516221N01204533EA0000000275
B1145535516198N01204376EA0000000272
B1146015516150N01204176EA0000000255
B1146065516116N01204045EA0000000247
B1146125516072N01203892EA0000000240
B1146175516030N01203768EA0000000230
B1146255515945N01203592EA0000000219
B1146335515847N01203450EA0000000204
B1146425515728N01203305EA0000000191
B1146505515619N01203195EA0000000186
B1146575515533N01203071EA0000000179
B1147065515419N01202914EA0000000165
B1147125515336N01202827EA0000000153
B1147185515245N01202788EA0000000149
B1147235515174N01202780EA0000000140
B1147305515070N01202785EA0000000130
B1147355514999N01202801EA0000000125
B1147405514949N01202876EA0000000120
B1147455514948N01203001EA0000000109
B1147555514988N01203246EA0000000069
B1148005515009N01203376EA0000000051
B1148055515034N01203497EA0000000040
B1148135515067N01203651EA0000000038
