AOGNOGN
HFDTE220625
HFFXA050
HFPLTPILOTINCHARGE:
HFGTYGLIDERTYPE:ASK-23
HFGIDGLIDERID:OY-RKX
HFDTM100GPSDATUM:WGS-1984
HFRFWFIRMWAREVERSION:
HFRHWHARDWAREVERSION:
HFFTYFRTYPE:OGN-FLIGHTBOOK
HFGPSGENERIC
HFPRSPRESSALTSENSOR:
HFCIDCOMPETITIONID:RK
B1454475515082N01203492EA0000000038
B1454515515085N01203562EA0000000040
B1454595515088N01203748EA0000000040
B1455045515091N01203881EA0000000051
B1455115515094N01204056EA0000000074
B1455185515093N01204218EA0000000096
B1455245515080N01204363EA0000000107
B1455305515058N01204509EA0000000119
B1455375515016N01204654EA0000000145
B1455435514965N01204755EA0000000157
B1455485514919N01204827EA0000000173
B1455535514878N01204891EA0000000189
B1456155514979N01205295EA0000000242
B1456225515112N01205329EA0000000252
B1456275515220N01205316EA0000000263
B1456325515328N01205263EA0000000278
B1456375515423N01205147EA0000000288
B1456435515490N01204951EA0000000307
B1456485515513N01204783EA0000000330
B1456545515518N01204583EA0000000339
B1456595515508N01204419EA0000000346
B1457075515485N01204164EA0000000371
B1457125515475N01204005EA0000000383
B1457175515470N01203846EA0000000395
B1457225515452N01203732EA0000000405
B1457315515376N01203651EA0000000394
B1457385515322N01203613EA0000000392
B1457435515283N01203601EA0000000389
B1457505515233N01203614EA0000000385
B1457575515207N01203686EA0000000373
B1458035515218N01203777EA0000000366
B1458105515277N01203877EA0000000361
B1458155515328N01203934EA0000000360
B1458205515384N01203987EA0000000354
B1458285515476N01204062EA0000000343
B1458335515515N01204132EA0000000337
B1458385515523N01204210EA0000000332
B1458475515478N01204297EA0000000324
B1458535515432N01204302EA0000000326
B1459015515375N01204299EA0000000340
B1459075515331N01204311EA0000000343
B1459165515265N01204336EA0000000335
B1459215515229N01204349EA0000000327
B1459265515190N01204369EA0000000310
B1459315515184N01204447EA0000000299
B1459375515275N01204483EA0000000287
B1459425515346N01204373EA0000000281
B1459475515349N01204235EA0000000273
B1459555515294N01204087EA0000000264
B1500005515260N01204007EA0000000264
B1500055515223N01203998EA0000000257
B1500115515247N01204070EA0000000262
B1500165515326N01204050EA0000000264
B1500225515388N01203903EA0000000262
B1500315515414N01203654EA0000000248
B1500365515420N01203519EA0000000241
B1500435515419N01203336EA0000000233
B1500485515414N01203206EA0000000219
B1500545515409N01203047EA0000000221
B1500595515405N01202914EA0000000219
B1501085515408N01202678EA0000000227
B1501155515405N01202493EA0000000220
B1501205515377N01202397EA0000000203
B1501265515323N01202349EA0000000190
B1501315515277N01202326EA0000000186
B1501365515229N01202299EA0000000181
B1501415515181N01202287EA0000000178
B1501475515128N01202298EA0000000174
B1501525515087N01202323EA0000000171
B1501575515051N01202374EA0000000166
B1502035515003N01202426EA0000000162
B1502095514954N01202472EA0000000160
B1502175514897N01202546EA0000000158
B1502225514893N01202625EA0000000155
B1502285514903N01202724EA0000000143
B1502355514922N01202862EA0000000129
B1502445514946N01203045EA0000000103
B1502495514964N01203147EA0000000086
B1502555514984N01203280EA0000000066
B1503005515006N01203391EA0000000048
B1503075515028N01203513EA0000000040
