AOGNOGN
HFDTE220625
HFFXA050
HFPLTPILOTINCHARGE:
HFGTYGLIDERTYPE:ASK-21
HFGIDGLIDERID:OY-XKO
HFDTM100GPSDATUM:WGS-1984
HFRFWFIRMWAREVERSION:
HFRHWHARDWAREVERSION:
HFFTYFRTYPE:OGN-FLIGHTBOOK
HFGPSGENERIC
HFPRSPRESSALTSENSOR:
HFCIDCOMPETITIONID:R2
B1207475515086N01203422EA0000000040
B1207475515086N01203422EA0000000040
B1207525515097N01203544EA0000000129
B1207575515105N01203658EA0000000227
B1208035515118N01203795EA0000000309
B1208085515129N01203918EA0000000365
B1208135515135N01204054EA0000000419
B1208205515141N01204242EA0000000452
B1208265515154N01204385EA0000000447
B1208325515171N01204531EA0000000442
B1208395515199N01204686EA0000000439
B1208445515223N01204799EA0000000430
B1208505515253N01204939EA0000000421
B1208555515249N01205046EA0000000415
B1209015515194N01205079EA0000000403
B1209085515117N01205017EA0000000399
B1209155515042N01204970EA0000000391
B1209275514920N01205005EA0000000374
B1209375515017N01205156EA0000000368
B1209445515142N01205149EA0000000356
B1209565515360N01205081EA0000000347
B1210035515488N01205026EA0000000338
B1210105515591N01205112EA0000000330
B1210155515584N01205216EA0000000325
B1210215515519N01205236EA0000000317
B1210265515474N01205159EA0000000317
B1210335515458N01204971EA0000000301
B1210405515453N01204767EA0000000296
B1210455515422N01204660EA0000000297
B1210515515371N01204693EA0000000293
B1210565515389N01204789EA0000000291
B1211015515458N01204830EA0000000286
B1211065515533N01204766EA0000000279
B1211125515556N01204611EA0000000271
B1211185515543N01204452EA0000000260
B1211245515512N01204294EA0000000254
B1211335515443N01204082EA0000000253
B1211385515407N01203957EA0000000240
B1211475515400N01203681EA0000000225
B1211525515412N01203514EA0000000214
B1211575515419N01203352EA0000000214
B1212055515420N01203094EA0000000203
B1212115515381N01202929EA0000000198
B1212195515292N01202775EA0000000190
B1212255515216N01202695EA0000000182
B1212335515104N01202673EA0000000164
B1212405515004N01202678EA0000000159
B1212455514952N01202750EA0000000153
B1212525514939N01202917EA0000000148
B1212595514963N01203084EA0000000116
B1213045514994N01203207EA0000000063
B1213115515027N01203382EA0000000039
B1213165515050N01203493EA0000000033
B1213225515063N01203604EA0000000034
