AOGNOGN
HFDTE220625
HFFXA050
HFPLTPILOTINCHARGE:
HFGTYGLIDERTYPE:ASK-21
HFGIDGLIDERID:OY-XKO
HFDTM100GPSDATUM:WGS-1984
HFRFWFIRMWAREVERSION:
HFRHWHARDWAREVERSION:
HFFTYFRTYPE:OGN-FLIGHTBOOK
HFGPSGENERIC
HFPRSPRESSALTSENSOR:
HFCIDCOMPETITIONID:R2
B1258355515095N01203459EA0000000044
B1258415515096N01203603EA0000000132
B1258495515099N01203762EA0000000227
B1258545515104N01203865EA0000000279
B1259015515106N01204024EA0000000342
B1259105515105N01204237EA0000000396
B1259155515109N01204348EA0000000389
B1259215515187N01204419EA0000000379
B1259275515297N01204423EA0000000378
B1259325515371N01204429EA0000000392
B1259375515439N01204436EA0000000368
B1259425515529N01204461EA0000000352
B1259475515586N01204542EA0000000351
B1259535515555N01204630EA0000000343
B1259595515491N01204572EA0000000336
B1300045515445N01204594EA0000000334
B1300095515477N01204693EA0000000322
B1300165515579N01204611EA0000000316
B1300215515559N01204492EA0000000307
B1300265515511N01204524EA0000000300
B1300325515521N01204668EA0000000293
B1300375515516N01204778EA0000000292
B1300425515464N01204786EA0000000290
B1300475515436N01204669EA0000000281
B1300545515511N01204523EA0000000274
B1300595515569N01204595EA0000000267
B1301045515531N01204649EA0000000263
B1301175515436N01204373EA0000000245
B1301235515424N01204203EA0000000239
B1301295515423N01204025EA0000000235
B1301395515424N01203733EA0000000227
B1301455515431N01203558EA0000000219
B1301525515445N01203341EA0000000211
B1301585515463N01203155EA0000000206
B1302045515482N01202970EA0000000198
B1302105515452N01202815EA0000000195
B1302185515374N01202643EA0000000180
B1302275515275N01202481EA0000000177
B1302335515199N01202500EA0000000167
B1302435515077N01202578EA0000000155
B1302495515007N01202630EA0000000146
B1302545514952N01202681EA0000000138
B1302595514934N01202778EA0000000130
B1303055514954N01202921EA0000000113
B1303115514969N01203069EA0000000089
B1303175514987N01203222EA0000000063
B1303235515009N01203378EA0000000042
B1303295515030N01203521EA0000000037
B1303345515044N01203607EA0000000037
