AOGNOGN
HFDTE300625
HFFXA050
HFPLTPILOTINCHARGE:
HFGTYGLIDERTYPE:Stemme S-10
HFGIDGLIDERID:D-KGCY
HFDTM100GPSDATUM:WGS-1984
HFRFWFIRMWAREVERSION:
HFRHWHARDWAREVERSION:
HFFTYFRTYPE:OGN-FLIGHTBOOK
HFGPSGENERIC
HFPRSPRESSALTSENSOR:
HFCIDCOMPETITIONID:Q4
B1539415650745N00927969EA0000000031
B1539445650753N00927921EA0000000032
B1539495650769N00927823EA0000000032
B1539545650786N00927702EA0000000035
B1539595650809N00927573EA0000000041
B1540045650830N00927437EA0000000049
B1540105650862N00927267EA0000000053
B1540165650892N00927083EA0000000068
B1540245650928N00926840EA0000000096
B1540315650975N00926643EA0000000122
B1540365651037N00926554EA0000000141
B1540415651114N00926531EA0000000158
B1540485651222N00926616EA0000000168
B1540555651308N00926814EA0000000180
B1541005651350N00926989EA0000000198
B1541055651371N00927169EA0000000215
B1541105651376N00927355EA0000000223
B1541165651382N00927585EA0000000233
B1541225651386N00927816EA0000000244
B1541285651408N00928041EA0000000262
B1541345651464N00928235EA0000000280
B1541395651516N00928389EA0000000290
B1541485651605N00928665EA0000000311
B1541565651681N00928908EA0000000322
B1542035651739N00929130EA0000000333
B1542095651784N00929323EA0000000354
B1542155651829N00929510EA0000000371
B1542205651867N00929663EA0000000378
B1542305651942N00929979EA0000000386
B1543395652428N00932323EA0000000514
B1543445652462N00932486EA0000000529
B1543545652529N00932814EA0000000551
B1544045652588N00933150EA0000000570
B1544095652616N00933316EA0000000583
B1544265652721N00933873EA0000000617
B1544325652761N00934069EA0000000631
B1544395652809N00934295EA0000000649
B1544445652845N00934452EA0000000663
B1544535652914N00934728EA0000000685
B1544595652962N00934912EA0000000698
B1545045653000N00935072EA0000000706
B1545155653089N00935408EA0000000736
B1545245653153N00935681EA0000000753
B1545295653187N00935838EA0000000762
B1545375653239N00936095EA0000000777
B1545435653281N00936288EA0000000788
B1545525653342N00936578EA0000000804
B1545585653382N00936773EA0000000812
B1546035653418N00936935EA0000000824
B1546145653492N00937282EA0000000850
B1546205653532N00937470EA0000000866
B1546285653586N00937719EA0000000887
B1546365653643N00937960EA0000000907
B1546445653705N00938194EA0000000926
B1546515653761N00938400EA0000000943
B1546575653814N00938579EA0000000949
B1547035653871N00938768EA0000000956
B1547125653946N00939063EA0000000985
B1547195653991N00939279EA0000001006
B1547265654038N00939502EA0000001010
B1547315654073N00939671EA0000001019
B1547395654130N00939940EA0000001038
B1547475654188N00940204EA0000001053
B1547545654239N00940437EA0000001064
B1548015654292N00940674EA0000001073
B1548065654332N00940842EA0000001085
B1548115654372N00941000EA0000001100
B1548185654428N00941209EA0000001119
B1548265654489N00941444EA0000001133
B1548335654544N00941655EA0000001145
B1548395654590N00941840EA0000001156
B1548485654659N00942121EA0000001176
B1548575654733N00942405EA0000001192
B1549065654816N00942688EA0000001207
B1549165654901N00943015EA0000001225
B1549245654958N00943290EA0000001239
B1549295654994N00943463EA0000001247
B1549355655040N00943668EA0000001259
B1549435655101N00943941EA0000001274
B1549485655140N00944112EA0000001283
B1549555655199N00944351EA0000001299
B1550015655248N00944553EA0000001316
B1550165655368N00945051EA0000001347
B1550225655414N00945259EA0000001353
B1550285655464N00945487EA0000001342
B1550335655508N00945693EA0000001343
B1550385655552N00945901EA0000001350
B1550435655593N00946108EA0000001359
B1550565655687N00946634EA0000001382
B1551015655719N00946834EA0000001389
B1551325655916N00948082EA0000001408
B1551415655971N00948454EA0000001415
B1551495656028N00948780EA0000001419
B1551565656083N00949061EA0000001426
B1552045656144N00949379EA0000001438
B1552175656252N00949912EA0000001425
B1552255656331N00950277EA0000001412
B1552325656403N00950613EA0000001403
B1552505656583N00951493EA0000001394
B1553135656806N00952580EA0000001394
B1553215656880N00952942EA0000001394
B1553585657227N00954609EA0000001384
B1554055657285N00954912EA0000001378
B1554145657355N00955298EA0000001370
B1554205657398N00955555EA0000001366
B1554265657440N00955815EA0000001361
B1554375657513N00956312EA0000001348
B1554445657559N00956643EA0000001342
B1554535657626N00957063EA0000001343
B1555005657683N00957374EA0000001350
B1555055657721N00957595EA0000001352
B1555415657999N00959150EA0000001379
B1555505658065N00959517EA0000001376
B1556105658233N01000349EA0000001369
B1556345658462N01001304EA0000001377
B1556525658632N01002017EA0000001383
B1557035658729N01002447EA0000001392
B1557245658910N01003245EA0000001401
B1557395659048N01003850EA0000001400
B1557485659142N01004223EA0000001405
B1558015659266N01004768EA0000001420
B1558585659781N01007202EA0000001444
B1559105659903N01007746EA0000001441
B1559475700210N01009418EA0000001444
B1600045700345N01010185EA0000001446
B1600165700440N01010722EA0000001446
B1600265700514N01011172EA0000001451
B1600315700550N01011396EA0000001453
B1600385700598N01011708EA0000001457
B1600475700659N01012105EA0000001464
B1600565700722N01012502EA0000001468
B1601135700847N01013243EA0000001476
B1601265700953N01013812EA0000001476
B1601425701078N01014533EA0000001476
B1601485701122N01014803EA0000001476
B1601585701206N01015256EA0000001470
B1602075701288N01015653EA0000001476
B1602165701367N01016041EA0000001482
B1602225701418N01016299EA0000001486
B1602275701457N01016514EA0000001490
B1602345701511N01016816EA0000001491
B1602445701591N01017253EA0000001493
B1602515701651N01017556EA0000001495
B1603025701753N01018029EA0000001494
B1603105701833N01018366EA0000001499
B1603195701921N01018737EA0000001505
B1603255701973N01018992EA0000001503
B1603345702054N01019383EA0000001499
B1603415702119N01019691EA0000001497
B1603505702204N01020090EA0000001495
B1603595702290N01020491EA0000001497
B1604045702338N01020711EA0000001500
B1604145702432N01021139EA0000001511
B1604275702546N01021694EA0000001510
B1604345702608N01022000EA0000001512
B1604395702653N01022215EA0000001516
B1604455702705N01022471EA0000001518
B1604505702747N01022685EA0000001520
B1604595702817N01023072EA0000001520
B1605075702882N01023419EA0000001518
B1605165702959N01023807EA0000001519
B1605265703054N01024230EA0000001522
B1605335703126N01024520EA0000001520
B1605395703191N01024772EA0000001520
B1605505703307N01025243EA0000001520
B1605555703354N01025464EA0000001519
B1606045703429N01025874EA0000001520
B1606165703516N01026426EA0000001522
B1606255703578N01026838EA0000001525
B1606305703609N01027068EA0000001523
B1606375703655N01027395EA0000001515
B1606475703732N01027859EA0000001521
B1606555703797N01028203EA0000001536
B1607115703938N01028857EA0000001538
B1607195704004N01029192EA0000001538
B1607275704063N01029533EA0000001536
B1607355704130N01029875EA0000001535
B1607455704215N01030301EA0000001536
B1607515704264N01030557EA0000001538
B1608005704336N01030933EA0000001546
B1608075704389N01031220EA0000001546
B1608175704457N01031638EA0000001544
B1608305704542N01032202EA0000001541
B1608385704602N01032547EA0000001542
B1608465704663N01032886EA0000001548
B1608545704721N01033230EA0000001550
B1609005704764N01033492EA0000001548
B1609085704825N01033850EA0000001543
B1609155704887N01034164EA0000001538
B1609235704960N01034516EA0000001542
B1609325705033N01034912EA0000001543
B1609385705070N01035185EA0000001541
B1609475705123N01035599EA0000001542
B1609535705164N01035868EA0000001544
B1610005705216N01036177EA0000001546
B1610125705304N01036706EA0000001548
B1610195705355N01037014EA0000001547
B1610315705454N01037547EA0000001537
B1610375705510N01037809EA0000001538
B1610465705599N01038191EA0000001539
B1610555705688N01038567EA0000001538
B1611085705814N01039118EA0000001537
B1611135705861N01039331EA0000001539
B1611185705904N01039546EA0000001541
B1611275705976N01039934EA0000001542
B1611385706059N01040417EA0000001544
B1611455706109N01040724EA0000001548
B1611575706199N01041252EA0000001545
B1612025706240N01041472EA0000001543
B1612075706282N01041693EA0000001540
B1612135706335N01041958EA0000001541
B1612225706417N01042347EA0000001542
B1612345706527N01042860EA0000001544
B1612455706622N01043328EA0000001545
B1612525706682N01043628EA0000001540
B1613015706764N01044015EA0000001537
B1613105706844N01044401EA0000001536
B1613235706944N01044967EA0000001537
B1613325707008N01045355EA0000001538
B1613395707060N01045650EA0000001543
B1613555707188N01046313EA0000001545
B1614005707233N01046522EA0000001543
B1614065707287N01046780EA0000001540
B1614155707365N01047173EA0000001541
B1614245707438N01047566EA0000001540
B1614335707520N01047953EA0000001540
B1614425707600N01048333EA0000001543
B1614545707710N01048837EA0000001544
B1615035707792N01049210EA0000001544
B1615085707836N01049420EA0000001542
B1615225707958N01050016EA0000001536
B1615295708020N01050317EA0000001529
B1615375708094N01050660EA0000001528
B1615515708221N01051258EA0000001527
B1616095708369N01052065EA0000001517
B1616155708418N01052333EA0000001518
B1616265708506N01052817EA0000001519
B1616455708652N01053655EA0000001519
B1616545708736N01054033EA0000001517
B1617015708812N01054316EA0000001516
B1617105708916N01054669EA0000001517
B1617185709016N01054979EA0000001514
B1617295709143N01055406EA0000001525
B1617445709280N01056047EA0000001510
B1617515709349N01056349EA0000001512
B1618005709442N01056718EA0000001515
B1618055709496N01056920EA0000001510
B1618115709563N01057167EA0000001503
B1618255709705N01057768EA0000001499
B1618335709780N01058118EA0000001500
B1618385709825N01058338EA0000001503
B1618545709976N01059032EA0000001504
B1619095710111N01059682EA0000001503
B1619165710171N01059986EA0000001499
B1619255710254N01100380EA0000001489
B1619305710304N01100601EA0000001487
B1619355710354N01100820EA0000001491
B1619425710424N01101119EA0000001493
B1620035710603N01102014EA0000001507
B1620225710734N01102866EA0000001496
B1620405710866N01103671EA0000001494
B1620515710951N01104160EA0000001491
B1621235711190N01105571EA0000001491
B1621325711250N01105975EA0000001493
B1621555711424N01106983EA0000001503
B1622465711855N01109188EA0000001507
B1622515711892N01109396EA0000001507
B1643575716406N01207612EA0000001327
B1648425718686N01220600EA0000001356
B1650405720407N01224719EA0000001334
B1650485720511N01225032EA0000001335
B1650545720581N01225266EA0000001338
B1650595720639N01225456EA0000001341
B1651125720806N01225935EA0000001330
B1651255720993N01226396EA0000001329
B1651325721093N01226645EA0000001331
B1651405721208N01226922EA0000001335
B1651475721310N01227162EA0000001333
B1651545721413N01227411EA0000001329
B1652045721557N01227779EA0000001325
B1652135721689N01228120EA0000001316
B1652185721762N01228311EA0000001312
B1652255721866N01228579EA0000001307
B1652325721973N01228840EA0000001303
B1652405722094N01229137EA0000001301
B1652515722253N01229560EA0000001292
B1652585722358N01229826EA0000001284
B1653035722434N01230015EA0000001283
B1653085722509N01230198EA0000001285
B1653165722627N01230486EA0000001282
B1653265722773N01230850EA0000001275
B1653365722922N01231216EA0000001275
B1653445723034N01231506EA0000001279
B1653555723183N01231898EA0000001284
B1654005723246N01232078EA0000001291
B1654095723350N01232403EA0000001296
B1654155723418N01232624EA0000001298
B1654215723487N01232848EA0000001300
B1654285723568N01233109EA0000001303
B1654335723626N01233294EA0000001310
B1654385723684N01233475EA0000001313
B1654485723807N01233837EA0000001315
B1655015723979N01234298EA0000001318
B1655075724060N01234511EA0000001320
B1655125724129N01234691EA0000001320
B1655285724358N01235281EA0000001319
B1655345724448N01235506EA0000001319
B1655395724523N01235692EA0000001320
B1655445724599N01235876EA0000001324
B1655525724720N01236169EA0000001326
B1656015724856N01236499EA0000001329
B1656075724945N01236718EA0000001329
B1656125725022N01236902EA0000001326
B1656205725149N01237195EA0000001325
B1656255725229N01237376EA0000001324
B1656345725370N01237714EA0000001318
B1656425725489N01238024EA0000001313
B1656505725603N01238338EA0000001313
B1656565725685N01238567EA0000001316
B1657045725791N01238866EA0000001315
B1657165725952N01239319EA0000001312
B1657225726037N01239546EA0000001308
B1657285726125N01239775EA0000001303
B1657355726230N01240055EA0000001288
B1657435726349N01240379EA0000001295
B1657485726423N01240575EA0000001298
B1657575726552N01240919EA0000001309
B1658045726651N01241177EA0000001318
B1658175726835N01241649EA0000001320
B1658255726950N01241938EA0000001323
B1658305727015N01242128EA0000001324
B1658385727106N01242454EA0000001328
B1658465727194N01242785EA0000001333
B1658535727274N01243077EA0000001329
B1659035727394N01243503EA0000001329
B1659135727512N01243928EA0000001336
B1659195727579N01244183EA0000001337
B1659265727660N01244478EA0000001339
B1659425727836N01245152EA0000001345
B1659535727954N01245611EA0000001345
B1700235728297N01246871EA0000001349
B1700325728386N01247265EA0000001355
B1700375728434N01247485EA0000001353
B1700515728576N01248105EA0000001345
B1701015728679N01248553EA0000001345
B1701075728740N01248818EA0000001343
B1701145728812N01249127EA0000001345
B1701215728882N01249434EA0000001346
B1701275728944N01249704EA0000001342
B1701335729009N01249980EA0000001338
B1701405729087N01250299EA0000001340
B1701525729221N01250839EA0000001343
B1701575729274N01251065EA0000001345
B1702055729355N01251427EA0000001347
B1702135729433N01251781EA0000001347
B1702205729504N01252092EA0000001344
B1702375729695N01252833EA0000001344
B1702475729804N01253267EA0000001354
B1702525729858N01253480EA0000001357
B1703035729987N01253951EA0000001347
B1703095730057N01254214EA0000001347
B1703235730203N01254851EA0000001344
B1703305730273N01255174EA0000001341
B1703395730364N01255592EA0000001342
B1703445730415N01255822EA0000001344
B1703505730478N01256094EA0000001346
B1704015730592N01256585EA0000001350
B1704065730646N01256801EA0000001353
B1704115730702N01257013EA0000001352
B1704165730762N01257230EA0000001340
B1704225730839N01257502EA0000001332
B1704315730944N01257917EA0000001345
B1704375731004N01258193EA0000001347
B1704425731058N01258420EA0000001349
B1704475731112N01258648EA0000001348
B1704535731173N01258925EA0000001349
B1704595731231N01259203EA0000001351
B1705095731330N01259663EA0000001350
B1705175731415N01300030EA0000001349
B1705225731468N01300259EA0000001353
B1705305731551N01300623EA0000001359
B1705395731645N01301040EA0000001359
B1705495731755N01301506EA0000001358
B1706035731909N01302180EA0000001359
B1706105731989N01302522EA0000001351
B1706245732153N01303212EA0000001346
B1706435732352N01304151EA0000001341
B1706495732415N01304440EA0000001342
B1707425732960N01306920EA0000001352
B1709055733787N01310717EA0000001330
B1709365734083N01312106EA0000001320
B1710085734393N01313572EA0000001307
B1719515739998N01339082EA0000001354
B1720365740414N01341167EA0000001355
B1721455741044N01344315EA0000001346
B1722015741211N01345031EA0000001346
B1722525741695N01347244EA0000001376
B1723085741812N01347924EA0000001386
B1723235741935N01348575EA0000001382
B1723345742025N01349068EA0000001378
B1723405742070N01349341EA0000001374
B1723515742159N01349840EA0000001363
B1724395742623N01352056EA0000001345
B1724485742712N01352483EA0000001345
B1725175743033N01353870EA0000001334
B1725255743121N01354243EA0000001340
B1725585743400N01355665EA0000001409
B1726045743437N01355906EA0000001426
B1726125743489N01356219EA0000001425
B1726225743573N01356665EA0000001403
B1726345743683N01357207EA0000001402
B1726405743738N01357476EA0000001406
B1726565743890N01358197EA0000001412
B1727035743961N01358520EA0000001408
B1727095744022N01358801EA0000001406
B1727175744109N01359171EA0000001408
B1727275744218N01359631EA0000001411
B1727345744294N01359963EA0000001407
B1727405744360N01400253EA0000001403
B1727465744427N01400542EA0000001405
B1728135744724N01401807EA0000001419
B1728285744885N01402480EA0000001419
B1728355744959N01402793EA0000001426
B1728435745042N01403152EA0000001427
B1728505745121N01403477EA0000001418
B1729055745285N01404185EA0000001428
B1729275745525N01405184EA0000001438
B1730055746129N01406683EA0000001438
B1730115746224N01406916EA0000001422
B1730405746719N01408102EA0000001403
B1730485746846N01408420EA0000001411
B1730545746939N01408658EA0000001414
B1731035747079N01409011EA0000001421
B1731135747229N01409403EA0000001425
B1731485747796N01410776EA0000001411
B1731565747931N01411086EA0000001407
B1732035748053N01411355EA0000001400
B1732095748156N01411591EA0000001396
B1732155748257N01411830EA0000001400
B1732225748372N01412106EA0000001403
B1732285748470N01412341EA0000001402
B1732385748630N01412736EA0000001403
B1732435748708N01412941EA0000001398
B1733145749182N01414161EA0000001403
B1733215749290N01414424EA0000001404
B1733325749451N01414845EA0000001406
B1733395749553N01415108EA0000001405
B1733575749843N01415782EA0000001397
B1734135750096N01416397EA0000001400
B1734525750726N01417974EA0000001389
B1735075750975N01418607EA0000001391
B1735215751216N01419181EA0000001379
B1735265751309N01419386EA0000001373
B1735525751758N01420444EA0000001379
B1736085752014N01421105EA0000001380
B1736505752665N01422853EA0000001374
B1737015752850N01423282EA0000001372
B1737095752989N01423592EA0000001366
B1737165753111N01423869EA0000001361
B1737235753234N01424150EA0000001356
B1737465753635N01425102EA0000001343
B1737555753791N01425471EA0000001342
B1738065753978N01425930EA0000001338
B1738125754080N01426179EA0000001340
B1738205754212N01426509EA0000001339
B1738405754540N01427328EA0000001340
B1738565754807N01427954EA0000001343
B1752035805622N01502697EA0000001259
B1752155805782N01503178EA0000001248
B1752335806015N01503942EA0000001244
B1752395806093N01504205EA0000001242
B1752445806157N01504425EA0000001246
B1752525806256N01504777EA0000001247
B1753045806399N01505309EA0000001246
B1753115806482N01505617EA0000001247
B1753205806585N01506006EA0000001254
B1753265806652N01506269EA0000001249
B1753315806710N01506493EA0000001246
B1753425806847N01506974EA0000001245
B1753505806952N01507314EA0000001243
B1753585807053N01507645EA0000001246
B1754065807152N01507972EA0000001251
B1754175807297N01508420EA0000001247
B1754245807391N01508708EA0000001245
B1754385807581N01509285EA0000001248
B1754485807710N01509703EA0000001247
B1754585807838N01510132EA0000001244
B1755045807917N01510380EA0000001244
B1755135808043N01510759EA0000001250
B1755245808193N01511227EA0000001245
B1755355808349N01511699EA0000001237
B1755405808421N01511910EA0000001237
B1755465808503N01512166EA0000001236
B1755565808634N01512613EA0000001220
B1756015808700N01512838EA0000001214
B1756095808810N01513191EA0000001200
B1756155808898N01513443EA0000001198
B1756205808969N01513653EA0000001192
B1756255809042N01513867EA0000001184
B1756365809204N01514359EA0000001164
B1756445809320N01514729EA0000001154
B1756535809451N01515142EA0000001142
B1757005809557N01515453EA0000001144
B1757075809666N01515747EA0000001141
B1757155809788N01516080EA0000001131
B1757215809880N01516336EA0000001124
B1757295809991N01516690EA0000001121
B1757355810073N01516956EA0000001113
B1757415810157N01517220EA0000001109
B1757475810242N01517476EA0000001107
B1757525810313N01517690EA0000001104
B1758015810437N01518082EA0000001096
B1758075810519N01518345EA0000001091
B1758135810602N01518608EA0000001086
B1758205810696N01518916EA0000001080
B1758325810861N01519450EA0000001068
B1758385810944N01519720EA0000001065
B1758445811028N01519991EA0000001057
B1758505811114N01520266EA0000001049
B1759055811328N01520945EA0000001035
B1759115811410N01521217EA0000001026
B1759165811477N01521445EA0000001019
B1759225811558N01521715EA0000001018
B1759285811641N01521985EA0000001010
B1759345811727N01522252EA0000001003
B1759405811810N01522520EA0000000995
B1759455811881N01522744EA0000000984
B1759515811971N01523013EA0000000971
B1800005812105N01523424EA0000000959
B1800065812190N01523695EA0000000958
B1800145812304N01524044EA0000000953
B1800195812375N01524261EA0000000946
B1800255812461N01524520EA0000000942
B1800305812534N01524732EA0000000932
B1800355812610N01524940EA0000000926
B1800435812734N01525266EA0000000919
B1800515812847N01525610EA0000000910
B1800575812931N01525873EA0000000893
B1801025813006N01526103EA0000000873
B1801075813083N01526336EA0000000865
B1801135813174N01526615EA0000000856
B1801185813249N01526844EA0000000848
B1801265813363N01527213EA0000000833
B1801325813448N01527487EA0000000823
B1801485813672N01528213EA0000000795
B1801555813766N01528531EA0000000790
B1802025813857N01528843EA0000000786
B1802165814034N01529460EA0000000770
B1802245814136N01529809EA0000000760
B1802305814212N01530066EA0000000756
B1803025814635N01531410EA0000000715
B1803215814890N01532245EA0000000689
B1803275814970N01532507EA0000000684
B1803385815123N01532983EA0000000668
B1803515815300N01533564EA0000000651
B1804025815452N01534060EA0000000636
B1804155815638N01534641EA0000000614
B1804205815712N01534865EA0000000608
