AOGNOGN
HFDTE100825
HFFXA050
HFPLTPILOTINCHARGE:
HFGTYGLIDERTYPE:Ventus 2cxT
HFGIDGLIDERID:D-KYBB
HFDTM100GPSDATUM:WGS-1984
HFRFWFIRMWAREVERSION:
HFRHWHARDWAREVERSION:
HFFTYFRTYPE:OGN-FLIGHTBOOK
HFGPSGENERIC
HFPRSPRESSALTSENSOR:
HFCIDCOMPETITIONID:2B
B1258025515102N01204207EA0000000039
B1258055515103N01204136EA0000000053
B1258085515107N01204063EA0000000100
B1258155515109N01203910EA0000000241
B1258215515110N01203764EA0000000332
B1258275515106N01203600EA0000000369
B1258335515103N01203437EA0000000368
B1258415515096N01203230EA0000000365
B1258475515085N01203074EA0000000377
B1258525515079N01202956EA0000000388
B1258575515050N01202869EA0000000388
B1259025514979N01202876EA0000000385
B1259075514917N01202976EA0000000390
B1259125514885N01203131EA0000000387
B1259185514900N01203323EA0000000372
B1259245514979N01203384EA0000000358
B1259305515014N01203277EA0000000360
B1259375515008N01203137EA0000000354
B1259425514993N01203032EA0000000356
B1259475514970N01202930EA0000000358
B1259535514923N01202825EA0000000360
B1259585514854N01202802EA0000000357
B1300035514782N01202894EA0000000348
B1300085514759N01203055EA0000000341
B1300135514801N01203197EA0000000332
B1300205514906N01203261EA0000000333
B1300255514977N01203258EA0000000341
B1300305515045N01203229EA0000000342
B1300355515079N01203139EA0000000348
B1300405515049N01203043EA0000000359
B1300455514973N01203037EA0000000369
B1300505514910N01203155EA0000000372
B1300555514907N01203318EA0000000368
B1301005514969N01203427EA0000000369
B1301055515046N01203450EA0000000378
B1301105515104N01203397EA0000000379
B1301155515116N01203299EA0000000379
B1301205515065N01203232EA0000000384
B1301255514988N01203292EA0000000388
B1301305514970N01203459EA0000000389
B1301365515048N01203571EA0000000401
B1301415515094N01203500EA0000000407
B1301465515055N01203421EA0000000412
B1301525514967N01203500EA0000000417
B1301575514962N01203667EA0000000419
B1302025515027N01203748EA0000000435
B1302085515072N01203671EA0000000441
B1302135515025N01203611EA0000000445
B1302185514953N01203683EA0000000442
B1302245514943N01203878EA0000000454
B1302295514994N01203993EA0000000465
B1302345515056N01203987EA0000000469
B1302405515036N01203888EA0000000473
B1302455514962N01203922EA0000000484
B1302515514938N01204106EA0000000491
B1302565514997N01204197EA0000000500
B1303015515033N01204133EA0000000501
B1303065514973N01204083EA0000000508
B1303125514913N01204227EA0000000521
B1303175514951N01204359EA0000000531
B1303225515009N01204346EA0000000539
B1303285514988N01204245EA0000000548
B1303335514916N01204256EA0000000556
B1303385514869N01204392EA0000000558
B1303445514915N01204546EA0000000576
B1303495514962N01204506EA0000000575
B1303545514908N01204449EA0000000575
B1303595514855N01204577EA0000000588
B1304045514888N01204719EA0000000606
B1304095514949N01204774EA0000000619
B1304165514979N01204695EA0000000618
B1304215514912N01204684EA0000000623
B1304265514867N01204820EA0000000631
B1304325514922N01204962EA0000000637
B1304375514963N01204919EA0000000642
B1304425514917N01204867EA0000000647
B1304475514849N01204960EA0000000651
B1304535514841N01205158EA0000000669
B1305005514908N01205282EA0000000663
B1305065514936N01205212EA0000000662
B1305115514885N01205166EA0000000663
B1305165514809N01205231EA0000000671
B1305215514753N01205367EA0000000683
B1305265514736N01205527EA0000000689
B1305315514770N01205649EA0000000675
B1305365514829N01205670EA0000000663
B1305445514876N01205579EA0000000666
B1305495514875N01205505EA0000000662
B1305545514855N01205422EA0000000654
B1306045514819N01205223EA0000000652
B1306115514783N01205074EA0000000642
B1306165514757N01204968EA0000000636
B1306215514729N01204862EA0000000634
B1306275514697N01204739EA0000000629
B1306325514673N01204638EA0000000622
B1306385514647N01204511EA0000000616
B1306445514632N01204379EA0000000618
B1306515514617N01204228EA0000000612
B1306595514613N01204052EA0000000603
B1307085514649N01203866EA0000000595
B1307135514672N01203765EA0000000591
B1307185514692N01203661EA0000000579
B1307245514717N01203531EA0000000568
B1307295514736N01203418EA0000000560
B1307345514736N01203300EA0000000555
B1307415514766N01203155EA0000000551
B1307485514822N01203027EA0000000538
B1307555514884N01202899EA0000000538
B1308005514934N01202822EA0000000535
B1308105515030N01202645EA0000000517
B1308195515086N01202452EA0000000512
B1308245515113N01202345EA0000000506
B1308315515136N01202186EA0000000502
B1308365515164N01202084EA0000000498
B1308415515210N01202001EA0000000493
B1308465515263N01201924EA0000000484
B1308535515340N01201809EA0000000472
B1309015515431N01201674EA0000000465
B1309085515524N01201593EA0000000461
B1309135515567N01201500EA0000000457
B1309195515571N01201358EA0000000460
B1309245515557N01201244EA0000000458
B1309315515536N01201079EA0000000446
B1309395515517N01200880EA0000000440
B1309475515526N01200699EA0000000442
B1309525515514N01200591EA0000000438
B1309585515450N01200485EA0000000432
B1310035515372N01200434EA0000000428
B1310105515242N01200447EA0000000422
B1310165515128N01200533EA0000000416
B1310215515041N01200639EA0000000410
B1310265514966N01200782EA0000000404
B1310315514900N01200940EA0000000401
B1310405514794N01201240EA0000000392
B1310465514733N01201451EA0000000388
B1310535514670N01201695EA0000000393
B1311025514591N01202002EA0000000388
B1311105514523N01202280EA0000000378
B1311185514458N01202561EA0000000380
B1311265514390N01202836EA0000000366
B1311315514366N01203018EA0000000358
B1311455514516N01203268EA0000000333
B1311515514598N01203267EA0000000323
B1311575514683N01203252EA0000000308
B1312035514774N01203244EA0000000297
B1312095514862N01203226EA0000000296
B1312185514982N01203166EA0000000298
B1312255515066N01203096EA0000000293
B1312305515115N01203026EA0000000294
B1312355515136N01202934EA0000000294
B1312405515112N01202830EA0000000290
B1312455515050N01202759EA0000000295
B1312515514946N01202755EA0000000285
B1312575514833N01202835EA0000000278
B1313025514749N01202945EA0000000270
B1313075514695N01203109EA0000000260
B1313125514675N01203300EA0000000253
B1313195514677N01203563EA0000000243
B1313285514710N01203878EA0000000246
B1313335514728N01204051EA0000000225
B1313395514752N01204264EA0000000202
B1313455514778N01204475EA0000000199
B1313505514825N01204618EA0000000201
B1313595514929N01204824EA0000000177
B1314055515014N01204896EA0000000162
B1314115515103N01204913EA0000000151
B1314175515191N01204897EA0000000149
B1314235515271N01204870EA0000000153
B1314295515283N01204746EA0000000135
B1314355515266N01204606EA0000000116
B1314415515245N01204475EA0000000095
B1314465515226N01204358EA0000000072
B1314515515204N01204241EA0000000055
B1314575515178N01204101EA0000000040
B1315025515164N01204007EA0000000039
