AOGNOGN
HFDTE100825
HFFXA050
HFPLTPILOTINCHARGE:
HFGTYGLIDERTYPE:LS-4
HFGIDGLIDERID:OY-XMO
HFDTM100GPSDATUM:WGS-1984
HFRFWFIRMWAREVERSION:
HFRHWHARDWAREVERSION:
HFFTYFRTYPE:OGN-FLIGHTBOOK
HFGPSGENERIC
HFPRSPRESSALTSENSOR:
HFCIDCOMPETITIONID:L7
B1311105515100N01204180EA0000000045
B1311105515100N01204180EA0000000045
B1311155515094N01204072EA0000000147
B1311205515088N01203969EA0000000245
B1311255515080N01203861EA0000000332
B1311345515069N01203639EA0000000455
B1311395515065N01203510EA0000000483
B1311445515060N01203391EA0000000482
B1311515515046N01203232EA0000000478
B1311565515031N01203129EA0000000479
B1312015515034N01203031EA0000000471
B1312075515058N01202914EA0000000462
B1312125515084N01202821EA0000000460
B1312195515118N01202688EA0000000455
B1312245515138N01202597EA0000000462
B1312315515159N01202489EA0000000467
B1312375515137N01202385EA0000000456
B1312425515102N01202290EA0000000442
B1312505515012N01202161EA0000000435
B1312555514930N01202130EA0000000425
B1313065514728N01202133EA0000000425
B1313115514636N01202155EA0000000426
B1313175514527N01202192EA0000000418
B1313225514433N01202238EA0000000412
B1313355514196N01202440EA0000000396
B1313405514107N01202536EA0000000388
B1313455514019N01202644EA0000000377
B1313505513929N01202762EA0000000370
B1313555513842N01202882EA0000000364
B1314035513708N01203080EA0000000359
B1314115513605N01203321EA0000000361
B1314205513524N01203604EA0000000372
B1314255513490N01203759EA0000000372
B1314315513450N01203929EA0000000377
B1314375513414N01204112EA0000000364
B1314425513426N01204274EA0000000361
B1314485513481N01204426EA0000000360
B1314545513547N01204552EA0000000353
B1315015513634N01204679EA0000000349
B1315075513713N01204753EA0000000350
B1315135513783N01204732EA0000000338
B1315205513833N01204619EA0000000323
B1315275513871N01204487EA0000000316
B1315325513874N01204383EA0000000309
B1315385513850N01204249EA0000000306
B1315435513844N01204139EA0000000317
B1315485513842N01204039EA0000000325
B1315545513771N01203986EA0000000314
B1315595513699N01204105EA0000000303
B1316045513688N01204274EA0000000299
B1316095513725N01204411EA0000000295
B1316145513787N01204488EA0000000296
B1316205513860N01204497EA0000000303
B1316265513920N01204459EA0000000303
B1316335513980N01204407EA0000000297
B1316395514027N01204348EA0000000290
B1316495514100N01204248EA0000000286
B1316545514126N01204184EA0000000279
B1317005514157N01204100EA0000000273
B1317075514192N01203996EA0000000262
B1317125514230N01203933EA0000000256
B1317175514289N01203936EA0000000254
B1317225514353N01204003EA0000000241
B1317325514478N01204183EA0000000228
B1317375514537N01204289EA0000000219
B1317425514600N01204401EA0000000216
B1317475514667N01204508EA0000000207
B1317565514787N01204667EA0000000206
B1318015514855N01204747EA0000000197
B1318095514969N01204842EA0000000182
B1318195515107N01204841EA0000000174
B1318265515195N01204809EA0000000163
B1318325515215N01204703EA0000000152
B1318385515205N01204582EA0000000124
B1318435515198N01204486EA0000000100
B1318485515190N01204393EA0000000084
B1318545515176N01204280EA0000000063
B1318595515166N01204182EA0000000049
B1319065515144N01204047EA0000000038
