AOGNOGN
HFDTE010725
HFFXA050
HFPLTPILOTINCHARGE:
HFGTYGLIDERTYPE:ASK-23
HFGIDGLIDERID:OY-CXL
HFDTM100GPSDATUM:WGS-1984
HFRFWFIRMWAREVERSION:
HFRHWHARDWAREVERSION:
HFFTYFRTYPE:OGN-FLIGHTBOOK
HFGPSGENERIC
HFPRSPRESSALTSENSOR:
HFCIDCOMPETITIONID:CL
B1239135600726N00901280EA0000000056
B1239185600716N00901170EA0000000141
B1239235600702N00901079EA0000000228
B1239285600679N00900989EA0000000296
B1239335600658N00900889EA0000000348
B1239385600635N00900780EA0000000397
B1239435600607N00900665EA0000000434
B1239485600581N00900541EA0000000452
B1239535600557N00900440EA0000000480
B1239585600578N00900348EA0000000494
B1240035600639N00900333EA0000000497
B1240085600708N00900364EA0000000482
B1240135600760N00900298EA0000000479
B1240185600731N00900230EA0000000470
B1240245600668N00900222EA0000000456
B1240295600610N00900247EA0000000440
B1240355600551N00900354EA0000000436
B1240405600510N00900441EA0000000445
B1240455600462N00900428EA0000000458
B1240505600454N00900337EA0000000468
B1240555600497N00900258EA0000000477
B1241005600567N00900258EA0000000474
B1241055600602N00900349EA0000000477
B1241105600571N00900428EA0000000472
B1241155600530N00900399EA0000000486
B1241205600530N00900314EA0000000497
B1241255600580N00900246EA0000000503
B1241305600647N00900260EA0000000502
B1241355600689N00900355EA0000000502
B1241405600672N00900454EA0000000500
B1241455600625N00900496EA0000000500
B1241505600589N00900454EA0000000512
B1241555600599N00900365EA0000000515
B1242005600654N00900303EA0000000511
B1242055600721N00900327EA0000000515
B1242105600744N00900423EA0000000512
B1242155600708N00900485EA0000000506
B1242205600677N00900434EA0000000519
B1242265600715N00900334EA0000000516
B1242315600786N00900322EA0000000515
B1242365600836N00900405EA0000000514
B1242425600824N00900519EA0000000512
B1242475600777N00900520EA0000000508
B1242525600770N00900435EA0000000516
B1242575600798N00900337EA0000000507
B1243025600862N00900281EA0000000510
B1243075600930N00900318EA0000000502
B1243135600954N00900446EA0000000492
B1243185600916N00900511EA0000000488
B1243235600872N00900485EA0000000486
B1243285600855N00900395EA0000000483
B1243335600888N00900301EA0000000484
B1243385600961N00900281EA0000000478
B1243435601021N00900352EA0000000472
B1243485601028N00900463EA0000000464
B1243535600984N00900496EA0000000461
B1243585600954N00900422EA0000000454
B1244035600926N00900323EA0000000448
B1244095600891N00900215EA0000000443
B1244145600884N00900116EA0000000445
B1244195600925N00900046EA0000000443
B1244245600995N00900056EA0000000429
B1244295601035N00900158EA0000000420
B1244345601008N00900244EA0000000407
B1244395600966N00900191EA0000000399
B1244465600919N00900070EA0000000380
B1244555600811N00859995EA0000000361
B1245005600747N00900000EA0000000359
B1245055600686N00900019EA0000000368
B1245105600646N00859982EA0000000378
B1245155600654N00859890EA0000000378
B1245205600714N00859841EA0000000382
B1245255600771N00859891EA0000000374
B1245305600776N00859989EA0000000382
B1245355600735N00900012EA0000000377
B1245405600711N00859944EA0000000383
B1245455600740N00859852EA0000000372
B1245505600805N00859831EA0000000378
B1245555600857N00859899EA0000000361
B1246005600851N00900000EA0000000370
B1246055600810N00900013EA0000000365
B1246105600779N00859947EA0000000361
B1246155600796N00859851EA0000000357
B1246205600859N00859813EA0000000354
B1246255600917N00859867EA0000000347
B1246305600944N00859973EA0000000337
B1246355600918N00900056EA0000000343
B1246405600882N00900020EA0000000342
B1246455600907N00859938EA0000000336
B1246505600971N00859929EA0000000327
B1246555601020N00900012EA0000000326
B1247005601012N00900102EA0000000333
B1247055600968N00900114EA0000000330
B1247105600952N00900034EA0000000330
B1247155601000N00859979EA0000000328
B1247205601065N00900017EA0000000322
B1247255601081N00900118EA0000000327
B1247315601029N00900191EA0000000316
B1247365600983N00900150EA0000000319
B1247415600993N00900046EA0000000320
B1247465601053N00900011EA0000000323
B1247515601112N00900074EA0000000316
B1247565601109N00900170EA0000000322
B1248025601053N00900198EA0000000312
B1248075601000N00900177EA0000000316
B1248135600979N00900080EA0000000312
B1248185601006N00859967EA0000000309
B1248235601066N00859914EA0000000305
B1248285601137N00859966EA0000000292
B1248335601151N00900080EA0000000290
B1248385601103N00900135EA0000000289
B1248435601054N00900088EA0000000298
B1248485601052N00859985EA0000000296
B1248535601110N00859919EA0000000291
B1248585601171N00859969EA0000000284
B1249035601179N00900076EA0000000274
B1249085601138N00900150EA0000000271
B1249135601088N00900180EA0000000273
B1249185601058N00900090EA0000000274
B1249235601106N00900007EA0000000285
B1249285601170N00900039EA0000000285
B1249335601186N00900138EA0000000281
B1249385601154N00900216EA0000000276
B1249435601102N00900226EA0000000288
B1249485601073N00900157EA0000000291
B1249535601096N00900064EA0000000295
B1249585601162N00900049EA0000000292
B1250035601206N00900134EA0000000292
B1250085601187N00900233EA0000000285
B1250145601125N00900271EA0000000293
B1250195601093N00900214EA0000000300
B1250245601118N00900122EA0000000304
B1250295601181N00900102EA0000000306
B1250345601240N00900179EA0000000303
B1250395601233N00900287EA0000000309
B1250445601185N00900303EA0000000317
B1250495601170N00900221EA0000000327
B1250545601219N00900156EA0000000333
B1250595601283N00900191EA0000000333
B1251045601307N00900300EA0000000338
B1251095601268N00900372EA0000000345
B1251145601224N00900343EA0000000352
B1251195601237N00900252EA0000000359
B1251245601302N00900230EA0000000367
B1251305601348N00900334EA0000000375
B1251355601319N00900408EA0000000377
B1251405601277N00900386EA0000000380
B1251465601297N00900280EA0000000393
B1251515601361N00900256EA0000000404
B1251565601407N00900328EA0000000408
B1252025601384N00900430EA0000000415
B1252075601340N00900419EA0000000423
B1252125601340N00900331EA0000000430
B1252175601396N00900271EA0000000443
B1252225601461N00900294EA0000000448
B1252275601490N00900388EA0000000452
B1252325601457N00900465EA0000000451
B1252375601418N00900423EA0000000461
B1252425601434N00900335EA0000000466
B1252475601497N00900300EA0000000469
B1252525601551N00900366EA0000000474
B1252575601550N00900471EA0000000471
B1253025601507N00900542EA0000000475
B1253075601458N00900535EA0000000479
B1253125601438N00900448EA0000000487
B1253175601476N00900360EA0000000493
B1253225601543N00900357EA0000000501
B1253275601579N00900447EA0000000507
B1253325601555N00900533EA0000000511
B1253375601503N00900538EA0000000516
B1253425601465N00900469EA0000000519
B1253475601467N00900372EA0000000524
B1253525601518N00900305EA0000000525
B1253575601585N00900331EA0000000521
B1254025601601N00900435EA0000000521
B1254085601550N00900500EA0000000523
B1254135601506N00900463EA0000000526
B1254185601508N00900371EA0000000524
B1254235601556N00900311EA0000000515
B1254285601620N00900342EA0000000514
B1254345601639N00900466EA0000000509
B1254395601600N00900521EA0000000513
B1254465601530N00900510EA0000000503
B1254525601458N00900509EA0000000489
B1254575601420N00900447EA0000000487
B1255025601439N00900356EA0000000484
B1255075601499N00900318EA0000000481
B1255125601560N00900378EA0000000478
B1255175601573N00900491EA0000000466
B1255225601533N00900571EA0000000454
B1255275601477N00900577EA0000000445
B1255335601405N00900578EA0000000431
B1255395601354N00900518EA0000000433
B1255455601312N00900436EA0000000413
B1255505601269N00900369EA0000000411
B1255555601221N00900320EA0000000413
B1256015601176N00900406EA0000000424
B1256065601201N00900517EA0000000433
B1256115601272N00900557EA0000000421
B1256165601332N00900481EA0000000423
B1256215601337N00900367EA0000000426
B1256265601299N00900298EA0000000431
B1256315601251N00900338EA0000000436
B1256365601243N00900455EA0000000433
B1256415601293N00900548EA0000000443
B1256465601360N00900523EA0000000436
B1256525601382N00900393EA0000000432
B1256595601330N00900287EA0000000432
B1257045601278N00900305EA0000000426
B1257095601279N00900422EA0000000423
B1257155601361N00900470EA0000000424
B1257205601400N00900386EA0000000421
B1257255601374N00900311EA0000000411
B1257305601322N00900339EA0000000402
B1257355601297N00900438EA0000000409
B1257405601327N00900550EA0000000406
B1257455601395N00900566EA0000000411
B1257505601432N00900477EA0000000404
B1257555601411N00900388EA0000000397
B1258005601357N00900375EA0000000395
B1258055601306N00900401EA0000000392
B1258105601272N00900339EA0000000404
B1258155601294N00900254EA0000000405
B1258205601354N00900222EA0000000409
B1258255601416N00900279EA0000000407
B1258305601426N00900390EA0000000401
B1258355601386N00900451EA0000000397
B1258405601337N00900437EA0000000395
B1258465601293N00900368EA0000000403
B1258515601266N00900297EA0000000407
B1258565601230N00900238EA0000000400
B1259015601184N00900276EA0000000399
B1259065601171N00900393EA0000000399
B1259115601202N00900509EA0000000396
B1259165601270N00900555EA0000000404
B1259215601325N00900494EA0000000404
B1259265601325N00900396EA0000000398
B1259325601270N00900359EA0000000397
B1259375601227N00900425EA0000000399
B1259425601235N00900543EA0000000400
B1259475601304N00900592EA0000000393
B1259525601351N00900500EA0000000396
B1259575601331N00900412EA0000000396
B1300025601275N00900424EA0000000392
B1300075601258N00900534EA0000000400
B1300125601310N00900632EA0000000404
B1300175601379N00900596EA0000000406
B1300225601387N00900487EA0000000415
B1300275601350N00900436EA0000000413
B1300335601313N00900543EA0000000414
B1300385601356N00900637EA0000000428
B1300435601419N00900618EA0000000435
B1300485601425N00900533EA0000000438
B1300535601379N00900534EA0000000426
B1300585601369N00900638EA0000000438
B1301035601424N00900716EA0000000444
B1301085601479N00900668EA0000000453
B1301145601476N00900550EA0000000449
B1301195601433N00900496EA0000000442
B1301245601386N00900544EA0000000447
B1301295601392N00900660EA0000000455
B1301345601458N00900713EA0000000459
B1301395601515N00900656EA0000000470
B1301445601518N00900565EA0000000468
B1301495601474N00900538EA0000000462
B1301545601437N00900611EA0000000463
B1301595601467N00900724EA0000000465
B1302045601540N00900728EA0000000475
B1302095601560N00900639EA0000000476
B1302145601521N00900586EA0000000470
B1302195601474N00900621EA0000000471
B1302245601469N00900734EA0000000475
B1302295601529N00900813EA0000000481
B1302345601586N00900757EA0000000488
B1302395601580N00900659EA0000000484
B1302445601534N00900626EA0000000491
B1302495601504N00900701EA0000000495
B1302545601530N00900821EA0000000499
B1302595601603N00900863EA0000000501
B1303045601664N00900804EA0000000509
B1303095601666N00900709EA0000000501
B1303145601615N00900684EA0000000494
B1303195601579N00900775EA0000000497
B1303245601609N00900890EA0000000496
B1303305601691N00900874EA0000000498
B1303355601702N00900768EA0000000493
B1303405601654N00900738EA0000000490
B1303455601632N00900835EA0000000494
B1303505601686N00900909EA0000000491
B1303555601742N00900853EA0000000492
B1304005601738N00900757EA0000000481
B1304055601687N00900764EA0000000473
B1304105601683N00900875EA0000000481
B1304155601741N00900943EA0000000484
B1304205601797N00900887EA0000000482
B1304255601799N00900787EA0000000473
B1304305601761N00900726EA0000000470
B1304355601713N00900689EA0000000467
B1304415601663N00900626EA0000000473
B1304465601674N00900538EA0000000468
B1304525601751N00900507EA0000000460
B1304575601809N00900579EA0000000450
B1305025601827N00900696EA0000000447
B1305075601789N00900758EA0000000450
B1305125601749N00900729EA0000000459
B1305175601747N00900645EA0000000452
B1305225601790N00900570EA0000000445
B1305275601857N00900565EA0000000440
B1305325601906N00900653EA0000000434
B1305395601876N00900769EA0000000430
B1305465601813N00900813EA0000000427
B1305515601763N00900818EA0000000423
B1305565601734N00900756EA0000000429
B1306015601746N00900663EA0000000423
B1306065601794N00900589EA0000000419
B1306115601864N00900582EA0000000413
B1306165601909N00900670EA0000000409
B1306215601886N00900758EA0000000397
B1306265601837N00900765EA0000000392
B1306315601799N00900710EA0000000387
B1306385601745N00900616EA0000000381
B1306435601701N00900563EA0000000383
B1306495601693N00900459EA0000000372
B1306565601746N00900355EA0000000366
B1307015601810N00900305EA0000000348
B1307065601846N00900211EA0000000343
B1307115601819N00900138EA0000000333
B1307165601766N00900145EA0000000316
B1307235601686N00900192EA0000000312
B1307285601634N00900231EA0000000311
B1307345601571N00900277EA0000000303
B1307405601505N00900321EA0000000290
B1307475601429N00900372EA0000000277
B1307555601342N00900430EA0000000263
B1308005601284N00900458EA0000000260
B1308055601224N00900481EA0000000244
B1308105601157N00900497EA0000000226
B1308165601077N00900531EA0000000216
B1308215601018N00900587EA0000000211
B1308275600999N00900746EA0000000208
B1308355601039N00900977EA0000000207
B1308415601073N00901153EA0000000205
B1308475601104N00901336EA0000000204
B1308525601127N00901491EA0000000198
B1308585601107N00901654EA0000000197
B1309075601042N00901862EA0000000189
B1309135600978N00901966EA0000000179
B1309185600915N00902030EA0000000169
B1309245600835N00902091EA0000000155
B1309295600769N00902084EA0000000149
B1309345600732N00901983EA0000000140
B1309395600725N00901856EA0000000125
B1309475600717N00901665EA0000000096
B1309525600709N00901552EA0000000080
B1309585600697N00901422EA0000000056
B1310045600684N00901296EA0000000044
B1310095600680N00901215EA0000000043
