AOGNOGN
HFDTE010725
HFFXA050
HFPLTPILOTINCHARGE:
HFGTYGLIDERTYPE:LS-4
HFGIDGLIDERID:OY-XML
HFDTM100GPSDATUM:WGS-1984
HFRFWFIRMWAREVERSION:
HFRHWHARDWAREVERSION:
HFFTYFRTYPE:OGN-FLIGHTBOOK
HFGPSGENERIC
HFPRSPRESSALTSENSOR:
HFCIDCOMPETITIONID:ML
B0953405600719N00901290EA0000000045
B0953455600707N00901176EA0000000128
B0953505600691N00901073EA0000000226
B0953555600676N00900967EA0000000309
B0954005600665N00900851EA0000000369
B0954055600656N00900728EA0000000416
B0954115600642N00900573EA0000000453
B0954175600631N00900434EA0000000459
B0954225600654N00900322EA0000000452
B0954285600741N00900253EA0000000446
B0954345600838N00900262EA0000000439
B0954395600917N00900293EA0000000433
B0954445600992N00900342EA0000000433
B0954515601093N00900408EA0000000432
B0954565601169N00900459EA0000000424
B0955015601242N00900515EA0000000425
B0955095601357N00900615EA0000000419
B0955145601429N00900686EA0000000415
B0955225601542N00900804EA0000000409
B0955275601609N00900876EA0000000401
B0955325601674N00900953EA0000000393
B0955375601748N00900996EA0000000389
B0955435601837N00900942EA0000000378
B0955505601933N00900843EA0000000370
B0955575602024N00900752EA0000000366
B0956025602087N00900686EA0000000359
B0956075602151N00900620EA0000000352
B0956145602233N00900503EA0000000340
B0956195602294N00900413EA0000000332
B0956255602373N00900324EA0000000327
B0956305602436N00900256EA0000000325
B0956375602513N00900151EA0000000317
B0956425602541N00900046EA0000000313
B0956475602528N00859951EA0000000304
B0956555602439N00859926EA0000000301
B0957035602352N00859936EA0000000302
B0957085602299N00859959EA0000000301
B0957135602246N00859978EA0000000298
B0957195602182N00859992EA0000000301
B0957255602117N00900002EA0000000297
B0957305602061N00900012EA0000000299
B0957395601963N00900019EA0000000303
B0957445601910N00900021EA0000000301
B0957525601825N00900023EA0000000294
B0957585601762N00900032EA0000000289
B0958035601711N00900058EA0000000287
B0958085601657N00900076EA0000000289
B0958165601572N00900080EA0000000287
B0958215601524N00900075EA0000000284
B0958265601476N00900066EA0000000280
B0958325601420N00900049EA0000000275
B0958385601368N00900025EA0000000266
B0958435601343N00859949EA0000000257
B0958485601372N00859846EA0000000252
B0958555601466N00859788EA0000000250
B0959005601536N00859831EA0000000238
B0959055601562N00859947EA0000000230
B0959115601533N00900066EA0000000220
B0959185601481N00900189EA0000000205
B0959235601449N00900288EA0000000199
B0959305601422N00900447EA0000000191
B0959375601396N00900611EA0000000181
B0959445601361N00900776EA0000000173
B0959555601300N00901029EA0000000161
B1000025601256N00901181EA0000000160
B1000095601214N00901344EA0000000155
B1000145601187N00901465EA0000000156
B1000215601157N00901638EA0000000160
B1000265601136N00901767EA0000000153
B1000315601103N00901885EA0000000144
B1000385601020N00901963EA0000000141
B1000445600943N00902018EA0000000139
B1000505600861N00902058EA0000000130
B1000555600795N00902028EA0000000128
B1001015600752N00901884EA0000000112
B1001075600735N00901728EA0000000082
B1001155600719N00901542EA0000000044
B1001225600708N00901407EA0000000043
