AOGNOGN
HFDTE010725
HFFXA050
HFPLTPILOTINCHARGE:
HFGTYGLIDERTYPE:ASK-21
HFGIDGLIDERID:OY-XPC
HFDTM100GPSDATUM:WGS-1984
HFRFWFIRMWAREVERSION:
HFRHWHARDWAREVERSION:
HFFTYFRTYPE:OGN-FLIGHTBOOK
HFGPSGENERIC
HFPRSPRESSALTSENSOR:
HFCIDCOMPETITIONID:PC
B1512185600697N00901529EA0000000035
B1512225600692N00901449EA0000000035
B1512295600681N00901266EA0000000037
B1512355600671N00901090EA0000000051
B1512435600639N00900866EA0000000078
B1512485600631N00900718EA0000000092
B1512545600649N00900534EA0000000111
B1513015600716N00900341EA0000000140
B1513085600821N00900200EA0000000166
B1513135600912N00900133EA0000000177
B1513185601012N00900090EA0000000189
B1513265601180N00900050EA0000000210
B1513325601299N00900019EA0000000231
B1513415601477N00859958EA0000000248
B1513485601609N00859864EA0000000262
B1513535601695N00859770EA0000000275
B1513585601772N00859656EA0000000284
B1514035601846N00859530EA0000000291
B1514125601978N00859305EA0000000316
B1514175602047N00859170EA0000000321
B1514245602126N00858964EA0000000347
B1514305602157N00858777EA0000000367
B1514355602157N00858626EA0000000383
B1514405602133N00858494EA0000000397
B1514485602048N00858337EA0000000417
B1514535601982N00858264EA0000000427
B1515015601883N00858134EA0000000453
B1515065601821N00858051EA0000000472
B1515145601719N00857931EA0000000497
B1515195601650N00857913EA0000000506
B1515245601600N00857990EA0000000493
B1515305601601N00858150EA0000000485
B1515355601656N00858254EA0000000483
B1515405601733N00858306EA0000000471
B1515465601818N00858398EA0000000458
B1515515601868N00858509EA0000000443
B1515595601875N00858722EA0000000443
B1516055601849N00858858EA0000000439
B1516105601830N00858970EA0000000446
B1516155601817N00859086EA0000000437
B1516205601775N00859152EA0000000436
B1516255601729N00859120EA0000000434
B1516335601720N00858952EA0000000434
B1516385601750N00858837EA0000000423
B1516445601820N00858730EA0000000407
B1516495601906N00858689EA0000000384
B1516545601999N00858737EA0000000377
B1517005602083N00858868EA0000000378
B1517065602104N00859031EA0000000383
B1517125602069N00859158EA0000000380
B1517215601973N00859216EA0000000371
B1517265601917N00859209EA0000000363
B1517345601824N00859250EA0000000361
B1517405601758N00859321EA0000000356
B1517455601714N00859408EA0000000346
B1517525601673N00859573EA0000000340
B1517575601630N00859650EA0000000331
B1518045601546N00859683EA0000000310
B1518105601472N00859670EA0000000309
B1518155601412N00859647EA0000000310
B1518215601345N00859607EA0000000308
B1518265601287N00859624EA0000000304
B1518315601239N00859693EA0000000298
B1518395601198N00859871EA0000000287
B1518445601204N00900001EA0000000280
B1518505601232N00900154EA0000000273
B1518555601292N00900244EA0000000261
B1519005601371N00900226EA0000000259
B1519055601401N00900110EA0000000247
B1519105601376N00900006EA0000000242
B1519155601319N00859984EA0000000229
B1519225601233N00900089EA0000000208
B1519275601190N00900211EA0000000209
B1519335601159N00900374EA0000000210
B1519445601149N00900678EA0000000221
B1519495601162N00900816EA0000000211
B1519565601184N00901016EA0000000202
B1520095601199N00901389EA0000000176
B1520145601194N00901535EA0000000168
B1520195601184N00901676EA0000000161
B1520275601124N00901860EA0000000143
B1520325601066N00901943EA0000000140
B1520405600954N00901998EA0000000135
B1520455600883N00902024EA0000000132
B1520505600816N00902041EA0000000127
B1520555600772N00901963EA0000000116
B1521005600772N00901830EA0000000090
B1521065600756N00901677EA0000000062
B1521115600744N00901551EA0000000042
B1521165600735N00901433EA0000000033
