AOGNOGN
HFDTE010725
HFFXA050
HFPLTPILOTINCHARGE:
HFGTYGLIDERTYPE:ASK-21
HFGIDGLIDERID:OY-XPC
HFDTM100GPSDATUM:WGS-1984
HFRFWFIRMWAREVERSION:
HFRHWHARDWAREVERSION:
HFFTYFRTYPE:OGN-FLIGHTBOOK
HFGPSGENERIC
HFPRSPRESSALTSENSOR:
HFCIDCOMPETITIONID:PC
B1437255600727N00901269EA0000000047
B1437305600713N00901125EA0000000131
B1437355600695N00900986EA0000000213
B1437405600675N00900849EA0000000282
B1437455600654N00900717EA0000000334
B1437515600623N00900569EA0000000365
B1437575600591N00900416EA0000000356
B1438035600568N00900247EA0000000354
B1438095600600N00900092EA0000000363
B1438155600671N00859975EA0000000350
B1438205600756N00859932EA0000000346
B1438255600833N00859978EA0000000342
B1438325600877N00900150EA0000000336
B1438385600899N00900306EA0000000325
B1438435600920N00900434EA0000000314
B1438515600954N00900632EA0000000299
B1438575600980N00900774EA0000000288
B1439025601026N00900874EA0000000279
B1439075601103N00900880EA0000000272
B1439155601197N00900728EA0000000256
B1439205601233N00900610EA0000000247
B1439265601272N00900469EA0000000241
B1439315601285N00900348EA0000000231
B1439365601254N00900259EA0000000224
B1439425601182N00900244EA0000000216
B1439475601123N00900275EA0000000208
B1439525601090N00900380EA0000000199
B1439585601100N00900538EA0000000185
B1440035601123N00900677EA0000000175
B1440085601144N00900814EA0000000167
B1440135601165N00900948EA0000000163
B1440195601187N00901105EA0000000160
B1440275601213N00901316EA0000000153
B1440345601222N00901498EA0000000152
B1440395601210N00901617EA0000000150
B1440445601184N00901725EA0000000140
B1440505601149N00901848EA0000000129
B1440565601091N00901931EA0000000116
B1441035601006N00901927EA0000000101
B1441085600945N00901903EA0000000106
B1441135600891N00901890EA0000000107
B1441185600834N00901891EA0000000095
B1441245600764N00901861EA0000000087
B1441295600735N00901755EA0000000075
B1441365600716N00901581EA0000000044
B1441415600700N00901470EA0000000038
B1441465600688N00901408EA0000000036
