AOGNOGN
HFDTE010725
HFFXA050
HFPLTPILOTINCHARGE:
HFGTYGLIDERTYPE:ASK-21
HFGIDGLIDERID:OY-XPC
HFDTM100GPSDATUM:WGS-1984
HFRFWFIRMWAREVERSION:
HFRHWHARDWAREVERSION:
HFFTYFRTYPE:OGN-FLIGHTBOOK
HFGPSGENERIC
HFPRSPRESSALTSENSOR:
HFCIDCOMPETITIONID:PC
B0931425600720N00901285EA0000000048
B0931475600695N00901149EA0000000118
B0931525600674N00901017EA0000000218
B0931575600655N00900882EA0000000309
B0932025600640N00900746EA0000000380
B0932085600615N00900576EA0000000422
B0932135600589N00900454EA0000000427
B0932185600561N00900347EA0000000428
B0932245600534N00900228EA0000000431
B0932295600498N00900154EA0000000429
B0932355600426N00900162EA0000000416
B0932405600370N00900130EA0000000409
B0932455600354N00900013EA0000000411
B0932505600381N00859890EA0000000414
B0932565600420N00859756EA0000000414
B0933015600420N00859652EA0000000409
B0933065600380N00859583EA0000000408
B0933115600323N00859576EA0000000412
B0933165600274N00859640EA0000000414
B0933215600250N00859751EA0000000414
B0933285600259N00859924EA0000000406
B0933355600287N00900099EA0000000392
B0933405600299N00900225EA0000000399
B0933455600319N00900348EA0000000407
B0933505600373N00900444EA0000000408
B0933555600449N00900482EA0000000412
B0934005600522N00900451EA0000000415
B0934055600572N00900358EA0000000411
B0934115600585N00900225EA0000000399
B0934165600552N00900142EA0000000397
B0934215600498N00900127EA0000000397
B0934265600450N00900188EA0000000400
B0934315600428N00900304EA0000000402
B0934365600449N00900432EA0000000408
B0934415600508N00900519EA0000000411
B0934465600586N00900539EA0000000408
B0934515600654N00900480EA0000000415
B0934565600680N00900371EA0000000410
B0935015600661N00900267EA0000000406
B0935065600614N00900212EA0000000406
B0935115600558N00900228EA0000000407
B0935165600503N00900256EA0000000414
B0935225600447N00900213EA0000000405
B0935275600423N00900123EA0000000402
B0935345600430N00859971EA0000000405
B0935395600460N00859871EA0000000409
B0935445600491N00859776EA0000000406
B0935515600477N00859638EA0000000399
B0935565600434N00859577EA0000000393
B0936015600379N00859598EA0000000386
B0936065600343N00859701EA0000000381
B0936115600354N00859835EA0000000389
B0936165600411N00859935EA0000000391
B0936215600488N00859956EA0000000394
B0936265600558N00859903EA0000000392
B0936325600602N00859781EA0000000387
B0936385600592N00859647EA0000000381
B0936435600548N00859583EA0000000380
B0936485600492N00859605EA0000000369
B0936535600453N00859700EA0000000367
B0936585600446N00859826EA0000000370
B0937045600487N00859973EA0000000375
B0937095600550N00900053EA0000000379
B0937185600681N00900054EA0000000377
B0937255600747N00859932EA0000000370
B0937315600815N00859841EA0000000370
B0937385600917N00859793EA0000000368
B0937455601025N00859759EA0000000353
B0937505601104N00859738EA0000000347
B0937585601229N00859753EA0000000342
B0938035601294N00859830EA0000000332
B0938085601327N00859957EA0000000332
B0938165601296N00900137EA0000000333
B0938255601206N00900222EA0000000326
B0938305601153N00900205EA0000000328
B0938375601096N00900125EA0000000328
B0938425601047N00900089EA0000000323
B0938475600993N00900120EA0000000322
B0938525600967N00900223EA0000000319
B0938575600991N00900348EA0000000313
B0939025601059N00900414EA0000000311
B0939075601132N00900372EA0000000316
B0939125601169N00900264EA0000000315
B0939175601171N00900150EA0000000312
B0939265601097N00900014EA0000000314
B0939315601045N00859977EA0000000318
B0939365600993N00859994EA0000000312
B0939415600955N00900076EA0000000313
B0939475600953N00900209EA0000000311
B0939535600984N00900352EA0000000302
B0939585601029N00900455EA0000000302
B0940035601102N00900496EA0000000298
B0940085601168N00900436EA0000000297
B0940135601179N00900327EA0000000287
B0940185601147N00900233EA0000000283
B0940275601069N00900095EA0000000282
B0940345601027N00859961EA0000000282
B0940445600927N00859917EA0000000282
B0940495600886N00859990EA0000000271
B0940545600868N00900109EA0000000271
B0941025600904N00900298EA0000000278
B0941075600965N00900380EA0000000274
B0941125601042N00900394EA0000000270
B0941175601111N00900333EA0000000262
B0941225601146N00900216EA0000000257
B0941275601143N00900099EA0000000256
B0941355601095N00859958EA0000000264
B0941405601055N00859895EA0000000256
B0941455601006N00859914EA0000000250
B0941515600986N00900046EA0000000250
B0941575601023N00900191EA0000000244
B0942025601070N00900298EA0000000245
B0942075601138N00900351EA0000000251
B0942125601208N00900320EA0000000239
B0942175601244N00900209EA0000000232
B0942225601210N00900125EA0000000230
B0942275601149N00900143EA0000000226
B0942325601100N00900228EA0000000226
B0942395601048N00900387EA0000000221
B0942445601032N00900515EA0000000233
B0942505601068N00900674EA0000000226
B0942575601106N00900869EA0000000210
B0943075601140N00901168EA0000000190
B0943155601157N00901410EA0000000177
B0943205601167N00901559EA0000000168
B0943255601176N00901705EA0000000164
B0943315601183N00901880EA0000000165
B0943375601189N00902045EA0000000171
B0943425601157N00902145EA0000000167
B0943485601083N00902168EA0000000157
B0943565600972N00902175EA0000000151
B0944015600904N00902191EA0000000138
B0944085600808N00902207EA0000000130
B0944135600756N00902152EA0000000125
B0944185600753N00902014EA0000000107
B0944275600737N00901764EA0000000072
B0944325600730N00901628EA0000000053
B0944385600719N00901482EA0000000042
