AOGNOGN
HFDTE010725
HFFXA050
HFPLTPILOTINCHARGE:
HFGTYGLIDERTYPE:ASK-21
HFGIDGLIDERID:OY-XPC
HFDTM100GPSDATUM:WGS-1984
HFRFWFIRMWAREVERSION:
HFRHWHARDWAREVERSION:
HFFTYFRTYPE:OGN-FLIGHTBOOK
HFGPSGENERIC
HFPRSPRESSALTSENSOR:
HFCIDCOMPETITIONID:PC
B1033005600717N00901262EA0000000058
B1033055600704N00901141EA0000000116
B1033105600697N00901019EA0000000187
B1033155600683N00900901EA0000000255
B1033205600654N00900767EA0000000331
B1033255600628N00900626EA0000000378
B1033305600601N00900499EA0000000406
B1033355600576N00900390EA0000000410
B1033405600550N00900290EA0000000399
B1033465600485N00900251EA0000000389
B1033525600428N00900330EA0000000379
B1034005600372N00900477EA0000000369
B1034075600326N00900615EA0000000355
B1034135600308N00900759EA0000000346
B1034185600295N00900881EA0000000339
B1034235600251N00900967EA0000000330
B1034295600177N00900995EA0000000327
B1034345600122N00900948EA0000000324
B1034395600093N00900845EA0000000318
B1034465600110N00900671EA0000000308
B1034525600130N00900517EA0000000298
B1034585600099N00900398EA0000000295
B1035035600035N00900400EA0000000294
B1035085559994N00900495EA0000000303
B1035135600021N00900611EA0000000290
B1035185600104N00900624EA0000000280
B1035235600149N00900532EA0000000272
B1035285600124N00900446EA0000000268
B1035335600066N00900444EA0000000270
B1035385600013N00900499EA0000000269
B1035435559976N00900594EA0000000267
B1035495559983N00900753EA0000000262
B1035555559999N00900907EA0000000252
B1036015600021N00901064EA0000000246
B1036065600049N00901190EA0000000248
B1036125600095N00901329EA0000000262
B1036175600110N00901441EA0000000255
B1036225600090N00901550EA0000000239
B1036275600077N00901671EA0000000230
B1036325600079N00901799EA0000000230
B1036395600102N00901973EA0000000232
B1036475600144N00902190EA0000000222
B1036525600194N00902317EA0000000218
B1036595600292N00902443EA0000000215
B1037045600376N00902495EA0000000202
B1037115600501N00902497EA0000000189
B1037165600588N00902453EA0000000181
B1037215600666N00902370EA0000000178
B1037265600737N00902265EA0000000172
B1037315600770N00902119EA0000000168
B1037365600770N00901967EA0000000142
B1037425600752N00901796EA0000000101
B1037505600728N00901578EA0000000060
B1037555600713N00901451EA0000000048
B1038005600700N00901360EA0000000048
