AOGNOGN
HFDTE010725
HFFXA050
HFPLTPILOTINCHARGE:
HFGTYGLIDERTYPE:PA-25 Pawnee
HFGIDGLIDERID:LN-EIC
HFDTM100GPSDATUM:WGS-1984
HFRFWFIRMWAREVERSION:
HFRHWHARDWAREVERSION:
HFFTYFRTYPE:OGN-FLIGHTBOOK
HFGPSGENERIC
HFPRSPRESSALTSENSOR:
HFCIDCOMPETITIONID:IC
B1512175600695N00901497EA0000000040
B1512185600694N00901480EA0000000040
B1512245600686N00901355EA0000000040
B1512295600677N00901219EA0000000043
B1512345600666N00901073EA0000000055
B1512425600634N00900850EA0000000080
B1512485600629N00900672EA0000000098
B1512545600657N00900488EA0000000115
B1513045600777N00900242EA0000000156
B1513105600879N00900147EA0000000173
B1513155600976N00900098EA0000000184
B1513225601123N00900058EA0000000199
B1513295601266N00900022EA0000000225
B1513355601384N00859985EA0000000238
B1513415601502N00859938EA0000000249
B1513475601613N00859852EA0000000260
B1513575601773N00859642EA0000000282
B1514025601847N00859518EA0000000289
B1514115601979N00859293EA0000000313
B1514165602048N00859159EA0000000320
B1514255602137N00858888EA0000000351
B1514305602153N00858731EA0000000368
B1514355602148N00858582EA0000000386
B1514435602085N00858396EA0000000406
B1514485602024N00858312EA0000000418
B1514555601934N00858207EA0000000436
B1515015601860N00858108EA0000000456
B1515065601798N00858026EA0000000475
B1515125601723N00857935EA0000000495
B1515175601649N00857882EA0000000493
B1515225601568N00857792EA0000000456
B1515275601464N00857790EA0000000415
B1515325601381N00857938EA0000000383
B1515385601339N00858197EA0000000345
B1515435601332N00858422EA0000000323
B1515485601334N00858642EA0000000301
B1515535601338N00858853EA0000000288
B1516005601343N00859141EA0000000269
B1516095601350N00859506EA0000000241
B1516185601336N00859852EA0000000209
B1516245601299N00900066EA0000000195
B1516295601260N00900234EA0000000177
B1516365601204N00900470EA0000000156
B1516425601161N00900678EA0000000143
B1516475601127N00900852EA0000000133
B1516545601084N00901090EA0000000118
B1517005601052N00901292EA0000000108
B1517065601027N00901494EA0000000101
B1517125600989N00901683EA0000000096
B1517175600940N00901816EA0000000090
B1517225600862N00901866EA0000000080
B1517275600785N00901824EA0000000067
B1517335600732N00901689EA0000000056
B1517395600713N00901533EA0000000039
B1517475600698N00901362EA0000000036
