AOGNOGN
HFDTE010725
HFFXA050
HFPLTPILOTINCHARGE:
HFGTYGLIDERTYPE:
HFGIDGLIDERID:
HFDTM100GPSDATUM:WGS-1984
HFRFWFIRMWAREVERSION:
HFRHWHARDWAREVERSION:
HFFTYFRTYPE:OGN-FLIGHTBOOK
HFGPSGENERIC
HFPRSPRESSALTSENSOR:
HFCIDCOMPETITIONID:
B1447555600726N00901294EA0000000046
B1448015600705N00901131EA0000000158
B1448065600699N00901010EA0000000260
B1448115600692N00900877EA0000000344
B1448165600675N00900750EA0000000406
B1448235600653N00900585EA0000000434
B1448295600642N00900464EA0000000435
B1448345600669N00900368EA0000000423
B1448405600750N00900312EA0000000417
B1448485600872N00900299EA0000000405
B1448535600947N00900299EA0000000397
B1448585601019N00900317EA0000000394
B1449035601074N00900394EA0000000387
B1449095601088N00900531EA0000000372
B1449175601030N00900656EA0000000365
B1449225600987N00900711EA0000000358
B1449275600946N00900676EA0000000349
B1449365600934N00900482EA0000000331
B1449425600942N00900340EA0000000322
B1449475600946N00900223EA0000000315
B1449545600947N00900066EA0000000326
B1449595600998N00900005EA0000000328
B1450045601051N00900092EA0000000323
B1450095601041N00900216EA0000000326
B1450145600992N00900296EA0000000323
B1450195600940N00900244EA0000000321
B1450245600939N00900124EA0000000324
B1450295601004N00900068EA0000000325
B1450345601050N00900172EA0000000322
B1450395601005N00900265EA0000000321
B1450445600942N00900248EA0000000321
B1450495600930N00900128EA0000000327
B1450545600990N00900066EA0000000327
B1450595601026N00900175EA0000000321
B1451045600980N00900232EA0000000317
B1451105600951N00900115EA0000000309
B1451155600951N00859992EA0000000302
B1451205601014N00859917EA0000000295
B1451255601081N00859993EA0000000294
B1451305601080N00900116EA0000000286
B1451355601043N00900214EA0000000281
B1451405600988N00900252EA0000000280
B1451455600956N00900178EA0000000274
B1451505600979N00900070EA0000000270
B1451565601069N00900067EA0000000268
B1452035601133N00900202EA0000000262
B1452085601152N00900325EA0000000262
B1452145601172N00900478EA0000000258
B1452195601181N00900608EA0000000254
B1452275601191N00900814EA0000000236
B1452365601174N00901046EA0000000219
B1452415601152N00901168EA0000000213
B1452525601095N00901427EA0000000199
B1453035601021N00901670EA0000000189
B1453095600970N00901778EA0000000189
B1453155600904N00901841EA0000000187
B1453205600842N00901864EA0000000172
B1453255600782N00901823EA0000000155
B1453315600744N00901701EA0000000119
B1453365600725N00901578EA0000000087
B1453435600697N00901404EA0000000046
B1453495600676N00901272EA0000000040
B1453545600661N00901191EA0000000041
