AOGNOGN
HFDTE240825
HFFXA050
HFPLTPILOTINCHARGE:
HFGTYGLIDERTYPE:SZD-50 Puchacz
HFGIDGLIDERID:OY-XUT
HFDTM100GPSDATUM:WGS-1984
HFRFWFIRMWAREVERSION:
HFRHWHARDWAREVERSION:
HFFTYFRTYPE:OGN-FLIGHTBOOK
HFGPSGENERIC
HFPRSPRESSALTSENSOR:
HFCIDCOMPETITIONID:UT
B1027425650726N00927907EA0000000031
B1027425650726N00927907EA0000000031
B1027475650744N00927795EA0000000114
B1027545650757N00927694EA0000000227
B1027595650764N00927613EA0000000291
B1028045650779N00927528EA0000000343
B1028095650800N00927444EA0000000384
B1028165650820N00927304EA0000000429
B1028215650831N00927178EA0000000442
B1028265650860N00927029EA0000000437
B1028325650891N00926872EA0000000447
B1028375650945N00926801EA0000000454
B1028425651008N00926784EA0000000454
B1028505651094N00926927EA0000000450
B1028555651140N00927046EA0000000443
B1029015651213N00927196EA0000000438
B1029075651269N00927283EA0000000434
B1029135651336N00927370EA0000000433
B1029185651390N00927427EA0000000422
B1029235651446N00927477EA0000000413
B1029375651608N00927617EA0000000395
B1029465651717N00927714EA0000000391
B1029585651871N00927860EA0000000417
B1030035651905N00927921EA0000000410
B1030105651923N00928115EA0000000397
B1030165651861N00928236EA0000000385
B1030215651790N00928201EA0000000379
B1030285651779N00928048EA0000000390
B1030335651817N00927978EA0000000396
B1030395651816N00927851EA0000000400
B1030455651722N00927885EA0000000397
B1030535651716N00928143EA0000000399
B1030595651794N00928178EA0000000408
B1031055651869N00928148EA0000000411
B1031105651887N00928034EA0000000417
B1031175651784N00928076EA0000000429
B1031225651791N00928228EA0000000442
B1031275651854N00928268EA0000000442
B1031325651876N00928169EA0000000446
B1031405651777N00928118EA0000000467
B1031465651756N00928317EA0000000479
B1031515651810N00928338EA0000000483
B1031575651839N00928220EA0000000485
B1032025651762N00928209EA0000000503
B1032085651731N00928390EA0000000496
B1032135651820N00928403EA0000000519
B1032215651814N00928261EA0000000531
B1032265651745N00928257EA0000000529
B1032315651695N00928398EA0000000541
B1032365651719N00928528EA0000000556
B1032415651782N00928539EA0000000554
B1032535651712N00928387EA0000000572
B1032595651690N00928582EA0000000574
B1033045651738N00928634EA0000000599
B1033135651811N00928536EA0000000595
B1033185651758N00928452EA0000000580
B1033245651668N00928516EA0000000587
B1033295651606N00928580EA0000000584
B1033345651550N00928657EA0000000577
B1033395651485N00928715EA0000000557
B1033445651435N00928647EA0000000542
B1033495651474N00928574EA0000000544
B1033565651552N00928574EA0000000545
B1034015651602N00928567EA0000000535
B1034065651649N00928540EA0000000526
B1034125651698N00928483EA0000000515
B1034205651771N00928424EA0000000502
B1034255651815N00928356EA0000000492
B1034355651913N00928338EA0000000478
B1034415651970N00928474EA0000000471
B1034525652006N00928832EA0000000471
B1034585652018N00928982EA0000000462
B1035145652109N00929407EA0000000442
B1035335652180N00929970EA0000000417
B1035385652165N00930139EA0000000414
B1035475652034N00930185EA0000000398
B1035555651917N00930177EA0000000376
B1036015651834N00930115EA0000000372
B1036065651771N00930059EA0000000376
B1036155651658N00929961EA0000000372
B1036205651597N00929912EA0000000371
B1036285651499N00929830EA0000000368
B1036355651413N00929748EA0000000370
B1036415651343N00929682EA0000000370
B1036515651224N00929573EA0000000360
B1036575651147N00929516EA0000000362
B1037035651092N00929427EA0000000357
B1037095651068N00929312EA0000000355
B1037145651055N00929222EA0000000348
B1037195651050N00929128EA0000000340
B1037245651043N00929029EA0000000327
B1037295651047N00928927EA0000000317
B1037365651112N00928834EA0000000303
B1037425651177N00928771EA0000000296
B1037475651225N00928706EA0000000288
B1037525651265N00928634EA0000000280
B1037585651308N00928541EA0000000272
B1038045651348N00928440EA0000000264
B1038125651399N00928291EA0000000253
B1038175651435N00928169EA0000000240
B1038235651453N00928059EA0000000231
B1038285651474N00927947EA0000000236
B1038345651444N00927829EA0000000235
B1038395651356N00927828EA0000000229
B1038445651298N00927881EA0000000218
B1038575651167N00928264EA0000000214
B1039045651115N00928481EA0000000208
B1039105651079N00928679EA0000000204
B1039185650983N00928877EA0000000181
B1039235650905N00928965EA0000000182
B1039295650813N00929054EA0000000181
B1039375650694N00929065EA0000000169
B1039425650650N00928979EA0000000163
B1039485650618N00928863EA0000000155
B1039545650614N00928748EA0000000136
B1040035650636N00928555EA0000000131
B1040085650648N00928468EA0000000117
B1040155650670N00928340EA0000000092
B1040205650691N00928259EA0000000071
B1040265650714N00928144EA0000000058
B1040335650734N00928017EA0000000036
B1040385650747N00927927EA0000000035
