AOGNOGN
HFDTE240825
HFFXA050
HFPLTPILOTINCHARGE:
HFGTYGLIDERTYPE:SZD-51 Junior
HFGIDGLIDERID:OY-XTK
HFDTM100GPSDATUM:WGS-1984
HFRFWFIRMWAREVERSION:
HFRHWHARDWAREVERSION:
HFFTYFRTYPE:OGN-FLIGHTBOOK
HFGPSGENERIC
HFPRSPRESSALTSENSOR:
HFCIDCOMPETITIONID:T4
B1443315650738N00927904EA0000000039
B1443335650744N00927871EA0000000064
B1443385650768N00927793EA0000000163
B1443445650779N00927694EA0000000277
B1443495650791N00927599EA0000000354
B1443545650805N00927496EA0000000418
B1444015650820N00927310EA0000000457
B1444075650837N00927152EA0000000471
B1444155650840N00926982EA0000000491
B1444205650790N00926927EA0000000495
B1444265650698N00926963EA0000000492
B1444355650563N00927110EA0000000490
B1444425650470N00927251EA0000000487
B1444525650351N00927484EA0000000477
B1444575650297N00927614EA0000000472
B1445045650220N00927785EA0000000479
B1445095650164N00927897EA0000000484
B1445175650064N00928065EA0000000484
B1445225649998N00928058EA0000000494
B1445285649998N00927967EA0000000485
B1445335650050N00927983EA0000000486
B1445385650078N00928112EA0000000482
B1445435650061N00928270EA0000000487
B1445495650021N00928436EA0000000492
B1445545649950N00928482EA0000000496
B1446005649900N00928398EA0000000505
B1446055649932N00928336EA0000000511
B1446105649987N00928388EA0000000522
B1446175649988N00928583EA0000000525
B1446225649921N00928656EA0000000524
B1446275649864N00928608EA0000000535
B1446345649896N00928519EA0000000546
B1446395649942N00928597EA0000000551
B1446465649908N00928774EA0000000557
B1446515649838N00928769EA0000000563
B1447595649840N00928939EA0000000620
B1448075649931N00928915EA0000000611
B1448165650031N00928863EA0000000597
B1448275650126N00928711EA0000000585
B1448335650171N00928624EA0000000583
B1448385650205N00928551EA0000000575
B1448435650237N00928474EA0000000572
B1448495650264N00928378EA0000000570
B1448555650290N00928282EA0000000561
B1449135650335N00927974EA0000000528
B1450185650451N00927541EA0000000431
B1450245650472N00927443EA0000000415
B1450445650518N00927096EA0000000380
B1450505650531N00926995EA0000000375
B1450595650560N00926859EA0000000370
B1451055650572N00926769EA0000000359
B1451365650361N00927295EA0000000273
B1451465650301N00927657EA0000000271
B1451565650244N00928003EA0000000257
B1452015650207N00928175EA0000000249
B1452075650155N00928379EA0000000240
B1452135650166N00928588EA0000000234
B1452205650251N00928733EA0000000225
B1452265650338N00928808EA0000000219
B1452325650429N00928845EA0000000207
B1452375650505N00928855EA0000000204
B1452425650576N00928847EA0000000205
B1452475650617N00928750EA0000000198
B1453095650696N00928343EA0000000119
B1453245650748N00928057EA0000000066
B1453305650765N00927949EA0000000045
B1453525650805N00927700EA0000000029
