AOGNOGN
HFDTE170825
HFFXA050
HFPLTPILOTINCHARGE:
HFGTYGLIDERTYPE:SZD-50 Puchacz
HFGIDGLIDERID:OY-XUT
HFDTM100GPSDATUM:WGS-1984
HFRFWFIRMWAREVERSION:
HFRHWHARDWAREVERSION:
HFFTYFRTYPE:OGN-FLIGHTBOOK
HFGPSGENERIC
HFPRSPRESSALTSENSOR:
HFCIDCOMPETITIONID:UT
B0848025624554N00924772EA0000000025
B0848075624572N00924683EA0000000026
B0848075624572N00924683EA0000000026
B0848125624592N00924577EA0000000024
B0848195624634N00924400EA0000000029
B0848245624661N00924262EA0000000036
B0848295624686N00924118EA0000000043
B0848355624723N00923953EA0000000056
B0848405624762N00923791EA0000000066
B0848545624855N00923432EA0000000087
B0849025624907N00923195EA0000000101
B0849075624938N00923042EA0000000108
B0849145625024N00922889EA0000000118
B0849225625145N00922786EA0000000132
B0849275625220N00922732EA0000000149
B0849325625296N00922692EA0000000157
B0849395625397N00922615EA0000000170
B0849465625494N00922536EA0000000175
B0849545625605N00922420EA0000000183
B0850015625714N00922294EA0000000190
B0850065625767N00922222EA0000000197
B0850135625858N00922082EA0000000200
B0850185625934N00921956EA0000000210
B0850275626033N00921792EA0000000222
B0850335626106N00921664EA0000000226
B0850425626221N00921475EA0000000237
B0850505626318N00921301EA0000000256
B0850555626377N00921193EA0000000263
B0851005626437N00921084EA0000000263
B0851085626531N00920903EA0000000271
B0851155626623N00920773EA0000000276
B0851235626758N00920683EA0000000283
B0851315626864N00920684EA0000000286
B0851365626934N00920730EA0000000302
B0851415626992N00920801EA0000000302
B0851495627044N00920987EA0000000311
B0851565627035N00921171EA0000000315
B0852035626991N00921347EA0000000321
B0852085626951N00921494EA0000000326
B0852145626912N00921614EA0000000333
B0852205626866N00921754EA0000000343
B0852255626829N00921868EA0000000350
B0852315626772N00922026EA0000000357
B0852375626741N00922146EA0000000361
B0852455626683N00922339EA0000000375
B0852505626656N00922456EA0000000395
B0852555626629N00922574EA0000000412
B0853015626592N00922720EA0000000428
B0853075626552N00922856EA0000000440
B0853125626509N00922965EA0000000442
B0853185626457N00923098EA0000000435
B0853245626405N00923262EA0000000442
B0853315626353N00923401EA0000000443
B0853395626280N00923578EA0000000450
B0853445626234N00923683EA0000000454
B0853495626197N00923793EA0000000454
B0853555626140N00923928EA0000000458
B0854015626084N00924068EA0000000465
B0854065626035N00924184EA0000000474
B0854135625922N00924305EA0000000489
B0854185625862N00924344EA0000000492
B0854265625738N00924404EA0000000504
B0854325625634N00924452EA0000000508
B0854375625573N00924474EA0000000510
B0854425625497N00924523EA0000000510
B0854475625421N00924574EA0000000518
B0854525625350N00924637EA0000000524
B0854585625265N00924716EA0000000531
B0855035625196N00924793EA0000000535
B0855095625114N00924899EA0000000542
B0855145625055N00925017EA0000000543
B0855195625053N00925109EA0000000535
B0855255625113N00925178EA0000000523
B0855315625194N00925200EA0000000519
B0855385625263N00925300EA0000000518
B0855445625322N00925374EA0000000511
B0855535625425N00925451EA0000000496
B0856015625537N00925475EA0000000489
B0856085625632N00925505EA0000000483
B0856135625695N00925455EA0000000474
B0856185625752N00925371EA0000000462
B0856245625821N00925246EA0000000458
B0856315625904N00925104EA0000000453
B0856365625966N00925016EA0000000452
B0856415626050N00924987EA0000000445
B0856505626158N00925029EA0000000431
B0856555626220N00924940EA0000000415
B0857015626255N00924759EA0000000413
B0857065626316N00924665EA0000000413
B0857115626369N00924565EA0000000408
B0857165626402N00924400EA0000000403
B0857225626395N00924252EA0000000394
B0857315626395N00923986EA0000000382
B0857365626412N00923844EA0000000374
B0857435626348N00923677EA0000000367
B0857515626248N00923526EA0000000356
B0857575626177N00923410EA0000000345
B0858045626115N00923239EA0000000335
B0858115626056N00923032EA0000000324
B0858165626010N00922945EA0000000318
B0858215625935N00922886EA0000000313
B0858265625853N00922928EA0000000305
B0858325625829N00923039EA0000000297
B0858375625841N00923149EA0000000289
B0858425625827N00923265EA0000000282
B0858485625794N00923394EA0000000271
B0858535625754N00923521EA0000000264
B0858585625721N00923598EA0000000257
B0859045625665N00923709EA0000000250
B0859095625614N00923820EA0000000236
B0859155625570N00923919EA0000000231
B0859215625518N00924048EA0000000231
B0859305625441N00924234EA0000000224
B0859385625385N00924403EA0000000208
B0859445625332N00924566EA0000000199
B0859505625301N00924704EA0000000195
B0859555625278N00924797EA0000000189
B0900025625231N00924953EA0000000192
B0900085625191N00925088EA0000000185
B0900165625115N00925299EA0000000179
B0900215625083N00925386EA0000000166
B0900265625040N00925499EA0000000152
B0900355624896N00925592EA0000000148
B0900405624842N00925629EA0000000142
B0900465624762N00925688EA0000000127
B0900515624688N00925734EA0000000126
B0900565624611N00925689EA0000000128
B0901015624540N00925631EA0000000123
B0901085624433N00925572EA0000000118
B0901145624374N00925445EA0000000104
B0901205624419N00925277EA0000000084
B0901265624457N00925120EA0000000062
B0901315624487N00924994EA0000000042
B0901405624531N00924794EA0000000029
