AOGNOGN
HFDTE170825
HFFXA050
HFPLTPILOTINCHARGE:
HFGTYGLIDERTYPE:EuroFox
HFGIDGLIDERID:OY-9448
HFDTM100GPSDATUM:WGS-1984
HFRFWFIRMWAREVERSION:
HFRHWHARDWAREVERSION:
HFFTYFRTYPE:OGN-FLIGHTBOOK
HFGPSGENERIC
HFPRSPRESSALTSENSOR:
HFCIDCOMPETITIONID:
B0835105624566N00924709EA0000000026
B0835105624566N00924709EA0000000026
B0835155624587N00924612EA0000000026
B0835205624611N00924495EA0000000026
B0835265624645N00924334EA0000000033
B0835325624681N00924163EA0000000045
B0835385624718N00923986EA0000000058
B0835435624750N00923836EA0000000071
B0835485624777N00923681EA0000000078
B0835545624814N00923498EA0000000094
B0836035624869N00923222EA0000000119
B0836105624908N00923005EA0000000135
B0836205624959N00922697EA0000000153
B0836295625003N00922427EA0000000170
B0836365625035N00922222EA0000000177
B0836435625079N00922009EA0000000185
B0836485625112N00921855EA0000000196
B0836545625152N00921678EA0000000216
B0837035625210N00921412EA0000000230
B0837095625245N00921235EA0000000243
B0837145625275N00921087EA0000000251
B0837195625305N00920934EA0000000258
B0837245625336N00920782EA0000000260
B0837295625393N00920654EA0000000259
B0837365625501N00920553EA0000000277
B0837415625580N00920537EA0000000284
B0837465625655N00920551EA0000000293
B0837515625725N00920574EA0000000300
B0838065625936N00920654EA0000000320
B0838135626038N00920703EA0000000330
B0838195626124N00920749EA0000000341
B0838565626683N00920909EA0000000393
B0839035626781N00920966EA0000000398
B0839095626833N00921082EA0000000408
B0839145626851N00921200EA0000000417
B0839195626849N00921326EA0000000424
B0839285626805N00921547EA0000000439
B0839335626773N00921663EA0000000446
B0839385626741N00921779EA0000000454
B0839495626655N00922021EA0000000465
B0839555626596N00922144EA0000000469
B0840015626538N00922274EA0000000475
B0840065626491N00922387EA0000000480
B0840145626418N00922571EA0000000488
B0840285626290N00922882EA0000000505
B0840365626222N00923070EA0000000514
B0840425626176N00923212EA0000000522
B0840485626133N00923352EA0000000532
B0840575626071N00923560EA0000000547
B0841025626038N00923678EA0000000550
B0841085625951N00923785EA0000000534
B0841145625840N00923836EA0000000517
B0841195625745N00923843EA0000000499
B0841325625498N00923794EA0000000451
B0841425625316N00923754EA0000000413
B0841505625170N00923726EA0000000382
B0841565625059N00923722EA0000000361
B0842015624968N00923746EA0000000343
B0842085624841N00923788EA0000000317
B0842135624751N00923824EA0000000298
B0842195624644N00923867EA0000000282
B0842245624558N00923898EA0000000264
B0842295624473N00923941EA0000000246
B0842345624392N00923995EA0000000243
B0842435624262N00924111EA0000000218
B0842535624149N00924309EA0000000203
B0842595624104N00924450EA0000000189
B0843085624064N00924681EA0000000165
B0843175624052N00924917EA0000000141
B0843225624057N00925048EA0000000135
B0843305624114N00925228EA0000000116
B0843385624203N00925362EA0000000103
B0843435624270N00925410EA0000000094
B0843485624346N00925401EA0000000085
B0843535624416N00925326EA0000000070
B0843585624464N00925206EA0000000056
B0844045624498N00925035EA0000000037
B0844095624525N00924897EA0000000028
B0844185624568N00924696EA0000000027
B0844235624585N00924612EA0000000027
