AOGNOGN
HFDTE170825
HFFXA050
HFPLTPILOTINCHARGE:
HFGTYGLIDERTYPE:EuroFox
HFGIDGLIDERID:OY-9448
HFDTM100GPSDATUM:WGS-1984
HFRFWFIRMWAREVERSION:
HFRHWHARDWAREVERSION:
HFFTYFRTYPE:OGN-FLIGHTBOOK
HFGPSGENERIC
HFPRSPRESSALTSENSOR:
HFCIDCOMPETITIONID:
B1357235624563N00924718EA0000000025
B1357235624563N00924718EA0000000025
B1357315624599N00924559EA0000000025
B1357365624624N00924435EA0000000030
B1357415624651N00924306EA0000000043
B1357465624680N00924176EA0000000049
B1357525624717N00924021EA0000000059
B1358025624785N00923760EA0000000081
B1358095624833N00923582EA0000000095
B1358145624865N00923451EA0000000107
B1358205624902N00923298EA0000000123
B1358255624922N00923163EA0000000140
B1358325624912N00922961EA0000000149
B1358385624870N00922783EA0000000156
B1358445624805N00922632EA0000000179
B1358495624743N00922526EA0000000193
B1358545624677N00922427EA0000000210
B1359035624550N00922248EA0000000229
B1359105624468N00922097EA0000000264
B1359165624412N00921951EA0000000269
B1359235624354N00921769EA0000000276
B1359295624310N00921603EA0000000290
B1359355624275N00921433EA0000000315
B1359425624248N00921232EA0000000337
B1359495624234N00921040EA0000000355
B1359545624229N00920903EA0000000371
B1359595624231N00920767EA0000000390
B1400045624233N00920630EA0000000399
B1400105624241N00920464EA0000000414
B1400205624256N00920186EA0000000422
B1400265624269N00920014EA0000000426
B1400335624288N00919819EA0000000438
B1400395624266N00919642EA0000000460
B1400445624206N00919533EA0000000473
B1400515624092N00919481EA0000000487
B1400565624008N00919516EA0000000493
B1401025623930N00919634EA0000000500
B1401075623900N00919775EA0000000505
B1401135623911N00919946EA0000000518
B1401185623941N00920072EA0000000535
B1401255623980N00920244EA0000000570
B1401305624017N00920361EA0000000581
B1401355624079N00920416EA0000000598
B1401405624144N00920389EA0000000606
B1401455624188N00920294EA0000000613
B1401505624192N00920158EA0000000620
B1401565624152N00919991EA0000000628
B1402025624072N00919876EA0000000645
B1402075623989N00919838EA0000000649
B1402125623901N00919862EA0000000662
B1402185623816N00919971EA0000000691
B1402235623766N00920094EA0000000710
B1402285623757N00920238EA0000000727
B1402345623796N00920387EA0000000737
B1402395623855N00920464EA0000000759
B1402455623934N00920488EA0000000776
B1402505623999N00920458EA0000000779
B1402595624093N00920308EA0000000791
B1403055624125N00920161EA0000000795
B1403125624131N00919965EA0000000793
B1403175624107N00919818EA0000000798
B1403245624026N00919656EA0000000811
B1403305623928N00919577EA0000000825
B1403365623823N00919569EA0000000845
B1403425623727N00919632EA0000000867
B1403495623614N00919736EA0000000877
B1403545623524N00919818EA0000000873
B1404005623418N00919919EA0000000876
B1404065623322N00920014EA0000000869
B1404125623229N00920108EA0000000853
B1404205623118N00920262EA0000000844
B1404255623079N00920393EA0000000846
B1404305623056N00920531EA0000000839
B1404375623043N00920732EA0000000816
B1404425623042N00920882EA0000000797
B1404505623045N00921113EA0000000766
B1404595623064N00921363EA0000000727
B1405045623078N00921502EA0000000708
B1405105623092N00921670EA0000000676
B1405155623104N00921815EA0000000653
B1405215623120N00921985EA0000000629
B1405265623131N00922127EA0000000608
B1405345623156N00922347EA0000000580
B1405395623172N00922487EA0000000563
B1405445623188N00922626EA0000000557
B1405505623205N00922791EA0000000540
B1405565623229N00922954EA0000000511
B1406025623273N00923106EA0000000490
B1406115623352N00923323EA0000000465
B1406165623397N00923438EA0000000449
B1406225623467N00923548EA0000000427
B1406275623538N00923605EA0000000418
B1406355623660N00923649EA0000000407
B1406405623736N00923673EA0000000402
B1406455623812N00923700EA0000000397
B1406515623906N00923705EA0000000381
B1406595624025N00923733EA0000000379
B1407045624093N00923764EA0000000362
B1407105624141N00923891EA0000000342
B1407155624127N00924038EA0000000324
B1407205624083N00924182EA0000000310
B1407265624015N00924337EA0000000292
B1407325623953N00924484EA0000000278
B1407375623898N00924598EA0000000261
B1407445623816N00924751EA0000000241
B1407525623752N00924955EA0000000230
B1408005623703N00925160EA0000000206
B1408055623698N00925293EA0000000186
B1408115623728N00925437EA0000000165
B1408195623817N00925554EA0000000149
B1408285623932N00925625EA0000000135
B1408375624058N00925646EA0000000124
B1408425624136N00925647EA0000000132
B1408485624224N00925646EA0000000136
B1408535624293N00925613EA0000000127
B1408595624369N00925523EA0000000106
B1409045624418N00925415EA0000000088
B1409125624467N00925202EA0000000062
B1409185624499N00925046EA0000000046
B1409235624524N00924927EA0000000035
B1409305624553N00924784EA0000000027
B1409385624576N00924666EA0000000025
