AOGNOGN
HFDTE220625
HFFXA050
HFPLTPILOTINCHARGE:
HFGTYGLIDERTYPE:LS-4
HFGIDGLIDERID:OY-XNV
HFDTM100GPSDATUM:WGS-1984
HFRFWFIRMWAREVERSION:
HFRHWHARDWAREVERSION:
HFFTYFRTYPE:OGN-FLIGHTBOOK
HFGPSGENERIC
HFPRSPRESSALTSENSOR:
HFCIDCOMPETITIONID:V8
B0940245537964N00844872EA0000000034
B0940265537960N00844911EA0000000037
B0940315537952N00845028EA0000000121
B0941075537873N00845863EA0000000359
B0941125537951N00845939EA0000000354
B0941175538044N00845964EA0000000348
B0941225538136N00845985EA0000000340
B0941445538188N00846234EA0000000336
B0941525538191N00846047EA0000000336
B0942275538288N00845991EA0000000303
B0942335538351N00846090EA0000000293
B0942465538250N00846027EA0000000287
B0942515538267N00845899EA0000000278
B0942585538369N00845905EA0000000256
B0943035538332N00845969EA0000000245
B0943125538308N00845752EA0000000240
B0943175538330N00845608EA0000000231
B0943225538346N00845457EA0000000219
B0943285538361N00845268EA0000000209
B0943355538370N00845048EA0000000210
B0943435538379N00844807EA0000000204
B0943485538384N00844655EA0000000197
B0943575538391N00844380EA0000000190
B0944035538346N00844234EA0000000189
B0944095538285N00844121EA0000000191
B0944275538068N00844015EA0000000167
B0944475537985N00844501EA0000000092
B0944565537963N00844722EA0000000046
B0945015537950N00844850EA0000000032
B0945075537937N00844970EA0000000032
B0945135537931N00845040EA0000000033
