AOGNOGN
HFDTE220625
HFFXA050
HFPLTPILOTINCHARGE:
HFGTYGLIDERTYPE:LS-4
HFGIDGLIDERID:OY-XNV
HFDTM100GPSDATUM:WGS-1984
HFRFWFIRMWAREVERSION:
HFRHWHARDWAREVERSION:
HFFTYFRTYPE:OGN-FLIGHTBOOK
HFGPSGENERIC
HFPRSPRESSALTSENSOR:
HFCIDCOMPETITIONID:V8
B1101045537956N00844920EA0000000035
B1101095537941N00845044EA0000000109
B1101175537914N00845254EA0000000256
B1101495537936N00846045EA0000000347
B1101555538042N00846091EA0000000334
B1102005538135N00846110EA0000000335
B1102075538261N00846107EA0000000336
B1102245538263N00845944EA0000000309
B1102355538364N00846114EA0000000303
B1102525538380N00845934EA0000000274
B1102585538404N00846070EA0000000280
B1103045538500N00846058EA0000000273
B1103295538343N00845670EA0000000241
B1103385538349N00845425EA0000000229
B1103445538366N00845257EA0000000224
B1103525538388N00845056EA0000000238
B1104005538404N00844843EA0000000221
B1104085538419N00844618EA0000000213
B1104145538433N00844451EA0000000208
B1104245538377N00844246EA0000000191
B1104295538324N00844171EA0000000187
B1104345538272N00844096EA0000000182
B1105105537982N00844469EA0000000098
B1105175537966N00844645EA0000000057
B1105235537948N00844798EA0000000029
B1105365537925N00845017EA0000000028
