AOGNOGN
HFDTE220625
HFFXA050
HFPLTPILOTINCHARGE:
HFGTYGLIDERTYPE:ASK-21
HFGIDGLIDERID:OY-XDB
HFDTM100GPSDATUM:WGS-1984
HFRFWFIRMWAREVERSION:
HFRHWHARDWAREVERSION:
HFFTYFRTYPE:OGN-FLIGHTBOOK
HFGPSGENERIC
HFPRSPRESSALTSENSOR:
HFCIDCOMPETITIONID:V1
B1009215537957N00844915EA0000000028
B1009235537953N00844967EA0000000049
B1009285537935N00845084EA0000000143
B1009335537918N00845192EA0000000240
B1009405537912N00845367EA0000000336
B1010085537987N00846046EA0000000338
B1010155538107N00846136EA0000000330
B1010205538200N00846131EA0000000325
B1010255538286N00846055EA0000000314
B1010325538397N00845922EA0000000303
B1010585538340N00845676EA0000000286
B1011035538341N00845810EA0000000284
B1011085538308N00845909EA0000000266
B1011195538200N00845763EA0000000253
B1011245538218N00845616EA0000000248
B1011295538282N00845506EA0000000248
B1011345538371N00845505EA0000000246
B1011395538419N00845631EA0000000240
B1011445538377N00845727EA0000000226
B1011505538305N00845650EA0000000218
B1011555538305N00845502EA0000000216
B1012005538341N00845357EA0000000214
B1012085538395N00845106EA0000000189
B1012135538419N00844949EA0000000187
B1012185538409N00844808EA0000000186
B1012245538365N00844666EA0000000175
B1012315538317N00844485EA0000000158
B1012365538278N00844365EA0000000147
B1012415538222N00844275EA0000000139
B1012475538142N00844227EA0000000130
B1012585538006N00844292EA0000000110
B1013135537960N00844722EA0000000044
B1013185537944N00844852EA0000000026
B1013245537929N00844984EA0000000026
