AOGNOGN
HFDTE220625
HFFXA050
HFPLTPILOTINCHARGE:
HFGTYGLIDERTYPE:ASK-21
HFGIDGLIDERID:OY-XDB
HFDTM100GPSDATUM:WGS-1984
HFRFWFIRMWAREVERSION:
HFRHWHARDWAREVERSION:
HFFTYFRTYPE:OGN-FLIGHTBOOK
HFGPSGENERIC
HFPRSPRESSALTSENSOR:
HFCIDCOMPETITIONID:V1
B1129015537961N00844881EA0000000034
B1129045537954N00844954EA0000000051
B1129095537947N00845083EA0000000138
B1129145537933N00845215EA0000000228
B1129215537917N00845438EA0000000329
B1129325537870N00845732EA0000000351
B1130015537731N00846397EA0000000344
B1130065537798N00846495EA0000000331
B1130165537934N00846337EA0000000334
B1130275538036N00846062EA0000000321
B1130335538103N00845927EA0000000316
B1130395538173N00845786EA0000000308
B1130445538219N00845666EA0000000309
B1130495538262N00845547EA0000000300
B1130565538328N00845372EA0000000291
B1131035538390N00845201EA0000000284
B1131095538439N00845057EA0000000283
B1131145538477N00844944EA0000000282
B1131195538528N00844833EA0000000261
B1131275538629N00844634EA0000000247
B1131345538693N00844455EA0000000253
B1131395538735N00844330EA0000000238
B1131475538736N00844124EA0000000218
B1131555538634N00844061EA0000000223
B1132015538567N00844023EA0000000215
B1132075538495N00844005EA0000000209
B1132145538412N00843998EA0000000203
B1132195538352N00843976EA0000000201
B1132245538296N00843957EA0000000202
B1132315538221N00843926EA0000000187
B1132405538120N00843912EA0000000186
B1132455538070N00843914EA0000000177
B1132505538032N00844001EA0000000160
B1133035538025N00844374EA0000000089
B1133105537990N00844551EA0000000060
B1133165537973N00844695EA0000000056
B1133305537929N00844981EA0000000036
