AOGNOGN
HFDTE220625
HFFXA050
HFPLTPILOTINCHARGE:
HFGTYGLIDERTYPE:ASK-21
HFGIDGLIDERID:OY-XDB
HFDTM100GPSDATUM:WGS-1984
HFRFWFIRMWAREVERSION:
HFRHWHARDWAREVERSION:
HFFTYFRTYPE:OGN-FLIGHTBOOK
HFGPSGENERIC
HFPRSPRESSALTSENSOR:
HFCIDCOMPETITIONID:V1
B1042175537954N00844940EA0000000041
B1042175537954N00844940EA0000000041
B1042245537951N00845113EA0000000161
B1042325537951N00845334EA0000000310
B1043025538105N00846075EA0000000338
B1043145538245N00846354EA0000000329
B1043225538235N00846538EA0000000310
B1043275538170N00846529EA0000000313
B1043335538105N00846457EA0000000298
B1043385538041N00846393EA0000000277
B1043495537889N00846294EA0000000279
B1043565537787N00846310EA0000000246
B1044075537626N00846364EA0000000259
B1044235537709N00845937EA0000000237
B1044285537787N00845854EA0000000224
B1044345537905N00845856EA0000000209
B1044395537979N00845747EA0000000203
B1044455538046N00845582EA0000000208
B1044515538112N00845427EA0000000204
B1045005538211N00845168EA0000000184
B1045055538271N00845030EA0000000190
B1045115538345N00844882EA0000000193
B1045165538382N00844739EA0000000178
B1045245538368N00844502EA0000000172
B1045315538306N00844378EA0000000161
B1045375538236N00844322EA0000000151
B1045435538164N00844258EA0000000144
B1045505538078N00844208EA0000000139
B1045555538019N00844235EA0000000133
B1046005538006N00844365EA0000000125
B1046055538002N00844496EA0000000099
B1046125537974N00844681EA0000000055
B1046265537931N00844982EA0000000034
