AOGNOGN
HFDTE280625
HFFXA050
HFPLTPILOTINCHARGE:
HFGTYGLIDERTYPE:ASK-21
HFGIDGLIDERID:OY-XMF
HFDTM100GPSDATUM:WGS-1984
HFRFWFIRMWAREVERSION:
HFRHWHARDWAREVERSION:
HFFTYFRTYPE:OGN-FLIGHTBOOK
HFGPSGENERIC
HFPRSPRESSALTSENSOR:
HFCIDCOMPETITIONID:X1
B1300415650804N00927690EA0000000133
B1300505650837N00927531EA0000000276
B1300515650838N00927510EA0000000288
B1301255650923N00926932EA0000000440
B1301565651349N00927039EA0000000419
B1302015651395N00926991EA0000000425
B1302165651560N00927149EA0000000406
B1302265651475N00927256EA0000000394
B1302375651471N00927093EA0000000390
B1302425651483N00927024EA0000000378
B1303025651568N00926739EA0000000365
B1303125651604N00926569EA0000000367
B1303265651470N00926663EA0000000374
B1303325651495N00926869EA0000000379
B1303535651576N00926729EA0000000377
B1304025651480N00926791EA0000000375
B1304075651451N00926949EA0000000364
B1304325651329N00927097EA0000000338
B1304535651500N00926796EA0000000318
B1305025651597N00926698EA0000000309
B1305145651742N00926561EA0000000294
B1305415651542N00926500EA0000000269
B1305525651504N00926916EA0000000251
B1305575651505N00927119EA0000000242
B1306035651504N00927364EA0000000238
B1306185651500N00927962EA0000000220
B1306335651414N00928503EA0000000214
B1307085650910N00929048EA0000000181
B1307185650771N00929020EA0000000165
B1307295650635N00928935EA0000000149
B1307445650627N00928609EA0000000124
B1307515650652N00928465EA0000000102
B1307565650663N00928357EA0000000085
B1308035650690N00928200EA0000000057
B1308085650710N00928084EA0000000045
B1308135650729N00927974EA0000000037
B1308185650744N00927873EA0000000034
B1309565650760N00927713EA0000000032
