AOGNOGN
HFDTE280625
HFFXA050
HFPLTPILOTINCHARGE:
HFGTYGLIDERTYPE:ASK-21
HFGIDGLIDERID:OY-XMF
HFDTM100GPSDATUM:WGS-1984
HFRFWFIRMWAREVERSION:
HFRHWHARDWAREVERSION:
HFFTYFRTYPE:OGN-FLIGHTBOOK
HFGPSGENERIC
HFPRSPRESSALTSENSOR:
HFCIDCOMPETITIONID:X1
B0835285650784N00927826EA0000000035
B0835335650801N00927719EA0000000095
B0835385650816N00927618EA0000000170
B0835435650829N00927512EA0000000244
B0835485650840N00927401EA0000000305
B0835535650848N00927284EA0000000347
B0835595650858N00927156EA0000000377
B0836055650856N00927027EA0000000351
B0836105650851N00926884EA0000000331
B0836165650847N00926740EA0000000361
B0836215650826N00926656EA0000000363
B0836265650768N00926721EA0000000362
B0836325650807N00926916EA0000000341
B0836385650924N00926940EA0000000327
B0836445651017N00926903EA0000000342
B0836495651081N00926874EA0000000349
B0836555651107N00926820EA0000000354
B0837005651065N00926823EA0000000327
B0837065651011N00927001EA0000000326
B0837115651054N00927164EA0000000332
B0837165651129N00927202EA0000000323
B0837235651169N00927111EA0000000315
B0837295651158N00927040EA0000000314
B0837365651147N00926956EA0000000296
B0837415651130N00926889EA0000000293
B0837465651077N00926902EA0000000280
B0837515651039N00927041EA0000000292
B0837575651097N00927199EA0000000266
B0838025651140N00927149EA0000000268
B0838075651091N00927175EA0000000259
B0838145651072N00927420EA0000000261
B0838245651062N00927776EA0000000255
B0838315651051N00927993EA0000000267
B0838385651025N00928202EA0000000244
B0838435651000N00928365EA0000000245
B0838485650974N00928532EA0000000227
B0838535650941N00928687EA0000000241
B0838585650895N00928795EA0000000227
B0839055650823N00928844EA0000000228
B0839105650757N00928865EA0000000203
B0839155650693N00928866EA0000000209
B0839225650614N00928836EA0000000202
B0839275650605N00928763EA0000000204
B0839325650643N00928696EA0000000202
B0839395650668N00928561EA0000000167
B0839455650671N00928429EA0000000174
B0839535650673N00928264EA0000000129
B0839595650690N00928135EA0000000105
B0840045650710N00928027EA0000000078
B0840135650750N00927824EA0000000035
B0840195650771N00927702EA0000000032
