AOGNOGN
HFDTE280625
HFFXA050
HFPLTPILOTINCHARGE:
HFGTYGLIDERTYPE:ASK-21
HFGIDGLIDERID:OY-XMF
HFDTM100GPSDATUM:WGS-1984
HFRFWFIRMWAREVERSION:
HFRHWHARDWAREVERSION:
HFFTYFRTYPE:OGN-FLIGHTBOOK
HFGPSGENERIC
HFPRSPRESSALTSENSOR:
HFCIDCOMPETITIONID:X1
B1128015650788N00927802EA0000000034
B1128065650809N00927681EA0000000107
B1128115650819N00927575EA0000000196
B1128165650816N00927472EA0000000276
B1128225650810N00927362EA0000000354
B1128275650834N00927283EA0000000403
B1128325650862N00927202EA0000000447
B1128395650877N00927028EA0000000426
B1128455650894N00926824EA0000000396
B1128515650916N00926632EA0000000417
B1128575650938N00926472EA0000000427
B1129035650956N00926318EA0000000412
B1129085650977N00926179EA0000000405
B1129135651003N00926060EA0000000418
B1129215651053N00925895EA0000000416
B1129275651085N00925794EA0000000434
B1129325651103N00925723EA0000000421
B1129375651121N00925623EA0000000405
B1129445651150N00925486EA0000000418
B1129525651184N00925366EA0000000408
B1129595651214N00925253EA0000000393
B1130045651188N00925173EA0000000379
B1130095651117N00925178EA0000000378
B1130145651054N00925288EA0000000384
B1130215651024N00925545EA0000000358
B1130265651062N00925752EA0000000342
B1130315651147N00925891EA0000000339
B1130385651269N00926023EA0000000343
B1130445651374N00926119EA0000000336
B1130555651563N00926285EA0000000333
B1131025651684N00926397EA0000000319
B1131075651767N00926511EA0000000310
B1131125651832N00926673EA0000000303
B1131175651860N00926870EA0000000301
B1131225651837N00927057EA0000000300
B1131305651728N00927213EA0000000283
B1131355651656N00927221EA0000000289
B1131415651575N00927224EA0000000280
B1131465651506N00927215EA0000000272
B1131525651422N00927196EA0000000260
B1131575651340N00927271EA0000000237
B1132025651295N00927462EA0000000234
B1132075651271N00927652EA0000000233
B1132145651227N00927917EA0000000221
B1132195651190N00928109EA0000000229
B1132255651157N00928331EA0000000223
B1132305651123N00928532EA0000000209
B1132365651067N00928744EA0000000222
B1132475650947N00929083EA0000000208
B1132535650853N00929193EA0000000198
B1133015650727N00929225EA0000000200
B1133075650638N00929208EA0000000184
B1133125650567N00929173EA0000000172
B1133175650513N00929095EA0000000156
B1133275650553N00928865EA0000000143
B1133345650598N00928719EA0000000139
B1133405650632N00928605EA0000000129
B1133455650652N00928501EA0000000110
B1133525650677N00928362EA0000000088
B1133585650690N00928236EA0000000063
B1134045650708N00928093EA0000000054
B1134115650734N00927927EA0000000037
B1134185650758N00927777EA0000000031
