AOGNOGN
HFDTE280625
HFFXA050
HFPLTPILOTINCHARGE:
HFGTYGLIDERTYPE:ASK-21
HFGIDGLIDERID:OY-XPC
HFDTM100GPSDATUM:WGS-1984
HFRFWFIRMWAREVERSION:
HFRHWHARDWAREVERSION:
HFFTYFRTYPE:OGN-FLIGHTBOOK
HFGPSGENERIC
HFPRSPRESSALTSENSOR:
HFCIDCOMPETITIONID:PC
B1314495600726N00901328EA0000000039
B1314515600721N00901289EA0000000041
B1314565600708N00901176EA0000000104
B1315015600693N00901070EA0000000194
B1315065600677N00900946EA0000000292
B1315115600659N00900820EA0000000369
B1315165600643N00900709EA0000000398
B1315215600645N00900600EA0000000363
B1315265600688N00900495EA0000000357
B1315315600743N00900427EA0000000371
B1315365600799N00900382EA0000000369
B1315415600864N00900352EA0000000361
B1315465600937N00900357EA0000000357
B1315525601029N00900417EA0000000353
B1315575601101N00900496EA0000000347
B1316025601166N00900612EA0000000341
B1316075601217N00900754EA0000000333
B1316125601257N00900917EA0000000328
B1316185601338N00901033EA0000000327
B1316235601408N00900995EA0000000317
B1316285601424N00900888EA0000000311
B1316375601390N00900716EA0000000304
B1316435601369N00900603EA0000000291
B1316485601345N00900503EA0000000280
B1316535601319N00900402EA0000000275
B1316595601288N00900286EA0000000271
B1317095601241N00900099EA0000000262
B1317145601218N00900004EA0000000258
B1317195601170N00859945EA0000000256
B1317245601101N00900007EA0000000251
B1317295601076N00900184EA0000000245
B1317355601085N00900408EA0000000238
B1317405601093N00900594EA0000000230
B1317455601102N00900779EA0000000224
B1317545601131N00901126EA0000000205
B1317595601144N00901321EA0000000199
B1318065601151N00901597EA0000000201
B1318125601126N00901810EA0000000199
B1318235600997N00902091EA0000000177
B1318305600887N00902181EA0000000166
B1318355600810N00902186EA0000000166
B1318405600767N00902098EA0000000164
B1318465600761N00901951EA0000000139
B1318545600751N00901742EA0000000086
B1319025600739N00901528EA0000000040
B1319075600734N00901421EA0000000040
