AOGNOGN
HFDTE010725
HFFXA050
HFPLTPILOTINCHARGE:
HFGTYGLIDERTYPE:ASK-21
HFGIDGLIDERID:OY-XKO
HFDTM100GPSDATUM:WGS-1984
HFRFWFIRMWAREVERSION:
HFRHWHARDWAREVERSION:
HFFTYFRTYPE:OGN-FLIGHTBOOK
HFGPSGENERIC
HFPRSPRESSALTSENSOR:
HFCIDCOMPETITIONID:R2
B1711055515087N01203448EA0000000042
B1711115515089N01203586EA0000000125
B1711165515101N01203697EA0000000206
B1711215515117N01203816EA0000000282
B1711265515126N01203951EA0000000342
B1711395515136N01204353EA0000000397
B1711445515171N01204476EA0000000398
B1711495515243N01204535EA0000000394
B1711585515381N01204584EA0000000387
B1712035515454N01204566EA0000000383
B1712085515501N01204481EA0000000373
B1712205515504N01204211EA0000000361
B1712345515455N01203929EA0000000348
B1712405515404N01203854EA0000000345
B1712485515330N01203778EA0000000339
B1712535515281N01203752EA0000000336
B1713035515176N01203729EA0000000326
B1713095515112N01203718EA0000000322
B1713155515050N01203717EA0000000318
B1713205515004N01203749EA0000000316
B1713275514964N01203854EA0000000308
B1713325514954N01203957EA0000000299
B1713465514952N01204255EA0000000286
B1713515514957N01204367EA0000000280
B1713575515002N01204487EA0000000274
B1714025515076N01204513EA0000000267
B1714075515155N01204509EA0000000256
B1714165515301N01204471EA0000000225
B1714235515414N01204424EA0000000207
B1714295515510N01204383EA0000000205
B1714345515585N01204335EA0000000204
B1714435515688N01204158EA0000000193
B1714495515720N01204003EA0000000188
B1714545515694N01203887EA0000000181
B1715005515623N01203866EA0000000167
B1715055515561N01203879EA0000000145
B1715105515497N01203884EA0000000120
B1715155515431N01203882EA0000000101
B1715235515329N01203897EA0000000074
B1715305515248N01203940EA0000000055
B1715395515147N01203996EA0000000037
