AOGNOGN
HFDTE080825
HFFXA050
HFPLTPILOTINCHARGE:
HFGTYGLIDERTYPE:
HFGIDGLIDERID:
HFDTM100GPSDATUM:WGS-1984
HFRFWFIRMWAREVERSION:
HFRHWHARDWAREVERSION:
HFFTYFRTYPE:OGN-FLIGHTBOOK
HFGPSGENERIC
HFPRSPRESSALTSENSOR:
HFCIDCOMPETITIONID:
B1205075515101N01203991EA0000000042
B1205095515102N01203957EA0000000042
B1205295515092N01203581EA0000000087
B1205355515065N01203493EA0000000100
B1205425515025N01203399EA0000000106
B1205485514982N01203316EA0000000113
B1205545514932N01203243EA0000000126
B1206045514830N01203197EA0000000145
B1206105514760N01203238EA0000000155
B1206205514657N01203407EA0000000173
B1206265514622N01203552EA0000000183
B1206335514603N01203742EA0000000193
B1206395514605N01203917EA0000000199
B1206465514614N01204129EA0000000209
B1206525514627N01204309EA0000000221
B1206575514649N01204455EA0000000231
B1207045514691N01204655EA0000000247
B1207155514796N01204924EA0000000260
B1207215514870N01205045EA0000000271
B1207275514950N01205142EA0000000280
B1207325515020N01205204EA0000000288
B1207405515136N01205260EA0000000296
B1207465515224N01205268EA0000000302
B1207545515320N01205215EA0000000310
B1208035515378N01205081EA0000000318
B1208105515397N01204957EA0000000325
B1208195515416N01204796EA0000000339
B1208255515426N01204689EA0000000345
B1208305515430N01204595EA0000000347
B1208365515429N01204480EA0000000355
B1208435515431N01204354EA0000000363
B1208485515432N01204264EA0000000368
B1208585515430N01204085EA0000000381
B1209035515429N01204002EA0000000389
B1209165515430N01203769EA0000000397
B1209235515438N01203624EA0000000401
B1209355515456N01203374EA0000000403
B1209445515512N01203188EA0000000394
B1209495515545N01203081EA0000000392
B1209545515534N01202969EA0000000391
B1210005515484N01202859EA0000000392
B1210055515477N01202750EA0000000394
B1210125515537N01202613EA0000000390
B1210205515638N01202483EA0000000396
B1210255515704N01202405EA0000000408
B1210315515784N01202317EA0000000419
B1210375515867N01202230EA0000000421
B1210425515940N01202161EA0000000426
B1210485516034N01202079EA0000000419
B1210535516112N01202017EA0000000423
B1210595516202N01201943EA0000000424
B1211085516333N01201846EA0000000425
B1211215516518N01201728EA0000000426
B1211295516628N01201656EA0000000429
B1211355516713N01201600EA0000000428
B1211405516785N01201549EA0000000421
B1211465516869N01201483EA0000000420
B1211515516939N01201426EA0000000417
B1211575517018N01201360EA0000000423
B1212035517091N01201294EA0000000429
B1212095517166N01201225EA0000000443
B1212145517231N01201167EA0000000444
B1212205517305N01201090EA0000000440
B1212295517413N01200952EA0000000432
B1212345517468N01200871EA0000000432
B1212445517575N01200697EA0000000424
B1212515517651N01200573EA0000000424
B1212565517706N01200484EA0000000426
B1213035517785N01200354EA0000000429
B1213095517852N01200246EA0000000446
B1213165517929N01200131EA0000000450
B1213215517983N01200048EA0000000448
B1213265518035N01159966EA0000000445
B1213315518086N01159879EA0000000441
B1213385518157N01159752EA0000000437
B1213435518207N01159662EA0000000435
B1213515518280N01159512EA0000000434
B1213585518322N01159364EA0000000434
B1214045518348N01159223EA0000000432
B1214095518361N01159098EA0000000435
B1214155518363N01158950EA0000000440
B1214205518356N01158827EA0000000442
B1214255518343N01158706EA0000000446
B1214305518322N01158589EA0000000453
B1214375518285N01158441EA0000000459
B1214435518241N01158325EA0000000462
B1214525518163N01158164EA0000000463
B1214575518111N01158082EA0000000466
B1215025518057N01157999EA0000000464
B1215085517991N01157910EA0000000464
B1215155517911N01157809EA0000000463
B1215225517831N01157716EA0000000467
B1215285517764N01157632EA0000000474
B1215375517650N01157553EA0000000475
B1215425517574N01157554EA0000000474
B1215475517497N01157569EA0000000473
B1215525517419N01157589EA0000000474
B1215585517328N01157650EA0000000477
B1216065517241N01157844EA0000000481
B1216135517190N01158053EA0000000481
B1216195517140N01158226EA0000000483
B1216255517087N01158395EA0000000487
B1216305517038N01158533EA0000000489
B1216355516986N01158669EA0000000491
B1216415516920N01158825EA0000000490
B1216485516839N01159002EA0000000487
B1216555516760N01159177EA0000000491
B1217015516698N01159331EA0000000489
B1217065516650N01159471EA0000000487
B1217115516609N01159622EA0000000489
B1217165516574N01159775EA0000000494
B1217215516540N01159926EA0000000498
B1217315516460N01200235EA0000000499
B1217365516424N01200403EA0000000491
B1217415516394N01200576EA0000000495
B1217465516362N01200746EA0000000492
B1217515516328N01200911EA0000000490
B1217565516294N01201070EA0000000495
B1218015516252N01201223EA0000000491
B1218065516203N01201373EA0000000488
B1218145516119N01201607EA0000000488
B1218195516061N01201745EA0000000487
B1218255515986N01201901EA0000000486
B1218315515906N01202039EA0000000481
B1218415515759N01202239EA0000000460
B1218495515636N01202370EA0000000449
B1219015515441N01202514EA0000000437
B1219065515359N01202566EA0000000435
B1219125515258N01202633EA0000000430
B1219185515158N01202699EA0000000424
B1219265515027N01202779EA0000000403
B1219315514947N01202841EA0000000399
B1219375514851N01202931EA0000000398
B1219425514776N01203025EA0000000385
B1219475514704N01203140EA0000000369
B1219525514641N01203276EA0000000357
B1219585514582N01203447EA0000000355
B1220095514540N01203798EA0000000325
B1220145514543N01203966EA0000000309
B1220195514551N01204134EA0000000292
B1220265514567N01204370EA0000000275
B1220315514587N01204531EA0000000262
B1220365514620N01204684EA0000000249
B1220415514672N01204819EA0000000232
B1220475514762N01204928EA0000000212
B1220525514845N01204983EA0000000202
B1220575514930N01205018EA0000000183
B1221025515014N01205012EA0000000169
B1221075515076N01204942EA0000000153
B1221135515099N01204808EA0000000131
B1221215515096N01204633EA0000000102
B1221315515098N01204408EA0000000055
B1221375515103N01204272EA0000000046
B1221475515105N01204070EA0000000039
B1221545515106N01203964EA0000000036
