AOGNOGN
HFDTE180825
HFFXA050
HFPLTPILOTINCHARGE:
HFGTYGLIDERTYPE:PA-18 Super Cub
HFGIDGLIDERID:OY-RPY
HFDTM100GPSDATUM:WGS-1984
HFRFWFIRMWAREVERSION:
HFRHWHARDWAREVERSION:
HFFTYFRTYPE:OGN-FLIGHTBOOK
HFGPSGENERIC
HFPRSPRESSALTSENSOR:
HFCIDCOMPETITIONID:PY
B1214395600704N00901487EA0000000040
B1214435600698N00901412EA0000000040
B1214505600682N00901238EA0000000039
B1214555600669N00901088EA0000000043
B1215015600649N00900904EA0000000060
B1215065600631N00900751EA0000000075
B1215115600615N00900599EA0000000089
B1215165600593N00900449EA0000000105
B1215225600567N00900272EA0000000115
B1215285600539N00900093EA0000000127
B1215345600512N00859916EA0000000139
B1215405600484N00859740EA0000000149
B1215465600456N00859556EA0000000154
B1215515600434N00859399EA0000000169
B1215565600410N00859249EA0000000198
B1216035600376N00859051EA0000000215
B1216105600348N00858844EA0000000217
B1216175600322N00858627EA0000000225
B1216225600297N00858479EA0000000232
B1216275600277N00858324EA0000000233
B1216385600311N00857981EA0000000256
B1216435600365N00857852EA0000000263
B1216485600434N00857747EA0000000276
B1216535600512N00857660EA0000000299
B1216585600586N00857580EA0000000318
B1217045600681N00857501EA0000000326
B1217115600805N00857489EA0000000340
B1217195600946N00857561EA0000000352
B1217255601051N00857632EA0000000366
B1217305601132N00857693EA0000000376
B1217365601228N00857787EA0000000378
B1217435601327N00857939EA0000000396
B1217535601448N00858180EA0000000401
B1218025601527N00858440EA0000000407
B1218095601575N00858651EA0000000428
B1218165601620N00858862EA0000000456
B1218225601658N00859040EA0000000475
B1218315601721N00859306EA0000000489
B1218375601770N00859486EA0000000491
B1218435601827N00859670EA0000000498
B1218485601873N00859820EA0000000507
B1218545601926N00859986EA0000000529
B1218595601969N00900109EA0000000541
B1219045601998N00900259EA0000000525
B1219095601951N00900443EA0000000477
B1219155601812N00900541EA0000000453
B1219205601701N00900457EA0000000437
B1219255601652N00900259EA0000000411
B1219305601632N00900048EA0000000394
B1219355601548N00859921EA0000000368
B1219405601436N00859918EA0000000346
B1219455601334N00859930EA0000000332
B1219505601243N00859953EA0000000313
B1219585601102N00900005EA0000000277
B1220045601001N00900045EA0000000242
B1220105600895N00900079EA0000000196
B1220155600803N00900090EA0000000162
B1220205600722N00900162EA0000000136
B1220255600673N00900303EA0000000104
B1220305600655N00900468EA0000000080
B1220375600664N00900694EA0000000061
B1220445600683N00900897EA0000000048
B1220495600698N00901033EA0000000044
B1220555600712N00901184EA0000000040
B1221035600723N00901360EA0000000037
B1221105600722N00901480EA0000000037
