AOGNOGN
HFDTE100825
HFFXA050
HFPLTPILOTINCHARGE:
HFGTYGLIDERTYPE:ASK-21
HFGIDGLIDERID:OY-XDB
HFDTM100GPSDATUM:WGS-1984
HFRFWFIRMWAREVERSION:
HFRHWHARDWAREVERSION:
HFFTYFRTYPE:OGN-FLIGHTBOOK
HFGPSGENERIC
HFPRSPRESSALTSENSOR:
HFCIDCOMPETITIONID:V1
B1139105537916N00845687EA0000000033
B1139125537926N00845645EA0000000060
B1139185537959N00845518EA0000000193
B1139245537988N00845368EA0000000312
B1140025538006N00844624EA0000000458
B1140105538117N00844667EA0000000445
B1140225538285N00844756EA0000000433
B1141045538850N00845017EA0000000435
B1141135538816N00844907EA0000000415
B1141215538716N00844878EA0000000410
B1141295538633N00845065EA0000000407
B1141345538627N00845228EA0000000414
B1141405538676N00845339EA0000000418
B1141455538704N00845288EA0000000419
B1141505538658N00845251EA0000000418
B1142035538671N00845504EA0000000411
B1142335538668N00845728EA0000000419
B1142575538614N00845917EA0000000424
B1143095538576N00845813EA0000000434
B1143215538598N00846108EA0000000446
B1143315538624N00845997EA0000000429
B1143375538528N00846023EA0000000433
B1143485538542N00846341EA0000000448
B1143555538609N00846298EA0000000436
B1144155538490N00846543EA0000000465
B1144465538526N00846693EA0000000484
B1145055538416N00846946EA0000000504
B1145315538372N00847133EA0000000525
B1145385538448N00847132EA0000000524
B1145595538369N00847394EA0000000544
B1146045538426N00847402EA0000000540
B1146275538321N00847625EA0000000553
B1147255538238N00848119EA0000000575
B1147445538411N00847988EA0000000562
B1147495538465N00847943EA0000000561
B1147565538538N00847881EA0000000549
B1148385538795N00847302EA0000000538
B1148555538854N00847464EA0000000547
B1149075538773N00847344EA0000000543
B1149205538824N00847619EA0000000564
B1149455538794N00847788EA0000000584
B1150065538831N00847856EA0000000603
B1150125538789N00848037EA0000000604
B1150365538764N00848209EA0000000622
B1150555538806N00848225EA0000000643
B1155325537313N00847318EA0000000494
B1155435537373N00847273EA0000000476
B1155555537276N00847457EA0000000475
B1156125537353N00847533EA0000000452
B1157325537215N00846948EA0000000432
B1157495537242N00846678EA0000000415
B1157545537244N00846602EA0000000407
B1158035537250N00846464EA0000000402
B1158115537259N00846340EA0000000402
B1158175537263N00846247EA0000000400
B1158515537473N00846046EA0000000390
B1159055537416N00846384EA0000000388
B1159105537354N00846372EA0000000396
B1159155537324N00846297EA0000000398
B1159255537408N00846230EA0000000397
B1159315537471N00846317EA0000000406
B1159505537350N00846679EA0000000391
B1159575537297N00846576EA0000000391
B1200025537287N00846480EA0000000399
B1200125537382N00846431EA0000000405
B1200345537300N00846812EA0000000398
B1201015537467N00846778EA0000000406
B1201555537286N00846590EA0000000392
B1202095537380N00846416EA0000000384
B1202155537398N00846313EA0000000377
B1202215537412N00846204EA0000000370
B1202305537435N00846040EA0000000356
B1203155537521N00845287EA0000000321
B1203275537519N00845083EA0000000308
B1203325537516N00844997EA0000000306
B1203375537507N00844909EA0000000296
B1203425537462N00844850EA0000000291
B1203475537388N00844913EA0000000278
B1203535537361N00845114EA0000000266
B1203595537363N00845320EA0000000275
B1204045537367N00845494EA0000000264
B1204095537373N00845682EA0000000267
B1204165537388N00845931EA0000000261
B1204215537403N00846119EA0000000246
B1204285537471N00846343EA0000000241
B1204415537638N00846644EA0000000241
B1205455537896N00845578EA0000000027
