AOGNOGN
HFDTE100825
HFFXA050
HFPLTPILOTINCHARGE:
HFGTYGLIDERTYPE:ASK-21
HFGIDGLIDERID:OY-XDB
HFDTM100GPSDATUM:WGS-1984
HFRFWFIRMWAREVERSION:
HFRHWHARDWAREVERSION:
HFFTYFRTYPE:OGN-FLIGHTBOOK
HFGPSGENERIC
HFPRSPRESSALTSENSOR:
HFCIDCOMPETITIONID:V1
B1400495537925N00845590EA0000000083
B1400505537927N00845566EA0000000103
B1400545537936N00845470EA0000000190
B1401465538000N00844501EA0000000427
B1402035537854N00844199EA0000000403
B1402105537780N00844078EA0000000399
B1403375537586N00844651EA0000000311
B1403455537571N00844919EA0000000311
B1403545537469N00845153EA0000000293
B1404095537218N00845389EA0000000278
B1404165537166N00845607EA0000000263
B1404255537187N00845919EA0000000261
B1404325537227N00846134EA0000000254
B1404385537279N00846297EA0000000247
B1404445537339N00846436EA0000000244
B1404515537430N00846513EA0000000236
B1404585537521N00846579EA0000000232
B1405055537610N00846637EA0000000225
B1405175537767N00846717EA0000000216
B1405235537819N00846641EA0000000200
B1405295537827N00846490EA0000000173
B1405375537830N00846279EA0000000128
B1405445537851N00846104EA0000000095
B1405525537870N00845904EA0000000062
B1405575537875N00845780EA0000000040
B1406085537892N00845585EA0000000030
