AOGNOGN
HFDTE290625
HFFXA050
HFPLTPILOTINCHARGE:
HFGTYGLIDERTYPE:PA-25 Pawnee
HFGIDGLIDERID:OY-CYP
HFDTM100GPSDATUM:WGS-1984
HFRFWFIRMWAREVERSION:
HFRHWHARDWAREVERSION:
HFFTYFRTYPE:OGN-FLIGHTBOOK
HFGPSGENERIC
HFPRSPRESSALTSENSOR:
HFCIDCOMPETITIONID:YP
B1156125553131N01213866EA0000000020
B1156125553131N01213866EA0000000020
B1156195553136N01213711EA0000000021
B1156265553144N01213526EA0000000042
B1156315553157N01213397EA0000000063
B1156365553175N01213283EA0000000093
B1156435553218N01213147EA0000000124
B1156505553257N01213021EA0000000151
B1156565553289N01212910EA0000000168
B1157015553315N01212818EA0000000189
B1157115553360N01212637EA0000000226
B1157185553391N01212527EA0000000252
B1157445553509N01212133EA0000000341
B1157525553549N01211996EA0000000372
B1158135553546N01211635EA0000000423
B1158195553491N01211535EA0000000448
B1158265553419N01211428EA0000000477
B1158365553305N01211292EA0000000504
B1158435553223N01211207EA0000000518
B1158485553159N01211154EA0000000530
B1158535553086N01211115EA0000000544
B1158595552986N01211099EA0000000562
B1159045552894N01211113EA0000000575
B1159095552795N01211153EA0000000588
B1159205552573N01211293EA0000000611
B1159295552392N01211454EA0000000638
B1159365552264N01211456EA0000000646
B1159415552259N01211348EA0000000632
B1159465552340N01211322EA0000000599
B1159535552463N01211552EA0000000546
B1200065552545N01212246EA0000000479
B1200115552555N01212516EA0000000455
B1200235552567N01213160EA0000000381
B1200325552565N01213664EA0000000323
B1200405552557N01214104EA0000000264
B1200475552594N01214472EA0000000224
B1200525552661N01214675EA0000000189
B1200575552748N01214764EA0000000165
B1201035552836N01214747EA0000000142
B1201115552937N01214673EA0000000119
B1201205553055N01214565EA0000000084
B1201275553116N01214432EA0000000067
B1201345553127N01214258EA0000000045
B1201455553132N01214001EA0000000020
B1201525553134N01213871EA0000000019
B1201575553136N01213807EA0000000019
