AOGNOGN
HFDTE290625
HFFXA050
HFPLTPILOTINCHARGE:
HFGTYGLIDERTYPE:Discus 2cT
HFGIDGLIDERID:OY-KBX
HFDTM100GPSDATUM:WGS-1984
HFRFWFIRMWAREVERSION:
HFRHWHARDWAREVERSION:
HFFTYFRTYPE:OGN-FLIGHTBOOK
HFGPSGENERIC
HFPRSPRESSALTSENSOR:
HFCIDCOMPETITIONID:KB
B1123125553129N01213897EA0000000021
B1123125553129N01213897EA0000000021
B1123185553134N01213759EA0000000024
B1123245553146N01213610EA0000000044
B1123295553153N01213490EA0000000069
B1123345553141N01213380EA0000000100
B1123395553105N01213292EA0000000126
B1123455553031N01213223EA0000000147
B1123515552939N01213177EA0000000156
B1123565552857N01213142EA0000000173
B1124015552774N01213110EA0000000193
B1124065552690N01213084EA0000000211
B1124135552564N01213053EA0000000243
B1124205552438N01213031EA0000000282
B1124305552261N01213009EA0000000305
B1124375552137N01212989EA0000000324
B1124425552048N01212967EA0000000337
B1124495551917N01212948EA0000000374
B1124545551833N01212918EA0000000404
B1124595551779N01212847EA0000000433
B1125045551746N01212760EA0000000458
B1125095551739N01212665EA0000000479
B1125165551733N01212540EA0000000501
B1125255551731N01212384EA0000000520
B1125325551726N01212258EA0000000533
B1125395551725N01212128EA0000000554
B1125445551719N01212032EA0000000575
B1125525551720N01211876EA0000000609
B1126095551650N01211594EA0000000653
B1126145551630N01211505EA0000000649
B1126235551720N01211481EA0000000642
B1126305551778N01211673EA0000000650
B1126355551755N01211861EA0000000641
B1126425551665N01212116EA0000000642
B1126475551586N01212275EA0000000656
B1127055551243N01212354EA0000000602
B1127165551095N01212186EA0000000589
B1127215551035N01212091EA0000000583
B1127315550930N01211874EA0000000595
B1128025550787N01211220EA0000000643
B1128075550845N01211228EA0000000648
B1128125550913N01211382EA0000000630
B1128215550864N01211753EA0000000659
B1128275550757N01211908EA0000000663
B1128325550673N01212069EA0000000677
B1128375550661N01212283EA0000000706
B1128445550740N01212453EA0000000704
B1128505550801N01212386EA0000000697
B1129015550662N01212277EA0000000711
B1129085550590N01212542EA0000000714
B1129145550655N01212752EA0000000734
B1129295550657N01212642EA0000000735
B1129365550551N01212872EA0000000755
B1129415550587N01213060EA0000000781
B1129465550652N01213097EA0000000768
B1129545550662N01212926EA0000000772
B1130015550588N01212796EA0000000792
B1130065550583N01212703EA0000000794
B1130135550646N01212623EA0000000783
B1130185550711N01212613EA0000000774
B1130265550834N01212673EA0000000768
B1130325550926N01212740EA0000000797
B1130395551015N01212827EA0000000803
B1130445551083N01212901EA0000000797
B1130515551179N01213006EA0000000779
B1130565551258N01213091EA0000000725
B1131015551359N01213184EA0000000705
B1131065551446N01213277EA0000000732
B1131135551539N01213390EA0000000752
B1131185551606N01213469EA0000000750
B1131245551687N01213562EA0000000764
B1131315551777N01213678EA0000000771
B1131405551894N01213817EA0000000775
B1131515552038N01213936EA0000000775
B1131575552119N01213989EA0000000784
B1132025552186N01214035EA0000000796
B1132085552259N01214086EA0000000808
B1132145552331N01214145EA0000000812
B1132195552395N01214189EA0000000816
B1132255552467N01214244EA0000000826
B1132305552534N01214305EA0000000822
B1132375552627N01214395EA0000000839
B1132435552702N01214461EA0000000833
B1132485552767N01214499EA0000000834
B1132565552873N01214571EA0000000839
B1133015552947N01214623EA0000000832
B1133065553021N01214675EA0000000820
B1133125553113N01214719EA0000000804
B1133175553191N01214763EA0000000802
B1133255553307N01214822EA0000000791
B1133325553400N01214869EA0000000773
B1133385553486N01214912EA0000000747
B1133445553585N01214957EA0000000772
B1133495553659N01214987EA0000000793
B1133545553684N01214949EA0000000813
B1133595553639N01214900EA0000000810
B1134105553525N01215213EA0000000835
B1134155553584N01215340EA0000000841
B1134245553656N01215265EA0000000838
B1134305553579N01215223EA0000000857
B1134395553459N01215499EA0000000858
B1134445553477N01215719EA0000000872
B1134515553573N01215799EA0000000882
B1134575553584N01215689EA0000000892
B1135025553546N01215632EA0000000912
B1135075553460N01215680EA0000000908
B1135145553387N01215933EA0000000923
B1135195553403N01216140EA0000000930
B1135245553463N01216273EA0000000942
B1135315553538N01216252EA0000000932
B1135365553515N01216168EA0000000936
B1135415553433N01216164EA0000000946
B1135545553348N01216642EA0000000972
B1135595553419N01216766EA0000000982
B1136065553497N01216730EA0000000980
B1136115553483N01216646EA0000000979
B1136175553396N01216610EA0000000996
B1136225553305N01216666EA0000001014
B1136315553216N01216987EA0000001027
B1136365553257N01217179EA0000001028
B1136415553331N01217275EA0000001041
B1136495553438N01217286EA0000001040
B1136565553538N01217307EA0000001015
B1137025553643N01217363EA0000000995
B1137075553735N01217424EA0000000986
B1137135553844N01217492EA0000000977
B1137205553970N01217562EA0000000965
B1137305554159N01217672EA0000000937
B1137355554258N01217725EA0000000924
B1137425554402N01217772EA0000000909
B1137525554608N01217831EA0000000923
B1137585554735N01217870EA0000000931
B1138035554838N01217908EA0000000934
B1138095554962N01217968EA0000000915
B1138225555239N01218126EA0000000894
B1138305555395N01218228EA0000000888
B1138405555595N01218399EA0000000853
B1138455555700N01218470EA0000000855
B1138515555819N01218560EA0000000864
B1138575555945N01218666EA0000000840
B1139155556302N01219036EA0000000868
B1139235556455N01219237EA0000000880
B1139295556559N01219398EA0000000885
B1139365556675N01219601EA0000000859
B1140005557153N01220010EA0000000827
B1140105557324N01220174EA0000000876
B1140205557478N01220273EA0000000892
B1140255557479N01220197EA0000000867
B1140315557379N01220150EA0000000846
B1140365557268N01220285EA0000000837
B1140465557270N01220793EA0000000812
B1140535557388N01221063EA0000000853
B1141015557468N01221373EA0000000842
B1141335558005N01221469EA0000000782
B1141405558102N01221437EA0000000760
B1141525558287N01221371EA0000000729
B1142015558431N01221352EA0000000705
B1142075558538N01221367EA0000000676
B1142135558658N01221393EA0000000659
B1142205558795N01221454EA0000000675
B1142365559110N01221626EA0000000644
B1142455559284N01221732EA0000000621
B1142505559373N01221785EA0000000649
B1142555559446N01221858EA0000000636
B1143015559538N01221903EA0000000611
B1143065559595N01221846EA0000000590
B1143115559586N01221724EA0000000567
B1143165559523N01221605EA0000000563
B1143225559444N01221494EA0000000573
B1143285559366N01221406EA0000000577
B1143345559294N01221332EA0000000587
B1143405559230N01221258EA0000000578
B1143455559180N01221185EA0000000567
B1143565559086N01221037EA0000000552
B1144025559031N01220964EA0000000528
B1144085558968N01220891EA0000000511
B1144135558912N01220821EA0000000486
B1144195558846N01220719EA0000000500
B1144245558798N01220646EA0000000501
B1144295558743N01220575EA0000000493
B1144385558641N01220422EA0000000501
B1144465558563N01220309EA0000000505
B1144515558503N01220255EA0000000506
B1144565558443N01220204EA0000000499
B1145025558375N01220128EA0000000474
B1145085558307N01220046EA0000000468
B1145135558253N01219990EA0000000467
B1145225558160N01219882EA0000000446
B1145285558101N01219798EA0000000435
B1145435557970N01219588EA0000000438
B1145495557934N01219529EA0000000440
B1145545557913N01219484EA0000000433
B1146015557874N01219408EA0000000392
B1146065557843N01219311EA0000000351
B1146215557754N01219091EA0000000403
B1146265557730N01219041EA0000000403
B1146325557691N01219004EA0000000410
B1146385557647N01218967EA0000000403
B1146445557603N01218930EA0000000404
B1146495557563N01218901EA0000000394
B1146595557478N01218827EA0000000377
B1147125557388N01218677EA0000000388
B1147235557327N01218565EA0000000430
B1147295557282N01218505EA0000000437
B1147345557245N01218454EA0000000451
B1147405557202N01218387EA0000000458
B1147485557146N01218303EA0000000476
B1147545557116N01218239EA0000000478
B1147595557086N01218194EA0000000481
B1148105557011N01218118EA0000000484
B1148165556968N01218073EA0000000486
B1148215556929N01218034EA0000000487
B1148275556883N01217992EA0000000495
B1148355556822N01217931EA0000000496
B1148405556776N01217882EA0000000511
B1148485556702N01217817EA0000000532
B1148575556632N01217752EA0000000548
B1149055556658N01217678EA0000000554
B1149135556755N01217795EA0000000561
B1149185556775N01217995EA0000000552
B1149285556642N01218277EA0000000573
B1149365556524N01218282EA0000000587
B1149435556456N01218237EA0000000598
B1149495556415N01218189EA0000000607
B1149565556371N01218123EA0000000614
B1150015556337N01218082EA0000000628
B1150065556296N01218057EA0000000640
B1150145556224N01218024EA0000000653
B1150235556164N01217949EA0000000673
B1150305556122N01217888EA0000000680
B1150355556085N01217846EA0000000684
B1150415556044N01217792EA0000000684
B1150475556009N01217738EA0000000701
B1150525555969N01217695EA0000000717
B1151045555845N01217644EA0000000736
B1151135555732N01217649EA0000000739
B1151215555637N01217632EA0000000755
B1151275555560N01217641EA0000000767
B1151335555477N01217646EA0000000764
B1151385555404N01217649EA0000000751
B1151455555273N01217638EA0000000715
B1151565555053N01217589EA0000000697
B1152015554954N01217568EA0000000695
B1152075554843N01217560EA0000000705
B1152125554760N01217545EA0000000696
B1152175554680N01217509EA0000000679
B1152235554578N01217455EA0000000657
B1152295554472N01217388EA0000000637
B1152365554366N01217275EA0000000617
B1152435554268N01217145EA0000000604
B1152525554134N01216992EA0000000585
B1152595554017N01216893EA0000000592
B1153065553899N01216802EA0000000582
B1153125553804N01216734EA0000000579
B1153195553698N01216655EA0000000558
B1153245553620N01216584EA0000000538
B1153305553526N01216497EA0000000535
B1153375553422N01216392EA0000000534
B1153425553345N01216316EA0000000533
B1153475553264N01216250EA0000000538
B1153535553166N01216167EA0000000532
B1154025553032N01216007EA0000000517
B1154105552909N01215850EA0000000506
B1154165552815N01215738EA0000000514
B1154215552751N01215665EA0000000531
B1154275552682N01215592EA0000000520
B1154345552594N01215492EA0000000499
B1154405552517N01215401EA0000000483
B1154505552408N01215230EA0000000473
B1154565552344N01215119EA0000000465
B1155015552292N01215010EA0000000458
B1155085552222N01214848EA0000000460
B1155135552176N01214745EA0000000475
B1155185552129N01214655EA0000000467
B1155245552071N01214536EA0000000453
B1155315551998N01214405EA0000000448
B1155375551928N01214291EA0000000434
B1155445551847N01214153EA0000000427
B1155495551792N01214061EA0000000428
B1155545551744N01213976EA0000000431
B1155595551694N01213892EA0000000435
B1156045551640N01213815EA0000000446
B1156095551587N01213746EA0000000438
B1156165551508N01213643EA0000000412
B1156225551442N01213539EA0000000388
B1156305551362N01213396EA0000000389
B1156385551285N01213257EA0000000387
B1156445551225N01213162EA0000000383
B1156495551169N01213073EA0000000379
B1156545551115N01212994EA0000000398
B1157005551045N01212920EA0000000387
B1157055551001N01212847EA0000000381
B1157105550997N01212766EA0000000375
B1157175550994N01212651EA0000000363
B1157235550989N01212577EA0000000366
B1157285550985N01212523EA0000000354
B1157345550977N01212451EA0000000339
B1157395550978N01212384EA0000000301
B1157445550984N01212279EA0000000278
B1157525550959N01212148EA0000000308
B1158015550921N01212033EA0000000320
B1158155550862N01211865EA0000000337
B1158205550830N01211809EA0000000350
B1158275550789N01211739EA0000000358
B1158335550760N01211676EA0000000359
B1158425550713N01211570EA0000000370
B1158505550668N01211474EA0000000380
B1159005550618N01211334EA0000000415
B1159125550562N01211201EA0000000423
B1159255550496N01211068EA0000000444
B1159305550478N01211016EA0000000452
B1159355550473N01210949EA0000000456
B1159405550509N01210933EA0000000477
B1159455550560N01211018EA0000000483
B1159515550597N01211214EA0000000485
B1159565550559N01211401EA0000000489
B1200085550352N01211598EA0000000527
B1200145550252N01211600EA0000000552
B1200195550206N01211543EA0000000574
B1200245550173N01211480EA0000000592
B1200295550179N01211423EA0000000605
B1200345550236N01211460EA0000000618
B1200405550251N01211668EA0000000657
B1200455550178N01211789EA0000000676
B1200505550116N01211763EA0000000697
B1200575550162N01211735EA0000000712
B1201155550049N01212030EA0000000785
B1201205550065N01211989EA0000000799
B1201255550121N01212021EA0000000797
B1201335550176N01212238EA0000000827
B1201485549989N01212403EA0000000846
B1201535549997N01212333EA0000000856
B1201585550056N01212353EA0000000861
B1202135549987N01212804EA0000000885
B1202185549915N01212764EA0000000894
B1202235549939N01212698EA0000000912
B1202415549890N01213162EA0000000942
B1202485549857N01213055EA0000000966
B1202535549921N01213083EA0000000971
B1203135549796N01213557EA0000001008
B1203185549786N01213461EA0000001023
B1203235549854N01213472EA0000001031
B1203425549732N01213975EA0000001062
B1203485549719N01213856EA0000001072
B1203535549786N01213847EA0000001088
B1204135549677N01214381EA0000001126
B1204185549637N01214304EA0000001124
B1204275549646N01214142EA0000001140
B1204335549632N01214036EA0000001139
B1204465549555N01213811EA0000001145
B1204515549522N01213731EA0000001139
B1204575549537N01213624EA0000001120
B1205025549568N01213532EA0000001127
B1205085549611N01213446EA0000001141
B1205145549658N01213383EA0000001160
B1205215549720N01213329EA0000001152
B1205305549748N01213180EA0000001133
B1205355549739N01213069EA0000001135
B1205405549731N01212952EA0000001136
B1205465549716N01212817EA0000001138
B1205515549693N01212707EA0000001131
B1205575549667N01212611EA0000001159
B1206025549658N01212554EA0000001151
B1206105549637N01212425EA0000001152
B1206155549613N01212342EA0000001156
B1206205549651N01212305EA0000001160
B1206255549718N01212383EA0000001144
B1206405549609N01212847EA0000001131
B1206455549553N01212770EA0000001125
B1206505549568N01212688EA0000001133
B1206555549629N01212674EA0000001116
B1207015549719N01212772EA0000001105
B1207205549536N01213261EA0000001072
B1207275549520N01213129EA0000001056
B1207345549552N01212997EA0000001044
B1207395549576N01212911EA0000001044
B1207445549598N01212821EA0000001040
B1207495549619N01212719EA0000001044
B1207555549635N01212616EA0000001083
B1208015549693N01212612EA0000001071
B1208225549510N01212921EA0000001084
B1208275549503N01212849EA0000001079
B1208355549575N01212762EA0000001045
B1208405549628N01212674EA0000001029
B1208545549724N01212388EA0000001041
B1209035549753N01212158EA0000001036
B1209125549774N01211942EA0000001055
B1209185549789N01211824EA0000001065
B1209395549610N01211922EA0000001097
B1209455549652N01212137EA0000001100
B1209505549731N01212178EA0000001090
B1209565549773N01212072EA0000001090
B1210185549464N01211805EA0000001089
B1210235549450N01211700EA0000001092
B1210315549562N01211672EA0000001099
B1210375549659N01211713EA0000001099
B1210455549783N01211846EA0000001132
B1210515549875N01211995EA0000001119
B1210565549954N01212095EA0000001127
B1211015550020N01212079EA0000001110
B1211085550032N01211952EA0000001097
B1211135549983N01211870EA0000001083
B1211475549529N01211524EA0000001084
B1211535549424N01211704EA0000001107
B1211595549404N01211974EA0000001113
B1212045549461N01212141EA0000001111
B1212405549285N01211831EA0000001105
B1212455549216N01211787EA0000001109
B1212505549215N01211715EA0000001099
B1212575549261N01211623EA0000001089
B1213075549362N01211530EA0000001081
B1213125549422N01211505EA0000001073
B1213175549496N01211514EA0000001064
B1213235549583N01211497EA0000001055
B1213285549640N01211460EA0000001071
B1213345549698N01211404EA0000001068
B1213405549758N01211342EA0000001059
B1213465549820N01211286EA0000001056
B1213575549962N01211217EA0000001070
B1214055550080N01211215EA0000001063
B1214115550167N01211218EA0000001060
B1214485550174N01210633EA0000001104
B1214535550205N01210609EA0000001079
B1215185550014N01211369EA0000001087
B1215335549781N01211555EA0000001085
B1215405549802N01211467EA0000001089
B1215465549883N01211491EA0000001081
B1215515549954N01211617EA0000001067
B1215565550005N01211814EA0000001064
B1216025550054N01212075EA0000001083
B1216205549907N01212656EA0000001073
B1216315549712N01212630EA0000001096
B1216375549632N01212596EA0000001096
B1216425549634N01212526EA0000001096
B1216475549691N01212512EA0000001092
B1216535549783N01212606EA0000001083
B1217005549887N01212792EA0000001082
B1217115550044N01213120EA0000001107
B1217175550109N01213301EA0000001103
B1217265550209N01213492EA0000001076
B1217335550245N01213421EA0000001037
B1217405550214N01213290EA0000001005
B1217485550126N01213142EA0000000977
B1218095549844N01212774EA0000000965
B1218245549737N01212503EA0000001035
B1218355549813N01212754EA0000001051
B1218415549718N01212821EA0000001052
B1218465549704N01212722EA0000001071
B1218515549764N01212690EA0000001095
B1218565549835N01212788EA0000001094
B1219205549543N01213216EA0000001120
B1219255549549N01213144EA0000001141
B1219445549448N01213472EA0000001163
B1219495549475N01213410EA0000001167
B1220105549401N01213895EA0000001181
B1220175549407N01213799EA0000001202
B1220225549471N01213838EA0000001194
B1220465549306N01214636EA0000001211
B1220535549202N01214620EA0000001213
B1221015549188N01214504EA0000001202
B1221085549193N01214396EA0000001182
B1221185549200N01214217EA0000001146
B1221265549208N01214071EA0000001160
B1221355549209N01213933EA0000001157
B1221405549197N01213838EA0000001155
B1221455549186N01213728EA0000001154
B1221525549179N01213580EA0000001187
B1221575549163N01213522EA0000001224
B1222055549151N01213431EA0000001212
B1222115549153N01213369EA0000001217
B1222195549175N01213278EA0000001192
B1222275549196N01213160EA0000001184
B1222375549222N01213029EA0000001183
B1222445549224N01212928EA0000001184
B1223085549300N01212598EA0000001159
B1223175549324N01212421EA0000001146
B1223235549344N01212305EA0000001135
B1223315549375N01212143EA0000001110
B1223375549401N01212023EA0000001117
B1223435549428N01211913EA0000001107
B1223515549461N01211740EA0000001098
B1223585549492N01211605EA0000001098
B1224035549519N01211512EA0000001083
B1224095549563N01211396EA0000001063
B1224175549628N01211231EA0000001059
B1224255549695N01211071EA0000001074
B1224305549720N01210975EA0000001115
B1224375549753N01210890EA0000001112
B1224425549783N01210815EA0000001109
B1224475549814N01210736EA0000001138
B1224535549837N01210654EA0000001131
B1224595549877N01210561EA0000001125
B1225075549926N01210438EA0000001119
B1225185549972N01210297EA0000001116
B1225265550011N01210208EA0000001116
B1225325550030N01210128EA0000001094
B1225375550043N01210045EA0000001068
B1225445550077N01209925EA0000001072
B1225515550108N01209817EA0000001074
B1226025550173N01209685EA0000001048
B1226155550242N01209502EA0000001050
B1226345550257N01209206EA0000001024
B1226415550239N01209076EA0000001014
B1227075550193N01208567EA0000000974
B1227175550253N01208422EA0000000965
B1227245550310N01208331EA0000000947
B1227315550356N01208217EA0000000938
B1227385550385N01208099EA0000000928
B1227455550413N01207953EA0000000909
B1227555550429N01207780EA0000000974
B1228235550368N01208161EA0000001017
B1228285550402N01208114EA0000001034
B1228335550472N01208173EA0000001035
B1228415550501N01208480EA0000001046
B1228465550428N01208634EA0000001052
B1228525550331N01208654EA0000001059
B1228575550304N01208570EA0000001065
B1229025550359N01208523EA0000001065
B1229075550437N01208568EA0000001075
B1229135550498N01208770EA0000001079
B1229265550331N01209074EA0000001076
B1229315550305N01208982EA0000001085
B1229365550336N01208911EA0000001096
B1229435550400N01208834EA0000001088
B1230015550450N01208469EA0000001086
B1230135550517N01208316EA0000001096
B1231025550631N01207559EA0000001024
B1231135550572N01207396EA0000001040
B1231235550595N01207248EA0000001030
B1231295550665N01207226EA0000001022
B1231365550772N01207248EA0000001008
B1231415550849N01207336EA0000001006
B1231465550879N01207538EA0000001022
B1232225550291N01208014EA0000000983
B1232275550299N01207935EA0000000971
B1232335550378N01207899EA0000000953
B1232405550482N01207899EA0000000963
B1233055550524N01207835EA0000000936
B1233105550427N01207967EA0000000929
B1233155550369N01208161EA0000000947
B1233215550327N01208418EA0000000966
B1233315550228N01208826EA0000000947
B1233415550216N01209270EA0000000947
B1233475550177N01209522EA0000000939
B1233525550127N01209717EA0000000945
B1233575550062N01209893EA0000000951
B1234025549987N01210063EA0000000960
B1234095550026N01210295EA0000000983
B1234205550029N01210173EA0000001000
B1234295549875N01210372EA0000001009
B1234415549898N01210877EA0000000995
B1234495549977N01211173EA0000000984
B1234545550053N01211323EA0000000992
B1234595550140N01211393EA0000000989
B1235095550299N01211386EA0000000988
B1235165550390N01211338EA0000000984
B1235275550554N01211332EA0000000968
B1235335550628N01211308EA0000000964
B1235385550695N01211295EA0000000955
B1235435550760N01211276EA0000000962
B1235495550828N01211258EA0000000964
B1235555550906N01211247EA0000000950
B1236065551065N01211253EA0000000950
B1236115551138N01211287EA0000000950
B1236175551223N01211334EA0000000948
B1236235551298N01211341EA0000000934
B1236285551357N01211319EA0000000927
B1236345551419N01211274EA0000000920
B1236455551517N01211167EA0000000912
B1236535551591N01211095EA0000000902
B1236585551639N01211052EA0000000904
B1237035551680N01211010EA0000000898
B1237085551722N01210963EA0000000893
B1237135551762N01210923EA0000000894
B1237215551835N01210863EA0000000878
B1237275551895N01210816EA0000000878
B1237335551958N01210786EA0000000877
B1237395552036N01210781EA0000000869
B1237455552116N01210783EA0000000875
B1237515552173N01210745EA0000000868
B1238005552259N01210674EA0000000862
B1238135552306N01210497EA0000000846
B1240025551327N01209221EA0000000752
B1240095551245N01209147EA0000000749
B1240215551125N01209023EA0000000728
B1240335550977N01208921EA0000000732
B1240385550912N01208895EA0000000724
B1240445550823N01208880EA0000000720
B1240495550781N01208829EA0000000722
B1240545550788N01208770EA0000000723
B1240595550841N01208759EA0000000712
B1241055550927N01208865EA0000000706
B1241125550998N01209101EA0000000709
B1241185551039N01209325EA0000000708
B1241235551043N01209532EA0000000707
B1241285551013N01209731EA0000000695
B1241335550943N01209889EA0000000681
B1241395550849N01210046EA0000000668
B1241485550689N01210229EA0000000650
B1241565550544N01210388EA0000000641
B1242025550438N01210497EA0000000658
B1242175550165N01210640EA0000000679
B1242225550108N01210820EA0000000671
B1242305550194N01211096EA0000000672
B1242355550271N01211083EA0000000689
B1242445550251N01210927EA0000000719
B1242495550159N01210946EA0000000743
B1242545550092N01211103EA0000000746
B1242595550093N01211319EA0000000728
B1243065550194N01211494EA0000000755
B1243115550262N01211483EA0000000769
B1243175550275N01211378EA0000000779
B1243245550176N01211336EA0000000807
B1243295550091N01211459EA0000000798
B1243345550051N01211678EA0000000801
B1243395550076N01211874EA0000000812
B1243445550144N01212005EA0000000811
B1243515550247N01212023EA0000000826
B1244035550212N01211852EA0000000851
B1244085550122N01211904EA0000000859
B1244135550043N01212065EA0000000857
B1244205550048N01212368EA0000000859
B1244255550124N01212495EA0000000872
B1244305550197N01212508EA0000000878
B1244435550109N01212391EA0000000885
B1244485550015N01212513EA0000000900
B1244535549971N01212709EA0000000898
B1244595549991N01212969EA0000000893
B1245055550076N01213140EA0000000903
B1245105550161N01213192EA0000000912
B1245155550217N01213150EA0000000915
B1245285550067N01213069EA0000000925
B1245335549986N01213217EA0000000914
B1245385549947N01213437EA0000000916
B1245445549986N01213679EA0000000925
B1245495550067N01213782EA0000000918
B1245555550167N01213798EA0000000918
B1246015550221N01213717EA0000000916
B1246065550203N01213632EA0000000929
B1246185550073N01213501EA0000000950
B1246235550014N01213462EA0000000963
B1246285550044N01213414EA0000000967
B1246345550128N01213494EA0000000969
B1246395550180N01213675EA0000000984
B1246535550060N01214149EA0000000987
B1247015549966N01214091EA0000000998
B1247065549979N01214017EA0000001000
B1247115550030N01213985EA0000001011
B1247185550122N01214016EA0000001009
B1247235550194N01214081EA0000000998
B1247285550253N01214220EA0000000980
B1247395550202N01214627EA0000000946
B1247445550121N01214642EA0000000934
B1247495550084N01214558EA0000000940
B1247545550094N01214463EA0000000943
B1248035550126N01214303EA0000000934
B1248095550150N01214201EA0000000962
B1248175550177N01214077EA0000000968
B1248235550192N01213995EA0000000988
B1248285550214N01213950EA0000000972
B1248355550227N01213826EA0000000956
B1248445550226N01213664EA0000000995
B1248495550225N01213576EA0000001005
B1248575550224N01213470EA0000001041
B1249045550234N01213379EA0000001031
B1249105550253N01213289EA0000001033
B1249175550266N01213198EA0000001047
B1249225550276N01213120EA0000001041
B1249275550295N01213039EA0000001068
B1249375550325N01212905EA0000001060
B1249435550336N01212811EA0000001076
B1249515550337N01212705EA0000001048
B1250015550324N01212529EA0000001056
B1250095550315N01212425EA0000001049
B1250255550338N01212207EA0000001027
B1250315550349N01212134EA0000001025
B1250365550358N01212077EA0000001029
B1250435550371N01212007EA0000001026
B1250485550380N01211953EA0000001020
B1251015550401N01211819EA0000001016
B1251085550420N01211739EA0000001013
B1251165550440N01211653EA0000001010
B1251225550443N01211584EA0000001003
B1251285550457N01211520EA0000000992
B1251385550491N01211388EA0000000972
B1251465550520N01211280EA0000000967
B1251535550558N01211207EA0000000965
B1252065550634N01211069EA0000000948
B1252125550658N01210992EA0000000950
B1252195550665N01210888EA0000000941
B1252245550685N01210826EA0000000943
B1252315550754N01210816EA0000000942
B1252365550814N01210839EA0000000949
B1252445550911N01210856EA0000000947
B1252495550980N01210872EA0000000952
B1252575551097N01210941EA0000000946
B1253035551190N01210972EA0000000936
B1253095551278N01210992EA0000000928
B1253145551353N01211025EA0000000923
B1253225551462N01211073EA0000000930
B1253275551521N01211088EA0000000918
B1253365551634N01211128EA0000000922
B1253445551730N01211163EA0000000908
B1253515551821N01211205EA0000000903
B1253565551888N01211231EA0000000899
B1254025551964N01211284EA0000000905
B1254095552041N01211310EA0000000894
B1254165552095N01211261EA0000000892
B1254235552109N01211178EA0000000887
B1254295552094N01211098EA0000000887
B1254365552073N01211009EA0000000880
B1254525552111N01210819EA0000000875
B1255095552030N01210628EA0000000864
B1255155551932N01210652EA0000000865
B1255205551849N01210750EA0000000861
B1255255551789N01210924EA0000000863
B1255315551783N01211169EA0000000853
B1255365551820N01211360EA0000000838
B1255425551903N01211511EA0000000829
B1255475551972N01211571EA0000000828
B1255535552048N01211620EA0000000829
B1256005552132N01211680EA0000000829
B1256065552193N01211670EA0000000817
B1256125552219N01211578EA0000000819
B1256185552234N01211486EA0000000824
B1256235552271N01211422EA0000000823
B1256295552328N01211379EA0000000843
B1256385552439N01211354EA0000000810
B1256455552506N01211287EA0000000809
B1256555552507N01211134EA0000000800
B1257005552504N01211061EA0000000799
B1257055552527N01210994EA0000000786
B1257145552621N01210924EA0000000783
B1257465552479N01210468EA0000000776
B1258235552227N01209988EA0000000741
B1258285552244N01209916EA0000000735
B1258365552321N01209855EA0000000726
B1258545552325N01209606EA0000000702
B1259025552249N01209497EA0000000699
B1259115552116N01209451EA0000000685
B1259185551980N01209493EA0000000662
B1259285551792N01209723EA0000000682
B1259335551742N01209913EA0000000665
B1259395551708N01210178EA0000000654
B1259445551694N01210384EA0000000658
B1259495551671N01210587EA0000000651
B1259545551644N01210783EA0000000655
B1300015551608N01211056EA0000000651
B1300065551584N01211250EA0000000654
B1300115551550N01211447EA0000000645
B1300185551500N01211711EA0000000649
B1300235551465N01211905EA0000000636
B1300285551450N01212107EA0000000636
B1300355551489N01212348EA0000000628
B1300445551601N01212525EA0000000608
B1300525551708N01212581EA0000000586
B1301005551798N01212525EA0000000582
B1301095551854N01212392EA0000000585
B1301145551876N01212322EA0000000597
B1301195551899N01212265EA0000000596
B1301275551933N01212211EA0000000587
B1301355551974N01212143EA0000000572
B1301435552019N01212072EA0000000550
B1301495552055N01212006EA0000000556
B1301565552088N01211922EA0000000560
B1302055552173N01211876EA0000000538
B1302125552228N01211799EA0000000533
B1302215552278N01211721EA0000000539
B1302295552284N01211617EA0000000519
B1302545552137N01211299EA0000000488
B1302595552069N01211261EA0000000485
B1303085551923N01211215EA0000000486
B1303145551819N01211220EA0000000483
B1303195551787N01211150EA0000000472
B1303255551837N01211114EA0000000476
B1303315551912N01211212EA0000000468
B1303365551949N01211388EA0000000460
B1303425551927N01211637EA0000000451
B1303485551847N01211822EA0000000444
B1303565551714N01211845EA0000000418
B1304015551680N01211783EA0000000419
B1304065551691N01211726EA0000000400
B1304125551754N01211696EA0000000392
B1304175551822N01211744EA0000000387
B1304235551895N01211884EA0000000383
B1304295551954N01212070EA0000000365
B1304365551982N01212330EA0000000373
B1304435551954N01212620EA0000000352
B1304495551959N01212873EA0000000342
B1304545552017N01213003EA0000000333
B1304595552090N01213033EA0000000325
B1305065552157N01212980EA0000000346
B1305115552171N01212901EA0000000353
B1305175552181N01212799EA0000000368
B1305235552235N01212771EA0000000370
B1305285552301N01212874EA0000000361
B1305335552332N01213055EA0000000359
B1305405552293N01213341EA0000000338
B1305455552207N01213475EA0000000329
B1305505552113N01213481EA0000000318
B1305575552056N01213368EA0000000345
B1306035552063N01213279EA0000000345
B1306085552089N01213223EA0000000334
B1306145552119N01213144EA0000000319
B1306225552134N01213023EA0000000325
B1306315552132N01212879EA0000000311
B1306375552129N01212783EA0000000321
B1306455552152N01212667EA0000000317
B1306515552166N01212578EA0000000329
B1306575552165N01212482EA0000000334
B1307025552142N01212409EA0000000353
B1307085552115N01212332EA0000000339
B1307145552095N01212252EA0000000343
B1307225552122N01212157EA0000000323
B1307275552172N01212144EA0000000336
B1307335552238N01212236EA0000000342
B1307395552299N01212406EA0000000331
B1307455552313N01212630EA0000000348
B1307515552277N01212841EA0000000347
B1307565552206N01212984EA0000000324
B1308035552086N01213047EA0000000319
B1308135551964N01212967EA0000000308
B1308195551918N01212895EA0000000295
B1308255551908N01212793EA0000000292
B1308305551922N01212719EA0000000298
B1308355551968N01212677EA0000000297
B1308405552038N01212691EA0000000319
B1308475552130N01212795EA0000000320
B1308525552177N01212953EA0000000320
B1308575552174N01213160EA0000000315
B1309045552097N01213434EA0000000311
B1309095552004N01213518EA0000000291
B1309145551948N01213448EA0000000290
B1309215551976N01213334EA0000000288
B1309275552016N01213242EA0000000283
B1309325552046N01213157EA0000000268
B1309385552070N01213045EA0000000253
B1309455552093N01212929EA0000000249
B1309515552118N01212841EA0000000236
B1309575552161N01212769EA0000000217
B1310025552220N01212753EA0000000218
B1310075552289N01212806EA0000000219
B1310125552351N01212939EA0000000209
B1310185552394N01213155EA0000000211
B1310255552393N01213449EA0000000200
B1310325552384N01213763EA0000000168
B1310375552394N01214009EA0000000158
B1310435552402N01214305EA0000000160
B1310505552434N01214615EA0000000157
B1310555552488N01214785EA0000000146
B1311035552615N01214934EA0000000139
B1311085552700N01215003EA0000000127
B1311165552836N01215062EA0000000121
B1311215552915N01215053EA0000000111
B1311285552969N01214935EA0000000101
B1311335552975N01214828EA0000000088
B1311395552986N01214707EA0000000073
B1311445552995N01214612EA0000000064
B1311495553005N01214508EA0000000053
B1311555553014N01214379EA0000000043
B1312015553022N01214253EA0000000032
B1312105553042N01214062EA0000000011
B1312195553060N01213886EA0000000010
B1312275553070N01213783EA0000000009
