AOGNOGN
HFDTE300725
HFFXA050
HFPLTPILOTINCHARGE:
HFGTYGLIDERTYPE:Discus
HFGIDGLIDERID:OY-XSU
HFDTM100GPSDATUM:WGS-1984
HFRFWFIRMWAREVERSION:
HFRHWHARDWAREVERSION:
HFFTYFRTYPE:OGN-FLIGHTBOOK
HFGPSGENERIC
HFPRSPRESSALTSENSOR:
HFCIDCOMPETITIONID:SU
B1122265600611N00900489EA0000000041
B1122305600618N00900554EA0000000041
B1122365600634N00900687EA0000000043
B1122425600653N00900858EA0000000045
B1122475600668N00901016EA0000000062
B1122535600687N00901186EA0000000093
B1122585600698N00901330EA0000000108
B1123055600718N00901541EA0000000126
B1123105600731N00901689EA0000000150
B1123155600751N00901837EA0000000165
B1123205600776N00901980EA0000000188
B1123255600808N00902117EA0000000203
B1123305600862N00902240EA0000000212
B1123355600938N00902339EA0000000229
B1123405601035N00902368EA0000000253
B1123455601127N00902318EA0000000280
B1123505601201N00902220EA0000000301
B1123565601264N00902061EA0000000320
B1124025601291N00901875EA0000000339
B1124075601284N00901719EA0000000359
B1124125601261N00901574EA0000000385
B1124175601239N00901427EA0000000403
B1124255601238N00901160EA0000000427
B1124305601277N00901000EA0000000446
B1124355601338N00900868EA0000000465
B1124415601402N00900708EA0000000487
B1124475601464N00900546EA0000000503
B1124525601491N00900425EA0000000512
B1124595601444N00900277EA0000000505
B1125045601396N00900176EA0000000496
B1125095601344N00900069EA0000000490
B1125165601267N00859930EA0000000497
B1125225601198N00859892EA0000000505
B1125275601208N00859999EA0000000499
B1125325601273N00859957EA0000000496
B1125375601253N00859850EA0000000504
B1125425601198N00859860EA0000000500
B1125475601222N00859965EA0000000497
B1125525601287N00859913EA0000000491
B1125575601264N00859791EA0000000489
B1126025601208N00859736EA0000000492
B1126075601181N00859827EA0000000495
B1126125601244N00859872EA0000000491
B1126175601270N00859756EA0000000490
B1126225601212N00859730EA0000000489
B1126275601207N00859841EA0000000493
B1126325601277N00859856EA0000000494
B1126375601293N00859739EA0000000490
B1126425601233N00859727EA0000000491
B1126475601244N00859837EA0000000492
B1126525601312N00859801EA0000000490
B1126585601276N00859689EA0000000492
B1127045601244N00859794EA0000000496
B1127095601311N00859826EA0000000492
B1127155601332N00859683EA0000000498
B1127205601272N00859647EA0000000499
B1127255601250N00859740EA0000000502
B1127305601315N00859772EA0000000493
B1127355601343N00859646EA0000000492
B1127415601275N00859604EA0000000499
B1127465601257N00859706EA0000000507
B1127515601317N00859760EA0000000503
B1127575601346N00859622EA0000000500
B1128025601288N00859582EA0000000509
B1128075601242N00859658EA0000000517
B1128125601186N00859666EA0000000513
B1128175601188N00859537EA0000000523
B1128225601260N00859504EA0000000535
B1128275601284N00859609EA0000000543
B1128325601227N00859631EA0000000543
B1128375601219N00859511EA0000000551
B1128425601286N00859467EA0000000557
B1128475601317N00859569EA0000000568
B1128525601266N00859616EA0000000570
B1128575601234N00859510EA0000000576
B1129025601296N00859435EA0000000584
B1129075601346N00859512EA0000000597
B1129125601310N00859585EA0000000602
B1129175601267N00859493EA0000000608
B1129225601314N00859401EA0000000616
B1129275601369N00859478EA0000000622
B1129325601336N00859572EA0000000631
B1129375601280N00859499EA0000000641
B1129425601307N00859375EA0000000649
B1129475601379N00859381EA0000000657
B1129525601384N00859497EA0000000664
B1129575601319N00859512EA0000000666
B1130035601307N00859358EA0000000682
B1130085601376N00859327EA0000000685
B1130135601409N00859434EA0000000695
B1130185601364N00859504EA0000000704
B1130235601315N00859422EA0000000708
B1130285601348N00859313EA0000000718
B1130335601413N00859340EA0000000725
B1130385601412N00859446EA0000000733
B1130435601351N00859448EA0000000735
B1130485601344N00859326EA0000000741
B1130535601410N00859292EA0000000744
B1130585601432N00859404EA0000000746
B1131035601372N00859449EA0000000752
B1131085601347N00859333EA0000000758
B1131135601409N00859271EA0000000768
B1131195601449N00859384EA0000000779
B1131255601387N00859429EA0000000776
B1131305601381N00859307EA0000000781
B1131355601453N00859264EA0000000792
B1131405601495N00859359EA0000000801
B1131465601469N00859491EA0000000808
B1131515601409N00859482EA0000000807
B1131565601402N00859356EA0000000810
B1132025601481N00859330EA0000000819
B1132075601494N00859441EA0000000818
B1132135601426N00859456EA0000000823
B1132185601414N00859335EA0000000824
B1132235601477N00859265EA0000000833
B1132285601537N00859326EA0000000837
B1132345601570N00859456EA0000000835
B1132395601567N00859566EA0000000835
B1132445601519N00859634EA0000000822
B1132515601423N00859652EA0000000821
B1132565601367N00859565EA0000000819
B1133015601336N00859443EA0000000835
B1133065601374N00859331EA0000000829
B1133115601453N00859346EA0000000837
B1133165601478N00859454EA0000000838
B1133215601419N00859495EA0000000842
B1133265601381N00859388EA0000000851
B1133315601427N00859283EA0000000854
B1133365601500N00859307EA0000000861
B1133415601512N00859415EA0000000861
B1133465601456N00859446EA0000000864
B1133515601419N00859341EA0000000869
B1133565601442N00859218EA0000000879
B1134015601510N00859195EA0000000879
B1134075601539N00859319EA0000000881
B1134125601502N00859398EA0000000887
B1134175601447N00859342EA0000000886
B1134225601448N00859218EA0000000892
B1134275601514N00859185EA0000000890
B1134325601562N00859270EA0000000897
B1134385601538N00859381EA0000000897
B1134435601478N00859336EA0000000898
B1134485601457N00859212EA0000000908
B1134535601507N00859124EA0000000905
B1134585601568N00859175EA0000000909
B1135035601571N00859286EA0000000914
B1135085601516N00859333EA0000000906
B1135145601442N00859253EA0000000917
B1135195601428N00859123EA0000000914
B1135245601484N00859019EA0000000912
B1135305601578N00859006EA0000000914
B1135355601622N00859093EA0000000917
B1135405601592N00859191EA0000000920
B1135455601525N00859208EA0000000916
B1135505601471N00859122EA0000000925
B1135555601486N00858992EA0000000923
B1136005601560N00858946EA0000000918
B1136055601608N00859031EA0000000917
B1136125601542N00859128EA0000000926
B1136185601481N00859046EA0000000929
B1136245601515N00858900EA0000000929
B1136295601586N00858879EA0000000927
B1136345601639N00858957EA0000000922
B1136405601663N00859102EA0000000917
B1136465601669N00859253EA0000000909
B1136535601669N00859448EA0000000883
B1137015601667N00859692EA0000000873
B1137085601671N00859902EA0000000848
B1137135601690N00900057EA0000000840
B1137185601707N00900206EA0000000839
B1137235601718N00900352EA0000000829
B1137325601733N00900628EA0000000809
B1137395601731N00900858EA0000000795
B1137465601712N00901057EA0000000829
B1137515601674N00901138EA0000000830
B1137565601622N00901065EA0000000819
B1138015601660N00900954EA0000000810
B1138065601731N00900976EA0000000818
B1138115601759N00901084EA0000000821
B1138165601755N00901211EA0000000814
B1138225601734N00901373EA0000000795
B1138275601714N00901510EA0000000793
B1138325601706N00901643EA0000000790
B1138375601699N00901785EA0000000787
B1138425601695N00901916EA0000000793
B1138475601699N00902044EA0000000786
B1138525601712N00902171EA0000000788
B1138585601751N00902305EA0000000789
B1139035601750N00902418EA0000000803
B1139095601679N00902435EA0000000809
B1139145601646N00902341EA0000000807
B1139195601705N00902276EA0000000810
B1139245601746N00902371EA0000000812
B1139305601693N00902438EA0000000827
B1139365601668N00902325EA0000000826
B1139415601732N00902264EA0000000829
B1139465601769N00902356EA0000000836
B1139515601721N00902395EA0000000841
B1139565601678N00902311EA0000000847
B1140015601633N00902222EA0000000842
B1140065601579N00902132EA0000000839
B1140115601525N00902024EA0000000836
B1140165601463N00901934EA0000000837
B1140215601391N00901944EA0000000837
B1140265601349N00902046EA0000000845
B1140315601380N00902158EA0000000854
B1140365601447N00902128EA0000000854
B1140415601447N00901997EA0000000860
B1140465601380N00901992EA0000000864
B1140515601379N00902110EA0000000870
B1140565601445N00902161EA0000000868
B1141015601496N00902070EA0000000879
B1141065601456N00901972EA0000000871
B1141115601400N00902044EA0000000872
B1141165601440N00902149EA0000000878
B1141225601533N00902135EA0000000892
B1141275601572N00902022EA0000000891
B1141325601550N00901889EA0000000890
B1141375601483N00901872EA0000000877
B1141425601474N00902007EA0000000866
B1141485601535N00902141EA0000000886
B1141545601614N00902112EA0000000892
B1141595601600N00901989EA0000000895
B1142045601536N00901995EA0000000891
B1142105601561N00902123EA0000000885
B1142155601624N00902057EA0000000887
B1142215601592N00901905EA0000000893
B1142265601548N00901811EA0000000894
B1142335601471N00901695EA0000000881
B1142425601356N00901540EA0000000889
B1142475601302N00901458EA0000000908
B1142525601337N00901356EA0000000897
B1142575601394N00901431EA0000000889
B1143025601342N00901494EA0000000891
B1143095601254N00901430EA0000000901
B1143145601177N00901401EA0000000886
B1143195601093N00901388EA0000000872
B1143295600915N00901386EA0000000857
B1143345600830N00901387EA0000000843
B1143395600736N00901402EA0000000829
B1143445600652N00901434EA0000000865
B1143495600576N00901433EA0000000870
B1143545600534N00901313EA0000000884
B1143595600585N00901207EA0000000896
B1144045600633N00901282EA0000000912
B1144095600576N00901330EA0000000919
B1144145600550N00901207EA0000000940
B1144205600621N00901162EA0000000955
B1144255600615N00901265EA0000000962
B1144305600551N00901213EA0000000976
B1144355600575N00901093EA0000000990
B1144405600630N00901142EA0000000997
B1144455600586N00901211EA0000001009
B1144515600552N00901078EA0000001030
B1144565600615N00901041EA0000001041
B1145015600615N00901139EA0000001047
B1145065600556N00901090EA0000001060
B1145115600587N00900974EA0000001075
B1145165600646N00901018EA0000001082
B1145215600622N00901108EA0000001093
B1145265600571N00901034EA0000001102
B1145315600613N00900932EA0000001110
B1145365600664N00900997EA0000001118
B1145415600627N00901069EA0000001125
B1145475600583N00900949EA0000001134
B1145525600636N00900871EA0000001139
B1145575600676N00900957EA0000001143
B1146025600637N00901030EA0000001152
B1146075600588N00900953EA0000001157
B1146125600614N00900838EA0000001172
B1146175600673N00900855EA0000001173
B1146225600662N00900946EA0000001173
B1146275600602N00900908EA0000001176
B1146325600610N00900781EA0000001181
B1146375600678N00900737EA0000001184
B1146425600725N00900810EA0000001187
B1146475600696N00900901EA0000001182
B1146525600630N00900857EA0000001185
B1146575600650N00900731EA0000001189
B1147025600720N00900734EA0000001198
B1147075600767N00900820EA0000001195
B1147125600795N00900928EA0000001199
B1147175600788N00901038EA0000001198
B1147225600739N00901114EA0000001203
B1147275600677N00901078EA0000001221
B1147325600665N00900957EA0000001230
B1147385600736N00900854EA0000001236
B1147445600818N00900745EA0000001225
B1147525600871N00900487EA0000001213
B1148035600881N00900113EA0000001204
B1148125600865N00859770EA0000001177
B1148185600862N00859524EA0000001165
B1148235600883N00859321EA0000001160
B1148295600928N00859094EA0000001154
B1148345600961N00858903EA0000001144
B1148425600993N00858585EA0000001133
B1148475600993N00858394EA0000001142
B1148555600994N00858101EA0000001168
B1149025601021N00857844EA0000001149
B1149075601054N00857646EA0000001138
B1149145601105N00857370EA0000001124
B1149225601171N00857070EA0000001115
B1149275601214N00856884EA0000001108
B1149335601267N00856661EA0000001096
B1149395601319N00856436EA0000001080
B1149445601369N00856253EA0000001072
B1149505601430N00856041EA0000001058
B1149575601508N00855798EA0000001028
B1150035601590N00855586EA0000001018
B1150085601661N00855429EA0000001022
B1150145601728N00855225EA0000001013
B1150195601772N00855051EA0000000997
B1150255601830N00854832EA0000000978
B1150305601881N00854653EA0000000983
B1150425601969N00854247EA0000000979
B1150495601993N00853995EA0000000974
B1150545602011N00853817EA0000000980
B1150595602026N00853659EA0000001001
B1151045602025N00853520EA0000001016
B1151095601988N00853404EA0000001020
B1151175601954N00853187EA0000001016
B1151225601947N00853030EA0000001013
B1151275601946N00852870EA0000001023
B1151325601937N00852709EA0000001020
B1151405601906N00852451EA0000001010
B1151475601891N00852229EA0000001014
B1151525601917N00852083EA0000001025
B1151585601964N00851922EA0000001027
B1152065601992N00851692EA0000001037
B1152115601991N00851545EA0000001019
B1152175601981N00851351EA0000001023
B1152245601969N00851140EA0000001023
B1152325601973N00850888EA0000001009
B1152385601989N00850697EA0000001001
B1152435602009N00850529EA0000000977
B1152485602035N00850357EA0000000970
B1152535602067N00850184EA0000000957
B1153015602129N00849912EA0000000945
B1153095602186N00849662EA0000000940
B1153145602219N00849498EA0000000932
B1153195602245N00849330EA0000000924
B1153255602272N00849124EA0000000908
B1153315602298N00848912EA0000000895
B1153365602319N00848734EA0000000887
B1153415602337N00848558EA0000000886
B1153495602355N00848282EA0000000882
B1153545602360N00848110EA0000000877
B1154015602361N00847866EA0000000883
B1154065602356N00847707EA0000000887
B1154115602350N00847552EA0000000887
B1154165602343N00847404EA0000000900
B1154215602333N00847260EA0000000895
B1154265602315N00847113EA0000000893
B1154315602292N00846968EA0000000902
B1154365602272N00846831EA0000000904
B1154425602262N00846638EA0000000888
B1154475602265N00846477EA0000000911
B1154525602273N00846333EA0000000898
B1154585602283N00846127EA0000000886
B1155045602298N00845918EA0000000880
B1155115602314N00845678EA0000000867
B1155205602334N00845358EA0000000863
B1155265602344N00845134EA0000000847
B1155315602351N00844955EA0000000849
B1155385602361N00844708EA0000000823
B1155435602371N00844517EA0000000811
B1155495602377N00844306EA0000000817
B1155575602384N00844023EA0000000813
B1156045602386N00843778EA0000000822
B1156125602387N00843524EA0000000825
B1156205602377N00843264EA0000000823
B1156255602368N00843108EA0000000830
B1156315602357N00842937EA0000000844
B1156395602418N00842750EA0000000819
B1156445602461N00842602EA0000000800
B1156525602520N00842348EA0000000780
B1156585602561N00842155EA0000000771
B1157045602598N00841955EA0000000759
B1157105602633N00841758EA0000000755
B1157345602774N00840962EA0000000717
B1157415602812N00840728EA0000000708
B1157475602845N00840528EA0000000708
B1157555602901N00840275EA0000000716
B1158335602981N00839780EA0000000791
B1158455602927N00839985EA0000000802
B1158565603029N00839851EA0000000822
B1159075602930N00839953EA0000000829
B1159215603023N00839837EA0000000847
B1159265602953N00839818EA0000000853
B1159325602928N00839962EA0000000860
B1159435603067N00839950EA0000000861
B1159485603059N00839799EA0000000873
B1159555602966N00839808EA0000000887
B1200035603038N00839932EA0000000897
B1200085603073N00839808EA0000000903
B1200135603020N00839707EA0000000919
B1200255602958N00839940EA0000000931
B1200345603070N00839859EA0000000934
B1200395603016N00839780EA0000000941
B1200455602998N00839908EA0000000946
B1200535603113N00839849EA0000000948
B1200585603118N00839699EA0000000952
B1201035603057N00839604EA0000000964
B1201105602984N00839723EA0000000968
B1201205603082N00839669EA0000000994
B1201295602989N00839707EA0000001012
B1201355603057N00839804EA0000001020
B1201405603115N00839703EA0000001039
B1201455603073N00839605EA0000001055
B1201525603048N00839733EA0000001058
B1202045603156N00839567EA0000001093
B1202185603144N00839689EA0000001108
B1202285603209N00839474EA0000001119
B1202335603143N00839427EA0000001122
B1205175602268N00844667EA0000000937
B1205245602254N00844864EA0000000935
B1205305602253N00845042EA0000000932
B1205355602260N00845194EA0000000920
B1205405602264N00845359EA0000000906
B1205455602266N00845526EA0000000903
B1205525602272N00845758EA0000000897
B1205575602276N00845924EA0000000894
B1206045602284N00846157EA0000000876
B1206105602292N00846365EA0000000877
B1206155602297N00846532EA0000000875
B1206235602293N00846799EA0000000869
B1206295602284N00847007EA0000000865
B1206375602267N00847280EA0000000844
B1207015602172N00848092EA0000000819
B1207125602134N00848447EA0000000824
B1207175602129N00848604EA0000000821
B1207245602131N00848832EA0000000844
B1208145601939N00850347EA0000000806
B1208225601916N00850591EA0000000833
B1208385601828N00851064EA0000000809
B1209225601556N00852340EA0000000822
B1209295601516N00852541EA0000000818
B1209515601429N00853133EA0000000842
B1209565601452N00853284EA0000000836
B1210015601487N00853439EA0000000830
B1210105601556N00853689EA0000000833
B1210185601626N00853908EA0000000834
B1210235601673N00854045EA0000000847
B1210295601726N00854199EA0000000870
B1210345601697N00854302EA0000000873
B1210395601641N00854239EA0000000872
B1210445601683N00854136EA0000000877
B1210505601767N00854204EA0000000881
B1210555601811N00854325EA0000000880
B1211025601867N00854511EA0000000863
B1211075601906N00854655EA0000000862
B1211135601953N00854818EA0000000881
B1211195601998N00854980EA0000000871
B1211265602057N00855177EA0000000865
B1211335602119N00855386EA0000000857
B1211405602184N00855598EA0000000858
B1211465602235N00855760EA0000000875
B1211515602272N00855887EA0000000887
B1211565602230N00855961EA0000000885
B1212025602213N00855823EA0000000886
B1212075602289N00855776EA0000000890
B1212125602344N00855865EA0000000896
B1212185602302N00855974EA0000000898
B1212235602252N00855900EA0000000903
B1212305602331N00855782EA0000000914
B1212355602380N00855866EA0000000920
B1212415602321N00855937EA0000000915
B1212465602295N00855822EA0000000929
B1212515602360N00855759EA0000000936
B1212565602397N00855860EA0000000936
B1213015602340N00855915EA0000000933
B1213065602304N00855802EA0000000941
B1213115602367N00855714EA0000000944
B1213165602418N00855811EA0000000943
B1213225602354N00855891EA0000000944
B1213285602320N00855754EA0000000959
B1213335602391N00855698EA0000000958
B1213395602429N00855828EA0000000965
B1213445602371N00855876EA0000000968
B1213495602333N00855770EA0000000977
B1213555602400N00855662EA0000000974
B1214005602455N00855753EA0000000981
B1214065602403N00855845EA0000000983
B1214115602347N00855771EA0000000991
B1214165602366N00855644EA0000000991
B1214215602443N00855618EA0000000995
B1214265602496N00855711EA0000000997
B1214315602523N00855842EA0000000980
B1214365602539N00855995EA0000000974
B1214435602550N00856218EA0000000956
B1214495602565N00856424EA0000000939
B1214565602588N00856664EA0000000937
B1215015602603N00856830EA0000000943
B1215065602622N00856989EA0000000946
B1215115602647N00857149EA0000000936
B1215175602680N00857346EA0000000922
B1215235602717N00857553EA0000000906
B1215295602755N00857760EA0000000898
B1215345602788N00857934EA0000000881
B1215435602851N00858262EA0000000866
B1215485602884N00858441EA0000000864
B1215535602917N00858610EA0000000860
B1215585602951N00858782EA0000000848
B1216045602991N00858980EA0000000856
B1216105603028N00859168EA0000000841
B1216165603067N00859366EA0000000825
B1216215603116N00859529EA0000000814
B1216345603264N00859894EA0000000813
B1216405603334N00900049EA0000000815
B1216475603421N00900228EA0000000800
B1216525603486N00900346EA0000000798
B1216595603593N00900513EA0000000778
B1217065603709N00900671EA0000000764
B1217125603809N00900792EA0000000754
B1217175603900N00900885EA0000000748
B1217225603986N00900964EA0000000764
B1217285604079N00901045EA0000000773
B1217345604170N00901132EA0000000768
B1217395604243N00901204EA0000000778
B1217445604310N00901273EA0000000779
B1217495604363N00901369EA0000000770
B1217545604427N00901474EA0000000747
B1218005604513N00901594EA0000000742
B1218065604600N00901711EA0000000733
B1218125604689N00901826EA0000000716
B1218175604760N00901930EA0000000716
B1218235604804N00902099EA0000000719
B1218295604826N00902279EA0000000723
B1218405604830N00902621EA0000000691
B1218465604843N00902812EA0000000694
B1218535604861N00903024EA0000000685
B1218585604870N00903179EA0000000685
B1219095604878N00903520EA0000000673
B1219145604886N00903677EA0000000683
B1219195604887N00903819EA0000000699
B1219245604824N00903860EA0000000718
B1219305604829N00903736EA0000000729
B1219355604874N00903810EA0000000730
B1219405604826N00903908EA0000000747
B1219465604777N00903812EA0000000742
B1219515604844N00903791EA0000000750
B1219565604837N00903916EA0000000765
B1220025604759N00903866EA0000000765
B1220075604782N00903740EA0000000773
B1220125604849N00903754EA0000000777
B1220175604871N00903878EA0000000793
B1220225604851N00903995EA0000000805
B1220285604778N00903955EA0000000797
B1220345604825N00903844EA0000000799
B1220415604879N00903973EA0000000814
B1220465604829N00904050EA0000000815
B1220525604793N00903932EA0000000812
B1220575604859N00903925EA0000000816
B1221025604884N00904039EA0000000832
B1221075604834N00904129EA0000000833
B1221125604781N00904061EA0000000837
B1221185604842N00903992EA0000000826
B1221235604878N00904108EA0000000847
B1221285604840N00904208EA0000000853
B1221345604781N00904111EA0000000852
B1221395604835N00904034EA0000000860
B1221455604878N00904160EA0000000873
B1221505604820N00904237EA0000000881
B1221555604770N00904147EA0000000882
B1222015604828N00904059EA0000000893
B1222065604881N00904145EA0000000904
B1222125604856N00904288EA0000000911
B1222175604790N00904256EA0000000920
B1222225604807N00904145EA0000000926
B1222275604870N00904177EA0000000937
B1222325604862N00904300EA0000000943
B1222385604786N00904282EA0000000949
B1222435604806N00904170EA0000000948
B1222485604873N00904203EA0000000956
B1222535604869N00904329EA0000000961
B1222585604798N00904333EA0000000968
B1223035604788N00904211EA0000000976
B1223085604852N00904206EA0000000980
B1223145604850N00904340EA0000000991
B1223195604785N00904320EA0000000998
B1223245604803N00904211EA0000001007
B1223305604863N00904280EA0000001015
B1223355604819N00904368EA0000001021
B1223405604765N00904286EA0000001027
B1223475604839N00904211EA0000001047
B1223525604856N00904322EA0000001052
B1223595604768N00904313EA0000001060
B1224045604790N00904193EA0000001073
B1224095604855N00904213EA0000001082
B1224145604843N00904329EA0000001089
B1224205604763N00904295EA0000001103
B1224255604782N00904187EA0000001116
B1224305604840N00904225EA0000001126
B1224355604868N00904348EA0000001120
B1224405604901N00904500EA0000001111
B1224475604958N00904736EA0000001118
B1224535605012N00904941EA0000001120
B1224585605065N00905121EA0000001115
B1225035605117N00905307EA0000001118
B1225095605182N00905547EA0000001095
B1225155605251N00905808EA0000001078
B1225205605319N00906026EA0000001070
B1225255605392N00906246EA0000001064
B1225325605499N00906561EA0000001046
B1225395605605N00906880EA0000001025
B1225445605673N00907104EA0000000997
B1225525605773N00907447EA0000000979
B1225575605833N00907639EA0000000979
B1226035605901N00907840EA0000000981
B1226085605957N00908000EA0000000976
B1226155606034N00908211EA0000000970
B1226225606111N00908430EA0000000939
B1226285606179N00908632EA0000000915
B1226335606237N00908797EA0000000905
B1226395606302N00908995EA0000000888
B1226495606408N00909308EA0000000876
B1226565606479N00909527EA0000000857
B1227015606532N00909679EA0000000853
B1227065606584N00909822EA0000000850
B1227245606762N00910334EA0000000814
B1227315606828N00910535EA0000000805
B1227365606872N00910675EA0000000800
B1227465606949N00910955EA0000000783
B1227535606997N00911154EA0000000774
B1227595607033N00911321EA0000000768
B1228045607060N00911462EA0000000760
B1228105607093N00911629EA0000000754
B1228155607115N00911764EA0000000756
B1228215607141N00911919EA0000000753
B1228265607165N00912048EA0000000744
B1228315607181N00912182EA0000000733
B1228365607189N00912320EA0000000723
B1228425607198N00912497EA0000000713
B1228485607210N00912667EA0000000711
B1228565607230N00912887EA0000000701
B1229055607273N00913133EA0000000686
B1229135607322N00913344EA0000000674
B1229185607353N00913481EA0000000668
B1229235607383N00913613EA0000000663
B1229315607428N00913823EA0000000658
B1229365607452N00913955EA0000000646
B1229425607470N00914122EA0000000639
B1229515607497N00914379EA0000000624
B1229575607521N00914549EA0000000619
B1230025607537N00914680EA0000000618
B1230095607557N00914865EA0000000607
B1230165607567N00915061EA0000000598
B1230225607574N00915234EA0000000583
B1230275607579N00915381EA0000000580
B1230345607565N00915580EA0000000567
B1230525607488N00916074EA0000000545
B1231015607430N00916303EA0000000539
B1231115607364N00916559EA0000000523
B1231185607316N00916733EA0000000514
B1231255607260N00916909EA0000000503
B1231315607214N00917054EA0000000502
B1231375607172N00917198EA0000000495
B1231495607094N00917507EA0000000478
B1232095607088N00918027EA0000000466
B1232255607346N00918235EA0000000441
B1233065607985N00918717EA0000000421
B1233315608398N00918905EA0000000403
