AOGNOGN
HFDTE300725
HFFXA050
HFPLTPILOTINCHARGE:
HFGTYGLIDERTYPE:PA-25 Pawnee
HFGIDGLIDERID:LN-EIC
HFDTM100GPSDATUM:WGS-1984
HFRFWFIRMWAREVERSION:
HFRHWHARDWAREVERSION:
HFFTYFRTYPE:OGN-FLIGHTBOOK
HFGPSGENERIC
HFPRSPRESSALTSENSOR:
HFCIDCOMPETITIONID:IC
B1122275600618N00900546EA0000000037
B1122315600625N00900615EA0000000036
B1122365600638N00900730EA0000000037
B1122435600659N00900932EA0000000043
B1122485600675N00901089EA0000000070
B1122535600690N00901232EA0000000095
B1122585600702N00901376EA0000000108
B1123035600716N00901526EA0000000120
B1123105600735N00901736EA0000000149
B1123165600762N00901911EA0000000171
B1123235600802N00902108EA0000000199
B1123305600878N00902277EA0000000212
B1123355600960N00902362EA0000000227
B1123405601059N00902368EA0000000252
B1123455601149N00902300EA0000000281
B1123505601220N00902192EA0000000304
B1123575601282N00901990EA0000000325
B1124025601295N00901830EA0000000342
B1124075601280N00901675EA0000000362
B1124145601247N00901470EA0000000397
B1124215601230N00901250EA0000000415
B1124295601277N00900990EA0000000440
B1124345601341N00900857EA0000000461
B1124415601416N00900669EA0000000488
B1124485601486N00900467EA0000000508
B1124535601569N00900358EA0000000514
B1124585601675N00900357EA0000000505
B1125035601757N00900476EA0000000485
B1125085601790N00900660EA0000000462
B1125135601807N00900859EA0000000438
B1125185601798N00901071EA0000000392
B1125245601725N00901312EA0000000364
B1125295601629N00901463EA0000000347
B1125345601512N00901528EA0000000324
B1125395601389N00901490EA0000000303
B1125445601286N00901348EA0000000273
B1125495601240N00901123EA0000000245
B1125545601227N00900893EA0000000232
B1125595601218N00900679EA0000000216
B1126065601184N00900410EA0000000193
B1126115601140N00900245EA0000000178
B1126185601062N00900046EA0000000153
B1126235600987N00859967EA0000000139
B1126305600871N00859928EA0000000110
B1126375600753N00859955EA0000000081
B1126425600686N00900042EA0000000064
B1126495600652N00900229EA0000000039
B1126555600653N00900383EA0000000032
B1127005600656N00900482EA0000000033
B1127075600652N00900578EA0000000034
