AOGNOGN
HFDTE200625
HFFXA050
HFPLTPILOTINCHARGE:
HFGTYGLIDERTYPE:ASK-21
HFGIDGLIDERID:OY-XVC
HFDTM100GPSDATUM:WGS-1984
HFRFWFIRMWAREVERSION:
HFRHWHARDWAREVERSION:
HFFTYFRTYPE:OGN-FLIGHTBOOK
HFGPSGENERIC
HFPRSPRESSALTSENSOR:
HFCIDCOMPETITIONID:VC
B1524135553082N01213891EA0000000015
B1524135553082N01213891EA0000000015
B1524225553105N01213667EA0000000018
B1524275553121N01213522EA0000000033
B1524325553137N01213372EA0000000044
B1524395553170N01213172EA0000000080
B1524455553209N01213029EA0000000109
B1524505553263N01212931EA0000000117
B1524565553351N01212862EA0000000133
B1525015553435N01212840EA0000000144
B1525075553533N01212803EA0000000164
B1525135553624N01212735EA0000000179
B1525185553688N01212645EA0000000195
B1525305553780N01212366EA0000000234
B1525355553800N01212236EA0000000250
B1525405553819N01212106EA0000000266
B1525495553848N01211863EA0000000290
B1525585553869N01211599EA0000000310
B1526045553878N01211425EA0000000332
B1526095553902N01211288EA0000000348
B1526215554006N01211015EA0000000398
B1526275554069N01210887EA0000000420
B1526325554122N01210782EA0000000444
B1526385554185N01210656EA0000000466
B1526455554256N01210505EA0000000476
B1526525554326N01210343EA0000000488
B1526595554399N01210187EA0000000503
B1527085554476N01209981EA0000000528
B1527425554433N01209136EA0000000597
B1527485554344N01209054EA0000000616
B1527535554264N01209000EA0000000634
B1527585554179N01208953EA0000000652
B1528045554073N01208912EA0000000669
B1528125553933N01208884EA0000000693
B1528195553809N01208855EA0000000711
B1528245553720N01208864EA0000000723
B1528295553633N01208915EA0000000734
B1528405553483N01209153EA0000000765
B1528545553377N01209548EA0000000804
B1529105553257N01209847EA0000000783
B1529155553191N01209812EA0000000777
B1529225553103N01209754EA0000000779
B1529315553031N01209606EA0000000771
B1529375553048N01209475EA0000000781
B1529455553112N01209378EA0000000778
B1529505553156N01209474EA0000000782
B1529575553119N01209645EA0000000788
B1530025553049N01209677EA0000000787
B1530325552971N01209055EA0000000781
B1530395552975N01208912EA0000000773
B1530485552981N01208733EA0000000767
B1531035552989N01208418EA0000000755
B1531145552988N01208210EA0000000768
B1531265552990N01207992EA0000000721
B1531445553155N01208190EA0000000715
B1531515553174N01208379EA0000000706
B1532005553197N01208618EA0000000704
B1532105553220N01208884EA0000000712
B1532225553258N01209194EA0000000712
B1532285553278N01209351EA0000000708
B1532345553297N01209513EA0000000710
B1532405553312N01209673EA0000000720
B1532525553346N01209980EA0000000716
B1533005553367N01210181EA0000000716
B1533085553385N01210380EA0000000731
B1533155553411N01210554EA0000000718
B1533255553462N01210823EA0000000708
B1533315553496N01210986EA0000000706
B1533385553538N01211166EA0000000700
B1533455553585N01211342EA0000000693
B1533535553644N01211537EA0000000689
B1533595553693N01211677EA0000000684
B1534075553762N01211853EA0000000675
B1534125553795N01211978EA0000000667
B1534175553785N01212120EA0000000659
B1534225553735N01212236EA0000000661
B1534275553678N01212347EA0000000659
B1534325553610N01212416EA0000000652
B1534395553520N01212335EA0000000635
B1534445553467N01212248EA0000000631
B1534505553405N01212149EA0000000624
B1534575553366N01212011EA0000000615
B1535025553360N01211910EA0000000606
B1535075553357N01211805EA0000000596
B1535175553343N01211601EA0000000592
B1535235553335N01211486EA0000000585
B1535285553328N01211366EA0000000545
B1535355553312N01211112EA0000000491
B1535425553293N01210970EA0000000576
B1536065553275N01210498EA0000000554
B1536145553380N01210579EA0000000561
B1536205553395N01210742EA0000000563
B1536285553389N01210972EA0000000552
B1536345553371N01211136EA0000000561
B1536395553357N01211266EA0000000559
B1536485553334N01211498EA0000000552
B1536565553305N01211702EA0000000538
B1537015553285N01211828EA0000000531
B1537065553246N01211942EA0000000517
B1537115553173N01211962EA0000000505
B1537165553118N01211877EA0000000515
B1537225553077N01211764EA0000000516
B1537285553037N01211660EA0000000515
B1537335552978N01211614EA0000000511
B1537395552905N01211707EA0000000509
B1537455552882N01211884EA0000000507
B1537535552887N01212123EA0000000511
B1538025552902N01212374EA0000000520
B1538075552913N01212500EA0000000512
B1538135552929N01212654EA0000000507
B1538205552945N01212840EA0000000505
B1538265552945N01213010EA0000000490
B1538315552909N01213141EA0000000484
B1538365552843N01213223EA0000000475
B1538415552776N01213199EA0000000461
B1538475552822N01213137EA0000000449
B1538525552835N01213275EA0000000439
B1538575552804N01213431EA0000000433
B1539045552765N01213636EA0000000427
B1539095552718N01213766EA0000000418
B1539165552617N01213864EA0000000414
B1539215552543N01213863EA0000000414
B1539265552483N01213804EA0000000420
B1539325552449N01213685EA0000000426
B1539385552455N01213557EA0000000431
B1539445552497N01213443EA0000000432
B1539525552566N01213295EA0000000438
B1539575552611N01213200EA0000000441
B1540055552682N01213051EA0000000442
B1540155552768N01212880EA0000000436
B1540205552804N01212787EA0000000431
B1540255552799N01212675EA0000000429
B1540305552746N01212587EA0000000430
B1540355552667N01212567EA0000000434
B1540415552571N01212612EA0000000431
B1540465552491N01212633EA0000000426
B1540535552395N01212568EA0000000418
B1540595552348N01212445EA0000000419
B1541045552338N01212328EA0000000416
B1541135552341N01212110EA0000000410
B1541215552362N01211942EA0000000412
B1541265552426N01211961EA0000000408
B1541315552471N01212084EA0000000402
B1541365552487N01212245EA0000000395
B1541425552496N01212447EA0000000391
B1541485552483N01212648EA0000000387
B1541535552469N01212809EA0000000382
B1541595552451N01213000EA0000000371
B1542075552420N01213249EA0000000363
B1542195552376N01213601EA0000000349
B1542245552346N01213738EA0000000344
B1542295552284N01213824EA0000000340
B1542365552182N01213823EA0000000337
B1542415552125N01213754EA0000000335
B1542475552093N01213620EA0000000329
B1542535552110N01213476EA0000000318
B1542585552150N01213373EA0000000312
B1543035552196N01213276EA0000000303
B1543095552253N01213166EA0000000288
B1543215552381N01212957EA0000000270
B1543265552454N01212905EA0000000263
B1543355552598N01212977EA0000000255
B1543405552650N01213103EA0000000247
B1543455552664N01213262EA0000000245
B1543535552657N01213501EA0000000267
B1543595552635N01213671EA0000000269
B1544055552607N01213840EA0000000267
B1544115552583N01214007EA0000000253
B1544185552563N01214208EA0000000228
B1544265552549N01214449EA0000000208
B1544315552552N01214603EA0000000202
B1544375552591N01214771EA0000000192
B1544435552649N01214916EA0000000189
B1544525552735N01215113EA0000000178
B1545005552824N01215267EA0000000156
B1545055552892N01215288EA0000000145
B1545105552932N01215202EA0000000134
B1545195552954N01214988EA0000000114
B1545285552976N01214778EA0000000088
B1545385553001N01214541EA0000000062
B1545435553014N01214421EA0000000048
B1545585553055N01214073EA0000000017
B1546045553067N01213963EA0000000014
