AOGNOGN
HFDTE250625
HFFXA050
HFPLTPILOTINCHARGE:
HFGTYGLIDERTYPE:PA-25 Pawnee
HFGIDGLIDERID:OY-CYP
HFDTM100GPSDATUM:WGS-1984
HFRFWFIRMWAREVERSION:
HFRHWHARDWAREVERSION:
HFFTYFRTYPE:OGN-FLIGHTBOOK
HFGPSGENERIC
HFPRSPRESSALTSENSOR:
HFCIDCOMPETITIONID:YP
B1449595553092N01213931EA0000000017
B1450035553097N01213858EA0000000018
B1450105553110N01213689EA0000000028
B1450155553122N01213562EA0000000051
B1450205553134N01213442EA0000000073
B1450265553146N01213301EA0000000095
B1450335553162N01213135EA0000000118
B1450425553195N01212928EA0000000153
B1450475553243N01212841EA0000000170
B1450535553321N01212778EA0000000185
B1450585553396N01212755EA0000000194
B1451055553504N01212732EA0000000212
B1451115553593N01212709EA0000000230
B1451205553730N01212680EA0000000258
B1451285553852N01212661EA0000000286
B1451355553965N01212653EA0000000311
B1451405554050N01212656EA0000000339
B1451455554136N01212665EA0000000360
B1451525554247N01212684EA0000000387
B1452055554458N01212717EA0000000444
B1452135554578N01212684EA0000000489
B1452185554642N01212608EA0000000510
B1452305554703N01212311EA0000000566
B1452355554689N01212179EA0000000585
B1452415554668N01212026EA0000000607
B1452485554647N01211855EA0000000628
B1452545554628N01211709EA0000000648
B1452595554617N01211591EA0000000669
B1453055554632N01211451EA0000000680
B1453105554723N01211458EA0000000626
B1453155554813N01211647EA0000000558
B1453205554836N01211947EA0000000521
B1453265554788N01212299EA0000000515
B1453335554689N01212651EA0000000502
B1453395554592N01212920EA0000000471
B1453445554500N01213128EA0000000430
B1453515554356N01213407EA0000000389
B1454025554120N01213806EA0000000328
B1454085553994N01214015EA0000000291
B1454185553778N01214283EA0000000239
B1454255553624N01214355EA0000000213
B1454305553517N01214364EA0000000173
B1454385553347N01214360EA0000000123
B1454435553251N01214332EA0000000096
B1454485553177N01214252EA0000000071
B1454565553128N01214057EA0000000029
B1455055553129N01213861EA0000000017
