AOGNOGN
HFDTE250625
HFFXA050
HFPLTPILOTINCHARGE:
HFGTYGLIDERTYPE:ASK-21
HFGIDGLIDERID:OY-XKI
HFDTM100GPSDATUM:WGS-1984
HFRFWFIRMWAREVERSION:
HFRHWHARDWAREVERSION:
HFFTYFRTYPE:OGN-FLIGHTBOOK
HFGPSGENERIC
HFPRSPRESSALTSENSOR:
HFCIDCOMPETITIONID:KI
B1545165553086N01213896EA0000000018
B1545165553086N01213896EA0000000018
B1545255553109N01213676EA0000000024
B1545315553127N01213513EA0000000042
B1545375553144N01213353EA0000000064
B1545425553156N01213222EA0000000083
B1545475553171N01213101EA0000000107
B1545545553222N01212957EA0000000130
B1546025553315N01212833EA0000000169
B1546085553388N01212745EA0000000190
B1546215553553N01212564EA0000000237
B1546335553674N01212356EA0000000287
B1546385553697N01212242EA0000000305
B1546455553695N01212068EA0000000334
B1546555553672N01211835EA0000000373
B1547075553644N01211563EA0000000404
B1547175553616N01211339EA0000000425
B1547275553590N01211112EA0000000442
B1547465553549N01210678EA0000000476
B1548025553594N01210336EA0000000504
B1548095553713N01210335EA0000000508
B1548145553799N01210446EA0000000517
B1548195553868N01210594EA0000000536
B1548315553974N01211008EA0000000575
B1548365554009N01211187EA0000000589
B1548435554058N01211439EA0000000608
B1548485554090N01211624EA0000000619
B1548555554132N01211873EA0000000641
B1549025554195N01212033EA0000000645
B1549095554274N01212099EA0000000638
B1549155554338N01212172EA0000000629
B1549225554404N01212314EA0000000634
B1549285554459N01212436EA0000000630
B1549345554519N01212558EA0000000620
B1549415554602N01212653EA0000000619
B1549465554656N01212642EA0000000621
B1549515554663N01212560EA0000000621
B1549565554607N01212520EA0000000627
B1550025554539N01212627EA0000000625
B1550095554589N01212764EA0000000613
B1550145554596N01212691EA0000000609
B1550205554537N01212641EA0000000619
B1550275554447N01212672EA0000000604
B1550355554341N01212803EA0000000606
B1550415554269N01212896EA0000000607
B1550475554195N01212998EA0000000603
B1550525554133N01213085EA0000000597
B1550585554068N01213220EA0000000596
B1551045554046N01213394EA0000000587
B1551105554071N01213550EA0000000577
B1551235554210N01213709EA0000000547
B1551285554270N01213711EA0000000544
B1551335554316N01213673EA0000000547
B1551405554370N01213622EA0000000559
B1551455554374N01213561EA0000000553
B1551525554289N01213627EA0000000548
B1551585554314N01213775EA0000000544
B1552035554355N01213742EA0000000538
B1552095554363N01213657EA0000000543
B1552155554378N01213588EA0000000539
B1552205554415N01213558EA0000000534
B1552295554502N01213534EA0000000531
B1552345554546N01213512EA0000000530
B1552475554655N01213443EA0000000527
B1552525554705N01213493EA0000000536
B1552575554714N01213625EA0000000533
B1553045554637N01213716EA0000000540
B1553145554682N01213650EA0000000555
B1553195554689N01213779EA0000000545
B1553245554629N01213851EA0000000563
B1553295554582N01213812EA0000000553
B1553435554657N01213847EA0000000558
B1553485554611N01213963EA0000000562
B1553535554552N01213940EA0000000571
B1554005554586N01213870EA0000000571
B1554065554627N01213987EA0000000569
B1554115554586N01214113EA0000000573
B1554165554521N01214112EA0000000577
B1554235554540N01214032EA0000000581
B1554285554579N01214125EA0000000579
B1554335554559N01214266EA0000000586
B1554405554464N01214335EA0000000588
B1554455554437N01214258EA0000000589
B1554505554475N01214208EA0000000589
B1554555554521N01214261EA0000000589
B1555025554487N01214442EA0000000581
B1555095554380N01214463EA0000000578
B1555145554342N01214384EA0000000580
B1555205554361N01214307EA0000000581
B1555285554430N01214275EA0000000581
B1555355554491N01214253EA0000000578
B1555405554537N01214229EA0000000574
B1555465554588N01214194EA0000000576
B1555575554678N01214114EA0000000575
B1556025554715N01214080EA0000000576
B1556105554775N01214029EA0000000563
B1556315554992N01214122EA0000000538
B1556385555051N01214098EA0000000538
B1556435555074N01214038EA0000000537
B1556485555087N01213965EA0000000532
B1556545555086N01213875EA0000000542
B1557005555034N01213818EA0000000540
B1557075554957N01213957EA0000000538
B1557125554989N01214073EA0000000532
B1557175555030N01214032EA0000000531
B1557245555002N01213942EA0000000539
B1557315554953N01213851EA0000000538
B1557365554904N01213811EA0000000539
B1557415554838N01213859EA0000000533
B1557465554795N01213987EA0000000532
B1557535554837N01214126EA0000000520
B1557585554872N01214087EA0000000522
B1558035554841N01214036EA0000000517
B1558085554771N01214034EA0000000508
B1558135554698N01214025EA0000000491
B1558325554470N01213796EA0000000449
B1558425554370N01213646EA0000000443
B1558485554343N01213538EA0000000433
B1558565554298N01213412EA0000000431
B1559015554260N01213342EA0000000423
B1559075554213N01213255EA0000000424
B1559135554166N01213173EA0000000420
B1559185554131N01213103EA0000000411
B1559245554087N01213022EA0000000398
B1559305554042N01212937EA0000000387
B1559385553983N01212821EA0000000374
B1559445553937N01212729EA0000000374
B1559495553905N01212659EA0000000375
B1559575553851N01212550EA0000000354
B1600035553794N01212493EA0000000350
B1600085553738N01212478EA0000000343
B1600135553674N01212537EA0000000336
B1600195553632N01212695EA0000000329
B1600245553639N01212843EA0000000321
B1600315553679N01213033EA0000000314
B1600405553765N01213062EA0000000297
B1600455553746N01212995EA0000000293
B1600515553665N01213031EA0000000282
B1600575553621N01213199EA0000000277
B1601025553653N01213326EA0000000267
B1601075553705N01213325EA0000000259
B1601145553683N01213227EA0000000251
B1601215553582N01213221EA0000000231
B1601265553497N01213239EA0000000216
B1601315553410N01213290EA0000000219
B1601365553359N01213427EA0000000220
B1601415553371N01213587EA0000000213
B1601485553450N01213648EA0000000201
B1601545553418N01213565EA0000000176
B1601595553336N01213640EA0000000166
B1602055553310N01213851EA0000000167
B1602105553311N01214021EA0000000154
B1602165553331N01214230EA0000000142
B1602225553320N01214443EA0000000142
B1602275553251N01214555EA0000000137
B1602345553126N01214601EA0000000129
B1602395553044N01214561EA0000000125
B1602445553008N01214454EA0000000107
B1602505553012N01214315EA0000000073
B1602565553025N01214180EA0000000041
B1603025553042N01214050EA0000000019
B1603075553054N01213964EA0000000017
