AOGNOGN
HFDTE250625
HFFXA050
HFPLTPILOTINCHARGE:
HFGTYGLIDERTYPE:ASW-24
HFGIDGLIDERID:OY-XVS
HFDTM100GPSDATUM:WGS-1984
HFRFWFIRMWAREVERSION:
HFRHWHARDWAREVERSION:
HFFTYFRTYPE:OGN-FLIGHTBOOK
HFGPSGENERIC
HFPRSPRESSALTSENSOR:
HFCIDCOMPETITIONID:VS
B1441375553092N01213903EA0000000016
B1441375553092N01213903EA0000000016
B1441435553104N01213755EA0000000018
B1441515553132N01213543EA0000000049
B1441585553165N01213360EA0000000077
B1442035553185N01213236EA0000000106
B1442085553205N01213130EA0000000134
B1442135553224N01213023EA0000000155
B1442205553208N01212868EA0000000185
B1442255553159N01212772EA0000000197
B1442305553084N01212706EA0000000211
B1442375552952N01212672EA0000000234
B1442425552851N01212677EA0000000254
B1442485552726N01212719EA0000000280
B1442565552562N01212780EA0000000307
B1443075552333N01212876EA0000000330
B1443125552229N01212929EA0000000353
B1443195552083N01213007EA0000000385
B1443245551976N01213063EA0000000397
B1443295551871N01213115EA0000000413
B1443355551745N01213175EA0000000431
B1443435551582N01213169EA0000000455
B1443495551483N01213092EA0000000472
B1443565551401N01212963EA0000000508
B1444035551350N01212800EA0000000544
B1444115551315N01212603EA0000000599
B1444355551151N01212206EA0000000670
B1444405551067N01212259EA0000000668
B1444575550870N01212240EA0000000668
B1445035550920N01212211EA0000000662
B1445085550967N01212314EA0000000658
B1445215551033N01212741EA0000000661
B1445265551060N01212886EA0000000673
B1445355551047N01213148EA0000000678
B1445405550972N01213182EA0000000675
B1446085550900N01213214EA0000000691
B1446225550804N01213479EA0000000699
B1446275550777N01213398EA0000000701
B1446325550832N01213403EA0000000705
B1446455550735N01213672EA0000000717
B1446505550709N01213593EA0000000721
B1447065550682N01213840EA0000000733
B1447155550674N01213732EA0000000732
B1447345550572N01214012EA0000000741
B1447395550522N01213939EA0000000740
B1447485550518N01213784EA0000000724
B1447545550518N01213656EA0000000708
B1448015550521N01213517EA0000000718
B1448115550521N01213327EA0000000700
B1448295550523N01212963EA0000000682
B1448485550537N01212589EA0000000675
B1449015550550N01212360EA0000000649
B1449065550570N01212277EA0000000634
B1449125550629N01212217EA0000000625
B1449215550712N01212140EA0000000613
B1449315550797N01212023EA0000000602
B1449405550883N01211923EA0000000588
B1449465550946N01211855EA0000000591
B1449545551026N01211796EA0000000602
B1449595551076N01211759EA0000000598
B1450115551182N01211671EA0000000585
B1450195551254N01211613EA0000000589
B1450295551323N01211517EA0000000581
B1450395551398N01211413EA0000000582
B1450465551468N01211421EA0000000582
B1451015551354N01211685EA0000000605
B1451075551394N01211641EA0000000604
B1451225551289N01211864EA0000000622
B1451285551338N01211848EA0000000625
B1451405551239N01212043EA0000000639
B1451455551252N01211968EA0000000636
B1452015551212N01212221EA0000000659
B1452235551131N01212386EA0000000689
B1452385551158N01212556EA0000000702
B1452455551062N01212540EA0000000702
B1452525551113N01212511EA0000000711
B1453065551000N01212690EA0000000716
B1453115551016N01212630EA0000000720
B1453325550933N01212987EA0000000724
B1453395550902N01212876EA0000000720
B1453465550921N01212760EA0000000703
B1453525550954N01212673EA0000000702
B1453575550981N01212607EA0000000706
B1454025551013N01212542EA0000000705
B1454075551047N01212480EA0000000712
B1455085551226N01211397EA0000000659
B1455135551278N01211421EA0000000671
B1455345551061N01211708EA0000000658
B1455435551135N01211651EA0000000652
B1455555551099N01211963EA0000000649
B1456065550927N01212019EA0000000641
B1456115550941N01211951EA0000000640
B1456265550918N01212273EA0000000619
B1456415550756N01212073EA0000000600
B1456465550782N01211997EA0000000593
B1456535550865N01212072EA0000000593
B1457035550981N01212234EA0000000577
B1457095551049N01212327EA0000000570
B1457145551109N01212408EA0000000560
B1457205551158N01212568EA0000000559
B1457275551227N01212756EA0000000548
B1457335551293N01212906EA0000000558
B1457415551320N01213153EA0000000565
B1457465551253N01213179EA0000000566
B1457545551295N01213110EA0000000551
B1458045551320N01213399EA0000000554
B1458115551214N01213420EA0000000557
B1458165551207N01213341EA0000000558
B1458245551290N01213450EA0000000555
B1458385551184N01213791EA0000000543
B1458435551139N01213703EA0000000548
B1458485551170N01213648EA0000000555
B1458595551235N01213946EA0000000543
B1459055551141N01214009EA0000000540
B1459115551096N01213909EA0000000544
B1459165551079N01213822EA0000000543
B1459225551130N01213796EA0000000536
B1459285551148N01213972EA0000000527
B1459335551081N01214057EA0000000520
B1459395551056N01213988EA0000000510
B1459465551119N01213927EA0000000491
B1459535551196N01213889EA0000000477
B1459595551265N01213848EA0000000467
B1500065551348N01213795EA0000000453
B1500135551421N01213711EA0000000446
B1500195551470N01213650EA0000000442
B1500315551564N01213475EA0000000427
B1500375551613N01213388EA0000000432
B1500435551675N01213454EA0000000442
B1500525551575N01213591EA0000000433
B1500575551557N01213501EA0000000437
B1501095551629N01213666EA0000000443
B1501145551552N01213703EA0000000440
B1501215551562N01213596EA0000000445
B1501295551630N01213530EA0000000450
B1501385551693N01213460EA0000000443
B1501435551728N01213428EA0000000440
B1501485551757N01213381EA0000000432
B1501555551789N01213307EA0000000434
B1502015551815N01213234EA0000000427
B1502065551846N01213176EA0000000418
B1502205551815N01213430EA0000000433
B1502255551790N01213365EA0000000436
B1502315551845N01213407EA0000000433
B1502425551758N01213610EA0000000436
B1502475551746N01213533EA0000000444
B1502525551791N01213544EA0000000443
B1503055551751N01213878EA0000000456
B1503105551722N01213813EA0000000454
B1503205551774N01213984EA0000000473
B1503255551703N01214039EA0000000468
B1503305551678N01213955EA0000000467
B1503375551749N01213997EA0000000477
B1503455551683N01214188EA0000000482
B1503505551637N01214116EA0000000491
B1503555551673N01214079EA0000000499
B1504025551698N01214262EA0000000515
B1504075551630N01214341EA0000000518
B1504125551594N01214269EA0000000517
B1504175551640N01214248EA0000000526
B1504245551664N01214437EA0000000539
B1504295551592N01214519EA0000000541
B1504355551552N01214440EA0000000545
B1504455551614N01214605EA0000000565
B1504505551542N01214691EA0000000568
B1504555551491N01214631EA0000000570
B1505065551578N01214700EA0000000588
B1505135551511N01214864EA0000000602
B1505185551466N01214805EA0000000599
B1505235551501N01214762EA0000000609
B1505375551460N01215049EA0000000626
B1505425551407N01214990EA0000000630
B1505475551430N01214930EA0000000636
B1506005551437N01215236EA0000000647
B1506055551365N01215228EA0000000652
B1506105551371N01215151EA0000000650
B1506275551335N01215504EA0000000667
B1506325551281N01215447EA0000000667
B1506375551304N01215378EA0000000669
B1506445551364N01215486EA0000000683
B1506515551294N01215645EA0000000691
B1506565551240N01215598EA0000000692
B1507125551240N01215807EA0000000699
B1507175551182N01215759EA0000000710
B1507225551198N01215701EA0000000711
B1507355551165N01215951EA0000000713
B1507405551107N01215893EA0000000720
B1507515551168N01215967EA0000000720
B1507565551110N01216093EA0000000726
B1508015551053N01216054EA0000000722
B1508085551067N01215918EA0000000703
B1508165551083N01215773EA0000000703
B1508225551094N01215665EA0000000686
B1508275551101N01215569EA0000000674
B1508385551116N01215346EA0000000660
B1508445551117N01215221EA0000000650
B1508515551109N01215061EA0000000640
B1509005551086N01214877EA0000000620
B1509055551075N01214771EA0000000600
B1509115551078N01214636EA0000000593
B1509165551086N01214543EA0000000607
B1509225551092N01214434EA0000000606
B1509335551060N01214229EA0000000609
B1509385550978N01214291EA0000000615
B1509435550979N01214461EA0000000611
B1509495551060N01214492EA0000000617
B1509565550993N01214427EA0000000624
B1510015550945N01214585EA0000000632
B1510065551000N01214704EA0000000639
B1510165550974N01214588EA0000000640
B1510235550863N01214721EA0000000653
B1510285550877N01214884EA0000000664
B1510405550890N01214842EA0000000665
B1510455550848N01215000EA0000000682
B1510525550926N01215061EA0000000686
B1510575550951N01214967EA0000000686
B1511035550980N01214857EA0000000686
B1511085550997N01214765EA0000000682
B1511135551009N01214666EA0000000677
B1511195551021N01214543EA0000000674
B1511245551035N01214443EA0000000678
B1511315551055N01214305EA0000000678
B1511405550992N01214177EA0000000683
B1511505551011N01214420EA0000000685
B1512055550921N01214452EA0000000698
B1512105550959N01214581EA0000000703
B1512235550933N01214548EA0000000709
B1512285550914N01214709EA0000000709
B1512445550897N01214709EA0000000722
B1512495550868N01214864EA0000000721
B1512555550927N01214957EA0000000724
B1513055550862N01214873EA0000000727
B1513125550841N01215084EA0000000726
B1513305550793N01215002EA0000000734
B1513355550758N01215148EA0000000734
B1513405550808N01215245EA0000000730
B1513525550742N01215160EA0000000736
B1513585550697N01215339EA0000000738
B1514035550742N01215453EA0000000737
B1514095550798N01215425EA0000000735
B1514155550830N01215322EA0000000733
B1514255550748N01215229EA0000000730
B1514315550708N01215402EA0000000726
B1514365550754N01215518EA0000000716
B1514425550821N01215652EA0000000722
B1514475550880N01215752EA0000000724
B1514545550965N01215880EA0000000731
B1514595551024N01215970EA0000000730
B1515065551112N01216090EA0000000718
B1515115551171N01216176EA0000000713
B1515205551271N01216342EA0000000690
B1515285551364N01216484EA0000000679
B1515405551517N01216662EA0000000665
B1515455551580N01216721EA0000000665
B1515505551639N01216769EA0000000667
B1515575551719N01216840EA0000000654
B1516065551831N01216935EA0000000644
B1516135551923N01217010EA0000000636
B1516255552077N01217102EA0000000611
B1516325552169N01217142EA0000000615
B1516455552149N01217091EA0000000595
B1516525552161N01217287EA0000000594
B1516595552230N01217230EA0000000590
B1517055552266N01217157EA0000000592
B1517155552310N01217019EA0000000589
B1517205552329N01216949EA0000000582
B1517275552370N01216856EA0000000560
B1517325552398N01216774EA0000000545
B1517375552425N01216696EA0000000542
B1517435552454N01216604EA0000000528
B1517485552490N01216533EA0000000515
B1517555552536N01216402EA0000000492
B1518035552587N01216239EA0000000497
B1518085552584N01216159EA0000000519
B1518145552505N01216236EA0000000515
B1518195552515N01216396EA0000000513
B1518245552580N01216432EA0000000512
B1518295552585N01216357EA0000000523
B1518365552493N01216399EA0000000524
B1518415552503N01216554EA0000000522
B1518465552561N01216561EA0000000526
B1518515552587N01216491EA0000000529
B1518575552615N01216393EA0000000508
B1519035552634N01216285EA0000000502
B1519085552645N01216198EA0000000494
B1519135552657N01216094EA0000000475
B1519215552677N01215919EA0000000484
B1519315552697N01215747EA0000000480
B1519385552624N01215687EA0000000492
B1519445552591N01215859EA0000000481
B1519495552649N01215920EA0000000472
B1519565552707N01215824EA0000000471
B1520035552762N01215708EA0000000469
B1520125552711N01215633EA0000000482
B1520175552693N01215782EA0000000474
B1520235552762N01215840EA0000000471
B1520295552804N01215758EA0000000466
B1520355552834N01215665EA0000000464
B1520415552860N01215567EA0000000457
B1520465552879N01215480EA0000000451
B1520555552915N01215321EA0000000443
B1521005552932N01215221EA0000000435
B1521065552921N01215090EA0000000428
B1521155552873N01214906EA0000000417
B1521235552808N01214753EA0000000403
B1521295552756N01214631EA0000000393
B1521365552692N01214489EA0000000388
B1521425552632N01214372EA0000000380
B1521485552576N01214258EA0000000379
B1521545552517N01214145EA0000000376
B1522005552468N01214042EA0000000376
B1522085552411N01213883EA0000000373
B1522155552430N01213776EA0000000389
B1522215552470N01213907EA0000000387
B1522275552385N01213988EA0000000370
B1522345552352N01213874EA0000000378
B1522395552401N01213963EA0000000378
B1522485552298N01214095EA0000000388
B1522535552320N01214027EA0000000383
B1523055552279N01214251EA0000000389
B1523105552251N01214168EA0000000387
B1523165552311N01214179EA0000000390
B1523235552264N01214352EA0000000389
B1523285552219N01214293EA0000000389
B1523345552274N01214303EA0000000389
B1523435552207N01214510EA0000000390
B1523485552175N01214443EA0000000384
B1523575552251N01214552EA0000000386
B1524035552180N01214672EA0000000384
B1524105552154N01214580EA0000000377
B1524185552218N01214705EA0000000389
B1524235552168N01214817EA0000000388
B1524315552119N01214719EA0000000375
B1524405552163N01214582EA0000000352
B1524475552201N01214459EA0000000341
B1524555552241N01214308EA0000000335
B1525045552284N01214137EA0000000343
B1525115552317N01214015EA0000000351
B1525175552352N01213931EA0000000347
B1525275552408N01213791EA0000000336
B1525335552445N01213703EA0000000326
B1525395552482N01213602EA0000000326
B1525445552518N01213526EA0000000332
B1525495552570N01213604EA0000000343
B1525565552503N01213756EA0000000325
B1526015552473N01213682EA0000000323
B1526065552524N01213644EA0000000326
B1526135552545N01213825EA0000000326
B1526185552468N01213846EA0000000320
B1526265552452N01213698EA0000000318
B1526315552468N01213599EA0000000325
B1526365552485N01213504EA0000000331
B1526425552544N01213556EA0000000342
B1526495552483N01213715EA0000000332
B1526545552449N01213644EA0000000322
B1526595552483N01213569EA0000000332
B1527065552532N01213485EA0000000332
B1527125552567N01213417EA0000000331
B1527195552610N01213335EA0000000312
B1527245552647N01213268EA0000000303
B1527375552715N01213082EA0000000284
B1527465552724N01212920EA0000000277
B1527535552729N01212793EA0000000275
B1528105552737N01212488EA0000000274
B1528165552736N01212371EA0000000271
B1528285552727N01212130EA0000000282
B1528335552659N01212115EA0000000288
B1528405552632N01212307EA0000000292
B1528485552726N01212371EA0000000291
B1528535552712N01212285EA0000000287
B1528585552630N01212325EA0000000284
B1529035552612N01212493EA0000000293
B1529085552664N01212587EA0000000302
B1529135552707N01212541EA0000000294
B1529185552665N01212474EA0000000300
B1529235552592N01212547EA0000000294
B1529285552583N01212708EA0000000297
B1529375552671N01212796EA0000000297
B1529425552668N01212714EA0000000292
B1529475552597N01212699EA0000000294
B1529575552464N01212921EA0000000281
B1530045552407N01213143EA0000000277
B1530095552384N01213313EA0000000276
B1530195552344N01213644EA0000000264
B1530265552388N01213816EA0000000256
B1530315552421N01213763EA0000000253
B1530365552430N01213678EA0000000256
B1530435552447N01213566EA0000000261
B1530495552462N01213466EA0000000270
B1531005552491N01213276EA0000000274
B1531055552508N01213194EA0000000279
B1531105552526N01213113EA0000000277
B1531175552549N01212996EA0000000269
B1531225552567N01212917EA0000000261
B1531285552591N01212826EA0000000248
B1531345552607N01212727EA0000000236
B1531395552605N01212636EA0000000233
B1531455552598N01212527EA0000000229
B1531545552595N01212356EA0000000226
B1531595552621N01212277EA0000000230
B1532045552683N01212286EA0000000224
B1532095552711N01212431EA0000000217
B1532145552684N01212594EA0000000213
B1532215552651N01212824EA0000000204
B1532295552621N01213089EA0000000193
B1532355552599N01213288EA0000000189
B1532455552567N01213619EA0000000180
B1532545552548N01213922EA0000000168
B1532595552573N01214081EA0000000154
B1533055552633N01214256EA0000000143
B1533165552764N01214542EA0000000127
B1533215552834N01214630EA0000000129
B1533265552912N01214665EA0000000124
B1533325552966N01214582EA0000000108
B1533415552998N01214395EA0000000076
B1533515553027N01214196EA0000000037
B1533585553043N01214049EA0000000017
B1534065553054N01213937EA0000000017
