AOGNOGN
HFDTE250625
HFFXA050
HFPLTPILOTINCHARGE:
HFGTYGLIDERTYPE:Discus
HFGIDGLIDERID:OY-SXG
HFDTM100GPSDATUM:WGS-1984
HFRFWFIRMWAREVERSION:
HFRHWHARDWAREVERSION:
HFFTYFRTYPE:OGN-FLIGHTBOOK
HFGPSGENERIC
HFPRSPRESSALTSENSOR:
HFCIDCOMPETITIONID:SG
B1532125553089N01213956EA0000000016
B1532155553093N01213897EA0000000017
B1532205553106N01213775EA0000000019
B1532255553120N01213642EA0000000037
B1532305553128N01213507EA0000000055
B1532375553146N01213320EA0000000086
B1532425553151N01213188EA0000000109
B1532485553132N01213038EA0000000137
B1532535553073N01212942EA0000000156
B1532595552979N01212868EA0000000179
B1533055552864N01212840EA0000000198
B1533125552733N01212806EA0000000225
B1533205552586N01212765EA0000000255
B1533255552494N01212744EA0000000277
B1533305552403N01212719EA0000000300
B1533365552293N01212682EA0000000317
B1533435552165N01212642EA0000000336
B1533495552060N01212602EA0000000364
B1533545551976N01212572EA0000000397
B1534015551845N01212603EA0000000430
B1534065551752N01212694EA0000000451
B1534125551658N01212865EA0000000476
B1534175551602N01213050EA0000000495
B1534235551538N01213264EA0000000533
B1534285551491N01213442EA0000000561
B1534355551428N01213697EA0000000595
B1534405551383N01213880EA0000000620
B1534465551303N01214059EA0000000646
B1534525551191N01214166EA0000000662
B1534585551072N01214176EA0000000683
B1535045550970N01214116EA0000000704
B1535095550905N01214033EA0000000726
B1535155550853N01213909EA0000000757
B1535205550835N01213793EA0000000780
B1535265550828N01213649EA0000000807
B1535355550819N01213445EA0000000837
B1535415550800N01213340EA0000000839
B1535485550787N01213218EA0000000832
B1535535550796N01213132EA0000000821
B1535585550810N01213045EA0000000818
B1536055550819N01212929EA0000000819
B1536145550837N01212794EA0000000819
B1536195550860N01212735EA0000000820
B1536255550917N01212729EA0000000810
B1536305550972N01212747EA0000000803
B1536355551026N01212787EA0000000804
B1536415551084N01212876EA0000000800
B1536495551149N01213034EA0000000798
B1536575551198N01213230EA0000000793
B1537025551219N01213363EA0000000791
B1537085551245N01213523EA0000000781
B1537135551275N01213648EA0000000774
B1537215551334N01213822EA0000000761
B1537265551372N01213929EA0000000748
B1537315551388N01214072EA0000000738
B1537385551362N01214294EA0000000723
B1537435551329N01214456EA0000000719
B1537525551287N01214752EA0000000723
B1537585551248N01214942EA0000000736
B1538045551165N01215015EA0000000743
B1538095551114N01214958EA0000000744
B1538145551124N01214877EA0000000739
B1538225551195N01214790EA0000000743
B1538305551277N01214741EA0000000746
B1538385551366N01214717EA0000000737
B1538445551430N01214700EA0000000733
B1538525551511N01214671EA0000000734
B1539055551623N01214623EA0000000725
B1539125551678N01214584EA0000000707
B1539185551702N01214503EA0000000704
B1539235551705N01214423EA0000000707
B1539295551751N01214385EA0000000708
B1539345551793N01214484EA0000000698
B1539395551768N01214636EA0000000694
B1539475551650N01214687EA0000000698
B1539545551563N01214612EA0000000701
B1539595551519N01214534EA0000000697
B1540055551498N01214419EA0000000691
B1540125551486N01214289EA0000000693
B1540195551487N01214159EA0000000688
B1540245551495N01214062EA0000000689
B1540325551524N01213931EA0000000696
B1540385551550N01213842EA0000000688
B1540475551594N01213705EA0000000676
B1540535551636N01213615EA0000000658
B1541015551699N01213493EA0000000646
B1541075551749N01213411EA0000000639
B1541145551811N01213319EA0000000632
B1541195551858N01213248EA0000000629
B1541275551946N01213162EA0000000637
B1541345551959N01213036EA0000000651
B1541405551873N01213014EA0000000650
B1541455551814N01213138EA0000000640
B1541505551828N01213305EA0000000625
B1541575551930N01213353EA0000000622
B1542025552000N01213324EA0000000634
B1542075552024N01213231EA0000000651
B1542125551970N01213169EA0000000662
B1542185551887N01213282EA0000000656
B1542235551898N01213443EA0000000660
B1542285551960N01213478EA0000000668
B1542355551961N01213353EA0000000689
B1542405551886N01213348EA0000000688
B1542455551829N01213478EA0000000682
B1542535551899N01213609EA0000000685
B1543015551977N01213518EA0000000694
B1543065551968N01213429EA0000000713
B1543115551896N01213423EA0000000717
B1543165551848N01213557EA0000000721
B1543215551892N01213669EA0000000713
B1543265551936N01213610EA0000000722
B1543345551965N01213458EA0000000743
B1543395551915N01213403EA0000000749
B1543445551836N01213477EA0000000743
B1543495551820N01213633EA0000000741
B1543545551874N01213741EA0000000732
B1544005551957N01213733EA0000000738
B1544075552048N01213693EA0000000754
B1544135552118N01213650EA0000000771
B1544195552125N01213558EA0000000764
B1544255552041N01213509EA0000000749
B1544305551964N01213607EA0000000749
B1544355551963N01213761EA0000000735
B1544405552025N01213830EA0000000722
B1544485552114N01213790EA0000000718
B1544555552194N01213753EA0000000711
B1545005552224N01213695EA0000000714
B1545085552222N01213554EA0000000686
B1545165552212N01213393EA0000000681
B1545265552241N01213221EA0000000690
B1545325552254N01213124EA0000000689
B1545385552257N01213028EA0000000679
B1545445552265N01212934EA0000000676
B1545505552263N01212832EA0000000667
B1546005552215N01212658EA0000000653
B1546075552118N01212596EA0000000649
B1546135552035N01212551EA0000000662
B1546185551981N01212502EA0000000661
B1546235551942N01212424EA0000000654
B1546285551949N01212331EA0000000651
B1546345552013N01212268EA0000000639
B1546405552079N01212202EA0000000649
B1546455552124N01212133EA0000000651
B1546505552188N01212133EA0000000655
B1546565552244N01212275EA0000000657
B1547015552225N01212437EA0000000650
B1547125552065N01212474EA0000000632
B1547175552003N01212398EA0000000637
B1547235551947N01212291EA0000000636
B1547285551947N01212199EA0000000641
B1547335551980N01212136EA0000000635
B1547405552028N01212037EA0000000636
B1547455552055N01211960EA0000000635
B1547515552080N01211867EA0000000635
B1547575552051N01211766EA0000000635
B1548025551989N01211722EA0000000644
B1548075551913N01211753EA0000000648
B1548145551849N01211936EA0000000643
B1548195551878N01212073EA0000000647
B1548265551950N01212064EA0000000651
B1548315551921N01211992EA0000000653
B1548375551826N01212004EA0000000644
B1548455551703N01212032EA0000000651
B1548505551657N01211969EA0000000649
B1548555551675N01211893EA0000000658
B1549005551728N01211923EA0000000665
B1549055551748N01212056EA0000000665
B1549145551635N01212201EA0000000657
B1549235551550N01212082EA0000000662
B1549285551550N01211997EA0000000664
B1549335551599N01211992EA0000000660
B1549395551632N01212138EA0000000652
B1549465551593N01212339EA0000000663
B1549535551604N01212534EA0000000664
B1549585551657N01212573EA0000000652
B1550075551672N01212437EA0000000638
B1550135551654N01212322EA0000000632
B1550195551660N01212201EA0000000628
B1550315551722N01212014EA0000000627
B1550375551763N01211940EA0000000633
B1550445551830N01211876EA0000000623
B1550515551904N01211821EA0000000632
B1550575551973N01211808EA0000000637
B1551045552050N01211780EA0000000645
B1551105552074N01211697EA0000000646
B1551155552027N01211639EA0000000635
B1551215551938N01211694EA0000000635
B1551265551909N01211837EA0000000633
B1551325551961N01211981EA0000000641
B1551385552042N01212010EA0000000639
B1551445552081N01211916EA0000000633
B1551495552106N01211847EA0000000633
B1551555552174N01211846EA0000000616
B1552005552232N01211863EA0000000611
B1552085552323N01211918EA0000000601
B1552165552422N01211998EA0000000579
B1552225552496N01212048EA0000000577
B1552295552576N01212083EA0000000572
B1552345552634N01212096EA0000000564
B1552395552692N01212116EA0000000561
B1552465552758N01212114EA0000000563
B1552515552770N01212039EA0000000553
B1552565552743N01211945EA0000000549
B1553035552719N01211821EA0000000551
B1553085552704N01211730EA0000000550
B1553195552624N01211567EA0000000543
B1553245552571N01211513EA0000000533
B1553305552508N01211446EA0000000520
B1553365552497N01211345EA0000000508
B1553415552532N01211263EA0000000507
B1553485552594N01211194EA0000000513
B1553535552656N01211192EA0000000500
B1554015552756N01211243EA0000000503
B1554065552813N01211281EA0000000495
B1554115552878N01211311EA0000000484
B1554185552973N01211308EA0000000482
B1554315553117N01211242EA0000000487
B1554375553078N01211151EA0000000470
B1554445552979N01211170EA0000000463
B1554495552927N01211292EA0000000452
B1554555552949N01211477EA0000000457
B1555015553028N01211534EA0000000463
B1555075553065N01211453EA0000000459
B1555125553018N01211395EA0000000448
B1555185552938N01211479EA0000000450
B1555235552930N01211636EA0000000449
B1555295552965N01211816EA0000000457
B1555355553039N01211859EA0000000450
B1555405553055N01211786EA0000000440
B1555455553010N01211722EA0000000422
B1555525552908N01211764EA0000000423
B1555585552872N01211930EA0000000432
B1556035552912N01212040EA0000000436
B1556095552980N01212026EA0000000428
B1556145552967N01211945EA0000000425
B1556195552899N01211960EA0000000417
B1556285552868N01212231EA0000000428
B1556335552917N01212352EA0000000428
B1556385552982N01212362EA0000000416
B1556435553001N01212287EA0000000402
B1556495552927N01212246EA0000000384
B1556545552867N01212369EA0000000384
B1557015552914N01212555EA0000000374
B1557065552982N01212594EA0000000362
B1557135553070N01212596EA0000000352
B1557195553137N01212560EA0000000347
B1557245553171N01212500EA0000000349
B1557295553162N01212414EA0000000344
B1557345553117N01212349EA0000000341
B1557415553044N01212268EA0000000345
B1557465552985N01212236EA0000000346
B1557515552921N01212263EA0000000341
B1558005552792N01212407EA0000000317
B1558055552714N01212429EA0000000321
B1558105552647N01212390EA0000000324
B1558155552630N01212306EA0000000320
B1558205552671N01212259EA0000000318
B1558255552728N01212285EA0000000314
B1558305552760N01212394EA0000000315
B1558355552721N01212527EA0000000310
B1558425552621N01212566EA0000000314
B1558485552597N01212473EA0000000308
B1558545552649N01212422EA0000000296
B1558595552707N01212472EA0000000296
B1559045552719N01212607EA0000000303
B1559095552685N01212735EA0000000309
B1559165552592N01212770EA0000000307
B1559225552568N01212685EA0000000303
B1559275552609N01212648EA0000000292
B1559325552667N01212697EA0000000291
B1559385552689N01212859EA0000000299
B1559435552655N01212997EA0000000303
B1559495552574N01213017EA0000000309
B1559545552567N01212936EA0000000306
B1600015552648N01212945EA0000000310
B1600065552683N01213070EA0000000313
B1600115552681N01213218EA0000000315
B1600165552618N01213289EA0000000318
B1600235552567N01213204EA0000000331
B1600285552616N01213181EA0000000334
B1600335552653N01213295EA0000000328
B1600405552589N01213461EA0000000344
B1600455552524N01213444EA0000000348
B1600505552508N01213364EA0000000352
B1600575552575N01213335EA0000000359
B1601025552614N01213438EA0000000367
B1601075552591N01213572EA0000000367
B1601145552498N01213592EA0000000377
B1601195552497N01213515EA0000000384
B1601245552552N01213524EA0000000385
B1601315552588N01213698EA0000000403
B1601365552542N01213817EA0000000408
B1601415552477N01213796EA0000000412
B1601485552509N01213715EA0000000423
B1601535552552N01213820EA0000000434
B1601585552512N01213948EA0000000438
B1602055552427N01213908EA0000000452
B1602105552443N01213838EA0000000454
B1602155552499N01213879EA0000000461
B1602235552492N01214094EA0000000477
B1602285552421N01214121EA0000000477
B1602335552382N01214047EA0000000482
B1602395552416N01213983EA0000000484
B1602445552471N01214058EA0000000487
B1602505552458N01214236EA0000000505
B1602565552375N01214265EA0000000503
B1603015552357N01214178EA0000000510
B1603075552411N01214146EA0000000512
B1603135552464N01214275EA0000000528
B1603185552430N01214419EA0000000538
B1603235552358N01214442EA0000000546
B1603305552337N01214333EA0000000553
B1603355552394N01214334EA0000000559
B1603405552427N01214456EA0000000574
B1603475552352N01214597EA0000000580
B1603525552298N01214539EA0000000583
B1603575552308N01214458EA0000000592
B1604045552384N01214490EA0000000601
B1604095552394N01214635EA0000000612
B1604145552338N01214735EA0000000624
B1604215552261N01214677EA0000000625
B1604265552285N01214603EA0000000634
B1604315552344N01214637EA0000000635
B1604385552352N01214831EA0000000647
B1604435552280N01214887EA0000000652
B1604485552231N01214825EA0000000669
B1604555552270N01214742EA0000000664
B1605005552331N01214796EA0000000666
B1605055552350N01214947EA0000000667
B1605125552256N01215072EA0000000677
B1605175552210N01214993EA0000000683
B1605225552241N01214920EA0000000685
B1605295552332N01214985EA0000000684
B1605345552373N01215124EA0000000692
B1605395552340N01215272EA0000000696
B1605465552228N01215307EA0000000696
B1605515552188N01215222EA0000000711
B1605565552217N01215147EA0000000716
B1606025552292N01215180EA0000000721
B1606075552311N01215329EA0000000724
B1606125552251N01215439EA0000000724
B1606195552159N01215369EA0000000720
B1606245552115N01215272EA0000000731
B1606295552126N01215198EA0000000743
B1606365552204N01215277EA0000000737
B1606415552199N01215448EA0000000740
B1606465552131N01215556EA0000000748
B1606535552030N01215528EA0000000745
B1606585551999N01215434EA0000000741
B1607035552027N01215355EA0000000742
B1607105552106N01215434EA0000000748
B1607155552104N01215588EA0000000745
B1607205552040N01215706EA0000000740
B1607275551929N01215709EA0000000734
B1607345551830N01215637EA0000000735
B1607415551776N01215518EA0000000736
B1607475551742N01215422EA0000000740
B1607545551703N01215326EA0000000736
B1608015551680N01215224EA0000000727
B1608065551703N01215144EA0000000712
B1608115551738N01215067EA0000000709
B1608185551793N01214983EA0000000699
B1608235551844N01214926EA0000000686
B1608285551895N01214884EA0000000689
B1608355551978N01214849EA0000000677
B1608415552052N01214840EA0000000679
B1608495552148N01214873EA0000000661
B1608555552220N01214915EA0000000657
B1609025552301N01214951EA0000000645
B1609095552385N01214977EA0000000624
B1609145552455N01215021EA0000000619
B1609195552518N01215106EA0000000620
B1609265552524N01215316EA0000000615
B1609315552456N01215422EA0000000598
B1609365552376N01215417EA0000000586
B1609435552314N01215287EA0000000563
B1609505552293N01215122EA0000000561
B1609575552282N01214971EA0000000548
B1610055552259N01214792EA0000000534
B1610125552245N01214633EA0000000515
B1610195552246N01214470EA0000000503
B1610245552249N01214353EA0000000498
B1610315552251N01214205EA0000000506
B1610375552254N01214106EA0000000504
B1610425552274N01214036EA0000000492
B1610475552324N01214011EA0000000484
B1610525552375N01214087EA0000000476
B1610575552371N01214232EA0000000465
B1611025552307N01214319EA0000000453
B1611095552202N01214336EA0000000436
B1611195552064N01214260EA0000000416
B1611255552006N01214168EA0000000415
B1611315551958N01214064EA0000000402
B1611375551917N01213936EA0000000396
B1611425551886N01213836EA0000000397
B1611495551848N01213707EA0000000400
B1611565551825N01213579EA0000000405
B1612015551841N01213494EA0000000418
B1612065551901N01213511EA0000000425
B1612115551927N01213648EA0000000431
B1612165551874N01213751EA0000000424
B1612215551808N01213725EA0000000415
B1612325551764N01213499EA0000000428
B1612385551748N01213379EA0000000427
B1612445551753N01213255EA0000000423
B1612495551769N01213157EA0000000423
B1612555551823N01213088EA0000000424
B1613005551890N01213093EA0000000423
B1613065551948N01213215EA0000000437
B1613125551921N01213387EA0000000425
B1613185551837N01213482EA0000000428
B1613235551766N01213447EA0000000434
B1613285551745N01213353EA0000000439
B1613335551783N01213300EA0000000446
B1613405551853N01213407EA0000000447
B1613455551834N01213552EA0000000460
B1613505551762N01213600EA0000000463
B1613575551703N01213502EA0000000474
B1614025551731N01213447EA0000000469
B1614075551787N01213485EA0000000461
B1614145551813N01213665EA0000000474
B1614205551735N01213748EA0000000477
B1614255551679N01213682EA0000000480
B1614315551699N01213595EA0000000476
B1614365551757N01213603EA0000000470
B1614415551803N01213703EA0000000476
B1614505551757N01213937EA0000000487
B1614555551681N01213966EA0000000494
B1615005551623N01213898EA0000000491
B1615055551623N01213807EA0000000495
B1615105551675N01213809EA0000000495
B1615155551712N01213926EA0000000490
B1615245551654N01214192EA0000000502
B1615295551579N01214254EA0000000519
B1615345551525N01214213EA0000000518
B1615395551539N01214145EA0000000511
B1615445551598N01214178EA0000000505
B1615505551631N01214342EA0000000504
B1615565551580N01214515EA0000000516
B1616015551504N01214580EA0000000523
B1616065551447N01214532EA0000000521
B1616135551479N01214431EA0000000516
B1616185551541N01214490EA0000000517
B1616235551560N01214642EA0000000525
B1616305551494N01214843EA0000000535
B1616355551417N01214877EA0000000540
B1616405551374N01214804EA0000000533
B1616475551418N01214709EA0000000537
B1616525551481N01214754EA0000000536
B1616575551523N01214886EA0000000543
B1617045551484N01215093EA0000000554
B1617105551397N01215134EA0000000571
B1617155551352N01215069EA0000000567
B1617215551391N01214999EA0000000570
B1617265551452N01215076EA0000000566
B1617325551473N01215258EA0000000577
B1617385551418N01215413EA0000000578
B1617435551341N01215432EA0000000587
B1617485551307N01215349EA0000000594
B1617555551361N01215283EA0000000604
B1618005551411N01215387EA0000000599
B1618055551394N01215544EA0000000609
B1618125551296N01215587EA0000000621
B1618175551285N01215498EA0000000633
B1618225551332N01215468EA0000000636
B1618295551394N01215629EA0000000636
B1618345551352N01215768EA0000000645
B1618395551278N01215783EA0000000651
B1618465551261N01215661EA0000000662
B1618515551317N01215646EA0000000667
B1618565551372N01215746EA0000000665
B1619025551355N01215939EA0000000671
B1619075551283N01216026EA0000000675
B1619125551219N01215990EA0000000684
B1619195551239N01215887EA0000000696
B1619245551297N01215936EA0000000689
B1619315551298N01216157EA0000000698
B1619365551228N01216240EA0000000706
B1619415551168N01216195EA0000000708
B1619465551177N01216103EA0000000711
B1619535551258N01216167EA0000000722
B1619585551253N01216320EA0000000725
B1620035551183N01216398EA0000000727
B1620105551138N01216299EA0000000739
B1620155551187N01216247EA0000000738
B1620205551252N01216306EA0000000749
B1620275551261N01216513EA0000000750
B1620325551184N01216589EA0000000742
B1620375551135N01216512EA0000000749
B1620445551205N01216459EA0000000761
B1620495551253N01216577EA0000000766
B1620545551237N01216740EA0000000759
B1621015551132N01216844EA0000000764
B1621065551074N01216775EA0000000760
B1621115551068N01216666EA0000000768
B1621185551132N01216580EA0000000784
B1621245551212N01216634EA0000000789
B1621325551318N01216767EA0000000780
B1621385551403N01216838EA0000000776
B1621445551483N01216832EA0000000778
B1621535551554N01216702EA0000000760
B1621595551596N01216612EA0000000759
B1622095551665N01216467EA0000000739
B1622145551694N01216387EA0000000732
B1622195551718N01216303EA0000000723
B1622265551759N01216190EA0000000710
B1622325551808N01216106EA0000000697
B1622375551857N01216045EA0000000689
B1622445551924N01215964EA0000000674
B1622495551977N01215909EA0000000659
B1622545552026N01215841EA0000000650
B1623005552047N01215736EA0000000648
B1623055552022N01215641EA0000000627
B1623105551967N01215550EA0000000608
B1623175551854N01215467EA0000000592
B1623245551742N01215403EA0000000593
B1623295551671N01215359EA0000000591
B1623345551596N01215325EA0000000588
B1623395551519N01215283EA0000000584
B1623445551474N01215180EA0000000581
B1623515551512N01215066EA0000000587
B1623565551574N01215109EA0000000590
B1624015551603N01215244EA0000000592
B1624095551525N01215461EA0000000587
B1624145551448N01215549EA0000000592
B1624195551376N01215543EA0000000588
B1624255551314N01215457EA0000000579
B1624325551244N01215339EA0000000574
B1624375551197N01215255EA0000000571
B1624425551164N01215151EA0000000562
B1624485551151N01215008EA0000000570
B1624535551173N01214916EA0000000582
B1624595551237N01214984EA0000000587
B1625045551217N01215125EA0000000583
B1625095551146N01215204EA0000000578
B1625165551035N01215187EA0000000590
B1625225551008N01215084EA0000000595
B1625295551083N01215056EA0000000586
B1625345551123N01215173EA0000000590
B1625405551078N01215329EA0000000595
B1625455551009N01215327EA0000000603
B1625505550976N01215244EA0000000598
B1625555550998N01215156EA0000000596
B1626005551058N01215135EA0000000594
B1626065551115N01215254EA0000000592
B1626115551091N01215405EA0000000584
B1626165551018N01215495EA0000000582
B1626235550913N01215480EA0000000584
B1626295550865N01215371EA0000000581
B1626345550855N01215258EA0000000579
B1626405550873N01215135EA0000000593
B1626455550933N01215105EA0000000590
B1626505550988N01215201EA0000000591
B1626575551051N01215375EA0000000578
B1627025551127N01215391EA0000000569
B1627085551199N01215296EA0000000562
B1627145551239N01215167EA0000000580
B1627195551251N01215068EA0000000588
B1627265551246N01214924EA0000000592
B1627315551239N01214830EA0000000598
B1627425551240N01214639EA0000000589
B1627485551258N01214533EA0000000577
B1627555551274N01214408EA0000000574
B1628055551287N01214252EA0000000568
B1628115551289N01214156EA0000000556
B1628175551303N01214053EA0000000548
B1628225551320N01213961EA0000000549
B1628275551351N01213882EA0000000549
B1628325551412N01213889EA0000000552
B1628395551446N01214076EA0000000550
B1628445551389N01214195EA0000000551
B1628495551318N01214191EA0000000549
B1628565551249N01214082EA0000000545
B1629025551251N01213961EA0000000546
B1629075551270N01213863EA0000000544
B1629135551331N01213795EA0000000550
B1629195551397N01213750EA0000000553
B1629265551483N01213747EA0000000552
B1629315551536N01213728EA0000000553
B1629395551585N01213601EA0000000551
B1629475551594N01213447EA0000000556
B1629525551578N01213349EA0000000548
B1629575551572N01213249EA0000000545
B1630045551590N01213116EA0000000544
B1630095551627N01213035EA0000000548
B1630155551700N01213038EA0000000557
B1630225551733N01213222EA0000000559
B1630285551664N01213340EA0000000559
B1630355551576N01213278EA0000000552
B1630415551555N01213164EA0000000561
B1630465551601N01213128EA0000000563
B1630515551650N01213226EA0000000564
B1630565551635N01213376EA0000000568
B1631015551567N01213466EA0000000566
B1631065551490N01213459EA0000000568
B1631135551470N01213343EA0000000574
B1631195551537N01213361EA0000000572
B1631245551557N01213503EA0000000576
B1631325551455N01213657EA0000000569
B1631375551370N01213676EA0000000568
B1631425551306N01213616EA0000000568
B1631485551288N01213509EA0000000573
B1631545551334N01213429EA0000000563
B1631595551386N01213384EA0000000562
B1632055551444N01213328EA0000000560
B1632105551477N01213263EA0000000561
B1632215551488N01213078EA0000000566
B1632265551474N01212991EA0000000565
B1632315551468N01212905EA0000000566
B1632375551478N01212807EA0000000561
B1632445551503N01212699EA0000000566
B1632535551550N01212583EA0000000562
B1632595551594N01212519EA0000000558
B1633065551672N01212474EA0000000558
B1633115551698N01212397EA0000000560
B1633165551669N01212309EA0000000553
B1633215551608N01212251EA0000000552
B1633275551538N01212190EA0000000552
B1633365551441N01212095EA0000000553
B1633445551397N01211977EA0000000549
B1633495551386N01211899EA0000000550
B1633555551377N01211812EA0000000556
B1634045551381N01211681EA0000000557
B1634115551422N01211603EA0000000555
B1634185551432N01211486EA0000000560
B1634235551383N01211424EA0000000558
B1634285551300N01211445EA0000000550
B1634355551218N01211630EA0000000555
B1634425551251N01211840EA0000000550
B1634485551331N01211837EA0000000542
B1634565551388N01211694EA0000000543
B1635015551404N01211592EA0000000544
B1635065551404N01211489EA0000000551
B1635125551341N01211406EA0000000544
B1635175551253N01211418EA0000000540
B1635265551143N01211649EA0000000529
B1635315551134N01211829EA0000000527
B1635365551171N01211966EA0000000524
B1635435551264N01212004EA0000000513
B1635485551311N01211940EA0000000514
B1635565551370N01211827EA0000000519
B1636065551439N01211681EA0000000506
B1636115551469N01211599EA0000000503
B1636175551507N01211502EA0000000499
B1636235551534N01211400EA0000000495
B1636315551543N01211246EA0000000483
B1636365551531N01211146EA0000000480
B1636435551495N01211007EA0000000471
B1636485551460N01210910EA0000000467
B1636535551422N01210813EA0000000466
B1637005551339N01210714EA0000000469
B1637055551257N01210717EA0000000465
B1637105551175N01210787EA0000000468
B1637155551126N01210923EA0000000470
B1637205551132N01211079EA0000000457
B1637265551198N01211220EA0000000439
B1637315551270N01211300EA0000000432
B1637425551432N01211447EA0000000437
B1637475551500N01211543EA0000000434
B1637535551577N01211667EA0000000427
B1638015551688N01211804EA0000000418
B1638075551776N01211885EA0000000419
B1638125551846N01211966EA0000000423
B1638175551894N01212092EA0000000441
B1638225551884N01212239EA0000000449
B1638285551799N01212332EA0000000450
B1638335551737N01212289EA0000000447
B1638385551736N01212200EA0000000448
B1638435551789N01212171EA0000000448
B1638495551859N01212266EA0000000458
B1638545551868N01212418EA0000000460
B1639005551793N01212541EA0000000469
B1639065551727N01212488EA0000000470
B1639115551746N01212415EA0000000481
B1639165551801N01212438EA0000000487
B1639235551818N01212627EA0000000491
B1639295551747N01212741EA0000000494
B1639345551684N01212706EA0000000493
B1639405551660N01212603EA0000000498
B1639455551683N01212532EA0000000503
B1639505551739N01212535EA0000000507
B1639575551772N01212705EA0000000508
B1640025551708N01212798EA0000000506
B1640075551644N01212755EA0000000508
B1640145551616N01212633EA0000000516
B1640205551646N01212541EA0000000520
B1640255551698N01212498EA0000000526
B1640315551776N01212540EA0000000531
B1640365551820N01212669EA0000000538
B1640415551796N01212823EA0000000531
B1640485551687N01212886EA0000000523
B1640535551648N01212801EA0000000525
B1640585551660N01212699EA0000000536
B1641065551733N01212642EA0000000565
B1641115551770N01212756EA0000000568
B1641165551745N01212908EA0000000571
B1641225551665N01212965EA0000000573
B1641275551640N01212885EA0000000577
B1641325551669N01212806EA0000000586
B1641395551746N01212856EA0000000603
B1641455551757N01213030EA0000000608
B1641505551698N01213132EA0000000610
B1641575551635N01213066EA0000000612
B1642025551678N01213015EA0000000619
B1642075551742N01213066EA0000000629
B1642135551755N01213236EA0000000627
B1642185551690N01213330EA0000000623
B1642235551630N01213297EA0000000624
B1642315551604N01213137EA0000000623
B1642365551643N01213061EA0000000636
B1642415551708N01213065EA0000000645
B1642475551749N01213211EA0000000652
B1642555551673N01213399EA0000000647
B1643005551602N01213382EA0000000645
B1643065551548N01213270EA0000000645
B1643115551539N01213160EA0000000656
B1643165551587N01213110EA0000000666
B1643215551645N01213187EA0000000670
B1643265551645N01213339EA0000000673
B1643315551581N01213421EA0000000681
B1643385551524N01213337EA0000000684
B1643435551561N01213277EA0000000693
B1643485551611N01213356EA0000000696
B1643575551533N01213537EA0000000702
B1644025551480N01213484EA0000000702
B1644075551469N01213394EA0000000706
B1644125551503N01213334EA0000000709
B1644175551559N01213356EA0000000711
B1644235551586N01213508EA0000000725
B1644295551517N01213614EA0000000726
B1644345551466N01213567EA0000000727
B1644395551484N01213492EA0000000733
B1644465551553N01213556EA0000000743
B1644525551524N01213713EA0000000748
B1644575551460N01213718EA0000000752
B1645025551446N01213643EA0000000760
B1645075551491N01213615EA0000000758
B1645125551530N01213719EA0000000767
B1645205551443N01213848EA0000000768
B1645265551411N01213754EA0000000777
B1645315551460N01213729EA0000000779
B1645365551502N01213834EA0000000785
B1645425551452N01213984EA0000000785
B1645475551392N01213945EA0000000789
B1645535551427N01213872EA0000000799
B1645585551478N01213952EA0000000801
B1646035551456N01214095EA0000000799
B1646105551363N01214087EA0000000807
B1646155551334N01214003EA0000000811
B1646205551346N01213922EA0000000811
B1646275551421N01213909EA0000000809
B1646325551472N01214002EA0000000814
B1646375551478N01214150EA0000000810
B1646445551393N01214274EA0000000801
B1646495551331N01214239EA0000000804
B1646545551297N01214150EA0000000808
B1647015551304N01214028EA0000000820
B1647075551369N01214049EA0000000825
B1647125551402N01214169EA0000000834
B1647195551340N01214322EA0000000833
B1647245551279N01214278EA0000000844
B1647295551279N01214192EA0000000843
B1647355551345N01214198EA0000000848
B1647405551370N01214331EA0000000855
B1647455551319N01214456EA0000000855
B1647525551224N01214426EA0000000865
B1647575551231N01214341EA0000000868
B1648025551288N01214352EA0000000869
B1648095551325N01214527EA0000000882
B1648185551229N01214739EA0000000881
B1648235551149N01214744EA0000000888
B1648285551107N01214663EA0000000890
B1648345551144N01214587EA0000000897
B1648395551194N01214659EA0000000897
B1648445551195N01214813EA0000000899
B1648495551142N01214937EA0000000913
B1648545551070N01214968EA0000000915
B1649005551026N01214868EA0000000915
B1649065551068N01214793EA0000000923
B1649115551126N01214827EA0000000921
B1649175551166N01214983EA0000000921
B1649255551092N01215205EA0000000926
B1649315551001N01215203EA0000000940
B1649365550971N01215122EA0000000946
B1649435551017N01215051EA0000000950
B1649525551101N01215226EA0000000949
B1650025551095N01215539EA0000000958
B1650145550971N01215805EA0000000953
B1650195550896N01215849EA0000000956
B1650255550811N01215822EA0000000950
B1650305550742N01215793EA0000000954
B1650375550630N01215855EA0000000943
B1650445550526N01215983EA0000000942
B1650495550474N01216113EA0000000937
B1650565550448N01216333EA0000000926
B1651025550421N01216519EA0000000936
B1651075550411N01216662EA0000000945
B1651125550452N01216772EA0000000938
B1651175550516N01216772EA0000000933
B1651225550539N01216671EA0000000930
B1651275550500N01216571EA0000000945
B1651325550425N01216535EA0000000956
B1651405550297N01216624EA0000000958
B1651455550247N01216759EA0000000952
B1651505550235N01216918EA0000000953
B1651565550231N01217107EA0000000960
B1652015550226N01217258EA0000000957
B1652065550262N01217377EA0000000948
B1652115550321N01217392EA0000000935
B1652175550377N01217313EA0000000927
B1652235550398N01217187EA0000000925
B1652305550392N01217037EA0000000929
B1652365550415N01216918EA0000000932
B1652425550489N01216940EA0000000937
B1652485550492N01217126EA0000000940
B1652535550416N01217195EA0000000946
B1652585550368N01217112EA0000000936
B1653035550403N01217009EA0000000939
B1653085550467N01216985EA0000000954
B1653145550526N01217085EA0000000960
B1653225550475N01217297EA0000000956
B1653275550404N01217302EA0000000962
B1653325550380N01217220EA0000000962
B1653375550419N01217172EA0000000962
B1653445550503N01217256EA0000000958
B1653515550587N01217395EA0000000959
B1653575550650N01217529EA0000000963
B1654065550731N01217757EA0000000959
B1654165550836N01217995EA0000000946
B1654435551171N01218489EA0000000922
B1654495551232N01218659EA0000000916
B1654565551294N01218857EA0000000916
B1655065551382N01219123EA0000000907
B1655135551464N01219269EA0000000891
B1655205551558N01219395EA0000000886
B1655315551670N01219657EA0000000885
B1655375551729N01219793EA0000000883
B1655475551858N01219953EA0000000866
B1655525551929N01220017EA0000000862
B1655575551999N01220078EA0000000860
B1656055552110N01220137EA0000000851
B1656125552208N01220121EA0000000836
B1656185552286N01220062EA0000000828
B1656275552375N01219900EA0000000810
B1656325552420N01219793EA0000000803
B1656385552467N01219663EA0000000807
B1656475552519N01219450EA0000000786
B1656575552598N01219217EA0000000775
B1657045552653N01219053EA0000000763
B1657135552723N01218835EA0000000753
B1657195552765N01218687EA0000000747
B1657265552821N01218515EA0000000733
B1657325552875N01218375EA0000000728
B1657385552923N01218228EA0000000721
B1657465552942N01217996EA0000000703
B1657545552915N01217744EA0000000696
B1658035552867N01217485EA0000000699
B1658095552831N01217332EA0000000693
B1658165552788N01217157EA0000000687
B1658265552714N01216906EA0000000671
B1658315552671N01216780EA0000000665
B1658365552627N01216659EA0000000668
B1658435552556N01216512EA0000000668
B1658495552496N01216386EA0000000663
B1658575552424N01216209EA0000000652
B1659025552362N01216114EA0000000648
B1659095552271N01215997EA0000000640
B1659155552212N01215877EA0000000633
B1659225552143N01215740EA0000000618
B1659305552074N01215568EA0000000618
B1659355552026N01215469EA0000000621
B1659405551999N01215359EA0000000620
B1659455551953N01215286EA0000000624
B1659505551873N01215258EA0000000607
B1659555551791N01215243EA0000000617
B1700005551717N01215230EA0000000616
B1700065551636N01215197EA0000000608
B1700125551569N01215116EA0000000597
B1700175551527N01215025EA0000000598
B1700225551499N01214921EA0000000586
B1700285551482N01214771EA0000000577
B1700345551494N01214631EA0000000583
B1700395551516N01214522EA0000000579
B1700465551546N01214385EA0000000582
B1700515551566N01214278EA0000000575
B1700595551598N01214097EA0000000575
B1701055551653N01214002EA0000000582
B1701105551674N01213913EA0000000583
B1701175551645N01213771EA0000000572
B1701255551654N01213603EA0000000563
B1701315551673N01213488EA0000000565
B1701375551684N01213363EA0000000551
B1701425551692N01213245EA0000000543
B1701475551686N01213130EA0000000545
B1701555551689N01212959EA0000000530
B1702005551730N01212870EA0000000523
B1702065551795N01212786EA0000000522
B1702125551842N01212676EA0000000518
B1702215551853N01212490EA0000000523
B1702265551849N01212386EA0000000522
B1702325551845N01212260EA0000000530
B1702375551885N01212206EA0000000538
B1702435551942N01212314EA0000000540
B1702495551904N01212479EA0000000539
B1702595551771N01212469EA0000000544
B1703065551758N01212344EA0000000549
B1703115551804N01212323EA0000000547
B1703165551847N01212418EA0000000540
B1703235551803N01212602EA0000000540
B1703285551728N01212670EA0000000539
B1703335551663N01212634EA0000000546
B1703405551675N01212532EA0000000547
B1703455551731N01212558EA0000000545
B1703505551765N01212680EA0000000545
B1703575551733N01212876EA0000000552
B1704035551657N01212998EA0000000550
B1704085551583N01212998EA0000000553
B1704145551556N01212902EA0000000551
B1704195551594N01212850EA0000000548
B1704245551651N01212900EA0000000548
B1704315551652N01213093EA0000000548
B1704375551567N01213146EA0000000545
B1704435551528N01213045EA0000000546
B1704485551517N01212953EA0000000547
B1704535551513N01212869EA0000000547
B1704595551522N01212759EA0000000538
B1705065551537N01212622EA0000000525
B1705115551559N01212526EA0000000515
B1705195551589N01212369EA0000000520
B1705265551609N01212254EA0000000521
B1705345551640N01212133EA0000000520
B1705395551656N01212061EA0000000516
B1705475551688N01211947EA0000000509
B1705565551738N01211812EA0000000493
B1706035551800N01211749EA0000000489
B1706135551920N01211743EA0000000480
B1706185551985N01211753EA0000000476
B1706265552088N01211770EA0000000482
B1706315552151N01211837EA0000000484
B1706375552172N01212009EA0000000489
B1706425552128N01212134EA0000000490
B1706495552026N01212175EA0000000487
B1706545551983N01212100EA0000000491
B1706595552006N01212014EA0000000490
B1707045552066N01212032EA0000000500
B1707095552093N01212163EA0000000497
B1707145552048N01212291EA0000000504
B1707225551959N01212240EA0000000499
B1707275551998N01212177EA0000000508
B1707325552045N01212266EA0000000513
B1707385552010N01212426EA0000000519
B1707435551941N01212447EA0000000523
B1707485551914N01212370EA0000000520
B1707555551982N01212330EA0000000523
B1708005552037N01212409EA0000000526
B1708055552045N01212549EA0000000533
B1708125551963N01212659EA0000000531
B1708175551908N01212611EA0000000535
B1708225551916N01212531EA0000000536
B1708295551984N01212599EA0000000533
B1708345551973N01212736EA0000000538
B1708405551898N01212834EA0000000536
B1708465551834N01212781EA0000000543
B1708515551860N01212717EA0000000542
B1708565551911N01212774EA0000000547
B1709025551898N01212935EA0000000554
B1709085551819N01212983EA0000000557
B1709135551788N01212917EA0000000557
B1709195551835N01212869EA0000000556
B1709245551880N01212957EA0000000559
B1709325551821N01213142EA0000000568
B1709375551764N01213110EA0000000569
B1709425551771N01213033EA0000000570
B1709475551823N01213026EA0000000573
B1709535551886N01213116EA0000000571
B1709585551884N01213258EA0000000570
B1710035551819N01213338EA0000000568
B1710105551741N01213256EA0000000570
B1710155551755N01213172EA0000000581
B1710205551808N01213193EA0000000587
B1710275551814N01213376EA0000000582
B1710365551686N01213411EA0000000583
B1710415551638N01213333EA0000000583
B1710465551668N01213258EA0000000583
B1710515551737N01213278EA0000000583
B1710565551788N01213377EA0000000592
B1711015551778N01213528EA0000000588
B1711075551695N01213607EA0000000597
B1711125551635N01213562EA0000000597
B1711185551624N01213457EA0000000600
B1711235551672N01213432EA0000000600
B1711285551715N01213539EA0000000601
B1711385551617N01213735EA0000000611
B1711435551547N01213734EA0000000600
B1711495551507N01213620EA0000000592
B1711545551516N01213521EA0000000589
B1711595551557N01213438EA0000000583
B1712045551611N01213384EA0000000589
B1712095551677N01213399EA0000000590
B1712145551722N01213513EA0000000597
B1712225551664N01213707EA0000000597
B1712275551590N01213718EA0000000595
B1712325551536N01213656EA0000000598
B1712375551527N01213564EA0000000596
B1712435551582N01213515EA0000000598
B1712485551634N01213599EA0000000602
B1712565551588N01213800EA0000000604
B1713015551519N01213810EA0000000605
B1713065551474N01213746EA0000000605
B1713115551481N01213664EA0000000602
B1713175551552N01213675EA0000000598
B1713225551596N01213785EA0000000609
B1713275551594N01213930EA0000000607
B1713345551507N01214019EA0000000607
B1713405551478N01213927EA0000000609
B1713455551525N01213897EA0000000614
B1713515551574N01214018EA0000000617
B1713575551531N01214166EA0000000614
B1714025551463N01214165EA0000000617
B1714095551446N01214054EA0000000619
B1714145551496N01214038EA0000000620
B1714195551542N01214132EA0000000621
B1714275551486N01214324EA0000000624
B1714325551427N01214298EA0000000620
B1714375551439N01214219EA0000000623
B1714425551498N01214254EA0000000627
B1714475551510N01214394EA0000000629
B1714525551455N01214494EA0000000630
B1714585551388N01214452EA0000000626
B1715035551405N01214373EA0000000630
B1715085551463N01214401EA0000000633
B1715175551451N01214638EA0000000632
B1715225551381N01214667EA0000000636
B1715275551356N01214591EA0000000635
B1715325551398N01214557EA0000000640
B1715375551443N01214647EA0000000640
B1715435551421N01214811EA0000000642
B1715495551345N01214839EA0000000641
B1715575551313N01214691EA0000000635
B1716035551315N01214570EA0000000635
B1716095551344N01214462EA0000000631
B1716165551387N01214339EA0000000616
B1716235551441N01214216EA0000000615
B1716285551466N01214118EA0000000616
B1716375551515N01213968EA0000000625
B1716485551567N01213779EA0000000615
B1717015551650N01213569EA0000000601
B1717065551681N01213487EA0000000596
B1717145551742N01213374EA0000000586
B1717205551783N01213274EA0000000575
B1717315551835N01213053EA0000000568
B1717365551862N01212958EA0000000567
B1717435551904N01212829EA0000000556
B1717505551954N01212705EA0000000556
B1717555551990N01212616EA0000000553
B1718015552043N01212528EA0000000552
B1718075552110N01212447EA0000000548
B1718125552152N01212365EA0000000556
B1718175552149N01212269EA0000000558
B1718225552089N01212214EA0000000553
B1718275552006N01212248EA0000000551
B1718325551928N01212346EA0000000548
B1718395551864N01212562EA0000000544
B1718445551851N01212734EA0000000551
B1718495551881N01212890EA0000000548
B1718565551968N01213047EA0000000552
B1719015552031N01213127EA0000000551
B1719075552114N01213179EA0000000542
B1719135552198N01213172EA0000000534
B1719185552251N01213116EA0000000536
B1719255552291N01212991EA0000000527
B1719305552319N01212898EA0000000526
B1719385552343N01212750EA0000000518
B1719445552334N01212629EA0000000508
B1719535552348N01212448EA0000000500
B1719585552371N01212353EA0000000491
B1720045552394N01212227EA0000000481
B1720095552401N01212119EA0000000481
B1720185552363N01211926EA0000000469
B1720255552311N01211780EA0000000470
B1720345552218N01211642EA0000000480
B1720395552139N01211691EA0000000479
B1720445552084N01211824EA0000000470
B1720515552077N01212064EA0000000460
B1720575552110N01212260EA0000000456
B1721045552146N01212501EA0000000452
B1721095552179N01212666EA0000000456
B1721145552245N01212755EA0000000453
B1721195552309N01212730EA0000000453
B1721295552349N01212541EA0000000442
B1721365552382N01212392EA0000000426
B1721415552400N01212282EA0000000434
B1721465552415N01212187EA0000000439
B1721515552432N01212100EA0000000440
B1721575552448N01212000EA0000000440
B1722095552454N01211789EA0000000428
B1722155552466N01211677EA0000000423
B1722205552499N01211597EA0000000424
B1722255552559N01211583EA0000000426
B1722305552619N01211660EA0000000421
B1722365552650N01211830EA0000000413
B1722425552664N01212019EA0000000403
B1722485552687N01212215EA0000000400
B1722535552712N01212362EA0000000407
B1723005552750N01212568EA0000000393
B1723065552770N01212753EA0000000393
B1723165552776N01213068EA0000000383
B1723215552773N01213225EA0000000377
B1723275552719N01213380EA0000000369
B1723325552649N01213423EA0000000365
B1723375552592N01213383EA0000000359
B1723445552573N01213258EA0000000348
B1723505552575N01213137EA0000000342
B1723565552561N01213028EA0000000341
B1724035552554N01212896EA0000000329
B1724085552565N01212803EA0000000330
B1724135552575N01212719EA0000000329
B1724185552584N01212630EA0000000323
B1724245552603N01212525EA0000000320
B1724315552626N01212391EA0000000306
B1724365552631N01212289EA0000000303
B1724455552586N01212113EA0000000302
B1724555552479N01211992EA0000000310
B1725005552419N01211974EA0000000305
B1725055552359N01211945EA0000000303
B1725105552348N01211873EA0000000295
B1725155552393N01211845EA0000000298
B1725215552467N01211865EA0000000292
B1725265552526N01211882EA0000000292
B1725335552615N01211935EA0000000285
B1725385552669N01212024EA0000000291
B1725435552673N01212168EA0000000279
B1725485552659N01212330EA0000000278
B1725555552635N01212548EA0000000280
B1726005552609N01212715EA0000000267
B1726065552581N01212936EA0000000252
B1726135552548N01213188EA0000000260
B1726195552529N01213393EA0000000254
B1726255552517N01213606EA0000000253
B1726345552494N01213909EA0000000241
B1726405552488N01214121EA0000000236
B1726475552480N01214361EA0000000236
B1726545552523N01214575EA0000000226
B1726595552560N01214726EA0000000224
B1727045552616N01214838EA0000000217
B1727155552778N01214952EA0000000200
B1727215552864N01214986EA0000000197
B1727265552932N01214990EA0000000193
B1727325552969N01214873EA0000000175
B1727385552988N01214722EA0000000153
B1727445553012N01214580EA0000000141
B1727495553026N01214470EA0000000120
B1727565553044N01214306EA0000000085
B1728025553052N01214158EA0000000051
B1728095553064N01213994EA0000000024
B1728165553077N01213849EA0000000015
