AOGNOGN
HFDTE170725
HFFXA050
HFPLTPILOTINCHARGE:
HFGTYGLIDERTYPE:WT9 Dynamic
HFGIDGLIDERID:OY-9397
HFDTM100GPSDATUM:WGS-1984
HFRFWFIRMWAREVERSION:
HFRHWHARDWAREVERSION:
HFFTYFRTYPE:OGN-FLIGHTBOOK
HFGPSGENERIC
HFPRSPRESSALTSENSOR:
HFCIDCOMPETITIONID:
B1519475526997N01139537EA0000000075
B1519525526950N01139682EA0000000087
B1519525526950N01139682EA0000000087
B1520065526914N01140113EA0000000116
B1520125526925N01140295EA0000000131
B1520215526941N01140565EA0000000158
B1520275526949N01140744EA0000000174
B1520335526953N01140923EA0000000193
B1520415526946N01141156EA0000000204
B1520475526937N01141332EA0000000205
B1520555526924N01141568EA0000000216
B1521065526896N01141883EA0000000234
B1521115526880N01142024EA0000000241
B1521205526849N01142273EA0000000254
B1521275526826N01142464EA0000000272
B1521335526806N01142620EA0000000289
B1521445526764N01142917EA0000000309
B1521495526749N01143048EA0000000319
B1521565526721N01143235EA0000000326
B1522045526692N01143453EA0000000352
B1522095526651N01143571EA0000000365
B1522155526567N01143669EA0000000383
B1522205526480N01143682EA0000000399
B1522255526397N01143617EA0000000411
B1522315526330N01143459EA0000000417
B1522365526318N01143298EA0000000423
B1522415526346N01143147EA0000000427
B1522475526422N01143024EA0000000433
B1522525526498N01142978EA0000000441
B1522595526610N01142976EA0000000458
B1523045526688N01142996EA0000000474
B1523095526765N01143033EA0000000487
B1523145526828N01143109EA0000000504
B1523215526861N01143281EA0000000527
B1523265526841N01143407EA0000000544
B1523315526783N01143505EA0000000554
B1523365526702N01143551EA0000000570
B1523435526582N01143504EA0000000596
B1523485526514N01143397EA0000000610
B1523535526474N01143243EA0000000619
B1524005526490N01143000EA0000000624
B1524075526574N01142801EA0000000642
B1524175526753N01142675EA0000000660
B1524225526858N01142628EA0000000659
B1524315527048N01142463EA0000000656
B1524365527130N01142289EA0000000615
B1524425527180N01142019EA0000000577
B1524475527192N01141788EA0000000550
B1524555527181N01141435EA0000000510
B1525005527218N01141247EA0000000487
B1525055527314N01141164EA0000000461
B1525105527406N01141223EA0000000448
B1525155527421N01141383EA0000000434
B1525205527348N01141506EA0000000421
B1525255527244N01141498EA0000000407
B1525305527153N01141389EA0000000383
B1525355527111N01141207EA0000000351
B1525425527176N01140971EA0000000310
B1525495527309N01140852EA0000000280
B1525545527389N01140742EA0000000272
B1525595527412N01140593EA0000000277
B1526045527380N01140462EA0000000260
B1526105527284N01140397EA0000000232
B1526165527182N01140366EA0000000210
B1526245527044N01140321EA0000000184
B1527185527112N01139132EA0000000041
B1527255527126N01138964EA0000000032
B1527335527132N01138803EA0000000030
B1527395527137N01138720EA0000000030
