AOGNOGN
HFDTE170725
HFFXA050
HFPLTPILOTINCHARGE:
HFGTYGLIDERTYPE:WT9 Dynamic
HFGIDGLIDERID:OY-9397
HFDTM100GPSDATUM:WGS-1984
HFRFWFIRMWAREVERSION:
HFRHWHARDWAREVERSION:
HFFTYFRTYPE:OGN-FLIGHTBOOK
HFGPSGENERIC
HFPRSPRESSALTSENSOR:
HFCIDCOMPETITIONID:
B1640265527156N01138437EA0000000032
B1640335527155N01138618EA0000000034
B1640395527149N01138804EA0000000045
B1640455527132N01138993EA0000000068
B1640505527113N01139146EA0000000087
B1641025527027N01139493EA0000000127
B1641095526960N01139686EA0000000148
B1641145526919N01139829EA0000000164
B1641345526867N01140440EA0000000210
B1641405526854N01140632EA0000000226
B1641465526822N01140818EA0000000242
B1641555526747N01141081EA0000000260
B1642035526670N01141303EA0000000278
B1642105526597N01141494EA0000000298
B1642165526519N01141636EA0000000321
B1642215526444N01141728EA0000000338
B1642275526342N01141797EA0000000362
B1642345526213N01141827EA0000000380
B1642425526065N01141787EA0000000395
B1642485525959N01141709EA0000000403
B1642535525876N01141624EA0000000420
B1642595525782N01141511EA0000000440
B1643055525692N01141382EA0000000454
B1643105525630N01141254EA0000000471
B1643165525567N01141086EA0000000490
B1643285525448N01140735EA0000000518
B1643335525404N01140584EA0000000531
B1643405525349N01140373EA0000000551
B1643495525288N01140095EA0000000561
B1643555525255N01139903EA0000000568
B1644015525227N01139706EA0000000578
B1644085525214N01139465EA0000000589
B1644145525215N01139261EA0000000605
B1644225525229N01138992EA0000000629
B1644285525262N01138799EA0000000650
B1644345525315N01138617EA0000000662
B1644455525426N01138297EA0000000684
B1644565525509N01137953EA0000000707
B1645025525519N01137752EA0000000720
B1645085525509N01137553EA0000000734
B1645135525482N01137394EA0000000747
B1645205525421N01137192EA0000000758
B1645275525333N01137024EA0000000770
B1645335525241N01136923EA0000000785
B1645395525142N01136870EA0000000797
B1645475525010N01136884EA0000000809
B1645535524924N01136960EA0000000819
B1645595524856N01137074EA0000000836
B1646045524821N01137194EA0000000844
B1646125524807N01137407EA0000000862
B1646215524845N01137641EA0000000878
B1646295524896N01137847EA0000000890
B1646375524967N01138039EA0000000903
B1646435525047N01138151EA0000000914
B1646495525149N01138213EA0000000922
B1646545525241N01138231EA0000000932
B1647465526236N01139529EA0000000574
B1647515526361N01139619EA0000000523
B1647565526488N01139705EA0000000464
B1648015526608N01139817EA0000000420
B1648065526722N01139929EA0000000379
B1648125526852N01140077EA0000000327
B1648185526977N01140237EA0000000274
B1648235527042N01140412EA0000000261
B1648285527015N01140589EA0000000250
B1648355526885N01140621EA0000000227
B1648405526842N01140485EA0000000213
B1648455526849N01140330EA0000000189
B1648525526868N01140115EA0000000154
B1648585526901N01139947EA0000000137
B1649045526946N01139804EA0000000122
B1649105526989N01139664EA0000000103
B1649165527031N01139521EA0000000081
B1650035527146N01138626EA0000000031
