AOGNOGN
HFDTE170725
HFFXA050
HFPLTPILOTINCHARGE:
HFGTYGLIDERTYPE:ASK-21
HFGIDGLIDERID:OY-XPL
HFDTM100GPSDATUM:WGS-1984
HFRFWFIRMWAREVERSION:
HFRHWHARDWAREVERSION:
HFFTYFRTYPE:OGN-FLIGHTBOOK
HFGPSGENERIC
HFPRSPRESSALTSENSOR:
HFCIDCOMPETITIONID:PL
B1727105527158N01138325EA0000000034
B1727155527157N01138418EA0000000034
B1727155527157N01138418EA0000000034
B1727205527161N01138535EA0000000034
B1727275527159N01138730EA0000000039
B1727325527149N01138883EA0000000046
B1727405527107N01139130EA0000000063
B1728295526821N01140539EA0000000180
B1728365526783N01140738EA0000000191
B1728415526730N01140865EA0000000198
B1728515526573N01141044EA0000000211
B1729015526385N01141139EA0000000226
B1729095526226N01141143EA0000000241
B1729145526125N01141120EA0000000250
B1729195526028N01141073EA0000000262
B1729305525824N01140919EA0000000284
B1730185525459N01139523EA0000000400
B1730235525454N01139356EA0000000409
B1730295525456N01139153EA0000000419
B1730425525500N01138725EA0000000445
B1730495525554N01138524EA0000000463
B1730545525610N01138405EA0000000470
B1731005525694N01138304EA0000000485
B1731065525784N01138234EA0000000500
B1731135525894N01138161EA0000000508
B1731185525966N01138094EA0000000520
B1731235525992N01137971EA0000000523
B1731315525992N01137751EA0000000518
B1731405525998N01137516EA0000000511
B1731495526007N01137303EA0000000511
B1731545526014N01137182EA0000000503
B1732005526031N01137045EA0000000493
B1732055526080N01136996EA0000000484
B1732105526130N01137036EA0000000476
B1732175526193N01137115EA0000000471
B1732245526250N01137201EA0000000465
B1732335526317N01137307EA0000000459
B1732405526368N01137388EA0000000460
B1732485526420N01137485EA0000000457
B1732545526453N01137565EA0000000453
B1733025526482N01137691EA0000000453
B1733075526467N01137776EA0000000450
B1733125526407N01137806EA0000000447
B1733175526359N01137725EA0000000442
B1733225526380N01137632EA0000000437
B1733305526452N01137652EA0000000438
B1733355526491N01137691EA0000000436
B1733425526542N01137751EA0000000437
B1733475526571N01137787EA0000000426
B1733525526613N01137840EA0000000419
B1733575526636N01137904EA0000000412
B1734025526589N01137973EA0000000391
B1734075526558N01137879EA0000000376
B1734125526600N01137919EA0000000365
B1734185526594N01138058EA0000000359
B1734285526577N01138281EA0000000340
B1734335526563N01138398EA0000000344
B1734385526563N01138499EA0000000337
B1734455526627N01138483EA0000000332
B1734515526659N01138365EA0000000328
B1734565526687N01138265EA0000000312
B1735025526729N01138135EA0000000304
B1735085526757N01138002EA0000000303
B1735135526707N01137925EA0000000296
B1735195526653N01138015EA0000000286
B1735255526670N01138142EA0000000273
B1735305526659N01138257EA0000000268
B1735365526616N01138380EA0000000266
B1735415526580N01138481EA0000000260
B1735465526602N01138572EA0000000246
B1735535526648N01138443EA0000000238
B1735595526654N01138285EA0000000233
B1736045526661N01138156EA0000000230
B1736105526672N01138013EA0000000228
B1736155526686N01137894EA0000000217
B1736205526705N01137767EA0000000206
B1736275526741N01137592EA0000000201
B1736325526774N01137477EA0000000195
B1736385526838N01137389EA0000000186
B1736445526909N01137312EA0000000175
B1736495526973N01137253EA0000000168
B1736545527040N01137203EA0000000162
B1737015527121N01137249EA0000000158
B1737065527130N01137374EA0000000150
B1737145527130N01137580EA0000000140
B1737265527135N01137895EA0000000094
B1737355527141N01138144EA0000000057
B1737405527142N01138281EA0000000037
