AOGNOGN
HFDTE280625
HFFXA050
HFPLTPILOTINCHARGE:
HFGTYGLIDERTYPE:PA-25 Pawnee
HFGIDGLIDERID:OY-CYP
HFDTM100GPSDATUM:WGS-1984
HFRFWFIRMWAREVERSION:
HFRHWHARDWAREVERSION:
HFFTYFRTYPE:OGN-FLIGHTBOOK
HFGPSGENERIC
HFPRSPRESSALTSENSOR:
HFCIDCOMPETITIONID:YP
B1142125553129N01213903EA0000000019
B1142165553131N01213833EA0000000019
B1142225553138N01213698EA0000000022
B1142295553148N01213522EA0000000043
B1142355553147N01213380EA0000000067
B1142405553139N01213273EA0000000085
B1142465553115N01213154EA0000000100
B1142545553069N01213001EA0000000119
B1143045553001N01212821EA0000000148
B1143135552921N01212681EA0000000164
B1143195552872N01212581EA0000000179
B1143265552829N01212448EA0000000203
B1143325552798N01212324EA0000000223
B1143465552737N01212029EA0000000265
B1143535552705N01211873EA0000000285
B1143585552693N01211757EA0000000298
B1144035552686N01211638EA0000000308
B1144145552642N01211394EA0000000348
B1144395552530N01210776EA0000000424
B1144475552509N01210558EA0000000455
B1145015552444N01210198EA0000000509
B1145285552309N01209457EA0000000598
B1145405552258N01209130EA0000000637
B1145525552225N01208809EA0000000671
B1146005552209N01208598EA0000000699
B1146065552228N01208440EA0000000717
B1146155552311N01208230EA0000000739
B1146205552353N01208121EA0000000747
B1147105552299N01206947EA0000000844
B1147185552323N01206765EA0000000815
B1147255552343N01206605EA0000000789
B1147355552362N01206370EA0000000738
B1147405552359N01206247EA0000000709
B1148125552254N01205398EA0000000518
B1148175552191N01205320EA0000000488
B1148255552050N01205344EA0000000450
B1148335551912N01205502EA0000000417
B1148535551590N01205785EA0000000344
B1149005551471N01205815EA0000000311
B1149075551352N01205810EA0000000271
B1149175551214N01205697EA0000000223
B1216085551899N01204038EA0000000174
B1216145552011N01204071EA0000000193
B1216205552122N01204157EA0000000206
B1216265552230N01204314EA0000000220
B1216335552314N01204574EA0000000244
B1216405552347N01204869EA0000000263
B1216495552367N01205254EA0000000287
B1216575552392N01205597EA0000000314
B1217145552457N01206345EA0000000362
B1217205552484N01206607EA0000000379
B1217325552527N01207128EA0000000416
B1217405552550N01207477EA0000000436
B1217495552575N01207869EA0000000463
B1217585552595N01208259EA0000000493
B1218075552616N01208649EA0000000512
B1218145552634N01208958EA0000000530
B1218245552657N01209403EA0000000555
B1218305552668N01209672EA0000000567
B1218395552683N01210080EA0000000586
B1218445552688N01210308EA0000000599
B1218575552688N01210895EA0000000635
B1219035552683N01211164EA0000000647
B1219085552682N01211396EA0000000641
B1219165552622N01211789EA0000000570
B1219215552571N01212034EA0000000546
B1219265552524N01212263EA0000000524
B1219315552485N01212485EA0000000504
B1219405552441N01212888EA0000000448
B1219485552419N01213257EA0000000405
B1219585552424N01213725EA0000000352
B1220045552456N01213994EA0000000327
B1220115552528N01214271EA0000000297
B1220175552624N01214448EA0000000271
B1220235552738N01214553EA0000000240
B1220305552877N01214598EA0000000202
B1220385553014N01214546EA0000000162
B1220465553112N01214396EA0000000109
B1220515553142N01214258EA0000000073
B1220585553136N01214051EA0000000027
B1221085553132N01213812EA0000000020
B1221175553137N01213696EA0000000019
