AOGNOGN
HFDTE280625
HFFXA050
HFPLTPILOTINCHARGE:
HFGTYGLIDERTYPE:ASK-23
HFGIDGLIDERID:OY-XOD
HFDTM100GPSDATUM:WGS-1984
HFRFWFIRMWAREVERSION:
HFRHWHARDWAREVERSION:
HFFTYFRTYPE:OGN-FLIGHTBOOK
HFGPSGENERIC
HFPRSPRESSALTSENSOR:
HFCIDCOMPETITIONID:OD
B1102475553097N01213994EA0000000018
B1102475553097N01213994EA0000000018
B1102525553106N01213906EA0000000085
B1102575553120N01213814EA0000000199
B1103025553136N01213711EA0000000296
B1103075553157N01213594EA0000000366
B1103125553173N01213468EA0000000427
B1103175553185N01213356EA0000000478
B1103225553189N01213285EA0000000489
B1103295553155N01213227EA0000000475
B1103355553110N01213199EA0000000462
B1103405553057N01213219EA0000000449
B1103465552995N01213238EA0000000441
B1103515552951N01213285EA0000000437
B1103565552923N01213398EA0000000432
B1104025552878N01213408EA0000000432
B1104075552916N01213369EA0000000429
B1104125552963N01213459EA0000000427
B1104195552917N01213587EA0000000413
B1104255552852N01213615EA0000000411
B1104305552818N01213587EA0000000420
B1104365552866N01213567EA0000000411
B1104435552869N01213730EA0000000414
B1104485552843N01213710EA0000000416
B1104535552893N01213709EA0000000403
B1104585552919N01213837EA0000000403
B1105035552873N01213891EA0000000398
B1105105552797N01213866EA0000000390
B1105155552749N01213831EA0000000387
B1105205552692N01213884EA0000000382
B1105275552621N01214008EA0000000376
B1105325552600N01213952EA0000000372
B1105415552541N01213845EA0000000352
B1105465552511N01213780EA0000000356
B1105525552498N01213686EA0000000354
B1105575552524N01213608EA0000000343
B1106025552509N01213531EA0000000326
B1106095552458N01213445EA0000000321
B1106155552467N01213348EA0000000310
B1106235552477N01213207EA0000000284
B1106285552445N01213155EA0000000275
B1106355552367N01213207EA0000000263
B1106405552342N01213157EA0000000261
B1106455552397N01213118EA0000000253
B1106525552431N01213274EA0000000247
B1106575552391N01213282EA0000000232
B1107025552396N01213200EA0000000224
B1107095552437N01213069EA0000000218
B1107145552474N01212976EA0000000216
B1107195552539N01212929EA0000000219
B1107265552635N01213031EA0000000216
B1107315552649N01213183EA0000000205
B1107365552635N01213336EA0000000198
B1107435552610N01213561EA0000000188
B1107485552591N01213723EA0000000182
B1108005552546N01214121EA0000000172
B1108055552550N01214291EA0000000171
B1108135552621N01214521EA0000000177
B1108195552695N01214668EA0000000171
B1108245552777N01214729EA0000000163
B1108345552944N01214771EA0000000150
B1108395552995N01214716EA0000000135
B1108445553010N01214618EA0000000116
B1108515553025N01214457EA0000000093
B1108595553040N01214277EA0000000059
B1109055553051N01214151EA0000000034
B1109115553063N01214020EA0000000016
B1109175553077N01213926EA0000000015
