AOGNOGN
HFDTE280625
HFFXA050
HFPLTPILOTINCHARGE:
HFGTYGLIDERTYPE:ASK-21
HFGIDGLIDERID:OY-XVC
HFDTM100GPSDATUM:WGS-1984
HFRFWFIRMWAREVERSION:
HFRHWHARDWAREVERSION:
HFFTYFRTYPE:OGN-FLIGHTBOOK
HFGPSGENERIC
HFPRSPRESSALTSENSOR:
HFCIDCOMPETITIONID:VC
B0915395553130N01213893EA0000000018
B0915395553130N01213893EA0000000018
B0915485553146N01213681EA0000000021
B0915545553158N01213514EA0000000033
B0915595553163N01213377EA0000000051
B0916095553146N01213115EA0000000084
B0916145553123N01212998EA0000000101
B0916225553053N01212843EA0000000119
B0916295552976N01212730EA0000000138
B0916395552865N01212577EA0000000167
B0916445552821N01212489EA0000000183
B0916495552776N01212406EA0000000196
B0916565552704N01212298EA0000000210
B0917015552641N01212253EA0000000230
B0917075552553N01212270EA0000000247
B0917135552465N01212354EA0000000262
B0917195552385N01212469EA0000000280
B0917315552241N01212770EA0000000312
B0917375552170N01212912EA0000000328
B0917425552115N01213025EA0000000345
B0917475552046N01213097EA0000000350
B0917565551924N01213084EA0000000374
B0918015551875N01213018EA0000000385
B0918095551846N01212854EA0000000409
B0918145551864N01212744EA0000000423
B0918235551923N01212557EA0000000452
B0918305551978N01212428EA0000000475
B0918385552053N01212279EA0000000497
B0918445552123N01212181EA0000000510
B0918495552188N01212115EA0000000527
B0918555552265N01212044EA0000000549
B0919005552323N01211980EA0000000558
B0919075552405N01211892EA0000000574
B0919135552469N01211808EA0000000585
B0919195552524N01211707EA0000000592
B0919245552571N01211624EA0000000608
B0919295552616N01211547EA0000000624
B0919355552662N01211456EA0000000645
B0919405552685N01211374EA0000000656
B0919465552690N01211280EA0000000681
B0919525552679N01211185EA0000000695
B0919595552659N01211075EA0000000715
B0920195552504N01210853EA0000000761
B0920385552290N01210727EA0000000808
B0920455552206N01210756EA0000000820
B0920505552146N01210871EA0000000814
B0920575552088N01211113EA0000000803
B0921055552043N01211415EA0000000799
B0921105552018N01211605EA0000000795
B0921155551995N01211795EA0000000792
B0921205551971N01211983EA0000000789
B0921295551938N01212321EA0000000781
B0921365551922N01212589EA0000000776
B0921415551887N01212757EA0000000770
B0921465551825N01212843EA0000000764
B0921515551781N01212842EA0000000758
B0921565551784N01212810EA0000000752
B0922015551829N01212807EA0000000743
B0922115551938N01212822EA0000000733
B0922185552008N01212829EA0000000728
B0922275552088N01212823EA0000000719
B0922355552152N01212811EA0000000711
B0922405552191N01212803EA0000000704
B0922455552237N01212801EA0000000696
B0922525552321N01212901EA0000000686
B0922585552390N01213054EA0000000677
B0923095552523N01213298EA0000000671
B0923165552601N01213310EA0000000666
B0923215552635N01213278EA0000000667
B0923265552665N01213245EA0000000666
B0923315552690N01213209EA0000000663
B0923385552718N01213153EA0000000662
B0923435552730N01213110EA0000000660
B0923495552754N01213067EA0000000659
B0923555552791N01213036EA0000000652
B0924005552835N01213014EA0000000643
B0924065552907N01213036EA0000000641
B0924115552972N01213118EA0000000637
B0924175553035N01213279EA0000000635
B0924225553020N01213452EA0000000629
B0924315552911N01213646EA0000000633
B0924395552817N01213814EA0000000634
B0924455552749N01213952EA0000000635
B0924515552686N01214109EA0000000633
B0924595552587N01214255EA0000000633
B0925045552531N01214279EA0000000628
B0925105552471N01214262EA0000000617
B0925195552387N01214220EA0000000606
B0925255552385N01214164EA0000000602
B0925325552457N01214125EA0000000589
B0925435552581N01214074EA0000000586
B0925485552631N01214054EA0000000584
B0925535552663N01214012EA0000000577
B0925595552633N01213972EA0000000576
B0926085552557N01213946EA0000000574
B0926165552480N01213932EA0000000568
B0926215552435N01213921EA0000000562
B0926285552410N01213868EA0000000561
B0926345552426N01213800EA0000000543
B0926405552447N01213717EA0000000536
B0926505552484N01213592EA0000000528
B0927005552521N01213470EA0000000516
B0927065552543N01213399EA0000000519
B0927115552564N01213347EA0000000515
B0927165552584N01213291EA0000000516
B0927235552609N01213227EA0000000516
B0927315552635N01213153EA0000000497
B0927365552646N01213102EA0000000480
B0927415552653N01213031EA0000000479
B0927465552662N01212992EA0000000478
B0927545552665N01212884EA0000000465
B0928035552668N01212770EA0000000458
B0928095552679N01212693EA0000000453
B0928155552690N01212609EA0000000443
B0928215552696N01212525EA0000000439
B0928315552716N01212389EA0000000427
B0928365552734N01212319EA0000000423
B0928415552791N01212273EA0000000413
B0928485552890N01212356EA0000000404
B0928545552907N01212542EA0000000398
B0928595552895N01212689EA0000000388
B0929055552888N01212871EA0000000388
B0929135552882N01213112EA0000000379
B0929195552881N01213293EA0000000376
B0929245552882N01213442EA0000000375
B0929295552844N01213543EA0000000367
B0929355552783N01213544EA0000000363
B0929465552685N01213520EA0000000358
B0929525552634N01213506EA0000000354
B0929595552565N01213481EA0000000339
B0930055552506N01213466EA0000000337
B0930105552452N01213459EA0000000332
B0930165552376N01213438EA0000000321
B0930225552352N01213343EA0000000322
B0930275552398N01213261EA0000000326
B0930325552473N01213256EA0000000321
B0930375552556N01213334EA0000000307
B0930425552640N01213411EA0000000305
B0930475552719N01213482EA0000000298
B0930535552819N01213517EA0000000290
B0930585552858N01213442EA0000000292
B0931045552835N01213364EA0000000284
B0931095552784N01213369EA0000000275
B0931145552736N01213451EA0000000269
B0931215552720N01213647EA0000000263
B0931295552713N01213874EA0000000259
B0931345552678N01213977EA0000000260
B0931395552623N01213980EA0000000243
B0931445552598N01213911EA0000000242
B0931505552620N01213808EA0000000233
B0931555552654N01213727EA0000000230
B0932015552692N01213639EA0000000228
B0932095552735N01213519EA0000000213
B0932155552750N01213423EA0000000208
B0932205552713N01213376EA0000000198
B0932255552664N01213431EA0000000194
B0932315552644N01213596EA0000000185
B0932365552649N01213749EA0000000181
B0932415552647N01213897EA0000000181
B0932465552619N01214026EA0000000178
B0932535552579N01214214EA0000000169
B0932585552572N01214368EA0000000155
B0933035552619N01214522EA0000000141
B0933085552682N01214672EA0000000132
B0933135552753N01214812EA0000000131
B0933195552862N01214894EA0000000122
B0933255552951N01214816EA0000000113
B0933305552981N01214694EA0000000099
B0933365553000N01214553EA0000000079
B0933445553021N01214375EA0000000049
B0933495553032N01214262EA0000000038
B0933545553045N01214140EA0000000025
B0934025553064N01213962EA0000000016
