AOGNOGN
HFDTE280625
HFFXA050
HFPLTPILOTINCHARGE:
HFGTYGLIDERTYPE:ASK-21
HFGIDGLIDERID:OY-XVC
HFDTM100GPSDATUM:WGS-1984
HFRFWFIRMWAREVERSION:
HFRHWHARDWAREVERSION:
HFFTYFRTYPE:OGN-FLIGHTBOOK
HFGPSGENERIC
HFPRSPRESSALTSENSOR:
HFCIDCOMPETITIONID:VC
B1304215553100N01214003EA0000000020
B1304225553101N01213982EA0000000026
B1304275553098N01213890EA0000000113
B1304345553094N01213774EA0000000243
B1304435553091N01213600EA0000000397
B1304485553096N01213495EA0000000458
B1304535553105N01213388EA0000000500
B1305005553105N01213289EA0000000522
B1305055553101N01213226EA0000000523
B1305105553095N01213170EA0000000524
B1305185553077N01213089EA0000000522
B1305235553064N01213045EA0000000517
B1305305553002N01213004EA0000000498
B1305395552907N01212976EA0000000500
B1305445552860N01212960EA0000000493
B1305515552806N01212916EA0000000484
B1305565552804N01212858EA0000000478
B1306045552891N01212794EA0000000467
B1306105552914N01212723EA0000000457
B1306155552854N01212728EA0000000449
B1306205552783N01212846EA0000000444
B1306265552731N01213063EA0000000442
B1306315552688N01213235EA0000000435
B1306375552614N01213287EA0000000421
B1306425552588N01213234EA0000000417
B1306505552557N01213146EA0000000414
B1306595552525N01213055EA0000000408
B1307045552541N01212995EA0000000404
B1307125552573N01212901EA0000000397
B1307195552597N01212824EA0000000393
B1307255552611N01212762EA0000000385
B1307325552557N01212740EA0000000370
B1307375552495N01212829EA0000000365
B1307425552478N01213006EA0000000353
B1307505552566N01213249EA0000000348
B1307555552638N01213291EA0000000337
B1308005552674N01213242EA0000000327
B1308085552708N01213149EA0000000324
B1308145552734N01213091EA0000000323
B1308235552771N01213007EA0000000316
B1308295552796N01212952EA0000000312
B1308355552818N01212882EA0000000302
B1308405552831N01212822EA0000000299
B1308455552839N01212766EA0000000296
B1308515552825N01212712EA0000000289
B1308575552753N01212768EA0000000286
B1309035552680N01212875EA0000000278
B1309085552630N01212874EA0000000266
B1309195552621N01212726EA0000000256
B1309245552616N01212661EA0000000253
B1309315552606N01212579EA0000000249
B1309365552593N01212525EA0000000245
B1309415552582N01212469EA0000000241
B1309485552608N01212401EA0000000225
B1309535552686N01212483EA0000000221
B1309585552731N01212656EA0000000216
B1310055552732N01212920EA0000000206
B1310115552703N01213139EA0000000200
B1310185552670N01213396EA0000000194
B1310245552644N01213615EA0000000190
B1310335552604N01213945EA0000000185
B1310395552587N01214163EA0000000186
B1310445552612N01214340EA0000000184
B1310505552676N01214525EA0000000177
B1310565552746N01214696EA0000000179
B1311025552834N01214777EA0000000179
B1311085552922N01214831EA0000000170
B1311135552977N01214812EA0000000155
B1311205552993N01214687EA0000000128
B1311255553001N01214575EA0000000116
B1311305553010N01214460EA0000000101
B1311355553022N01214345EA0000000081
B1311435553040N01214166EA0000000042
B1311495553049N01214025EA0000000022
B1311545553058N01213926EA0000000018
B1312045553073N01213777EA0000000018
