AOGNOGN
HFDTE280625
HFFXA050
HFPLTPILOTINCHARGE:
HFGTYGLIDERTYPE:
HFGIDGLIDERID:
HFDTM100GPSDATUM:WGS-1984
HFRFWFIRMWAREVERSION:
HFRHWHARDWAREVERSION:
HFFTYFRTYPE:OGN-FLIGHTBOOK
HFGPSGENERIC
HFPRSPRESSALTSENSOR:
HFCIDCOMPETITIONID:
B1319055602494N01229191EA0000000301
B1319145602385N01229065EA0000000309
B1319225602285N01228957EA0000000323
B1319285602207N01228878EA0000000327
B1319335602140N01228812EA0000000328
B1319405602043N01228717EA0000000330
B1319485601941N01228590EA0000000331
B1319555601856N01228472EA0000000328
B1320025601769N01228353EA0000000329
B1320095601679N01228238EA0000000337
B1320155601602N01228140EA0000000340
B1320225601513N01228018EA0000000336
B1320295601421N01227891EA0000000342
B1320365601322N01227773EA0000000345
B1320435601220N01227659EA0000000351
B1320505601130N01227540EA0000000355
B1320595601019N01227381EA0000000353
B1321065600944N01227237EA0000000353
B1321135600866N01227085EA0000000348
B1321195600796N01226951EA0000000343
B1321265600710N01226797EA0000000342
B1321325600630N01226674EA0000000342
B1321375600562N01226568EA0000000338
B1321425600491N01226454EA0000000318
B1321505600384N01226271EA0000000309
B1321555600317N01226158EA0000000299
B1322015600242N01226015EA0000000297
B1322075600167N01225877EA0000000293
B1322165600067N01225679EA0000000294
B1322215600014N01225571EA0000000296
B1322265559960N01225464EA0000000293
B1322325559895N01225336EA0000000286
B1322405559807N01225162EA0000000280
B1322475559730N01225010EA0000000279
B1322575559625N01224779EA0000000283
B1323055559532N01224598EA0000000280
B1323125559455N01224446EA0000000275
B1323185559386N01224316EA0000000269
B1323235559300N01224264EA0000000269
B1323295559178N01224266EA0000000269
B1323345559074N01224275EA0000000272
B1323395558978N01224254EA0000000282
B1323445558896N01224198EA0000000287
B1323505558814N01224095EA0000000294
B1323565558734N01223984EA0000000292
B1324025558649N01223877EA0000000293
B1324095558564N01223713EA0000000301
B1324165558480N01223541EA0000000310
B1324255558358N01223326EA0000000312
B1324305558287N01223223EA0000000318
B1324385558156N01223111EA0000000319
B1324475558005N01223010EA0000000324
B1324555557873N01222938EA0000000327
B1325005557797N01222879EA0000000325
B1325105557649N01222738EA0000000321
B1325215557507N01222558EA0000000320
B1325305557405N01222394EA0000000318
B1325385557315N01222244EA0000000317
B1325435557260N01222148EA0000000323
B1325505557195N01222034EA0000000346
B1325555557157N01221948EA0000000347
B1326025557093N01221812EA0000000349
B1326125556991N01221603EA0000000350
B1326185556929N01221470EA0000000348
B1326255556859N01221312EA0000000352
B1326325556784N01221166EA0000000348
B1326405556693N01221013EA0000000338
B1326465556622N01220899EA0000000333
B1326545556524N01220735EA0000000324
B1327045556403N01220545EA0000000320
B1327095556344N01220452EA0000000313
B1327155556271N01220342EA0000000310
B1327225556187N01220211EA0000000292
B1327285556119N01220097EA0000000288
B1327365556032N01219941EA0000000286
B1327415555981N01219845EA0000000285
B1327485555912N01219711EA0000000288
B1327535555865N01219611EA0000000288
B1328025555775N01219429EA0000000286
B1328115555674N01219235EA0000000276
B1328165555618N01219124EA0000000277
B1328275555502N01218884EA0000000286
B1328355555423N01218708EA0000000287
B1328405555368N01218604EA0000000288
B1328475555293N01218461EA0000000284
B1328545555250N01218285EA0000000275
B1329015555229N01218094EA0000000271
B1329085555206N01217912EA0000000276
B1329185555129N01217688EA0000000269
B1329255555052N01217560EA0000000271
B1329305554991N01217480EA0000000274
B1329355554926N01217402EA0000000276
B1329405554863N01217319EA0000000278
B1329525554717N01217133EA0000000277
B1329595554639N01217012EA0000000273
B1330105554519N01216805EA0000000256
B1330155554462N01216707EA0000000253
B1330225554384N01216559EA0000000255
B1330285554326N01216430EA0000000254
B1330355554252N01216281EA0000000238
B1330405554209N01216165EA0000000245
B1330505554184N01215896EA0000000253
B1330555554136N01215778EA0000000253
B1331015554044N01215688EA0000000259
B1331065553971N01215609EA0000000262
B1331115553907N01215513EA0000000259
B1331175553852N01215379EA0000000255
B1331235553809N01215248EA0000000251
B1331285553781N01215142EA0000000251
B1331345553768N01215017EA0000000245
B1331425553744N01214849EA0000000242
B1331515553699N01214651EA0000000241
B1331565553683N01214544EA0000000246
B1332015553666N01214441EA0000000240
B1332085553660N01214293EA0000000236
B1332155553642N01214152EA0000000232
B1332215553611N01214047EA0000000229
B1332265553588N01213960EA0000000219
B1332355553542N01213785EA0000000202
B1332425553506N01213638EA0000000201
B1332505553476N01213467EA0000000198
B1332595553514N01213261EA0000000193
B1333075553562N01213075EA0000000194
B1333135553576N01212935EA0000000189
B1333195553563N01212792EA0000000190
B1333245553526N01212701EA0000000193
B1333295553451N01212738EA0000000191
B1333345553408N01212913EA0000000183
B1333395553427N01213130EA0000000177
B1333445553476N01213337EA0000000175
B1333495553519N01213549EA0000000176
B1333575553587N01213884EA0000000181
B1334035553614N01214127EA0000000188
B1334105553590N01214385EA0000000186
B1334165553538N01214572EA0000000173
B1334235553443N01214712EA0000000164
B1334295553356N01214787EA0000000154
B1334365553254N01214829EA0000000146
B1334445553142N01214826EA0000000138
B1334495553073N01214805EA0000000129
B1334545553023N01214737EA0000000117
B1335015553000N01214593EA0000000099
B1335085553007N01214431EA0000000079
B1335145553022N01214292EA0000000053
B1335235553049N01214070EA0000000024
B1335315553067N01213886EA0000000020
B1335365553077N01213790EA0000000019
B1335415553087N01213706EA0000000019
