AOGNOGN
HFDTE210625
HFFXA050
HFPLTPILOTINCHARGE:
HFGTYGLIDERTYPE:ASK-21
HFGIDGLIDERID:OY-TRX
HFDTM100GPSDATUM:WGS-1984
HFRFWFIRMWAREVERSION:
HFRHWHARDWAREVERSION:
HFFTYFRTYPE:OGN-FLIGHTBOOK
HFGPSGENERIC
HFPRSPRESSALTSENSOR:
HFCIDCOMPETITIONID:TR
B1529135610635N01004974EA0000000078
B1529155610643N01004931EA0000000110
B1529205610667N01004845EA0000000204
B1529255610680N01004751EA0000000286
B1529305610697N01004639EA0000000365
B1529355610718N01004523EA0000000432
B1529405610750N01004403EA0000000477
B1529475610800N01004236EA0000000500
B1529525610838N01004147EA0000000513
B1529575610901N01004120EA0000000522
B1530025610945N01004073EA0000000528
B1530075610915N01004011EA0000000524
B1530125610853N01004082EA0000000525
B1530175610855N01004239EA0000000520
B1530245610944N01004356EA0000000530
B1530295611012N01004401EA0000000530
B1530345611057N01004363EA0000000526
B1530395611028N01004300EA0000000521
B1530445610967N01004354EA0000000519
B1530515610965N01004566EA0000000519
B1530565611030N01004650EA0000000518
B1531015611095N01004664EA0000000516
B1531065611152N01004717EA0000000519
B1531115611183N01004875EA0000000473
B1531165611215N01005050EA0000000495
B1531215611260N01005168EA0000000495
B1531265611310N01005178EA0000000472
B1531315611277N01005081EA0000000404
B1531365611225N01004980EA0000000434
B1531415611209N01004899EA0000000445
B1531475611218N01004805EA0000000433
B1531525611227N01004731EA0000000431
B1531595611239N01004644EA0000000423
B1532055611253N01004565EA0000000413
B1532115611270N01004480EA0000000406
B1532195611278N01004377EA0000000401
B1532255611268N01004302EA0000000398
B1532305611259N01004229EA0000000388
B1532355611281N01004160EA0000000388
B1532405611344N01004156EA0000000385
B1532455611404N01004259EA0000000397
B1532515611405N01004459EA0000000389
B1532565611413N01004620EA0000000399
B1533015611473N01004704EA0000000389
B1533075611552N01004697EA0000000385
B1533125611607N01004684EA0000000383
B1533185611671N01004672EA0000000375
B1533235611716N01004638EA0000000371
B1533285611752N01004585EA0000000359
B1533345611777N01004506EA0000000355
B1533395611788N01004437EA0000000347
B1533445611803N01004364EA0000000340
B1533495611820N01004296EA0000000334
B1533565611839N01004197EA0000000316
B1534055611850N01004063EA0000000314
B1534105611827N01003986EA0000000305
B1534175611730N01004003EA0000000298
B1534225611656N01004078EA0000000286
B1534275611586N01004188EA0000000278
B1534325611545N01004349EA0000000272
B1534375611514N01004508EA0000000270
B1534445611469N01004740EA0000000259
B1534505611426N01004943EA0000000247
B1534565611380N01005159EA0000000240
B1535045611285N01005391EA0000000238
B1535105611197N01005542EA0000000222
B1535175611089N01005704EA0000000222
B1535225611006N01005764EA0000000225
B1535275610933N01005808EA0000000231
B1535325610854N01005830EA0000000212
B1535375610779N01005813EA0000000207
B1535445610751N01005672EA0000000189
B1535495610744N01005552EA0000000170
B1535545610742N01005432EA0000000153
B1536005610739N01005295EA0000000135
B1536095610737N01005087EA0000000095
B1536165610741N01004919EA0000000067
