AOGNOGN
HFDTE210625
HFFXA050
HFPLTPILOTINCHARGE:
HFGTYGLIDERTYPE:LS-1 f
HFGIDGLIDERID:OY-TJX
HFDTM100GPSDATUM:WGS-1984
HFRFWFIRMWAREVERSION:
HFRHWHARDWAREVERSION:
HFFTYFRTYPE:OGN-FLIGHTBOOK
HFGPSGENERIC
HFPRSPRESSALTSENSOR:
HFCIDCOMPETITIONID:TJ
B1023485610632N01004969EA0000000072
B1023535610655N01004862EA0000000140
B1023585610675N01004766EA0000000221
B1024035610695N01004668EA0000000298
B1024085610718N01004574EA0000000367
B1024135610740N01004477EA0000000416
B1024215610771N01004322EA0000000444
B1024265610787N01004245EA0000000442
B1024315610822N01004181EA0000000435
B1024365610891N01004183EA0000000425
B1024415610953N01004287EA0000000420
B1024465610978N01004454EA0000000407
B1024525610991N01004675EA0000000390
B1024595611013N01004931EA0000000384
B1025055611033N01005138EA0000000375
B1025125611108N01005310EA0000000370
B1025175611177N01005326EA0000000368
B1025225611211N01005243EA0000000356
B1025315611175N01005065EA0000000357
B1025375611140N01004959EA0000000352
B1025425611110N01004872EA0000000344
B1025505611104N01004722EA0000000335
B1025555611107N01004628EA0000000334
B1026005611111N01004536EA0000000333
B1026085611147N01004394EA0000000346
B1026135611123N01004316EA0000000355
B1026185611061N01004360EA0000000360
B1026235611056N01004508EA0000000354
B1026285611121N01004573EA0000000350
B1026345611150N01004466EA0000000356
B1026395611100N01004413EA0000000367
B1026445611053N01004527EA0000000366
B1026495611098N01004650EA0000000364
B1026545611160N01004607EA0000000370
B1026595611163N01004504EA0000000384
B1027045611111N01004467EA0000000397
B1027095611057N01004580EA0000000392
B1027145611091N01004723EA0000000391
B1027205611170N01004696EA0000000384
B1027255611180N01004587EA0000000393
B1027305611127N01004539EA0000000396
B1027365611072N01004698EA0000000383
B1027415611130N01004809EA0000000390
B1027465611194N01004772EA0000000391
B1027525611214N01004660EA0000000394
B1027575611206N01004566EA0000000386
B1028025611164N01004506EA0000000380
B1028085611087N01004593EA0000000368
B1028135611092N01004752EA0000000361
B1028185611160N01004817EA0000000351
B1028265611264N01004756EA0000000341
B1028335611304N01004627EA0000000341
B1028385611318N01004537EA0000000342
B1028465611312N01004383EA0000000330
B1028545611288N01004230EA0000000320
B1028595611255N01004142EA0000000315
B1029045611228N01004051EA0000000312
B1029095611257N01003968EA0000000311
B1029155611335N01003958EA0000000303
B1029205611403N01004028EA0000000297
B1029255611433N01004183EA0000000293
B1029305611389N01004331EA0000000276
B1029355611315N01004434EA0000000271
B1029405611285N01004601EA0000000270
B1029475611263N01004855EA0000000256
B1029525611255N01005044EA0000000245
B1030005611237N01005343EA0000000243
B1030055611179N01005482EA0000000240
B1030115611085N01005596EA0000000230
B1030165611009N01005702EA0000000220
B1030215610926N01005770EA0000000208
B1030275610820N01005791EA0000000203
B1030325610739N01005791EA0000000204
B1030375610716N01005683EA0000000191
B1030435610731N01005532EA0000000170
B1030505610739N01005358EA0000000149
B1031075610744N01004955EA0000000073
B1031135610746N01004830EA0000000071
