AOGNOGN
HFDTE210625
HFFXA050
HFPLTPILOTINCHARGE:
HFGTYGLIDERTYPE:LS-1 f
HFGIDGLIDERID:OY-TJX
HFDTM100GPSDATUM:WGS-1984
HFRFWFIRMWAREVERSION:
HFRHWHARDWAREVERSION:
HFFTYFRTYPE:OGN-FLIGHTBOOK
HFGPSGENERIC
HFPRSPRESSALTSENSOR:
HFCIDCOMPETITIONID:TJ
B1302195610629N01004972EA0000000069
B1302245610649N01004873EA0000000132
B1302295610672N01004803EA0000000208
B1302345610696N01004728EA0000000264
B1302395610716N01004644EA0000000324
B1302445610733N01004554EA0000000377
B1302495610747N01004459EA0000000420
B1302555610763N01004361EA0000000434
B1303005610775N01004297EA0000000431
B1303055610808N01004242EA0000000419
B1303105610875N01004274EA0000000410
B1303155610915N01004414EA0000000404
B1303225610875N01004642EA0000000388
B1303285610836N01004840EA0000000396
B1303335610843N01005001EA0000000400
B1303385610904N01005093EA0000000396
B1303435610964N01005060EA0000000382
B1303485610962N01004971EA0000000376
B1303535610900N01004953EA0000000381
B1303585610841N01005061EA0000000383
B1304035610841N01005230EA0000000387
B1304085610901N01005349EA0000000377
B1304135610978N01005356EA0000000368
B1304195611046N01005285EA0000000366
B1304245611073N01005197EA0000000365
B1304325611088N01005056EA0000000362
B1304375611099N01004969EA0000000363
B1304445611108N01004845EA0000000359
B1304505611143N01004746EA0000000360
B1304565611193N01004666EA0000000349
B1305015611250N01004615EA0000000339
B1305065611313N01004580EA0000000337
B1305125611381N01004524EA0000000342
B1305175611414N01004449EA0000000330
B1305225611462N01004387EA0000000313
B1305285611522N01004304EA0000000300
B1305335611534N01004213EA0000000293
B1305395611498N01004104EA0000000281
B1305445611428N01004100EA0000000279
B1305495611369N01004231EA0000000271
B1305565611326N01004484EA0000000256
B1306035611288N01004737EA0000000241
B1306085611268N01004915EA0000000244
B1306165611232N01005213EA0000000225
B1306215611176N01005361EA0000000220
B1306265611098N01005462EA0000000214
B1306325611008N01005587EA0000000216
B1306375610937N01005695EA0000000214
B1306425610858N01005743EA0000000214
B1306485610762N01005784EA0000000206
B1307045610741N01005428EA0000000151
B1307095610745N01005303EA0000000122
B1307175610738N01005106EA0000000085
B1307225610734N01004988EA0000000067
B1307405610729N01004838EA0000000068
