AOGNOGN
HFDTE210625
HFFXA050
HFPLTPILOTINCHARGE:
HFGTYGLIDERTYPE:LS-4
HFGIDGLIDERID:OY-XMD
HFDTM100GPSDATUM:WGS-1984
HFRFWFIRMWAREVERSION:
HFRHWHARDWAREVERSION:
HFFTYFRTYPE:OGN-FLIGHTBOOK
HFGPSGENERIC
HFPRSPRESSALTSENSOR:
HFCIDCOMPETITIONID:MD
B0848295610628N01004986EA0000000067
B0848315610637N01004941EA0000000093
B0848365610657N01004850EA0000000195
B0848435610680N01004739EA0000000294
B0848485610699N01004655EA0000000352
B0848535610719N01004566EA0000000408
B0849015610749N01004409EA0000000438
B0849065610762N01004311EA0000000441
B0849135610783N01004179EA0000000429
B0849185610837N01004124EA0000000420
B0849245610933N01004175EA0000000415
B0849365611092N01004212EA0000000448
B0849425611091N01004112EA0000000455
B0849475611037N01004078EA0000000444
B0849525610981N01004172EA0000000436
B0849575611004N01004320EA0000000440
B0850025611066N01004383EA0000000443
B0850085611149N01004375EA0000000442
B0850165611154N01004237EA0000000431
B0850215611083N01004268EA0000000413
B0850325611192N01004473EA0000000405
B0850385611265N01004436EA0000000401
B0850445611307N01004343EA0000000394
B0850495611301N01004250EA0000000391
B0850575611215N01004162EA0000000374
B0851065611165N01004023EA0000000353
B0851115611250N01004003EA0000000330
B0851175611357N01004014EA0000000332
B0851235611447N01004031EA0000000342
B0851295611530N01004079EA0000000340
B0851365611554N01004266EA0000000329
B0851435611485N01004470EA0000000317
B0851485611425N01004606EA0000000308
B0851555611333N01004785EA0000000296
B0852005611265N01004907EA0000000293
B0852065611180N01005047EA0000000289
B0852115611102N01005079EA0000000274
B0852185611079N01004911EA0000000244
B0852245611092N01004751EA0000000241
B0852295611098N01004635EA0000000239
B0852345611144N01004574EA0000000241
B0852405611182N01004740EA0000000228
B0852475611157N01004975EA0000000225
B0852575611114N01005290EA0000000211
B0853055611008N01005444EA0000000191
B0853125610897N01005535EA0000000194
B0853185610802N01005592EA0000000193
B0853235610736N01005566EA0000000189
B0853325610738N01005365EA0000000160
B0853375610743N01005266EA0000000133
B0853455610749N01005097EA0000000092
B0853505610754N01004991EA0000000073
B0854015610757N01004808EA0000000065
