AOGNOGN
HFDTE210625
HFFXA050
HFPLTPILOTINCHARGE:
HFGTYGLIDERTYPE:LS-4
HFGIDGLIDERID:OY-XMD
HFDTM100GPSDATUM:WGS-1984
HFRFWFIRMWAREVERSION:
HFRHWHARDWAREVERSION:
HFFTYFRTYPE:OGN-FLIGHTBOOK
HFGPSGENERIC
HFPRSPRESSALTSENSOR:
HFCIDCOMPETITIONID:MD
B0912115610627N01004979EA0000000071
B0912125610632N01004954EA0000000081
B0912195610667N01004815EA0000000225
B0912255610692N01004713EA0000000320
B0912315610712N01004592EA0000000396
B0912365610724N01004486EA0000000442
B0912445610738N01004306EA0000000456
B0912495610740N01004205EA0000000457
B0912575610798N01004099EA0000000442
B0913025610872N01004129EA0000000430
B0913075610948N01004169EA0000000432
B0913125611018N01004193EA0000000430
B0913175611086N01004194EA0000000431
B0913255611185N01004188EA0000000445
B0913335611236N01004091EA0000000436
B0913385611187N01004039EA0000000443
B0913455611107N01004152EA0000000444
B0913505611113N01004299EA0000000438
B0913575611204N01004330EA0000000423
B0914045611218N01004192EA0000000427
B0914095611190N01004101EA0000000429
B0914145611125N01004086EA0000000425
B0914205611060N01004222EA0000000410
B0914295611035N01004519EA0000000407
B0914375611028N01004764EA0000000421
B0914425611063N01004891EA0000000421
B0914485611142N01004876EA0000000407
B0914535611128N01004767EA0000000406
B0914595611060N01004691EA0000000421
B0915045610995N01004688EA0000000418
B0915115610937N01004877EA0000000395
B0915205610956N01005191EA0000000380
B0915275610976N01005420EA0000000382
B0915325611034N01005504EA0000000382
B0915395611099N01005400EA0000000378
B0915465611136N01005258EA0000000381
B0915535611135N01005130EA0000000380
B0915585611069N01005155EA0000000381
B0916035611063N01005291EA0000000381
B0916085611127N01005329EA0000000377
B0916155611200N01005232EA0000000365
B0916255611258N01005049EA0000000366
B0916325611287N01004904EA0000000352
B0916455611257N01004610EA0000000349
B0916505611242N01004510EA0000000354
B0917005611221N01004311EA0000000330
B0917065611227N01004184EA0000000319
B0917135611276N01004072EA0000000315
B0917185611342N01004059EA0000000309
B0917265611448N01004074EA0000000299
B0917315611512N01004068EA0000000287
B0917365611529N01003984EA0000000278
B0917445611413N01003939EA0000000257
B0917515611300N01003981EA0000000252
B0917575611250N01004157EA0000000244
B0918045611233N01004399EA0000000231
B0918115611217N01004646EA0000000219
B0918175611179N01004850EA0000000206
B0918235611131N01005047EA0000000202
B0918305611071N01005270EA0000000199
B0918365611021N01005443EA0000000195
B0918415610952N01005531EA0000000190
B0918485610846N01005568EA0000000195
B0918545610762N01005577EA0000000183
B0918595610728N01005497EA0000000168
B0919055610735N01005375EA0000000142
B0919125610744N01005231EA0000000117
B0919175610748N01005134EA0000000101
B0919235610754N01005017EA0000000074
B0919345610759N01004838EA0000000068
