AOGNOGN
HFDTE190725
HFFXA050
HFPLTPILOTINCHARGE:
HFGTYGLIDERTYPE:LS-4 W
HFGIDGLIDERID:OY-EXD
HFDTM100GPSDATUM:WGS-1984
HFRFWFIRMWAREVERSION:
HFRHWHARDWAREVERSION:
HFFTYFRTYPE:OGN-FLIGHTBOOK
HFGPSGENERIC
HFPRSPRESSALTSENSOR:
HFCIDCOMPETITIONID:GK
B1047585610813N01004200EA0000000068
B1048005610805N01004237EA0000000071
B1048055610783N01004333EA0000000130
B1048105610766N01004419EA0000000204
B1048155610749N01004515EA0000000279
B1048205610730N01004620EA0000000345
B1048255610713N01004734EA0000000388
B1048335610675N01004926EA0000000431
B1048395610643N01005056EA0000000419
B1048445610626N01005178EA0000000412
B1048495610632N01005307EA0000000406
B1048545610675N01005422EA0000000395
B1048595610723N01005529EA0000000400
B1049055610769N01005632EA0000000410
B1049185610886N01005813EA0000000393
B1049255610960N01005907EA0000000382
B1049305611019N01005968EA0000000373
B1049385611131N01006023EA0000000361
B1049455611236N01006016EA0000000354
B1049515611322N01005953EA0000000356
B1049565611387N01005880EA0000000357
B1050015611440N01005777EA0000000359
B1050075611471N01005622EA0000000364
B1050125611459N01005494EA0000000358
B1050175611416N01005389EA0000000346
B1050225611360N01005315EA0000000345
B1050275611300N01005265EA0000000340
B1050355611198N01005224EA0000000335
B1050415611124N01005242EA0000000322
B1050475611054N01005299EA0000000319
B1050565610983N01005423EA0000000321
B1051015610973N01005518EA0000000314
B1051075610988N01005639EA0000000302
B1051125611022N01005737EA0000000296
B1051205611117N01005827EA0000000290
B1051265611194N01005857EA0000000293
B1051315611262N01005869EA0000000286
B1051365611316N01005800EA0000000285
B1051455611323N01005563EA0000000265
B1051515611301N01005402EA0000000255
B1051565611280N01005269EA0000000245
B1052025611252N01005109EA0000000235
B1052095611242N01004911EA0000000221
B1052155611244N01004735EA0000000206
B1052215611247N01004553EA0000000196
B1052275611255N01004371EA0000000192
B1052365611269N01004097EA0000000197
B1052425611257N01003915EA0000000189
B1052485611219N01003758EA0000000186
B1052535611172N01003644EA0000000177
B1052595611100N01003537EA0000000162
B1053065611007N01003439EA0000000152
B1053115610939N01003428EA0000000153
B1053185610897N01003556EA0000000145
B1053275610861N01003762EA0000000127
B1053345610832N01003922EA0000000108
B1053395610810N01004037EA0000000093
B1053465610779N01004193EA0000000071
B1053535610754N01004333EA0000000067
