AOGNOGN
HFDTE190725
HFFXA050
HFPLTPILOTINCHARGE:
HFGTYGLIDERTYPE:ASK-21
HFGIDGLIDERID:OY-TRX
HFDTM100GPSDATUM:WGS-1984
HFRFWFIRMWAREVERSION:
HFRHWHARDWAREVERSION:
HFFTYFRTYPE:OGN-FLIGHTBOOK
HFGPSGENERIC
HFPRSPRESSALTSENSOR:
HFCIDCOMPETITIONID:TR
B0854175610805N01004257EA0000000072
B0854225610781N01004363EA0000000133
B0854275610767N01004462EA0000000212
B0854325610748N01004555EA0000000283
B0854385610721N01004680EA0000000354
B0854435610691N01004788EA0000000400
B0854495610672N01004928EA0000000429
B0854555610664N01005043EA0000000417
B0855005610665N01005152EA0000000407
B0855055610684N01005257EA0000000400
B0855125610718N01005409EA0000000385
B0855175610742N01005521EA0000000381
B0855265610800N01005710EA0000000371
B0855365610867N01005915EA0000000360
B0855445610912N01006090EA0000000350
B0855495610965N01006156EA0000000345
B0855565611066N01006139EA0000000337
B0856015611138N01006113EA0000000333
B0856065611211N01006094EA0000000329
B0856115611283N01006094EA0000000335
B0856165611335N01006156EA0000000345
B0856215611330N01006262EA0000000347
B0856265611270N01006282EA0000000345
B0856315611240N01006156EA0000000344
B0856365611289N01006052EA0000000355
B0856415611354N01006083EA0000000358
B0856465611359N01006199EA0000000363
B0856515611305N01006230EA0000000374
B0856565611265N01006136EA0000000371
B0857025611311N01006000EA0000000373
B0857075611374N01006025EA0000000385
B0857125611384N01006128EA0000000391
B0857185611320N01006170EA0000000388
B0857235611281N01006062EA0000000391
B0857285611326N01005960EA0000000395
B0857345611391N01006034EA0000000401
B0857395611360N01006129EA0000000412
B0857445611306N01006063EA0000000406
B0857505611356N01005935EA0000000411
B0857555611407N01006007EA0000000417
B0858005611372N01006094EA0000000428
B0858065611320N01005998EA0000000428
B0858115611364N01005900EA0000000427
B0858165611415N01005978EA0000000424
B0858225611353N01006040EA0000000437
B0858275611333N01005925EA0000000439
B0858325611399N01005860EA0000000439
B0858385611416N01005973EA0000000449
B0858435611352N01005966EA0000000447
B0858485611346N01005842EA0000000456
B0858545611422N01005840EA0000000452
B0858595611412N01005940EA0000000450
B0859045611354N01005895EA0000000450
B0859105611396N01005772EA0000000458
B0859155611441N01005838EA0000000460
B0859205611403N01005925EA0000000456
B0859265611338N01005859EA0000000466
B0859315611359N01005742EA0000000459
B0859365611429N01005743EA0000000459
B0859425611444N01005873EA0000000466
B0859485611427N01006003EA0000000463
B0859535611371N01005984EA0000000466
B0859585611388N01005860EA0000000458
B0900035611461N01005876EA0000000470
B0900085611471N01005975EA0000000471
B0900145611422N01006071EA0000000463
B0900195611368N01006044EA0000000462
B0900245611376N01005924EA0000000459
B0900305611453N01005940EA0000000453
B0900365611452N01006077EA0000000446
B0900435611427N01006230EA0000000432
B0900505611394N01006398EA0000000411
B0900565611371N01006553EA0000000404
B0901045611342N01006751EA0000000396
B0901125611315N01006953EA0000000391
B0901205611331N01007164EA0000000378
B0901255611320N01007291EA0000000381
B0901315611243N01007292EA0000000376
B0901365611232N01007151EA0000000366
B0901415611308N01007105EA0000000370
B0901465611349N01007202EA0000000374
B0901515611315N01007291EA0000000368
B0901565611263N01007232EA0000000361
B0902035611298N01007048EA0000000353
B0902085611307N01006919EA0000000353
B0902135611252N01006844EA0000000356
B0902195611219N01006940EA0000000351
B0902245611284N01006957EA0000000345
B0902295611296N01006830EA0000000350
B0902345611240N01006756EA0000000351
B0902395611176N01006726EA0000000337
B0902485611056N01006682EA0000000320
B0902545610980N01006625EA0000000311
B0902595610941N01006519EA0000000314
B0903065610923N01006345EA0000000318
B0903115610957N01006228EA0000000315
B0903165611023N01006236EA0000000307
B0903215611013N01006333EA0000000309
B0903265610952N01006326EA0000000309
B0903315610901N01006250EA0000000312
B0903365610898N01006125EA0000000303
B0903425610928N01005965EA0000000287
B0903485610966N01005807EA0000000276
B0904005611031N01005492EA0000000265
B0904085611073N01005287EA0000000255
B0904145611093N01005125EA0000000251
B0904195611118N01005002EA0000000251
B0904245611161N01004897EA0000000247
B0904305611206N01004765EA0000000237
B0904395611258N01004551EA0000000231
B0904495611300N01004293EA0000000220
B0904545611317N01004153EA0000000220
B0904595611303N01004026EA0000000218
B0905065611246N01003880EA0000000208
B0905125611183N01003785EA0000000198
B0905185611111N01003706EA0000000191
B0905245611036N01003652EA0000000181
B0905295610968N01003661EA0000000171
B0905345610911N01003724EA0000000160
B0905425610857N01003894EA0000000135
B0905505610819N01004073EA0000000100
B0905565610792N01004212EA0000000071
B0906015610766N01004319EA0000000065
B0906065610752N01004380EA0000000067
