AOGNOGN
HFDTE190725
HFFXA050
HFPLTPILOTINCHARGE:
HFGTYGLIDERTYPE:ASK-21
HFGIDGLIDERID:OY-TRX
HFDTM100GPSDATUM:WGS-1984
HFRFWFIRMWAREVERSION:
HFRHWHARDWAREVERSION:
HFFTYFRTYPE:OGN-FLIGHTBOOK
HFGPSGENERIC
HFPRSPRESSALTSENSOR:
HFCIDCOMPETITIONID:TR
B0917425610805N01004244EA0000000074
B0917475610781N01004344EA0000000152
B0917525610760N01004435EA0000000247
B0917575610742N01004538EA0000000341
B0918025610725N01004654EA0000000412
B0918085610699N01004800EA0000000466
B0918135610682N01004917EA0000000486
B0918185610674N01005013EA0000000483
B0918245610700N01005127EA0000000473
B0918365610815N01005329EA0000000453
B0918485610952N01005497EA0000000438
B0918545611031N01005570EA0000000431
B0918595611099N01005622EA0000000431
B0919045611160N01005683EA0000000440
B0919105611154N01005801EA0000000439
B0919155611090N01005753EA0000000442
B0919205611121N01005628EA0000000451
B0919265611178N01005706EA0000000451
B0919315611119N01005738EA0000000451
B0919365611112N01005604EA0000000454
B0919415611185N01005604EA0000000462
B0919465611177N01005710EA0000000457
B0919515611120N01005635EA0000000458
B0919565611163N01005519EA0000000468
B0920015611224N01005580EA0000000469
B0920065611198N01005682EA0000000466
B0920115611141N01005619EA0000000467
B0920165611184N01005498EA0000000463
B0920215611246N01005571EA0000000467
B0920265611197N01005652EA0000000467
B0920315611155N01005550EA0000000478
B0920365611213N01005466EA0000000476
B0920415611262N01005548EA0000000481
B0920465611219N01005624EA0000000474
B0920515611171N01005529EA0000000472
B0920565611222N01005432EA0000000484
B0921025611284N01005527EA0000000482
B0921075611265N01005641EA0000000471
B0921125611202N01005592EA0000000456
B0921185611250N01005445EA0000000472
B0921235611304N01005515EA0000000465
B0921285611318N01005635EA0000000463
B0921345611332N01005769EA0000000465
B0921395611284N01005821EA0000000454
B0921445611255N01005693EA0000000453
B0921505611329N01005627EA0000000475
B0921555611349N01005716EA0000000459
B0922005611285N01005725EA0000000457
B0922065611264N01005572EA0000000468
B0922115611300N01005460EA0000000463
B0922165611367N01005465EA0000000450
B0922225611342N01005582EA0000000440
B0922275611291N01005507EA0000000445
B0922325611330N01005407EA0000000440
B0922385611394N01005479EA0000000436
B0922445611400N01005615EA0000000424
B0922495611413N01005724EA0000000417
B0922565611436N01005875EA0000000407
B0923045611467N01006044EA0000000398
B0923105611423N01006128EA0000000391
B0923155611387N01006015EA0000000388
B0923225611384N01005830EA0000000391
B0923295611352N01005663EA0000000384
B0923345611310N01005555EA0000000387
B0923395611272N01005447EA0000000390
B0923445611304N01005344EA0000000395
B0923495611369N01005386EA0000000382
B0923545611354N01005494EA0000000393
B0923595611300N01005441EA0000000391
B0924045611334N01005321EA0000000388
B0924095611398N01005358EA0000000392
B0924145611372N01005453EA0000000383
B0924195611322N01005357EA0000000385
B0924245611374N01005267EA0000000386
B0924305611417N01005379EA0000000379
B0924355611352N01005396EA0000000379
B0924405611345N01005266EA0000000388
B0924465611420N01005235EA0000000381
B0924515611441N01005345EA0000000373
B0924565611383N01005374EA0000000376
B0925025611379N01005226EA0000000376
B0925075611445N01005227EA0000000373
B0925125611444N01005343EA0000000366
B0925185611372N01005347EA0000000380
B0925235611342N01005240EA0000000372
B0925285611396N01005155EA0000000373
B0925345611455N01005234EA0000000373
B0925395611407N01005296EA0000000360
B0925445611364N01005198EA0000000367
B0925505611436N01005126EA0000000354
B0925555611464N01005243EA0000000365
B0926005611413N01005278EA0000000369
B0926065611409N01005135EA0000000363
B0926115611472N01005126EA0000000363
B0926165611487N01005233EA0000000354
B0926225611441N01005345EA0000000352
B0926275611395N01005420EA0000000353
B0926325611339N01005387EA0000000364
B0926385611344N01005231EA0000000354
B0926435611410N01005210EA0000000360
B0926485611418N01005313EA0000000348
B0926545611346N01005280EA0000000357
B0926595611367N01005158EA0000000359
B0927045611432N01005182EA0000000356
B0927105611423N01005306EA0000000358
B0927155611364N01005278EA0000000365
B0927205611373N01005151EA0000000369
B0927265611436N01005192EA0000000357
B0927315611401N01005272EA0000000379
B0927365611355N01005213EA0000000370
B0927425611403N01005087EA0000000362
B0927475611449N01005151EA0000000367
B0927525611401N01005217EA0000000367
B0927585611356N01005112EA0000000385
B0928035611391N01005007EA0000000358
B0928085611457N01005037EA0000000363
B0928145611432N01005154EA0000000359
B0928195611373N01005101EA0000000374
B0928245611379N01004980EA0000000368
B0928305611454N01004948EA0000000359
B0928355611464N01005049EA0000000356
B0928415611392N01005090EA0000000356
B0928465611371N01004975EA0000000353
B0928515611434N01004941EA0000000344
B0928565611443N01005046EA0000000343
B0929025611383N01005118EA0000000337
B0929075611325N01005078EA0000000330
B0929125611340N01004959EA0000000330
B0929185611401N01005015EA0000000317
B0929235611359N01005083EA0000000317
B0929285611312N01005010EA0000000303
B0929345611355N01004901EA0000000311
B0929395611396N01004975EA0000000304
B0929445611355N01005043EA0000000295
B0929505611311N01004930EA0000000292
B0929555611361N01004847EA0000000301
B0930005611417N01004889EA0000000298
B0930065611392N01004991EA0000000283
B0930125611318N01005045EA0000000277
B0930195611225N01005094EA0000000275
B0930245611158N01005122EA0000000278
B0930325611051N01005162EA0000000277
B0930385610995N01005245EA0000000278
B0930435611027N01005328EA0000000271
B0930485611091N01005253EA0000000257
B0930555611135N01005059EA0000000257
B0931005611165N01004929EA0000000258
B0931055611191N01004798EA0000000256
B0931115611225N01004645EA0000000253
B0931185611274N01004474EA0000000241
B0931265611331N01004277EA0000000230
B0931325611321N01004124EA0000000222
B0931395611268N01003968EA0000000204
B0931445611220N01003863EA0000000204
B0931495611163N01003782EA0000000196
B0931565611062N01003722EA0000000184
B0932015610995N01003671EA0000000184
B0932065610926N01003683EA0000000173
B0932125610877N01003811EA0000000156
B0932175610838N01003922EA0000000137
B0932235610804N01004059EA0000000115
B0932315610772N01004258EA0000000073
B0932365610749N01004364EA0000000068
