AOGNOGN
HFDTE190725
HFFXA050
HFPLTPILOTINCHARGE:
HFGTYGLIDERTYPE:LS-1 f
HFGIDGLIDERID:OY-TJX
HFDTM100GPSDATUM:WGS-1984
HFRFWFIRMWAREVERSION:
HFRHWHARDWAREVERSION:
HFFTYFRTYPE:OGN-FLIGHTBOOK
HFGPSGENERIC
HFPRSPRESSALTSENSOR:
HFCIDCOMPETITIONID:TJ
B1228445610813N01004200EA0000000060
B1228465610804N01004236EA0000000063
B1228515610780N01004341EA0000000135
B1228565610756N01004440EA0000000213
B1229025610735N01004571EA0000000300
B1229075610717N01004682EA0000000366
B1229125610698N01004798EA0000000415
B1229185610675N01004925EA0000000451
B1229245610650N01005025EA0000000442
B1229295610629N01005118EA0000000439
B1229345610644N01005230EA0000000432
B1229415610725N01005355EA0000000412
B1229485610813N01005500EA0000000398
B1229545610884N01005637EA0000000386
B1229595610937N01005758EA0000000380
B1230065610995N01005941EA0000000372
B1230145611032N01006173EA0000000361
B1230195611049N01006310EA0000000360
B1230255611129N01006367EA0000000359
B1230315611198N01006244EA0000000375
B1230365611211N01006111EA0000000372
B1230415611153N01006053EA0000000357
B1230465611133N01006153EA0000000354
B1230515611201N01006196EA0000000348
B1230565611288N01006171EA0000000347
B1231015611346N01006236EA0000000354
B1231065611327N01006325EA0000000349
B1231115611267N01006307EA0000000338
B1231165611247N01006178EA0000000348
B1231215611303N01006107EA0000000351
B1231265611357N01006164EA0000000344
B1231315611335N01006252EA0000000337
B1231365611282N01006195EA0000000335
B1231425611300N01006019EA0000000326
B1231475611356N01005888EA0000000322
B1231535611387N01005716EA0000000336
B1231585611331N01005649EA0000000334
B1232035611290N01005717EA0000000322
B1232095611359N01005774EA0000000304
B1232155611426N01005636EA0000000292
B1232215611459N01005440EA0000000280
B1232305611492N01005158EA0000000279
B1232355611555N01005099EA0000000279
B1232405611587N01005193EA0000000271
B1232465611527N01005248EA0000000256
B1232515611474N01005171EA0000000248
B1232575611459N01005021EA0000000239
B1233025611473N01004871EA0000000231
B1233115611497N01004590EA0000000222
B1233165611492N01004441EA0000000216
B1233245611428N01004241EA0000000200
B1233295611374N01004125EA0000000186
B1233395611258N01003912EA0000000175
B1233445611202N01003813EA0000000168
B1233535611077N01003690EA0000000154
B1233585611000N01003658EA0000000143
B1234035610919N01003631EA0000000129
B1234085610850N01003689EA0000000121
B1234135610832N01003832EA0000000101
B1234185610818N01003987EA0000000095
B1234235610800N01004120EA0000000076
B1234295610780N01004264EA0000000059
B1234355610767N01004345EA0000000059
