AOGNOGN
HFDTE080825
HFFXA050
HFPLTPILOTINCHARGE:
HFGTYGLIDERTYPE:ASK-21
HFGIDGLIDERID:OY-XNX
HFDTM100GPSDATUM:WGS-1984
HFRFWFIRMWAREVERSION:
HFRHWHARDWAREVERSION:
HFFTYFRTYPE:OGN-FLIGHTBOOK
HFGPSGENERIC
HFPRSPRESSALTSENSOR:
HFCIDCOMPETITIONID:NX
B1652485554419N00927313EA0000000090
B1652495554422N00927294EA0000000092
B1652545554435N00927187EA0000000162
B1652595554448N00927090EA0000000258
B1653045554462N00926992EA0000000348
B1653095554481N00926894EA0000000424
B1653145554491N00926788EA0000000483
B1653195554510N00926677EA0000000522
B1653255554520N00926548EA0000000548
B1653335554522N00926419EA0000000544
B1653395554526N00926325EA0000000539
B1653445554555N00926266EA0000000535
B1653495554613N00926310EA0000000521
B1653555554631N00926486EA0000000513
B1654015554633N00926668EA0000000499
B1654065554645N00926828EA0000000495
B1654115554683N00926951EA0000000499
B1654175554756N00926974EA0000000488
B1654225554783N00926893EA0000000475
B1654285554818N00926795EA0000000482
B1654345554880N00926745EA0000000475
B1654405554955N00926714EA0000000469
B1654455555016N00926685EA0000000465
B1654505555072N00926651EA0000000463
B1654565555137N00926607EA0000000462
B1655015555180N00926556EA0000000460
B1655065555168N00926481EA0000000449
B1655115555111N00926489EA0000000449
B1655175555084N00926641EA0000000445
B1655225555128N00926743EA0000000442
B1655275555184N00926732EA0000000439
B1655335555181N00926647EA0000000433
B1655385555124N00926665EA0000000423
B1655445555102N00926820EA0000000426
B1655495555145N00926918EA0000000420
B1655555555222N00926972EA0000000414
B1656055555354N00927052EA0000000401
B1656105555404N00927019EA0000000390
B1656155555387N00926942EA0000000380
B1656215555315N00926987EA0000000374
B1656265555284N00927118EA0000000363
B1656315555228N00927200EA0000000355
B1656365555176N00927171EA0000000349
B1656415555175N00927090EA0000000340
B1656465555233N00927091EA0000000334
B1656515555255N00927222EA0000000323
B1656565555206N00927313EA0000000318
B1657015555159N00927279EA0000000310
B1657065555146N00927196EA0000000300
B1657115555129N00927110EA0000000296
B1657165555069N00927120EA0000000290
B1657215555036N00927256EA0000000284
B1657275555006N00927436EA0000000269
B1657345554965N00927658EA0000000255
B1657395554930N00927815EA0000000252
B1657445554878N00927951EA0000000250
B1657535554737N00928042EA0000000245
B1657595554641N00928092EA0000000235
B1658045554562N00928132EA0000000227
B1658105554467N00928148EA0000000219
B1658175554382N00928057EA0000000217
B1658225554357N00927961EA0000000214
B1658315554392N00927770EA0000000185
B1658395554413N00927598EA0000000154
B1658455554428N00927467EA0000000124
B1658505554438N00927351EA0000000095
B1658555554448N00927246EA0000000089
B1659015554456N00927180EA0000000089
