AOGNOGN
HFDTE170825
HFFXA050
HFPLTPILOTINCHARGE:
HFGTYGLIDERTYPE:LS-4
HFGIDGLIDERID:OY-TXA
HFDTM100GPSDATUM:WGS-1984
HFRFWFIRMWAREVERSION:
HFRHWHARDWAREVERSION:
HFFTYFRTYPE:OGN-FLIGHTBOOK
HFGPSGENERIC
HFPRSPRESSALTSENSOR:
HFCIDCOMPETITIONID:PLU
B1327415650863N00927165EA0000000124
B1327465650837N00927282EA0000000187
B1327515650807N00927405EA0000000257
B1327565650769N00927538EA0000000321
B1328025650731N00927705EA0000000355
B1328095650684N00927885EA0000000357
B1328145650622N00927963EA0000000363
B1328205650529N00927953EA0000000361
B1328255650467N00927879EA0000000351
B1328305650441N00927751EA0000000338
B1328365650428N00927589EA0000000322
B1328435650412N00927413EA0000000318
B1328485650368N00927307EA0000000320
B1328535650292N00927301EA0000000331
B1328585650245N00927396EA0000000321
B1329035650270N00927512EA0000000314
B1329085650331N00927519EA0000000309
B1329145650394N00927452EA0000000313
B1329195650448N00927409EA0000000305
B1329245650494N00927328EA0000000303
B1329295650477N00927203EA0000000309
B1329365650373N00927177EA0000000296
B1329415650316N00927274EA0000000293
B1329485650264N00927437EA0000000291
B1329535650259N00927565EA0000000285
B1329585650291N00927663EA0000000267
B1330045650368N00927711EA0000000246
B1330105650448N00927664EA0000000238
B1330165650503N00927533EA0000000236
B1330215650529N00927407EA0000000231
B1330285650551N00927224EA0000000244
B1330345650562N00927059EA0000000237
B1330405650577N00926891EA0000000227
B1330465650598N00926726EA0000000233
B1330545650634N00926505EA0000000223
B1331015650688N00926335EA0000000212
B1331075650765N00926259EA0000000193
B1331125650835N00926191EA0000000180
B1331205650948N00926240EA0000000171
B1331265651013N00926359EA0000000154
B1331315651012N00926505EA0000000130
B1331385650975N00926706EA0000000094
B1331495650928N00926997EA0000000045
B1332355650883N00927252EA0000000035
