AOGNOGN
HFDTE170825
HFFXA050
HFPLTPILOTINCHARGE:
HFGTYGLIDERTYPE:EuroFox
HFGIDGLIDERID:OY-9448
HFDTM100GPSDATUM:WGS-1984
HFRFWFIRMWAREVERSION:
HFRHWHARDWAREVERSION:
HFFTYFRTYPE:OGN-FLIGHTBOOK
HFGPSGENERIC
HFPRSPRESSALTSENSOR:
HFCIDCOMPETITIONID:
B1632345624573N00924678EA0000000026
B1632345624573N00924678EA0000000026
B1632425624609N00924503EA0000000035
B1632495624640N00924328EA0000000058
B1632585624689N00924111EA0000000075
B1633065624746N00923931EA0000000094
B1633135624803N00923785EA0000000105
B1633205624889N00923711EA0000000115
B1633285625001N00923740EA0000000133
B1633345625079N00923821EA0000000141
B1633395625142N00923907EA0000000150
B1633455625215N00924014EA0000000166
B1633505625275N00924104EA0000000184
B1633555625337N00924180EA0000000195
B1634015625412N00924259EA0000000206
B1634085625502N00924342EA0000000217
B1634165625605N00924444EA0000000229
B1634235625698N00924530EA0000000243
B1634295625780N00924596EA0000000257
B1634385625902N00924674EA0000000275
B1634475626024N00924762EA0000000299
B1634525626091N00924814EA0000000308
B1634595626182N00924890EA0000000321
B1635065626273N00924959EA0000000333
B1635145626379N00925025EA0000000348
B1635265626538N00925128EA0000000371
B1635325626618N00925181EA0000000379
B1635385626696N00925230EA0000000396
B1635495626835N00925297EA0000000418
B1635545626899N00925319EA0000000424
B1636025627004N00925348EA0000000433
B1636085627084N00925364EA0000000441
B1636135627152N00925370EA0000000449
B1636185627220N00925383EA0000000462
B1636235627288N00925398EA0000000469
B1636305627384N00925426EA0000000484
B1636385627493N00925455EA0000000497
B1636445627574N00925474EA0000000505
B1636505627655N00925490EA0000000518
B1637015627801N00925509EA0000000532
B1637105627925N00925513EA0000000550
B1637175628018N00925518EA0000000571
B1637235628096N00925517EA0000000588
B1637295628174N00925510EA0000000599
B1637375628280N00925498EA0000000621
B1637435628360N00925493EA0000000629
B1637505628456N00925488EA0000000643
B1637565628536N00925482EA0000000647
B1638045628645N00925478EA0000000661
B1638155628803N00925479EA0000000678
B1638245628937N00925484EA0000000694
B1638305629024N00925490EA0000000705
B1638425629199N00925504EA0000000719
B1638505629318N00925513EA0000000732
B1638565629405N00925517EA0000000745
B1639015629476N00925519EA0000000752
B1639075629561N00925521EA0000000759
B1639125629633N00925523EA0000000762
B1639185629723N00925529EA0000000767
B1639235629797N00925535EA0000000773
B1639355629978N00925536EA0000000789
B1639405630054N00925539EA0000000797
B1639485630175N00925550EA0000000808
B1639555630280N00925563EA0000000816
B1640025630384N00925577EA0000000825
B1640095630489N00925587EA0000000834
B1640155630580N00925592EA0000000845
B1640275630762N00925595EA0000000861
B1640345630869N00925591EA0000000872
B1640415630976N00925576EA0000000881
B1640465631055N00925564EA0000000886
B1640535631166N00925547EA0000000893
B1640585631246N00925535EA0000000901
B1641055631357N00925525EA0000000913
B1641115631452N00925514EA0000000921
B1641175631546N00925498EA0000000929
B1641225631623N00925489EA0000000935
B1641285631717N00925483EA0000000938
B1641355631829N00925476EA0000000945
B1641415631922N00925467EA0000000949
B1641465631999N00925460EA0000000952
B1641525632092N00925453EA0000000955
B1641595632200N00925449EA0000000959
B1642045632274N00925443EA0000000964
B1642125632391N00925435EA0000000975
B1642195632493N00925425EA0000000986
B1642255632580N00925421EA0000000991
B1642335632698N00925409EA0000000995
B1642385632772N00925405EA0000000994
B1642585633076N00925403EA0000000999
B1643035633152N00925405EA0000001005
B1643145633320N00925411EA0000001021
B1643215633424N00925409EA0000001028
B1643285633530N00925407EA0000001029
B1643355633638N00925401EA0000001028
B1643435633766N00925397EA0000001024
B1643485633848N00925390EA0000001026
B1643535633929N00925383EA0000001025
B1644005634042N00925378EA0000001027
B1644065634137N00925376EA0000001032
B1644135634250N00925374EA0000001033
B1644195634347N00925367EA0000001035
B1644245634428N00925360EA0000001037
B1644335634577N00925350EA0000001028
B1644395634679N00925343EA0000001030
B1644455634780N00925334EA0000001028
B1644515634883N00925330EA0000001025
B1644565634970N00925328EA0000001025
B1645065635141N00925323EA0000001028
B1645115635226N00925324EA0000001031
B1645165635310N00925324EA0000001034
B1645215635393N00925325EA0000001032
B1645285635513N00925332EA0000001026
B1645375635670N00925351EA0000001028
B1645435635774N00925371EA0000001031
B1645495635877N00925392EA0000001040
B1645545635959N00925402EA0000001035
B1646035636105N00925427EA0000001028
B1646085636188N00925443EA0000001037
B1646135636267N00925452EA0000001033
B1646195636361N00925466EA0000001026
B1646275636490N00925478EA0000001021
B1646325636573N00925490EA0000001020
B1646405636707N00925503EA0000001018
B1646505636874N00925504EA0000001007
B1646565636973N00925512EA0000001008
B1647015637058N00925518EA0000001020
B1647105637209N00925517EA0000001025
B1647165637308N00925516EA0000001030
B1647235637418N00925512EA0000001022
B1647285637495N00925505EA0000001012
B1647335637573N00925497EA0000001007
B1647385637651N00925491EA0000001001
B1647455637760N00925485EA0000000993
B1647535637885N00925485EA0000000989
B1648055638074N00925509EA0000000986
B1648135638199N00925526EA0000000987
B1648195638293N00925537EA0000000983
B1648255638390N00925553EA0000000984
B1648355638553N00925583EA0000000983
B1648435638685N00925609EA0000000988
B1648485638767N00925624EA0000000996
B1648545638864N00925639EA0000000994
B1649015638977N00925653EA0000000990
B1649065639057N00925664EA0000000984
B1649115639137N00925675EA0000000982
B1649185639249N00925696EA0000000985
B1649235639330N00925708EA0000000989
B1649285639413N00925722EA0000001000
B1649345639511N00925744EA0000000999
B1649405639607N00925763EA0000001001
B1649455639687N00925785EA0000000992
B1649535639817N00925808EA0000000995
B1649595639911N00925823EA0000000997
B1650045639989N00925842EA0000000990
B1650175640189N00925883EA0000000989
B1650225640264N00925898EA0000000995
B1650275640341N00925910EA0000000993
B1650335640433N00925928EA0000000988
B1650405640544N00925948EA0000000982
B1650475640657N00925963EA0000000981
B1650525640738N00925976EA0000000979
B1650585640836N00925991EA0000000972
B1651065640969N00926021EA0000000965
B1651115641052N00926036EA0000000960
B1651195641188N00926069EA0000000954
B1651245641275N00926088EA0000000950
B1651305641379N00926113EA0000000944
B1651375641501N00926139EA0000000938
B1651465641655N00926161EA0000000933
B1651535641770N00926177EA0000000929
B1652015641900N00926186EA0000000922
B1652105642044N00926189EA0000000917
B1652155642123N00926192EA0000000913
B1652205642202N00926197EA0000000909
B1652315642379N00926215EA0000000897
B1652365642461N00926224EA0000000893
B1652425642558N00926236EA0000000889
B1652485642653N00926242EA0000000889
B1652545642748N00926251EA0000000881
B1653015642860N00926259EA0000000878
B1653075642955N00926268EA0000000873
B1653155643084N00926285EA0000000870
B1653225643196N00926298EA0000000870
B1653345643385N00926323EA0000000870
B1653395643463N00926329EA0000000870
B1653475643588N00926348EA0000000869
B1653565643730N00926370EA0000000867
B1654025643825N00926393EA0000000865
B1654095643940N00926417EA0000000863
B1654165644056N00926444EA0000000863
B1654245644187N00926472EA0000000859
B1654325644323N00926495EA0000000853
B1654385644425N00926513EA0000000850
B1654435644511N00926529EA0000000848
B1654525644668N00926558EA0000000846
B1655015644820N00926586EA0000000844
B1655165645076N00926635EA0000000829
B1655315645339N00926690EA0000000816
B1656035645904N00926800EA0000000795
B1656165646130N00926856EA0000000782
B1656265646306N00926883EA0000000775
B1656315646395N00926892EA0000000768
B1656375646503N00926903EA0000000770
B1656435646603N00926908EA0000000768
B1656595646877N00926933EA0000000754
B1657055646984N00926950EA0000000749
B1657125647108N00926971EA0000000746
B1657315647446N00927055EA0000000723
B1657385647560N00927083EA0000000706
B1657435647639N00927108EA0000000694
B1657495647736N00927133EA0000000675
B1657565647848N00927164EA0000000655
B1658055647994N00927194EA0000000638
B1658105648073N00927207EA0000000627
B1658205648226N00927231EA0000000616
B1658275648331N00927239EA0000000611
B1658345648441N00927251EA0000000606
B1658415648553N00927264EA0000000605
B1658485648665N00927275EA0000000603
B1658575648805N00927296EA0000000596
B1659085648980N00927342EA0000000586
B1659155649090N00927390EA0000000582
B1659235649218N00927464EA0000000585
B1659285649297N00927523EA0000000584
B1659355649408N00927606EA0000000584
B1659405649484N00927680EA0000000581
B1659495649622N00927820EA0000000576
B1659545649695N00927896EA0000000567
B1659595649764N00927976EA0000000556
B1700115649930N00928154EA0000000521
B1700165649998N00928226EA0000000505
B1700225650079N00928294EA0000000485
B1700345650248N00928417EA0000000447
B1700435650377N00928482EA0000000419
B1700575650585N00928500EA0000000376
B1701035650675N00928466EA0000000352
B1701085650750N00928431EA0000000334
B1701175650887N00928361EA0000000316
B1701245650986N00928310EA0000000315
B1701305651067N00928285EA0000000307
B1701385651178N00928243EA0000000299
B1701435651248N00928214EA0000000294
B1701485651314N00928150EA0000000295
B1701535651373N00928057EA0000000294
B1701585651432N00927957EA0000000294
B1702085651541N00927735EA0000000302
B1702135651580N00927601EA0000000306
B1702185651609N00927455EA0000000310
B1702255651647N00927245EA0000000311
B1702315651683N00927067EA0000000315
B1702375651716N00926886EA0000000320
B1702425651741N00926734EA0000000317
B1702485651772N00926549EA0000000313
B1702555651801N00926330EA0000000308
B1703065651776N00925975EA0000000301
B1703125651711N00925821EA0000000297
B1703195651599N00925695EA0000000282
B1703245651518N00925600EA0000000267
B1703335651358N00925487EA0000000234
B1703385651263N00925488EA0000000218
B1703435651176N00925552EA0000000203
B1703495651102N00925693EA0000000181
B1703555651065N00925868EA0000000153
B1704025651044N00926084EA0000000129
B1704095651019N00926292EA0000000104
B1704145650997N00926439EA0000000088
B1704275650937N00926817EA0000000047
B1704365650897N00927057EA0000000036
B1704435650870N00927213EA0000000031
B1704485650855N00927302EA0000000030
