AOGNOGN
HFDTE170825
HFFXA050
HFPLTPILOTINCHARGE:
HFGTYGLIDERTYPE:ASK-21
HFGIDGLIDERID:OY-XMF
HFDTM100GPSDATUM:WGS-1984
HFRFWFIRMWAREVERSION:
HFRHWHARDWAREVERSION:
HFFTYFRTYPE:OGN-FLIGHTBOOK
HFGPSGENERIC
HFPRSPRESSALTSENSOR:
HFCIDCOMPETITIONID:X1
B1157165650889N00927014EA0000000038
B1157175650885N00927039EA0000000044
B1157225650867N00927149EA0000000115
B1157295650845N00927301EA0000000216
B1157345650834N00927420EA0000000271
B1157395650823N00927549EA0000000322
B1157465650798N00927723EA0000000358
B1157515650773N00927836EA0000000373
B1157585650742N00927969EA0000000381
B1158035650722N00928064EA0000000390
B1158085650695N00928153EA0000000396
B1158135650638N00928183EA0000000389
B1158195650600N00928050EA0000000390
B1158255650652N00927997EA0000000387
B1158305650672N00928078EA0000000390
B1158365650621N00928163EA0000000386
B1158415650554N00928117EA0000000383
B1158465650528N00927991EA0000000383
B1158535650573N00927866EA0000000382
B1158585650613N00927905EA0000000381
B1159035650598N00927994EA0000000383
B1159105650505N00927999EA0000000385
B1159155650480N00927885EA0000000394
B1159205650521N00927815EA0000000395
B1159275650554N00927900EA0000000391
B1159325650502N00927956EA0000000390
B1159375650448N00927876EA0000000396
B1159525650476N00927880EA0000000389
B1159575650413N00927848EA0000000403
B1200025650412N00927742EA0000000403
B1200075650459N00927736EA0000000411
B1200125650452N00927822EA0000000402
B1200185650374N00927808EA0000000412
B1200235650366N00927694EA0000000419
B1200285650413N00927642EA0000000419
B1200355650432N00927746EA0000000403
B1200405650371N00927780EA0000000412
B1200455650323N00927694EA0000000416
B1200525650362N00927569EA0000000414
B1200575650400N00927614EA0000000393
B1201025650369N00927710EA0000000390
B1201095650284N00927642EA0000000401
B1201145650304N00927532EA0000000402
B1201195650355N00927540EA0000000381
B1201265650307N00927651EA0000000372
B1201315650253N00927564EA0000000377
B1201365650279N00927465EA0000000376
B1201445650307N00927569EA0000000347
B1201495650241N00927583EA0000000351
B1201545650210N00927468EA0000000348
B1202015650272N00927420EA0000000338
B1202065650272N00927517EA0000000324
B1202115650205N00927541EA0000000318
B1202175650176N00927405EA0000000319
B1202225650223N00927377EA0000000296
B1202275650232N00927479EA0000000290
B1202345650147N00927485EA0000000285
B1202395650141N00927363EA0000000277
B1202445650190N00927357EA0000000270
B1202515650150N00927469EA0000000254
B1202565650098N00927400EA0000000256
B1203015650119N00927309EA0000000245
B1203085650174N00927391EA0000000229
B1203145650208N00927492EA0000000216
B1203195650256N00927521EA0000000206
B1203255650308N00927410EA0000000192
B1203325650377N00927301EA0000000193
B1203375650424N00927235EA0000000191
B1203425650470N00927167EA0000000179
B1203515650545N00927010EA0000000163
B1203595650600N00926836EA0000000160
B1204055650646N00926698EA0000000154
B1204105650685N00926582EA0000000153
B1204165650728N00926454EA0000000162
B1204215650776N00926386EA0000000162
B1204265650841N00926389EA0000000141
B1204335650931N00926453EA0000000132
B1204385650987N00926512EA0000000134
B1204435650981N00926638EA0000000119
B1204495650959N00926797EA0000000111
B1204565650933N00926974EA0000000086
B1205065650886N00927215EA0000000048
B1205135650859N00927367EA0000000029
