AOGNOGN
HFDTE170825
HFFXA050
HFPLTPILOTINCHARGE:
HFGTYGLIDERTYPE:ASK-21
HFGIDGLIDERID:OY-XMF
HFDTM100GPSDATUM:WGS-1984
HFRFWFIRMWAREVERSION:
HFRHWHARDWAREVERSION:
HFFTYFRTYPE:OGN-FLIGHTBOOK
HFGPSGENERIC
HFPRSPRESSALTSENSOR:
HFCIDCOMPETITIONID:X1
B1020215650896N00926980EA0000000037
B1020235650887N00927024EA0000000048
B1020285650864N00927129EA0000000139
B1020335650837N00927233EA0000000216
B1020385650809N00927348EA0000000290
B1020435650782N00927468EA0000000354
B1020495650756N00927626EA0000000400
B1020575650733N00927832EA0000000416
B1021025650709N00927946EA0000000408
B1021085650628N00927985EA0000000404
B1021155650523N00927914EA0000000389
B1021205650472N00927807EA0000000383
B1021275650461N00927619EA0000000373
B1021335650454N00927460EA0000000366
B1021445650444N00927170EA0000000343
B1021495650434N00927039EA0000000334
B1021545650374N00926946EA0000000316
B1021595650288N00926929EA0000000302
B1022045650214N00926990EA0000000294
B1022115650145N00927140EA0000000287
B1022205650081N00927339EA0000000274
B1022275650064N00927508EA0000000267
B1022325650067N00927625EA0000000261
B1022385650114N00927721EA0000000249
B1022485650238N00927749EA0000000225
B1022545650309N00927683EA0000000212
B1022595650355N00927579EA0000000200
B1023075650420N00927384EA0000000182
B1023155650483N00927183EA0000000173
B1023225650542N00927013EA0000000161
B1023295650601N00926844EA0000000150
B1023395650690N00926598EA0000000138
B1023445650741N00926484EA0000000133
B1023505650822N00926393EA0000000127
B1023565650904N00926330EA0000000129
B1024015650974N00926324EA0000000119
B1024065651033N00926382EA0000000111
B1024135651030N00926541EA0000000105
B1024195650988N00926678EA0000000079
B1024275650948N00926870EA0000000045
B1024355650925N00927023EA0000000037
