AOGNOGN
HFDTE170825
HFFXA050
HFPLTPILOTINCHARGE:
HFGTYGLIDERTYPE:ASK-21
HFGIDGLIDERID:OY-XMF
HFDTM100GPSDATUM:WGS-1984
HFRFWFIRMWAREVERSION:
HFRHWHARDWAREVERSION:
HFFTYFRTYPE:OGN-FLIGHTBOOK
HFGPSGENERIC
HFPRSPRESSALTSENSOR:
HFCIDCOMPETITIONID:X1
B0929305650888N00927024EA0000000052
B0929315650884N00927046EA0000000066
B0929365650864N00927160EA0000000165
B0929415650847N00927267EA0000000253
B0929465650829N00927383EA0000000329
B0929515650812N00927505EA0000000389
B0929585650786N00927678EA0000000432
B0930045650764N00927820EA0000000433
B0930095650747N00927936EA0000000421
B0930145650686N00927998EA0000000408
B0930195650618N00927924EA0000000405
B0930245650567N00927801EA0000000409
B0930325650498N00927599EA0000000406
B0930375650544N00927505EA0000000401
B0930425650587N00927577EA0000000392
B0930485650526N00927652EA0000000391
B0930535650479N00927555EA0000000394
B0931025650515N00927326EA0000000385
B0931075650530N00927195EA0000000373
B0931125650485N00927093EA0000000359
B0931175650430N00927147EA0000000342
B0931225650417N00927265EA0000000331
B0931305650408N00927454EA0000000325
B0931395650398N00927673EA0000000329
B0931445650327N00927693EA0000000338
B0931495650310N00927571EA0000000345
B0931565650381N00927573EA0000000355
B0932015650364N00927670EA0000000357
B0932065650297N00927642EA0000000360
B0932135650317N00927492EA0000000372
B0932195650370N00927552EA0000000374
B0932245650331N00927636EA0000000376
B0932305650263N00927546EA0000000382
B0932355650295N00927440EA0000000390
B0932405650347N00927475EA0000000398
B0932475650312N00927598EA0000000401
B0932525650250N00927527EA0000000401
B0932575650270N00927407EA0000000410
B0933045650321N00927482EA0000000416
B0933095650268N00927548EA0000000420
B0933145650213N00927459EA0000000422
B0933215650268N00927345EA0000000431
B0933265650293N00927439EA0000000432
B0933325650220N00927489EA0000000437
B0933385650177N00927352EA0000000442
B0933435650225N00927278EA0000000451
B0933485650263N00927348EA0000000455
B0933555650198N00927440EA0000000457
B0934005650140N00927354EA0000000459
B0934055650162N00927233EA0000000468
B0934135650219N00927322EA0000000474
B0934185650164N00927392EA0000000475
B0934235650099N00927320EA0000000477
B0934295650124N00927176EA0000000489
B0934345650183N00927190EA0000000493
B0934395650180N00927302EA0000000495
B0934465650090N00927299EA0000000501
B0934515650090N00927168EA0000000502
B0934565650152N00927151EA0000000508
B0935025650154N00927278EA0000000509
B0935075650083N00927296EA0000000515
B0935135650049N00927149EA0000000520
B0935195650113N00927080EA0000000530
B0935245650147N00927165EA0000000527
B0935305650086N00927257EA0000000530
B0935365650014N00927158EA0000000535
B0935415650035N00927029EA0000000542
B0935465650097N00927025EA0000000543
B0935535650089N00927174EA0000000546
B0935585650019N00927162EA0000000555
B0936035649993N00927035EA0000000558
B0936105650064N00926941EA0000000559
B0936165650085N00927063EA0000000553
B0936215650014N00927094EA0000000555
B0936275649965N00926944EA0000000562
B0936325650009N00926847EA0000000569
B0936375650063N00926893EA0000000561
B0936445650023N00927035EA0000000569
B0936495649951N00927005EA0000000574
B0936545649931N00926871EA0000000576
B0937015650008N00926826EA0000000578
B0937075650004N00926962EA0000000579
B0937125649934N00926978EA0000000591
B0937185649888N00926839EA0000000598
B0937235649928N00926743EA0000000601
B0937285649981N00926782EA0000000598
B0937355649932N00926905EA0000000607
B0937405649870N00926835EA0000000609
B0937455649888N00926712EA0000000613
B0937525649956N00926762EA0000000612
B0937575649916N00926852EA0000000619
B0938025649852N00926796EA0000000623
B0938095649873N00926631EA0000000628
B0938145649927N00926662EA0000000625
B0938195649906N00926767EA0000000636
B0938265649815N00926713EA0000000639
B0938315649817N00926578EA0000000643
B0938365649876N00926554EA0000000646
B0938435649884N00926694EA0000000649
B0938485649816N00926701EA0000000656
B0938535649775N00926586EA0000000653
B0938585649808N00926477EA0000000656
B0939045649864N00926527EA0000000651
B0939095649830N00926629EA0000000654
B0939145649759N00926602EA0000000657
B0939195649751N00926469EA0000000655
B0939245649806N00926402EA0000000655
B0939295649854N00926457EA0000000659
B0939345649837N00926561EA0000000666
B0939395649767N00926572EA0000000664
B0939445649728N00926451EA0000000661
B0939515649791N00926342EA0000000662
B0939565649828N00926416EA0000000669
B0940015649789N00926506EA0000000674
B0940085649701N00926436EA0000000672
B0940135649709N00926310EA0000000671
B0940185649764N00926267EA0000000670
B0940245649799N00926353EA0000000681
B0940295649761N00926438EA0000000683
B0940345649694N00926434EA0000000684
B0940395649657N00926329EA0000000682
B0940445649682N00926227EA0000000674
B0940495649737N00926242EA0000000671
B0940545649740N00926352EA0000000667
B0941005649661N00926417EA0000000668
B0941055649598N00926331EA0000000667
B0941105649594N00926192EA0000000663
B0941165649654N00926103EA0000000665
B0941245649732N00926193EA0000000663
B0941325649683N00926324EA0000000663
B0941375649627N00926238EA0000000659
B0941425649646N00926114EA0000000652
B0941505649736N00926162EA0000000645
B0942025649834N00926353EA0000000646
B0942085649885N00926457EA0000000643
B0942135649926N00926546EA0000000647
B0942185649921N00926659EA0000000636
B0942235649850N00926665EA0000000632
B0942285649824N00926539EA0000000632
B0942335649876N00926476EA0000000624
B0942405649949N00926566EA0000000613
B0942485650023N00926700EA0000000609
B0942575650097N00926864EA0000000599
B0943055650153N00927019EA0000000590
B0943105650186N00927119EA0000000584
B0943155650214N00927219EA0000000582
B0943215650236N00927347EA0000000575
B0943275650227N00927487EA0000000568
B0943335650221N00927633EA0000000565
B0943385650213N00927755EA0000000558
B0943485650190N00927995EA0000000542
B0943535650182N00928118EA0000000527
B0943595650170N00928286EA0000000499
B0944055650160N00928466EA0000000492
B0944105650146N00928598EA0000000498
B0944225650118N00928867EA0000000491
B0944275650110N00928983EA0000000488
B0944325650101N00929102EA0000000495
B0944395650034N00929197EA0000000498
B0944445649999N00929088EA0000000497
B0944515650067N00929060EA0000000490
B0944565650051N00929164EA0000000494
B0945015649979N00929138EA0000000496
B0945065649971N00929011EA0000000500
B0945145650051N00929004EA0000000491
B0945195650020N00929102EA0000000496
B0945245649950N00929048EA0000000496
B0945305649967N00928901EA0000000494
B0945355650027N00928927EA0000000490
B0945405650002N00929028EA0000000502
B0945475649928N00928931EA0000000507
B0945525649964N00928833EA0000000500
B0945575650013N00928891EA0000000498
B0946045649945N00928977EA0000000510
B0946095649912N00928866EA0000000509
B0946145649957N00928781EA0000000502
B0946215650006N00928896EA0000000504
B0946265649945N00928953EA0000000502
B0946315649896N00928847EA0000000507
B0946385649959N00928742EA0000000502
B0946435649990N00928836EA0000000507
B0946485649939N00928917EA0000000509
B0946555649872N00928796EA0000000511
B0947005649914N00928718EA0000000512
B0947075649979N00928814EA0000000514
B0947125649955N00928917EA0000000518
B0947175649885N00928894EA0000000512
B0947225649884N00928771EA0000000517
B0947295649953N00928796EA0000000523
B0947345649926N00928890EA0000000521
B0947395649862N00928843EA0000000518
B0947465649900N00928723EA0000000520
B0947515649937N00928793EA0000000517
B0947565649893N00928883EA0000000509
B0948025649813N00928806EA0000000509
B0948075649832N00928688EA0000000515
B0948125649891N00928672EA0000000516
B0948195649931N00928779EA0000000503
B0948245649865N00928803EA0000000500
B0948295649840N00928684EA0000000502
B0948355649901N00928621EA0000000505
B0948425649977N00928679EA0000000496
B0948535650089N00928779EA0000000469
B0948585650130N00928683EA0000000453
B0949035650149N00928537EA0000000438
B0949105650185N00928335EA0000000432
B0949185650229N00928124EA0000000424
B0949275650278N00927891EA0000000425
B0949335650310N00927739EA0000000424
B0949385650340N00927613EA0000000421
B0949445650377N00927467EA0000000416
B0949495650411N00927347EA0000000409
B0949575650464N00927156EA0000000402
B0950045650512N00926993EA0000000402
B0950115650560N00926832EA0000000394
B0950185650598N00926668EA0000000379
B0950235650564N00926556EA0000000371
B0950285650496N00926541EA0000000361
B0950365650417N00926665EA0000000347
B0950455650356N00926844EA0000000344
B0950525650310N00926984EA0000000336
B0950575650278N00927084EA0000000329
B0951045650237N00927227EA0000000322
B0951095650216N00927331EA0000000320
B0951165650189N00927477EA0000000320
B0951265650151N00927684EA0000000306
B0951315650089N00927721EA0000000305
B0951365650051N00927620EA0000000299
B0951435650109N00927526EA0000000291
B0951485650139N00927597EA0000000286
B0951535650105N00927677EA0000000284
B0952005650023N00927608EA0000000271
B0952055650042N00927495EA0000000257
B0952115650119N00927472EA0000000243
B0952175650197N00927502EA0000000236
B0952225650260N00927539EA0000000228
B0952295650352N00927604EA0000000205
B0952345650425N00927555EA0000000200
B0952435650501N00927307EA0000000197
B0952485650540N00927165EA0000000195
B0952565650596N00926932EA0000000189
B0953085650680N00926582EA0000000183
B0953155650732N00926389EA0000000174
B0953215650815N00926299EA0000000167
B0953265650893N00926252EA0000000158
B0953325650993N00926262EA0000000153
B0953375651040N00926360EA0000000150
B0953425651006N00926505EA0000000140
B0953475650980N00926659EA0000000124
B0953525650961N00926795EA0000000124
B0954055650908N00927113EA0000000081
B0954105650886N00927241EA0000000063
B0954165650857N00927393EA0000000039
B0954235650831N00927558EA0000000033
