AOGNOGN
HFDTE170825
HFFXA050
HFPLTPILOTINCHARGE:
HFGTYGLIDERTYPE:ASK-21
HFGIDGLIDERID:OY-XMF
HFDTM100GPSDATUM:WGS-1984
HFRFWFIRMWAREVERSION:
HFRHWHARDWAREVERSION:
HFFTYFRTYPE:OGN-FLIGHTBOOK
HFGPSGENERIC
HFPRSPRESSALTSENSOR:
HFCIDCOMPETITIONID:X1
B1416225650893N00926984EA0000000036
B1416245650885N00927029EA0000000042
B1416275650873N00927103EA0000000078
B1416325650851N00927228EA0000000154
B1416375650827N00927359EA0000000230
B1416425650803N00927490EA0000000291
B1416485650771N00927649EA0000000351
B1416535650751N00927775EA0000000392
B1416585650735N00927886EA0000000391
B1417055650651N00927966EA0000000388
B1417115650589N00927848EA0000000385
B1417185650545N00927666EA0000000390
B1417235650578N00927582EA0000000393
B1417285650593N00927666EA0000000391
B1417335650525N00927701EA0000000395
B1417395650492N00927568EA0000000398
B1417445650535N00927526EA0000000393
B1417505650542N00927651EA0000000389
B1417565650456N00927674EA0000000400
B1418015650429N00927560EA0000000398
B1418065650478N00927514EA0000000395
B1418135650498N00927652EA0000000397
B1418185650430N00927687EA0000000407
B1418235650380N00927581EA0000000405
B1418305650424N00927456EA0000000407
B1418355650464N00927527EA0000000407
B1418405650430N00927632EA0000000411
B1418475650339N00927545EA0000000410
B1418525650360N00927432EA0000000416
B1418575650408N00927449EA0000000414
B1419045650367N00927579EA0000000415
B1419095650300N00927518EA0000000414
B1419145650308N00927404EA0000000416
B1419215650375N00927428EA0000000406
B1419265650357N00927539EA0000000411
B1419315650285N00927535EA0000000414
B1419385650269N00927371EA0000000415
B1419435650320N00927331EA0000000406
B1419485650355N00927408EA0000000409
B1419555650293N00927515EA0000000399
B1420005650233N00927428EA0000000398
B1420055650244N00927314EA0000000394
B1420125650308N00927344EA0000000396
B1420175650311N00927447EA0000000387
B1420225650293N00927561EA0000000387
B1420295650227N00927674EA0000000402
B1420345650180N00927591EA0000000414
B1420395650215N00927517EA0000000414
B1420465650248N00927627EA0000000426
B1420515650187N00927674EA0000000440
B1420565650147N00927575EA0000000448
B1421035650208N00927510EA0000000456
B1421085650218N00927610EA0000000468
B1421135650158N00927665EA0000000477
B1421195650096N00927560EA0000000487
B1421245650134N00927470EA0000000495
B1421295650180N00927523EA0000000505
B1421365650127N00927644EA0000000518
B1421415650064N00927575EA0000000528
B1421465650075N00927452EA0000000536
B1421535650146N00927470EA0000000550
B1421585650124N00927568EA0000000556
B1422035650050N00927544EA0000000561
B1422105650047N00927370EA0000000574
B1422155650101N00927365EA0000000588
B1422205650101N00927459EA0000000588
B1422275650005N00927450EA0000000596
B1422325650003N00927321EA0000000602
B1422375650055N00927294EA0000000613
B1422445650054N00927420EA0000000609
B1422495649979N00927422EA0000000613
B1422545649955N00927296EA0000000623
B1423015650021N00927266EA0000000632
B1423065650009N00927367EA0000000633
B1423115649937N00927397EA0000000638
B1423185649901N00927239EA0000000643
B1423245649964N00927190EA0000000651
B1423305649975N00927302EA0000000652
B1423355649908N00927350EA0000000653
B1423405649859N00927245EA0000000661
B1423455649887N00927136EA0000000661
B1423525649942N00927195EA0000000661
B1423575649905N00927292EA0000000659
B1424025649831N00927267EA0000000665
B1424095649833N00927105EA0000000666
B1424145649888N00927117EA0000000668
B1424195649872N00927217EA0000000667
B1424265649770N00927196EA0000000665
B1424315649750N00927067EA0000000665
B1424365649789N00926988EA0000000663
B1424435649846N00927059EA0000000637
B1424485649823N00927175EA0000000632
B1424535649748N00927225EA0000000640
B1425005649668N00927117EA0000000649
B1425055649704N00927045EA0000000648
B1425115649723N00927134EA0000000655
B1425185649635N00927162EA0000000659
B1425235649610N00927053EA0000000660
B1425285649651N00927000EA0000000652
B1425345649664N00927097EA0000000657
B1425395649602N00927144EA0000000663
B1425445649544N00927065EA0000000657
B1425495649568N00926958EA0000000652
B1425565649613N00927030EA0000000655
B1426015649555N00927101EA0000000658
B1426085649477N00926989EA0000000652
B1426135649504N00926887EA0000000651
B1426185649544N00926923EA0000000645
B1426255649497N00927061EA0000000643
B1426335649399N00927181EA0000000645
B1426395649317N00927243EA0000000649
B1426445649251N00927177EA0000000651
B1426495649265N00927065EA0000000655
B1426545649313N00927091EA0000000656
B1426595649288N00927188EA0000000658
B1427045649219N00927170EA0000000661
B1427095649205N00927052EA0000000657
B1427145649255N00927021EA0000000660
B1427195649267N00927114EA0000000659
B1427245649204N00927139EA0000000661
B1427305649180N00927006EA0000000660
B1427355649227N00926972EA0000000665
B1427405649245N00927060EA0000000660
B1427455649189N00927115EA0000000661
B1427505649139N00927028EA0000000664
B1427555649161N00926928EA0000000668
B1428005649206N00926953EA0000000660
B1428065649177N00927068EA0000000656
B1428115649108N00927023EA0000000660
B1428165649113N00926905EA0000000664
B1428255649176N00926983EA0000000660
B1428315649107N00927049EA0000000654
B1428375649059N00926920EA0000000659
B1428425649054N00926798EA0000000658
B1428475649098N00926739EA0000000651
B1428545649107N00926861EA0000000646
B1428595649039N00926872EA0000000640
B1429045649014N00926763EA0000000638
B1429095649055N00926704EA0000000634
B1429145649093N00926752EA0000000626
B1429215649129N00926877EA0000000618
B1429275649155N00926992EA0000000620
B1429335649179N00927101EA0000000623
B1429395649200N00927211EA0000000622
B1429445649214N00927313EA0000000612
B1429525649240N00927485EA0000000604
B1429575649257N00927588EA0000000611
B1430025649239N00927688EA0000000612
B1430075649166N00927667EA0000000615
B1430125649151N00927539EA0000000615
B1430175649200N00927505EA0000000614
B1430225649211N00927596EA0000000611
B1430285649133N00927640EA0000000623
B1430335649082N00927556EA0000000626
B1430405649088N00927402EA0000000617
B1430455649120N00927313EA0000000607
B1430515649157N00927385EA0000000602
B1430565649100N00927433EA0000000605
B1431015649048N00927345EA0000000597
B1431065649051N00927221EA0000000594
B1431135649082N00927073EA0000000583
B1431225649184N00927048EA0000000572
B1431305649280N00927069EA0000000568
B1431355649338N00927094EA0000000565
B1431405649394N00927125EA0000000562
B1431475649467N00927190EA0000000570
B1431525649464N00927301EA0000000574
B1431575649397N00927328EA0000000577
B1432035649372N00927200EA0000000585
B1432085649424N00927177EA0000000593
B1432145649435N00927304EA0000000599
B1432215649345N00927316EA0000000613
B1432265649344N00927207EA0000000618
B1432315649398N00927193EA0000000627
B1432385649397N00927340EA0000000633
B1432435649327N00927339EA0000000639
B1432485649316N00927236EA0000000648
B1432555649378N00927251EA0000000654
B1433015649345N00927376EA0000000657
B1433065649278N00927337EA0000000663
B1433125649303N00927240EA0000000673
B1433175649346N00927306EA0000000679
B1433225649318N00927421EA0000000684
B1433295649232N00927362EA0000000691
B1433345649261N00927273EA0000000702
B1433395649309N00927322EA0000000710
B1433465649252N00927453EA0000000715
B1433515649195N00927380EA0000000719
B1433565649209N00927279EA0000000731
B1434025649266N00927309EA0000000741
B1434075649261N00927429EA0000000746
B1434125649192N00927476EA0000000747
B1434195649156N00927337EA0000000748
B1434245649209N00927329EA0000000755
B1434295649215N00927447EA0000000764
B1434365649123N00927476EA0000000767
B1434415649123N00927370EA0000000766
B1434465649174N00927381EA0000000773
B1434515649168N00927502EA0000000775
B1434565649094N00927540EA0000000774
B1435015649059N00927441EA0000000773
B1435065649102N00927391EA0000000775
B1435125649132N00927508EA0000000779
B1435175649069N00927589EA0000000778
B1435225649014N00927512EA0000000778
B1435275649037N00927416EA0000000775
B1435325649085N00927465EA0000000779
B1435375649066N00927595EA0000000779
B1435445648968N00927567EA0000000782
B1435495648969N00927458EA0000000776
B1435545649021N00927444EA0000000781
B1436005649032N00927580EA0000000783
B1436055648964N00927652EA0000000780
B1436105648897N00927595EA0000000781
B1436155648903N00927494EA0000000778
B1436215648964N00927516EA0000000776
B1436265649012N00927581EA0000000779
B1436325649041N00927705EA0000000793
B1436375648980N00927754EA0000000799
B1436425648959N00927653EA0000000798
B1436475649009N00927633EA0000000805
B1436525649014N00927737EA0000000816
B1436575648947N00927757EA0000000819
B1437025648925N00927652EA0000000823
B1437075648971N00927612EA0000000827
B1437145648977N00927742EA0000000831
B1437195648909N00927782EA0000000835
B1437265648868N00927656EA0000000838
B1437315648913N00927619EA0000000846
B1437365648934N00927700EA0000000845
B1437435648857N00927792EA0000000846
B1437485648808N00927715EA0000000844
B1437535648837N00927631EA0000000842
B1437585648884N00927668EA0000000843
B1438035648880N00927779EA0000000842
B1438085648822N00927841EA0000000832
B1438135648766N00927774EA0000000825
B1438185648781N00927674EA0000000830
B1438235648830N00927663EA0000000832
B1438295648890N00927678EA0000000822
B1438355648956N00927712EA0000000800
B1438415649022N00927766EA0000000791
B1438485649088N00927839EA0000000784
B1438565649164N00927930EA0000000785
B1439015649194N00928018EA0000000786
B1439085649114N00928083EA0000000779
B1439135649086N00927972EA0000000771
B1439185649129N00927909EA0000000776
B1439255649176N00928004EA0000000779
B1439335649095N00928104EA0000000778
B1439385649048N00928015EA0000000772
B1439435649069N00927922EA0000000773
B1439505649123N00927981EA0000000770
B1439555649128N00928092EA0000000768
B1440005649070N00928164EA0000000773
B1440055649008N00928092EA0000000764
B1440105649026N00927985EA0000000755
B1440165649077N00928040EA0000000755
B1440245649075N00928215EA0000000761
B1440295649005N00928251EA0000000762
B1440345648962N00928144EA0000000759
B1440395649000N00928064EA0000000757
B1440485649024N00928218EA0000000763
B1440535648951N00928242EA0000000767
B1440585648909N00928135EA0000000766
B1441035648940N00928047EA0000000758
B1441095648985N00928121EA0000000762
B1441145648937N00928206EA0000000768
B1441195648866N00928169EA0000000766
B1441245648851N00928050EA0000000759
B1441295648897N00928014EA0000000750
B1441345648924N00928105EA0000000749
B1441405648881N00928233EA0000000750
B1441455648805N00928208EA0000000756
B1441505648794N00928090EA0000000753
B1441575648858N00928093EA0000000746
B1442025648841N00928196EA0000000749
B1442075648768N00928200EA0000000742
B1442145648737N00928038EA0000000738
B1442195648781N00927980EA0000000727
B1442255648853N00927983EA0000000721
B1442315648929N00927998EA0000000726
B1442365648993N00928020EA0000000725
B1442425649067N00928062EA0000000730
B1442485649121N00928156EA0000000735
B1442535649076N00928250EA0000000744
B1442585649009N00928200EA0000000738
B1443055649043N00928082EA0000000742
B1443135649078N00928219EA0000000751
B1443185649018N00928288EA0000000748
B1443235648951N00928230EA0000000743
B1443285648959N00928119EA0000000741
B1443365649047N00928156EA0000000744
B1443415649042N00928275EA0000000743
B1443465648970N00928293EA0000000735
B1443515648944N00928184EA0000000739
B1443565648990N00928125EA0000000744
B1444025649031N00928218EA0000000742
B1444075648986N00928308EA0000000732
B1444135648913N00928233EA0000000722
B1444185648934N00928129EA0000000728
B1444255648999N00928196EA0000000725
B1444305648979N00928312EA0000000722
B1444355648907N00928304EA0000000714
B1444405648893N00928187EA0000000713
B1444455648943N00928168EA0000000716
B1444515648949N00928293EA0000000709
B1444565648881N00928327EA0000000708
B1445015648848N00928223EA0000000700
B1445065648890N00928179EA0000000703
B1445115648937N00928228EA0000000700
B1445165648983N00928288EA0000000707
B1445215649001N00928388EA0000000710
B1445265648941N00928453EA0000000720
B1445315648887N00928370EA0000000715
B1445365648914N00928284EA0000000718
B1445415648951N00928347EA0000000722
B1445465648912N00928442EA0000000729
B1445515648842N00928415EA0000000725
B1445565648829N00928303EA0000000725
B1446015648876N00928281EA0000000728
B1446065648893N00928378EA0000000733
B1446125648820N00928453EA0000000735
B1446175648767N00928370EA0000000733
B1446225648783N00928274EA0000000733
B1446295648845N00928336EA0000000732
B1446355648871N00928462EA0000000734
B1446405648811N00928535EA0000000738
B1446465648755N00928428EA0000000730
B1446515648790N00928356EA0000000733
B1446565648828N00928413EA0000000737
B1447015648801N00928520EA0000000737
B1447065648725N00928525EA0000000732
B1447115648695N00928419EA0000000727
B1447165648736N00928372EA0000000727
B1447235648772N00928498EA0000000729
B1447295648781N00928631EA0000000730
B1447365648697N00928689EA0000000724
B1447415648667N00928583EA0000000714
B1447465648706N00928524EA0000000707
B1447535648748N00928640EA0000000696
B1447585648759N00928752EA0000000694
B1448075648831N00928850EA0000000679
B1448145648906N00928740EA0000000678
B1448215648983N00928643EA0000000685
B1448315649055N00928721EA0000000700
B1448365648994N00928774EA0000000701
B1448415648941N00928685EA0000000703
B1448465648964N00928589EA0000000711
B1448535649013N00928655EA0000000712
B1448585648975N00928746EA0000000710
B1449035648905N00928716EA0000000714
B1449085648889N00928604EA0000000719
B1449185648965N00928616EA0000000716
B1449265648891N00928723EA0000000717
B1449315648842N00928636EA0000000721
B1449365648865N00928543EA0000000726
B1449425648914N00928583EA0000000722
B1449475648893N00928685EA0000000715
B1449525648822N00928698EA0000000719
B1449575648784N00928592EA0000000719
B1450025648814N00928497EA0000000716
B1450115648862N00928610EA0000000712
B1450175648795N00928687EA0000000710
B1450225648730N00928619EA0000000708
B1450275648727N00928498EA0000000712
B1450335648780N00928418EA0000000708
B1450425648876N00928335EA0000000698
B1450485648944N00928300EA0000000693
B1450565649037N00928261EA0000000681
B1451015649100N00928248EA0000000672
B1451075649180N00928252EA0000000663
B1451125649243N00928266EA0000000655
B1451215649352N00928313EA0000000637
B1451265649409N00928348EA0000000633
B1451345649500N00928410EA0000000624
B1451405649569N00928451EA0000000623
B1451455649626N00928401EA0000000622
B1451515649663N00928251EA0000000622
B1451565649692N00928126EA0000000620
B1452045649750N00927944EA0000000623
B1452105649802N00927814EA0000000625
B1452175649867N00927666EA0000000633
B1452255649945N00927509EA0000000639
B1452325650016N00927384EA0000000645
B1452425650121N00927224EA0000000653
B1452495650194N00927122EA0000000642
B1452595650300N00926999EA0000000627
B1453105650420N00926874EA0000000615
B1453165650467N00926770EA0000000611
B1453215650433N00926642EA0000000611
B1453265650350N00926626EA0000000615
B1453365650258N00926830EA0000000603
B1453495650157N00927128EA0000000586
B1453585650081N00927340EA0000000569
B1454035650037N00927465EA0000000570
B1454105649969N00927643EA0000000568
B1454155649885N00927670EA0000000566
B1454205649829N00927563EA0000000568
B1454255649835N00927428EA0000000570
B1454315649863N00927281EA0000000578
B1454365649890N00927161EA0000000576
B1454425649931N00927013EA0000000565
B1454485649981N00926870EA0000000557
B1454535650027N00926751EA0000000543
B1455005650092N00926577EA0000000532
B1455075650157N00926419EA0000000541
B1455155650228N00926259EA0000000547
B1455215650220N00926113EA0000000556
B1455265650144N00926090EA0000000559
B1455315650091N00926180EA0000000569
B1455365650069N00926301EA0000000568
B1455415650046N00926430EA0000000562
B1455495650004N00926654EA0000000551
B1455565649967N00926860EA0000000539
B1456015649940N00927008EA0000000525
B1456085649901N00927217EA0000000512
B1456155649861N00927422EA0000000500
B1456225649824N00927618EA0000000498
B1456275649850N00927722EA0000000496
B1456325649906N00927658EA0000000490
B1456395649940N00927472EA0000000482
B1456455649971N00927318EA0000000467
B1456505650003N00927196EA0000000458
B1456565650042N00927059EA0000000448
B1457035650095N00926911EA0000000432
B1457085650136N00926813EA0000000421
B1457135650180N00926717EA0000000413
B1457195650236N00926605EA0000000408
B1457245650238N00926473EA0000000405
B1457305650150N00926418EA0000000407
B1457365650086N00926533EA0000000408
B1457435650034N00926701EA0000000406
B1457485649999N00926819EA0000000399
B1457545649959N00926960EA0000000383
B1458045649898N00927199EA0000000365
B1458095649872N00927320EA0000000356
B1458215649819N00927617EA0000000339
B1458265649851N00927710EA0000000325
B1458315649906N00927668EA0000000314
B1458385649881N00927503EA0000000306
B1458435649803N00927500EA0000000296
B1458485649756N00927604EA0000000288
B1458575649821N00927752EA0000000265
B1459025649882N00927796EA0000000257
B1459125650003N00927878EA0000000244
B1459175650068N00927911EA0000000235
B1459225650127N00927844EA0000000227
B1459295650167N00927662EA0000000223
B1459395650228N00927441EA0000000213
B1459505650312N00927223EA0000000193
B1500005650408N00927042EA0000000174
B1500055650458N00926950EA0000000168
B1500155650552N00926750EA0000000166
B1500215650606N00926631EA0000000162
B1500265650650N00926532EA0000000157
B1500325650712N00926456EA0000000150
B1500395650795N00926420EA0000000138
B1500475650891N00926401EA0000000126
B1500535650968N00926402EA0000000113
B1500585651010N00926484EA0000000104
B1501045650981N00926650EA0000000083
B1501105650952N00926823EA0000000053
B1501285650890N00927206EA0000000029
