AOGNOGN
HFDTE170825
HFFXA050
HFPLTPILOTINCHARGE:
HFGTYGLIDERTYPE:
HFGIDGLIDERID:
HFDTM100GPSDATUM:WGS-1984
HFRFWFIRMWAREVERSION:
HFRHWHARDWAREVERSION:
HFFTYFRTYPE:OGN-FLIGHTBOOK
HFGPSGENERIC
HFPRSPRESSALTSENSOR:
HFCIDCOMPETITIONID:
B1437225650890N00927105EA0000000033
B1437265650883N00927149EA0000000030
B1437275650876N00927187EA0000000028
B1437335650855N00927306EA0000000031
B1437385650832N00927445EA0000000040
B1437445650803N00927638EA0000000067
B1437505650772N00927811EA0000000101
B1437555650753N00927949EA0000000113
B1438015650736N00928120EA0000000125
B1438065650722N00928273EA0000000131
B1438115650696N00928431EA0000000149
B1438175650648N00928610EA0000000162
B1438255650579N00928848EA0000000199
B1438345650505N00929117EA0000000217
B1438405650449N00929307EA0000000225
B1438465650338N00929422EA0000000245
B1438515650229N00929423EA0000000254
B1438565650127N00929345EA0000000274
B1439025650037N00929163EA0000000286
B1439085649980N00928935EA0000000309
B1439155649920N00928668EA0000000343
B1439215649874N00928439EA0000000381
B1439275649829N00928216EA0000000399
B1439325649786N00928026EA0000000410
B1439375649743N00927834EA0000000416
B1439425649687N00927605EA0000000425
B1439475649650N00927453EA0000000439
B1439535649596N00927233EA0000000453
B1440015649515N00926930EA0000000476
B1440095649431N00926620EA0000000498
B1440175649340N00926305EA0000000514
B1440265649231N00925961EA0000000536
B1440335649141N00925660EA0000000548
B1440525648916N00924970EA0000000589
B1446585644467N00910756EA0000001340
B1447145644219N00910024EA0000001345
B1447405643839N00908850EA0000001354
B1447535643654N00908254EA0000001357
B1448055643482N00907704EA0000001353
B1448105643411N00907476EA0000001355
B1448205643268N00907043EA0000001370
B1448265643182N00906798EA0000001380
B1448335643083N00906517EA0000001392
B1448395643002N00906285EA0000001401
B1448495642870N00905905EA0000001415
B1449015642720N00905476EA0000001442
B1449115642603N00905142EA0000001456
B1449195642506N00904861EA0000001459
B1449265642417N00904594EA0000001453
B1449315642352N00904390EA0000001443
B1449375642267N00904133EA0000001433
B1450015641920N00903020EA0000001425
B1450075641831N00902755EA0000001431
B1450225641604N00902126EA0000001438
B1450385641356N00901440EA0000001430
B1450445641262N00901177EA0000001428
B1450495641187N00900957EA0000001431
B1450545641096N00900698EA0000001432
B1451015641004N00900437EA0000001432
B1451095640880N00900083EA0000001429
B1451165640772N00859764EA0000001424
B1451235640666N00859437EA0000001421
B1451285640590N00859202EA0000001419
B1451345640502N00858919EA0000001421
B1451395640428N00858691EA0000001423
B1451445640354N00858469EA0000001429
B1451525640230N00858129EA0000001433
B1452015640092N00857746EA0000001432
B1452085639993N00857436EA0000001427
B1452155639896N00857116EA0000001426
B1452215639816N00856835EA0000001425
B1452325639675N00856319EA0000001426
B1452485639477N00855489EA0000001423
B1452545639422N00855243EA0000001419
B1453035639323N00854794EA0000001419
B1453105639242N00854456EA0000001423
B1453165639172N00854176EA0000001429
B1453225639104N00853905EA0000001437
B1453305639000N00853557EA0000001437
B1453375638907N00853248EA0000001434
B1453425638846N00853020EA0000001428
B1453595638633N00852219EA0000001425
B1454045638573N00851983EA0000001427
B1454135638465N00851555EA0000001428
B1454185638412N00851313EA0000001427
B1454285638304N00850834EA0000001428
B1454365638215N00850464EA0000001433
B1454455638107N00850058EA0000001435
B1454535638016N00849704EA0000001434
B1454585637956N00849486EA0000001433
B1455115637800N00848912EA0000001432
B1455165637743N00848688EA0000001431
B1455215637692N00848461EA0000001430
B1455295637611N00848093EA0000001430
B1455375637527N00847725EA0000001428
B1455455637434N00847354EA0000001427
B1455545637326N00846932EA0000001427
B1456005637251N00846655EA0000001429
B1456115637108N00846150EA0000001431
B1456175637024N00845874EA0000001432
B1456225636955N00845641EA0000001431
B1456275636890N00845407EA0000001430
B1456325636829N00845175EA0000001430
B1456375636756N00844899EA0000001428
B1456435636694N00844668EA0000001433
B1456505636611N00844344EA0000001429
B1456555636552N00844108EA0000001427
B1457015636484N00843821EA0000001424
B1457095636395N00843441EA0000001426
B1457145636338N00843203EA0000001430
B1457205636256N00842875EA0000001432
B1457285636174N00842546EA0000001432
B1457475635936N00841645EA0000001429
B1457575635814N00841169EA0000001431
B1458035635739N00840881EA0000001431
B1458095635661N00840594EA0000001426
B1458175635561N00840208EA0000001424
B1458225635496N00839968EA0000001427
B1458295635409N00839630EA0000001429
B1458355635337N00839340EA0000001430
B1458445635229N00838901EA0000001431
B1458505635153N00838611EA0000001426
B1458585635049N00838221EA0000001422
B1459075634936N00837783EA0000001430
B1459135634865N00837505EA0000001436
B1459185634804N00837273EA0000001438
B1459255634720N00836943EA0000001436
B1459315634646N00836655EA0000001430
B1459385634559N00836318EA0000001432
B1459435634497N00836080EA0000001431
B1459505634409N00835747EA0000001432
B1459575634324N00835413EA0000001429
B1500025634251N00835121EA0000001429
B1500075634203N00834926EA0000001427
B1500175634082N00834434EA0000001425
B1500285633944N00833885EA0000001414
B1500365633843N00833480EA0000001423
B1500455633727N00833044EA0000001436
B1500525633640N00832718EA0000001439
B1501005633546N00832340EA0000001440
B1501065633473N00832052EA0000001433
B1501135633381N00831706EA0000001433
B1501195633295N00831357EA0000001433
B1501245633245N00831159EA0000001430
B1501335633126N00830702EA0000001421
B1501385633062N00830448EA0000001416
B1501525632884N00829753EA0000001420
B1501585632812N00829462EA0000001427
B1502075632710N00829036EA0000001435
B1502145632629N00828711EA0000001436
B1502195632572N00828474EA0000001435
B1502295632454N00827991EA0000001430
B1502345632393N00827743EA0000001425
B1502445632269N00827240EA0000001426
B1502535632159N00826793EA0000001424
B1502595632090N00826503EA0000001429
B1503075631999N00826122EA0000001433
B1503165631900N00825698EA0000001431
B1503215631840N00825460EA0000001422
B1503325631710N00824916EA0000001416
B1503375631648N00824668EA0000001421
B1503425631576N00824375EA0000001426
B1503495631503N00824090EA0000001431
B1503555631432N00823811EA0000001437
B1504055631313N00823355EA0000001439
B1504135631218N00822985EA0000001432
B1504225631110N00822555EA0000001425
B1504395630884N00821678EA0000001425
B1504485630788N00821306EA0000001435
B1504595630651N00820796EA0000001425
B1505085630530N00820361EA0000001418
B1505155630432N00820019EA0000001413
B1505275630268N00819448EA0000001426
B1505335630192N00819182EA0000001436
B1505385630116N00818923EA0000001440
B1505505629978N00818444EA0000001436
B1505555629917N00818221EA0000001433
B1506015629846N00817949EA0000001430
B1506065629783N00817715EA0000001425
B1506355629423N00816329EA0000001424
B1506415629352N00816045EA0000001427
B1506505629244N00815618EA0000001423
B1506595629134N00815192EA0000001428
B1507445628566N00813048EA0000001433
B1507505628476N00812776EA0000001434
B1507585628284N00812435EA0000001430
B1508055628125N00812276EA0000001430
B1508135627897N00812173EA0000001428
B1508215627667N00812168EA0000001427
B1508275627499N00812208EA0000001428
B1508325627362N00812249EA0000001426
B1508415627119N00812348EA0000001426
B1508525626811N00812506EA0000001429
B1508575626711N00812558EA0000001431
B1509055626510N00812649EA0000001435
B1509135626305N00812731EA0000001433
B1509185626143N00812790EA0000001430
B1509235626034N00812830EA0000001429
B1509325625790N00812925EA0000001429
B1509395625603N00812994EA0000001435
B1509465625421N00813062EA0000001440
B1509575625140N00813149EA0000001436
B1510025625009N00813190EA0000001434
B1510095624822N00813254EA0000001427
B1510195624548N00813349EA0000001416
B1510315624218N00813467EA0000001420
B1510365624082N00813507EA0000001426
B1510445623869N00813573EA0000001430
B1510575623527N00813681EA0000001432
B1511035623367N00813728EA0000001428
B1511105623177N00813792EA0000001422
B1511155623040N00813836EA0000001416
B1511275622714N00813939EA0000001420
B1511355622505N00814014EA0000001426
B1511485622175N00814140EA0000001429
B1511555621998N00814214EA0000001431
B1512045621764N00814300EA0000001428
B1512105621580N00814368EA0000001427
B1512215621321N00814459EA0000001426
B1512315621060N00814547EA0000001425
B1512365620928N00814584EA0000001426
B1512445620713N00814647EA0000001424
B1512515620524N00814706EA0000001419
B1512585620334N00814760EA0000001422
B1513035620199N00814801EA0000001424
B1513085620063N00814841EA0000001427
B1513175619822N00814908EA0000001428
B1513225619661N00814953EA0000001425
B1513275619555N00814984EA0000001425
B1513335619396N00815032EA0000001427
B1513465619055N00815137EA0000001430
B1513525618897N00815185EA0000001431
B1514025618633N00815269EA0000001426
B1514095618420N00815329EA0000001424
B1514225618101N00815431EA0000001424
B1514295617916N00815487EA0000001429
B1514365617735N00815549EA0000001430
B1514485617423N00815648EA0000001427
B1514565617211N00815715EA0000001428
B1515125616779N00815839EA0000001426
B1515205616564N00815903EA0000001430
B1515325616250N00816007EA0000001427
B1515425615991N00816099EA0000001426
B1515545615679N00816198EA0000001431
B1516025615476N00816265EA0000001438
B1516085615321N00816304EA0000001439
B1516175615094N00816364EA0000001442
B1516275614815N00816439EA0000001436
B1516335614682N00816476EA0000001418
B1516385614545N00816520EA0000001405
B1516505614215N00816627EA0000001409
B1516555614084N00816666EA0000001420
B1517025613909N00816712EA0000001433
B1517085613760N00816749EA0000001435
B1517145613611N00816793EA0000001431
B1517195613484N00816831EA0000001430
B1517285613246N00816906EA0000001427
B1517365613001N00816975EA0000001424
B1517415612891N00817010EA0000001422
B1517515612611N00817089EA0000001422
B1517595612385N00817149EA0000001420
B1518045612244N00817189EA0000001417
B1518095612101N00817230EA0000001419
B1518165611903N00817287EA0000001427
B1518225611711N00817351EA0000001428
B1518285611574N00817398EA0000001435
B1518345611413N00817449EA0000001446
B1518405611251N00817510EA0000001441
B1518485611028N00817587EA0000001435
B1518565610774N00817668EA0000001434
B1519305609848N00817967EA0000001423
B1519355609706N00818006EA0000001424
B1519425609511N00818064EA0000001426
B1519475609372N00818100EA0000001431
B1519585609067N00818185EA0000001433
B1520055608869N00818232EA0000001431
B1520115608698N00818278EA0000001425
B1520185608496N00818330EA0000001422
B1520285608208N00818409EA0000001419
B1520335608064N00818449EA0000001421
B1520405607868N00818498EA0000001428
B1520475607678N00818550EA0000001434
B1520535607518N00818593EA0000001435
B1521005607329N00818653EA0000001434
B1521055607191N00818693EA0000001430
B1521195606797N00818813EA0000001428
B1521265606597N00818878EA0000001429
B1521345606372N00818951EA0000001427
B1521405606203N00819007EA0000001428
B1521485605980N00819080EA0000001429
B1521545605812N00819132EA0000001430
B1521595605675N00819175EA0000001429
B1522045605537N00819214EA0000001431
B1522105605373N00819261EA0000001434
B1522155605208N00819310EA0000001436
B1522205605098N00819341EA0000001433
B1522255604959N00819383EA0000001430
B1522305604820N00819423EA0000001427
B1522355604680N00819460EA0000001427
B1522405604540N00819498EA0000001429
B1522505604265N00819573EA0000001434
B1522565604102N00819620EA0000001433
B1523105603715N00819728EA0000001435
B1523195603455N00819791EA0000001429
B1523315603106N00819889EA0000001432
B1523395602882N00819952EA0000001439
B1523445602747N00819996EA0000001440
B1523505602561N00820062EA0000001436
B1523565602426N00820109EA0000001432
B1524065602157N00820207EA0000001427
B1524135601967N00820279EA0000001427
B1524275601561N00820428EA0000001425
B1524505600975N00820628EA0000001432
B1525275559950N00820993EA0000001404
B1525365559690N00821077EA0000001388
B1526185558409N00821463EA0000001340
B1526315558058N00821585EA0000001320
B1526395557825N00821670EA0000001310
B1526445557680N00821726EA0000001304
B1526505557504N00821797EA0000001293
B1526555557359N00821855EA0000001281
B1527095556942N00822014EA0000001263
B1527175556707N00822094EA0000001268
B1527225556567N00822137EA0000001278
B1527275556433N00822172EA0000001289
B1527475555901N00822327EA0000001274
B1527545555700N00822393EA0000001265
B1528015555498N00822459EA0000001268
B1528065555357N00822508EA0000001273
B1528145555137N00822581EA0000001284
B1528355554563N00822767EA0000001268
B1528585553916N00822964EA0000001279
B1530545550703N00823897EA0000001276
B1531285549761N00824181EA0000001277
B1534155545159N00825649EA0000001277
B1534275544830N00825735EA0000001280
B1534355544610N00825796EA0000001279
B1535345542993N00826383EA0000001270
B1537315540016N00828352EA0000001277
B1537405539791N00828457EA0000001284
B1537475539611N00828522EA0000001282
B1538165538813N00828765EA0000001281
B1538275538518N00828863EA0000001283
B1538325538380N00828908EA0000001277
B1538385538210N00828969EA0000001269
B1538465537978N00829054EA0000001263
B1538575537659N00829182EA0000001270
B1539085537345N00829305EA0000001273
B1539205537005N00829444EA0000001274
B1541185533713N00830482EA0000001266
B1551345516944N00837771EA0000001268
B1551525516448N00837975EA0000001269
B1552105515933N00838177EA0000001257
B1552165515765N00838246EA0000001268
B1552245515550N00838340EA0000001276
B1552345515284N00838462EA0000001270
B1552435515037N00838578EA0000001262
B1552585514618N00838786EA0000001258
B1553115514271N00838949EA0000001273
B1553245513936N00839101EA0000001272
B1553315513752N00839188EA0000001266
B1553465513347N00839380EA0000001260
B1553525513183N00839452EA0000001264
B1554025512914N00839574EA0000001268
B1554175512513N00839761EA0000001266
B1554285512222N00839897EA0000001269
B1554525511578N00840200EA0000001266
B1554585511417N00840275EA0000001263
B1555085511145N00840400EA0000001263
B1555165510931N00840498EA0000001268
B1555285510617N00840645EA0000001274
B1555345510456N00840715EA0000001272
B1555475510103N00840880EA0000001260
B1556015509714N00841051EA0000001261
B1556065509578N00841113EA0000001263
B1556145509362N00841211EA0000001268
B1556245509100N00841323EA0000001274
B1556415508647N00841543EA0000001258
B1556475508480N00841633EA0000001252
B1556535508312N00841721EA0000001254
B1557095507886N00841951EA0000001274
B1558355505556N00843016EA0000001266
B1558405505428N00843075EA0000001275
B1558485505230N00843169EA0000001281
B1558575505004N00843268EA0000001273
B1559045504819N00843347EA0000001264
B1559125504601N00843449EA0000001258
B1559205504379N00843555EA0000001257
B1559285504163N00843663EA0000001264
B1559365503954N00843763EA0000001275
B1559485503651N00843910EA0000001279
B1559545503496N00843988EA0000001272
B1559595503363N00844051EA0000001265
B1600045503227N00844118EA0000001255
B1600145502950N00844251EA0000001254
B1600205502790N00844331EA0000001260
B1600275502608N00844421EA0000001272
B1600385502330N00844545EA0000001277
B1600445502175N00844613EA0000001272
B1600495502044N00844673EA0000001264
B1600575501828N00844767EA0000001256
B1601025501664N00844839EA0000001254
B1601115501450N00844936EA0000001260
B1601185501266N00845026EA0000001269
B1601275501035N00845139EA0000001273
B1601385500754N00845279EA0000001273
B1601455500569N00845367EA0000001268
B1602015500140N00845557EA0000001264
B1602205459630N00845782EA0000001268
B1602295459390N00845868EA0000001270
B1602365459203N00845931EA0000001270
B1602455458960N00846012EA0000001266
B1602505458824N00846056EA0000001265
B1603025458496N00846153EA0000001262
B1603105458279N00846214EA0000001263
B1603275457825N00846349EA0000001263
B1603355457610N00846415EA0000001259
B1603455457341N00846498EA0000001261
B1603545457100N00846581EA0000001256
B1604015456915N00846645EA0000001260
B1604145456570N00846764EA0000001268
B1604295456166N00846891EA0000001262
B1604365455976N00846959EA0000001258
B1604435455785N00847020EA0000001260
B1608165449959N00847284EA0000001268
B1608245449744N00847288EA0000001273
B1609155448354N00847286EA0000001274
B1610085446879N00847281EA0000001266
B1610555445606N00847296EA0000001263
B1611125445138N00847297EA0000001257
B1611325444591N00847302EA0000001256
B1611465444207N00847296EA0000001259
B1611585443879N00847284EA0000001266
B1612045443716N00847280EA0000001268
B1612225443216N00847261EA0000001262
B1612485442491N00847244EA0000001256
B1613235441526N00847228EA0000001256
B1613395441086N00847236EA0000001250
B1613445440949N00847238EA0000001253
B1613575440603N00847247EA0000001271
B1614095440292N00847264EA0000001275
B1614475439270N00847258EA0000001265
B1615325438062N00847215EA0000001255
B1615455437715N00847216EA0000001264
B1616355436367N00847237EA0000001260
B1618035434026N00847307EA0000001266
B1621085428982N00847314EA0000001245
B1621185428698N00847327EA0000001243
B1621235428556N00847339EA0000001241
B1621345428245N00847342EA0000001249
B1621395428110N00847342EA0000001260
B1621535427742N00847337EA0000001261
B1622125427218N00847329EA0000001249
B1622185427048N00847324EA0000001248
B1622255426851N00847317EA0000001251
B1622315426684N00847316EA0000001257
B1622465426275N00847331EA0000001256
B1622525426108N00847346EA0000001245
B1623005425879N00847362EA0000001243
B1623055425739N00847375EA0000001249
B1623115425573N00847379EA0000001264
B1623205425341N00847376EA0000001280
B1623335425002N00847373EA0000001271
B1623405424806N00847376EA0000001254
B1623575424319N00847394EA0000001255
B1625395421507N00847449EA0000001240
B1625445421371N00847444EA0000001252
B1626025420907N00847429EA0000001260
B1626115420667N00847431EA0000001249
B1626165420533N00847432EA0000001247
B1626235420342N00847437EA0000001248
B1626325420100N00847446EA0000001250
B1626395419917N00847448EA0000001257
B1626455419763N00847448EA0000001261
B1627555417875N00847435EA0000001227
B1628045417615N00847467EA0000001230
B1628125417393N00847505EA0000001248
B1628455416537N00847684EA0000001247
B1628575416199N00847755EA0000001256
B1629045416009N00847791EA0000001274
B1629155415728N00847828EA0000001290
B1629235415523N00847854EA0000001280
B1629305415336N00847874EA0000001264
B1629425415003N00847915EA0000001249
B1629515414755N00847944EA0000001257
B1630175414085N00848031EA0000001259
B1631115412611N00848229EA0000001252
B1631185412419N00848246EA0000001251
B1631285412144N00848275EA0000001255
B1640265358412N00854222EA0000001260
B1643275353647N00856343EA0000001271
B1643335353488N00856414EA0000001264
B1645115350882N00857546EA0000001267
B1646045349490N00858151EA0000001265
B1646535348205N00858802EA0000001266
B1646585348076N00858863EA0000001268
B1647035347946N00858921EA0000001269
B1647125347686N00859034EA0000001269
B1647215347450N00859146EA0000001266
B1647295347237N00859240EA0000001268
B1647415346943N00859362EA0000001269
B1647565346544N00859526EA0000001268
B1648035346359N00859606EA0000001270
B1648105346177N00859691EA0000001271
B1648155346047N00859752EA0000001269
B1648275345731N00859894EA0000001265
B1648345345544N00859980EA0000001264
B1648445345278N00900101EA0000001264
B1648525345064N00900198EA0000001266
B1649015344797N00900317EA0000001265
B1649065344689N00900360EA0000001266
B1649215344286N00900520EA0000001267
B1649305344042N00900616EA0000001265
B1649365343880N00900675EA0000001263
B1649435343690N00900752EA0000001259
B1649525343450N00900850EA0000001258
B1650045343130N00900977EA0000001260
B1650105342971N00901046EA0000001262
B1650175342760N00901144EA0000001263
B1650285342498N00901271EA0000001265
B1650335342368N00901330EA0000001269
B1650455342057N00901487EA0000001268
B1650565341772N00901629EA0000001271
B1651055341512N00901752EA0000001271
B1651125341356N00901829EA0000001270
B1651175341227N00901884EA0000001267
B1651255341015N00901984EA0000001265
B1651355340749N00902099EA0000001262
B1651405340615N00902161EA0000001260
B1651455340481N00902218EA0000001262
B1651555340215N00902330EA0000001262
B1652195339584N00902600EA0000001266
B1652265339401N00902689EA0000001264
B1652365339136N00902820EA0000001260
B1652475338847N00902971EA0000001260
B1652525338717N00903037EA0000001263
B1653595336960N00903850EA0000001261
B1654145336559N00904007EA0000001263
B1654265336213N00904140EA0000001265
B1654405335866N00904286EA0000001260
B1654505335602N00904411EA0000001261
B1654575335417N00904504EA0000001261
B1655055335207N00904613EA0000001263
B1655155334947N00904754EA0000001265
B1655235334738N00904870EA0000001265
B1655345334452N00905019EA0000001265
B1655405334296N00905098EA0000001267
B1655525333983N00905248EA0000001264
B1656015333718N00905373EA0000001263
B1656065333612N00905422EA0000001261
B1656125333453N00905497EA0000001262
B1656185333267N00905580EA0000001262
B1656235333160N00905625EA0000001264
B1656465332554N00905876EA0000001264
B1656565332294N00905987EA0000001264
B1657265331523N00906350EA0000001269
B1657375331237N00906478EA0000001267
B1657435331080N00906550EA0000001262
B1657505330864N00906642EA0000001258
B1657565330702N00906713EA0000001257
B1658055330487N00906801EA0000001265
B1658145330226N00906909EA0000001266
B1658225330043N00906984EA0000001262
B1658315329803N00907089EA0000001255
B1658475329368N00907274EA0000001254
B1658565329132N00907369EA0000001268
B1659165328596N00907599EA0000001253
B1659405327940N00907882EA0000001269
B1659575327468N00908092EA0000001266
B1700065327250N00908193EA0000001250
B1700385326383N00908590EA0000001269
B1701105325517N00908935EA0000001261
B1701465324563N00909324EA0000001261
B1701515324426N00909387EA0000001255
B1702145323799N00909674EA0000001268
B1702195323668N00909733EA0000001272
B1702445323006N00910046EA0000001260
B1703015322559N00910257EA0000001264
B1703335321692N00910691EA0000001259
B1704015320914N00911039EA0000001271
B1704065320827N00911100EA0000001271
B1704525319535N00911633EA0000001253
B1704595319337N00911726EA0000001258
B1705545317793N00912372EA0000001257
B1705595317644N00912459EA0000001271
B1706055317483N00912536EA0000001279
B1706115317322N00912609EA0000001277
B1706175317226N00912668EA0000001277
B1706345316649N00912884EA0000001250
B1706425316373N00912990EA0000001251
B1707345314894N00913462EA0000001264
B1708275313405N00913868EA0000001261
B1708415312998N00913977EA0000001266
B1708475312822N00914024EA0000001264
B1708595312471N00914118EA0000001260
B1709535310913N00914498EA0000001263
B1710175310209N00914690EA0000001268
B1710255309982N00914750EA0000001271
B1710315309813N00914791EA0000001269
B1717065258493N00913677EA0000001253
B1717215258075N00913461EA0000001260
B1717275257912N00913387EA0000001262
B1717325257775N00913328EA0000001263
B1717395257580N00913234EA0000001261
B1717445257439N00913164EA0000001256
B1717495257296N00913094EA0000001249
B1717575257063N00912977EA0000001253
B1718075256783N00912838EA0000001263
B1718335256086N00912474EA0000001268
B1718445255783N00912308EA0000001264
B1719035255268N00912025EA0000001268
B1719235254720N00911750EA0000001267
B1719485254030N00911396EA0000001258
B1721325251152N00910003EA0000001264
B1721485250716N00909805EA0000001276
B1722015250361N00909639EA0000001270
B1722075250190N00909558EA0000001257
B1722165249935N00909421EA0000001260
B1722235249742N00909318EA0000001265
B1722285249609N00909247EA0000001269
B1722335249473N00909181EA0000001270
B1722395249314N00909095EA0000001266
B1722445249177N00909027EA0000001261
B1722495249036N00908956EA0000001259
B1722555248866N00908874EA0000001261
B1723015248695N00908794EA0000001266
B1723085248496N00908702EA0000001267
B1723135248355N00908633EA0000001261
B1723195248183N00908552EA0000001256
B1723245248039N00908487EA0000001254
B1723315247842N00908398EA0000001260
B1723375247676N00908318EA0000001268
B1723425247541N00908254EA0000001275
B1724125246726N00907856EA0000001261
B1724195246532N00907762EA0000001266
B1724265246342N00907667EA0000001268
B1724355246093N00907544EA0000001266
B1725005245390N00907213EA0000001276
B1726475242273N00905684EA0000001275
B1726555242039N00905583EA0000001263
B1727085241658N00905408EA0000001269
B1727135241513N00905346EA0000001275
B1727195241349N00905270EA0000001271
B1727305241042N00905137EA0000001264
B1727355240900N00905076EA0000001258
B1727425240666N00904977EA0000001258
B1727475240548N00904929EA0000001262
B1727525240403N00904869EA0000001264
B1728015240117N00904749EA0000001265
B1728095239916N00904663EA0000001268
B1728185239663N00904543EA0000001266
B1728265239442N00904434EA0000001263
B1728315239305N00904363EA0000001261
B1728385239113N00904269EA0000001263
B1728495238808N00904119EA0000001264
B1728565238611N00904013EA0000001278
B1729035238419N00903904EA0000001277
B1729375237449N00903413EA0000001264
B1730055236670N00903041EA0000001273
B1730135236447N00902936EA0000001266
B1730185236305N00902873EA0000001263
B1730245236134N00902792EA0000001261
B1730315235932N00902702EA0000001259
B1731115234818N00902131EA0000001265
B1731185234620N00902032EA0000001261
B1731345234169N00901791EA0000001263
B1731445233897N00901641EA0000001272
B1731505233735N00901548EA0000001276
B1731595233486N00901413EA0000001272
B1732505232043N00900681EA0000001274
B1732575231852N00900589EA0000001271
B1733055231626N00900486EA0000001266
B1733195231226N00900291EA0000001261
B1735385227378N00858202EA0000001263
B1735455227181N00858089EA0000001263
B1735505227040N00858010EA0000001264
B1735595226789N00857861EA0000001263
B1736105226484N00857686EA0000001266
B1736205226210N00857526EA0000001267
B1736455225540N00857140EA0000001265
B1737195224556N00856617EA0000001272
B1737255224415N00856542EA0000001275
B1737335224194N00856412EA0000001277
B1737425223951N00856259EA0000001273
B1737485223763N00856133EA0000001272
B1737545223628N00856045EA0000001268
B1738045223360N00855851EA0000001266
B1738135223099N00855655EA0000001265
B1738205222944N00855535EA0000001268
B1738305222684N00855338EA0000001271
B1738415222398N00855113EA0000001270
B1738515222135N00854899EA0000001265
B1738585221946N00854758EA0000001260
B1739075221698N00854582EA0000001261
B1739145221506N00854451EA0000001264
B1739225221285N00854316EA0000001266
B1739305221069N00854171EA0000001268
B1739355220932N00854081EA0000001266
B1739425220746N00853956EA0000001262
B1739475220611N00853873EA0000001263
B1739535220448N00853775EA0000001259
B1739585220286N00853672EA0000001258
B1740035220175N00853599EA0000001261
B1740115219958N00853463EA0000001261
B1740165219797N00853354EA0000001257
B1740235219626N00853250EA0000001256
B1740285219512N00853179EA0000001257
B1740355219297N00853029EA0000001252
B1740405219131N00852918EA0000001253
B1740465218994N00852829EA0000001257
B1740595218643N00852580EA0000001259
B1741055218480N00852466EA0000001261
B1741115218318N00852349EA0000001261
B1741175218157N00852236EA0000001265
B1741245217969N00852097EA0000001263
B1741315217778N00851971EA0000001264
B1741365217642N00851876EA0000001262
B1741415217505N00851781EA0000001261
B1741485217312N00851653EA0000001262
B1741535217146N00851542EA0000001260
B1741585217036N00851467EA0000001259
B1742035216897N00851369EA0000001261
B1742135216624N00851177EA0000001261
B1742245216334N00850969EA0000001260
B1742425215860N00850631EA0000001265
B1742475215729N00850535EA0000001265
B1742525215597N00850436EA0000001266
B1742575215465N00850335EA0000001263
B1743035215308N00850219EA0000001265
B1743125215069N00850045EA0000001266
B1743185214911N00849931EA0000001266
B1743245214727N00849802EA0000001267
B1743315214570N00849689EA0000001265
B1743385214386N00849562EA0000001261
B1743535213989N00849280EA0000001263
B1743595213833N00849164EA0000001263
B1744045213702N00849068EA0000001264
B1744125213492N00848918EA0000001267
B1744195213308N00848786EA0000001267
B1744275213100N00848624EA0000001264
B1744335212944N00848502EA0000001266
B1744395212788N00848385EA0000001265
B1744465212583N00848222EA0000001266
B1744515212482N00848143EA0000001267
B1744565212349N00848043EA0000001264
B1745015212216N00847942EA0000001258
B1745075212053N00847818EA0000001244
B1745135211883N00847685EA0000001231
B1745215211650N00847510EA0000001209
B1745275211471N00847387EA0000001193
B1745375211172N00847179EA0000001161
B1745445210962N00847025EA0000001149
B1745525210729N00846847EA0000001142
B1746015210476N00846644EA0000001134
B1746095210260N00846467EA0000001123
B1746165210071N00846309EA0000001108
B1746215209933N00846193EA0000001101
B1746385209462N00845821EA0000001103
B1746455209277N00845677EA0000001111
B1746515209120N00845563EA0000001113
B1746585208939N00845431EA0000001112
B1747075208698N00845258EA0000001105
B1747155208480N00845102EA0000001105
B1747225208290N00844967EA0000001107
B1747295208105N00844827EA0000001113
B1747425207779N00844571EA0000001122
B1749225205194N00842500EA0000001123
B1749365204835N00842260EA0000001122
B1749465204552N00842093EA0000001096
B1750025204082N00841836EA0000001106
B1750115203839N00841702EA0000001118
B1750175203684N00841614EA0000001124
B1750225203526N00841522EA0000001122
B1750285203388N00841446EA0000001111
B1750415203009N00841227EA0000001087
B1751465201245N00840274EA0000001107
B1751525201068N00840233EA0000001102
B1751575200892N00840209EA0000001100
B1753075158730N00840329EA0000000942
B1753175158415N00840361EA0000000913
B1753245158191N00840380EA0000000887
B1753295158029N00840398EA0000000868
B1753345157867N00840415EA0000000851
B1753395157703N00840419EA0000000830
B1753445157539N00840419EA0000000809
B1753555157179N00840383EA0000000762
B1754015156985N00840343EA0000000741
B1754065156827N00840293EA0000000729
B1754115156680N00840215EA0000000714
B1754165156545N00840122EA0000000692
B1754215156402N00840047EA0000000678
B1754265156263N00839961EA0000000668
B1754325156112N00839828EA0000000667
B1754375155997N00839705EA0000000668
B1754455155827N00839500EA0000000667
B1754525155685N00839320EA0000000658
B1754595155544N00839139EA0000000650
B1755045155445N00839005EA0000000640
B1755095155345N00838870EA0000000633
B1755155155224N00838707EA0000000624
B1755215155107N00838538EA0000000614
B1755275154992N00838369EA0000000612
B1755335154889N00838196EA0000000608
B1755435154723N00837903EA0000000589
B1755495154638N00837706EA0000000577
B1755565154599N00837442EA0000000563
B1756035154617N00837172EA0000000546
B1756275154990N00836504EA0000000521
B1756355155148N00836349EA0000000522
B1756405155247N00836267EA0000000516
B1756475155391N00836150EA0000000511
B1756525155503N00836093EA0000000514
B1756575155616N00836109EA0000000507
B1757025155713N00836211EA0000000491
B1757075155769N00836393EA0000000478
B1757125155755N00836592EA0000000464
B1757175155682N00836750EA0000000447
B1757235155586N00836914EA0000000459
B1757285155522N00837022EA0000000460
B1757345155436N00837157EA0000000445
B1757415155365N00837273EA0000000431
B1757485155283N00837410EA0000000419
B1757545155209N00837520EA0000000414
B1757595155151N00837613EA0000000407
B1758055155091N00837737EA0000000394
B1758105155039N00837851EA0000000385
B1758155154992N00837969EA0000000381
B1758205154961N00838105EA0000000374
B1758265154966N00838277EA0000000370
B1758325155014N00838452EA0000000358
B1758375155058N00838543EA0000000348
B1758435155127N00838662EA0000000340
B1758495155206N00838768EA0000000330
B1758545155272N00838852EA0000000315
B1758595155335N00838936EA0000000305
B1759045155403N00839017EA0000000292
B1759095155465N00839099EA0000000280
B1759145155528N00839180EA0000000267
B1759195155602N00839278EA0000000246
B1759255155666N00839363EA0000000223
B1759325155760N00839479EA0000000197
B1759375155830N00839568EA0000000206
B1759425155904N00839660EA0000000227
B1759475155976N00839749EA0000000243
B1759525156047N00839853EA0000000255
B1759575156125N00839957EA0000000273
B1800025156207N00840054EA0000000291
B1800085156326N00840085EA0000000301
B1800145156434N00839998EA0000000309
B1800215156547N00839833EA0000000329
B1800275156643N00839698EA0000000352
B1800335156738N00839565EA0000000373
B1800385156816N00839453EA0000000390
B1800455156921N00839298EA0000000416
B1800505156990N00839181EA0000000436
B1800555157052N00839055EA0000000451
B1801005157106N00838917EA0000000470
B1801055157157N00838781EA0000000488
B1801105157207N00838640EA0000000500
B1801175157270N00838427EA0000000512
B1801265157350N00838087EA0000000513
B1801315157354N00837932EA0000000508
B1801385157301N00837662EA0000000499
B1801445157201N00837465EA0000000488
B1801525157018N00837286EA0000000487
B1801575156903N00837185EA0000000488
B1802105156627N00836905EA0000000492
B1802245156327N00836597EA0000000483
B1802365156060N00836345EA0000000492
B1802415155936N00836324EA0000000500
B1802465155800N00836395EA0000000493
B1802515155724N00836491EA0000000487
B1802585155627N00836681EA0000000488
B1803045155560N00836818EA0000000485
B1803095155505N00836923EA0000000472
B1803145155449N00837032EA0000000460
B1803215155372N00837188EA0000000444
B1803265155319N00837302EA0000000430
B1803325155254N00837436EA0000000411
B1803375155201N00837550EA0000000396
B1803425155145N00837665EA0000000382
B1803485155082N00837802EA0000000363
B1803565154994N00837985EA0000000343
B1804025154944N00838141EA0000000331
B1804075154940N00838283EA0000000318
B1804125154969N00838414EA0000000306
B1804185155030N00838537EA0000000290
B1804245155106N00838637EA0000000279
B1804295155169N00838719EA0000000271
B1804365155259N00838837EA0000000262
B1804415155324N00838921EA0000000255
B1804475155404N00839017EA0000000245
B1804525155470N00839100EA0000000235
B1804595155568N00839232EA0000000217
B1805045155619N00839298EA0000000205
B1805095155683N00839378EA0000000192
B1805155155757N00839478EA0000000166
B1805265155893N00839649EA0000000161
B1805315155940N00839713EA0000000163
B1805365155987N00839772EA0000000163
