AOGNOGN
HFDTE080825
HFFXA050
HFPLTPILOTINCHARGE:
HFGTYGLIDERTYPE:SF-25
HFGIDGLIDERID:OY-XZG
HFDTM100GPSDATUM:WGS-1984
HFRFWFIRMWAREVERSION:
HFRHWHARDWAREVERSION:
HFFTYFRTYPE:OGN-FLIGHTBOOK
HFGPSGENERIC
HFPRSPRESSALTSENSOR:
HFCIDCOMPETITIONID:ZG
B1200205624556N00924753EA0000000028
B1200205624556N00924753EA0000000028
B1200295624593N00924573EA0000000047
B1200345624614N00924467EA0000000063
B1200405624639N00924343EA0000000080
B1200475624668N00924197EA0000000098
B1200565624694N00924004EA0000000117
B1201025624708N00923876EA0000000132
B1201095624722N00923716EA0000000147
B1201185624731N00923522EA0000000168
B1201245624734N00923396EA0000000173
B1201295624736N00923285EA0000000181
B1201355624737N00923156EA0000000191
B1201445624735N00922963EA0000000205
B1201495624741N00922856EA0000000206
B1201555624772N00922728EA0000000213
B1202005624794N00922619EA0000000220
B1202085624827N00922452EA0000000228
B1202185624865N00922248EA0000000234
B1202325624875N00921940EA0000000233
B1202395624859N00921781EA0000000237
B1202465624843N00921622EA0000000240
B1202515624828N00921516EA0000000251
B1202565624803N00921416EA0000000248
B1203015624750N00921327EA0000000238
B1203065624663N00921305EA0000000237
B1203115624575N00921390EA0000000239
B1203165624527N00921563EA0000000245
B1203215624515N00921765EA0000000245
B1203265624521N00921958EA0000000253
B1203335624533N00922224EA0000000251
B1203405624525N00922488EA0000000254
B1203525624468N00922922EA0000000245
B1204005624431N00923192EA0000000248
B1204105624377N00923516EA0000000250
B1204215624283N00923828EA0000000239
B1204325624191N00924156EA0000000227
B1204435624127N00924513EA0000000218
B1204495624096N00924705EA0000000217
B1204565624058N00924928EA0000000212
B1205035624016N00925150EA0000000214
B1205085623986N00925309EA0000000212
B1205135623999N00925472EA0000000215
B1205195624031N00925657EA0000000214
B1205245624088N00925774EA0000000210
B1205295624166N00925785EA0000000196
B1205375624269N00925686EA0000000171
B1205445624344N00925582EA0000000154
B1205495624384N00925487EA0000000134
B1205545624415N00925385EA0000000116
B1206005624447N00925266EA0000000097
B1206115624495N00925049EA0000000054
B1206195624528N00924892EA0000000030
B1206255624550N00924786EA0000000026
