AOGNOGN
HFDTE080825
HFFXA050
HFPLTPILOTINCHARGE:
HFGTYGLIDERTYPE:SF-25
HFGIDGLIDERID:OY-XZG
HFDTM100GPSDATUM:WGS-1984
HFRFWFIRMWAREVERSION:
HFRHWHARDWAREVERSION:
HFFTYFRTYPE:OGN-FLIGHTBOOK
HFGPSGENERIC
HFPRSPRESSALTSENSOR:
HFCIDCOMPETITIONID:ZG
B1211245624552N00924773EA0000000028
B1211245624552N00924773EA0000000028
B1211325624579N00924645EA0000000050
B1211385624603N00924548EA0000000063
B1211475624640N00924390EA0000000085
B1211535624661N00924280EA0000000098
B1211595624679N00924168EA0000000111
B1212085624706N00924007EA0000000134
B1212165624725N00923856EA0000000148
B1212245624737N00923707EA0000000163
B1212305624751N00923597EA0000000169
B1212355624760N00923500EA0000000170
B1212425624776N00923364EA0000000177
B1212495624791N00923221EA0000000186
B1212545624801N00923117EA0000000194
B1213015624813N00922972EA0000000193
B1213085624823N00922828EA0000000192
B1213145624829N00922686EA0000000193
B1213195624835N00922571EA0000000202
B1213295624838N00922351EA0000000213
B1213495624832N00921941EA0000000219
B1213545624825N00921840EA0000000217
B1214005624814N00921718EA0000000219
B1214055624810N00921618EA0000000221
B1214165624801N00921393EA0000000222
B1214255624804N00921208EA0000000223
B1214335624812N00921048EA0000000224
B1214395624815N00920928EA0000000222
B1214465624812N00920783EA0000000214
B1214515624771N00920683EA0000000208
B1214575624673N00920666EA0000000205
B1215025624595N00920779EA0000000199
B1215075624563N00920959EA0000000204
B1215135624544N00921182EA0000000216
B1215205624525N00921428EA0000000228
B1215285624504N00921699EA0000000235
B1215335624488N00921867EA0000000242
B1215405624465N00922099EA0000000241
B1215465624443N00922307EA0000000232
B1215575624411N00922703EA0000000226
B1216025624398N00922876EA0000000223
B1216125624374N00923224EA0000000219
B1216195624355N00923471EA0000000213
B1216255624332N00923685EA0000000209
B1216305624309N00923867EA0000000202
B1216375624269N00924122EA0000000198
B1216465624201N00924438EA0000000194
B1216515624159N00924604EA0000000191
B1216585624094N00924828EA0000000183
B1217035624049N00924989EA0000000172
B1217085624036N00925173EA0000000161
B1217145624073N00925383EA0000000149
B1217215624155N00925559EA0000000138
B1217285624256N00925663EA0000000127
B1217335624329N00925667EA0000000122
B1217385624371N00925587EA0000000117
B1217445624399N00925464EA0000000111
B1217495624426N00925377EA0000000104
B1218015624478N00925127EA0000000074
B1218095624517N00924950EA0000000050
B1218165624551N00924791EA0000000029
B1218225624574N00924679EA0000000026
