AOGNOGN
HFDTE170825
HFFXA050
HFPLTPILOTINCHARGE:
HFGTYGLIDERTYPE:UFO
HFGIDGLIDERID:D-9813
HFDTM100GPSDATUM:WGS-1984
HFRFWFIRMWAREVERSION:
HFRHWHARDWAREVERSION:
HFFTYFRTYPE:OGN-FLIGHTBOOK
HFGPSGENERIC
HFPRSPRESSALTSENSOR:
HFCIDCOMPETITIONID:
B1157405600601N00900605EA0000000034
B1157405600601N00900605EA0000000034
B1157465600617N00900752EA0000000034
B1157525600641N00900933EA0000000037
B1157585600660N00901122EA0000000060
B1158035600679N00901260EA0000000086
B1158085600705N00901394EA0000000095
B1158135600732N00901539EA0000000100
B1158185600762N00901684EA0000000110
B1158235600794N00901830EA0000000119
B1158295600834N00901998EA0000000147
B1158345600876N00902133EA0000000153
B1158395600928N00902262EA0000000164
B1158455600997N00902400EA0000000185
B1158505601065N00902501EA0000000191
B1158555601137N00902588EA0000000206
B1159025601242N00902697EA0000000217
B1159075601323N00902765EA0000000230
B1159125601405N00902820EA0000000255
B1159205601540N00902882EA0000000290
B1159255601624N00902906EA0000000319
B1159315601723N00902909EA0000000335
B1159365601807N00902881EA0000000335
B1159425601894N00902828EA0000000362
B1159485601983N00902757EA0000000369
B1159535602054N00902671EA0000000393
B1159585602124N00902572EA0000000407
B1200035602181N00902448EA0000000415
B1200105602258N00902266EA0000000425
B1200155602311N00902131EA0000000434
B1200205602355N00901993EA0000000448
B1200255602395N00901846EA0000000452
B1200315602441N00901662EA0000000469
B1200365602475N00901513EA0000000490
B1200425602509N00901331EA0000000509
B1200475602519N00901166EA0000000523
B1200525602497N00901024EA0000000536
B1200575602448N00900906EA0000000529
B1201045602375N00900748EA0000000530
B1201105602313N00900627EA0000000522
B1201185602223N00900466EA0000000506
B1201255602144N00900321EA0000000510
B1201325602062N00900182EA0000000517
B1201375601996N00900096EA0000000510
B1201455601876N00859996EA0000000489
B1201515601777N00859954EA0000000477
B1201565601697N00859924EA0000000466
B1202015601619N00859899EA0000000458
B1202075601527N00859882EA0000000454
B1202125601451N00859867EA0000000446
B1202185601361N00859829EA0000000437
B1202245601269N00859796EA0000000441
B1202295601194N00859786EA0000000456
B1202345601123N00859836EA0000000453
B1202405601031N00859839EA0000000446
B1202455600956N00859845EA0000000441
B1202515600868N00859872EA0000000431
B1202565600793N00859904EA0000000432
B1203035600689N00859948EA0000000420
B1203095600596N00859998EA0000000406
B1203165600495N00900072EA0000000406
B1203215600433N00900124EA0000000400
B1203265600372N00900186EA0000000392
B1203315600339N00900287EA0000000382
B1203365600356N00900396EA0000000362
B1203415600415N00900447EA0000000349
B1203475600496N00900401EA0000000339
B1203525600557N00900339EA0000000337
B1204005600658N00900241EA0000000325
B1204085600758N00900144EA0000000318
B1204135600816N00900079EA0000000322
B1204185600867N00900001EA0000000330
B1204235600854N00859879EA0000000326
B1204285600791N00859814EA0000000336
B1204335600730N00859872EA0000000342
B1204385600726N00859986EA0000000331
B1204435600778N00900049EA0000000342
B1204485600823N00859971EA0000000345
B1204535600794N00859855EA0000000349
B1204585600725N00859834EA0000000356
B1205035600671N00859908EA0000000352
B1205085600671N00900016EA0000000348
B1205135600720N00900073EA0000000352
B1205195600799N00900042EA0000000342
B1205245600858N00859975EA0000000361
B1205305600854N00859847EA0000000363
B1205365600777N00859820EA0000000371
B1205415600736N00859898EA0000000372
B1205465600760N00859985EA0000000376
B1205515600819N00859995EA0000000381
B1205565600859N00859903EA0000000390
B1206015600835N00859797EA0000000391
B1206065600774N00859778EA0000000395
B1206115600727N00859856EA0000000394
B1206165600741N00859948EA0000000398
B1206215600800N00859948EA0000000398
B1206275600846N00859830EA0000000408
B1206325600823N00859729EA0000000408
B1206375600762N00859724EA0000000403
B1206425600725N00859814EA0000000402
B1206475600743N00859919EA0000000404
B1206525600790N00859983EA0000000408
B1206575600852N00859961EA0000000407
B1207025600900N00859879EA0000000411
B1207075600956N00859892EA0000000403
B1207125600963N00900001EA0000000411
B1207175600907N00900059EA0000000403
B1207225600855N00859986EA0000000405
B1207275600875N00859892EA0000000403
B1207325600926N00859846EA0000000395
B1207385600984N00859764EA0000000395
B1207435601026N00859691EA0000000396
B1207485601032N00859591EA0000000390
B1207535600978N00859522EA0000000391
B1207595600895N00859538EA0000000391
B1208045600825N00859559EA0000000394
B1208095600756N00859587EA0000000387
B1208175600646N00859629EA0000000370
B1208275600507N00859688EA0000000363
B1208335600426N00859726EA0000000361
B1208425600295N00859745EA0000000359
B1208485600208N00859737EA0000000356
B1208535600138N00859723EA0000000350
B1208585600071N00859700EA0000000339
B1209035600007N00859692EA0000000325
B1209085559951N00859752EA0000000307
B1209145559935N00859880EA0000000285
B1209195559971N00859962EA0000000277
B1209245600031N00859984EA0000000265
B1209315600113N00859971EA0000000260
B1209405600218N00859941EA0000000242
B1209475600304N00859914EA0000000225
B1209525600365N00859901EA0000000217
B1209585600436N00859889EA0000000203
B1210085600548N00859895EA0000000210
B1210135600602N00859892EA0000000213
B1210185600658N00859879EA0000000217
B1210235600717N00859861EA0000000208
B1210295600788N00859870EA0000000210
B1210345600841N00859883EA0000000210
B1210395600893N00859877EA0000000201
B1210445600932N00859802EA0000000200
B1210495600926N00859688EA0000000194
B1210555600863N00859580EA0000000187
B1211025600771N00859486EA0000000192
B1211075600702N00859431EA0000000186
B1211155600576N00859395EA0000000190
B1211205600499N00859401EA0000000195
B1211255600439N00859482EA0000000202
B1211305600435N00859600EA0000000206
B1211355600460N00859712EA0000000195
B1211415600494N00859861EA0000000170
B1211475600523N00900014EA0000000143
B1211525600540N00900145EA0000000115
B1211585600556N00900305EA0000000087
B1212055600567N00900493EA0000000049
B1212105600572N00900620EA0000000030
B1212155600575N00900719EA0000000029
