AOGNOGN
HFDTE170825
HFFXA050
HFPLTPILOTINCHARGE:
HFGTYGLIDERTYPE:SF-25
HFGIDGLIDERID:D-KNAS
HFDTM100GPSDATUM:WGS-1984
HFRFWFIRMWAREVERSION:
HFRHWHARDWAREVERSION:
HFFTYFRTYPE:OGN-FLIGHTBOOK
HFGPSGENERIC
HFPRSPRESSALTSENSOR:
HFCIDCOMPETITIONID:NAS
B1414265600600N00900635EA0000000046
B1414295600605N00900689EA0000000047
B1414345600619N00900799EA0000000049
B1414395600636N00900920EA0000000065
B1414475600661N00901087EA0000000091
B1414525600685N00901189EA0000000098
B1414585600728N00901300EA0000000104
B1415045600793N00901381EA0000000115
B1415115600881N00901428EA0000000136
B1415175600959N00901400EA0000000154
B1415245601035N00901294EA0000000169
B1415295601085N00901212EA0000000195
B1415345601132N00901149EA0000000221
B1415405601192N00901069EA0000000233
B1415465601253N00900964EA0000000241
B1415515601290N00900858EA0000000251
B1415565601318N00900744EA0000000261
B1416025601355N00900618EA0000000278
B1416075601393N00900517EA0000000279
B1416145601449N00900373EA0000000280
B1416195601486N00900270EA0000000296
B1416245601510N00900159EA0000000310
B1416295601522N00900031EA0000000323
B1416365601514N00859842EA0000000338
B1416455601492N00859600EA0000000352
B1416525601479N00859403EA0000000356
B1417005601464N00859160EA0000000373
B1417055601453N00859002EA0000000379
B1417105601448N00858843EA0000000388
B1417165601443N00858653EA0000000393
B1417215601441N00858495EA0000000399
B1417275601437N00858310EA0000000406
B1417355601440N00858056EA0000000416
B1417405601448N00857905EA0000000422
B1417455601457N00857748EA0000000423
B1417525601470N00857532EA0000000443
B1417585601483N00857365EA0000000473
B1418035601495N00857226EA0000000487
B1418085601510N00857081EA0000000504
B1418135601526N00856929EA0000000509
B1418185601545N00856776EA0000000519
B1418235601564N00856629EA0000000527
B1418285601580N00856489EA0000000541
B1418345601602N00856322EA0000000549
B1418395601625N00856180EA0000000555
B1418465601658N00855981EA0000000560
B1418525601686N00855800EA0000000557
B1418575601709N00855648EA0000000552
B1419025601730N00855500EA0000000551
B1419105601761N00855280EA0000000553
B1419205601806N00855006EA0000000566
B1419255601830N00854862EA0000000569
B1419335601873N00854627EA0000000568
B1419385601899N00854464EA0000000560
B1419435601922N00854292EA0000000576
B1419495601941N00854105EA0000000611
B1419545601962N00853961EA0000000632
B1419595601989N00853818EA0000000642
B1420075602040N00853588EA0000000653
B1420135602081N00853425EA0000000670
B1420195602126N00853267EA0000000674
B1420255602178N00853117EA0000000675
B1420315602233N00852974EA0000000678
B1420385602302N00852807EA0000000685
B1420445602362N00852668EA0000000684
B1420495602413N00852552EA0000000685
B1420565602488N00852389EA0000000687
B1421015602542N00852269EA0000000686
B1421085602619N00852101EA0000000695
B1421155602692N00851935EA0000000702
B1421205602744N00851821EA0000000712
B1421255602796N00851704EA0000000719
B1421315602861N00851553EA0000000724
B1421385602942N00851382EA0000000740
B1421485603061N00851146EA0000000736
B1421535603121N00851028EA0000000733
B1422005603204N00850865EA0000000736
B1422065603278N00850733EA0000000737
B1422155603392N00850543EA0000000737
B1422245603501N00850348EA0000000737
B1422295603560N00850233EA0000000744
B1422345603619N00850117EA0000000742
B1422405603697N00849990EA0000000746
B1422465603773N00849867EA0000000751
B1422515603836N00849760EA0000000748
B1422565603899N00849652EA0000000754
B1423025603975N00849531EA0000000773
B1423075604042N00849425EA0000000772
B1423175604184N00849217EA0000000769
B1423255604297N00849064EA0000000783
B1423325604392N00848935EA0000000804
B1423385604476N00848823EA0000000815
B1423435604550N00848728EA0000000831
B1423485604623N00848638EA0000000850
B1423545604709N00848535EA0000000871
B1424015604805N00848420EA0000000898
B1424065604871N00848330EA0000000910
B1424145604983N00848194EA0000000918
B1424195605052N00848105EA0000000906
B1424245605123N00848008EA0000000898
B1424295605198N00847922EA0000000904
B1424375605317N00847789EA0000000909
B1424435605408N00847685EA0000000916
B1424485605483N00847598EA0000000924
B1424535605557N00847515EA0000000946
B1425005605660N00847397EA0000000957
B1425055605735N00847314EA0000000966
B1425125605849N00847193EA0000000957
B1425175605939N00847099EA0000000954
B1425225606031N00847002EA0000000958
B1425275606119N00846904EA0000000955
B1425325606207N00846810EA0000000947
B1425415606362N00846641EA0000000936
B1425485606485N00846500EA0000000921
B1425535606571N00846398EA0000000919
B1426005606694N00846261EA0000000910
B1426055606779N00846163EA0000000907
B1426105606868N00846066EA0000000899
B1426165606977N00845959EA0000000895
B1426235607104N00845842EA0000000887
B1426305607232N00845718EA0000000874
B1426365607339N00845609EA0000000876
B1426415607427N00845524EA0000000881
B1426465607516N00845443EA0000000877
B1426525607622N00845340EA0000000872
B1426585607724N00845239EA0000000876
B1427035607811N00845162EA0000000869
B1427125607969N00845021EA0000000852
B1427175608055N00844938EA0000000845
B1427225608138N00844852EA0000000843
B1427275608219N00844761EA0000000841
B1427335608317N00844656EA0000000838
B1427395608417N00844545EA0000000828
B1427445608501N00844452EA0000000822
B1427525608638N00844302EA0000000818
B1427575608722N00844197EA0000000815
B1428035608820N00844067EA0000000818
B1428085608898N00843966EA0000000825
B1428145608991N00843848EA0000000825
B1428205609082N00843723EA0000000825
B1428255609158N00843611EA0000000824
B1428315609249N00843474EA0000000826
B1428365609327N00843372EA0000000834
B1428445609458N00843222EA0000000838
B1428495609542N00843123EA0000000841
B1428555609647N00843005EA0000000839
B1429005609735N00842905EA0000000835
B1429065609841N00842787EA0000000830
B1429175610030N00842576EA0000000820
B1429235610129N00842465EA0000000816
B1429315610260N00842312EA0000000813
B1429365610343N00842214EA0000000805
B1429415610427N00842111EA0000000797
B1429475610531N00841988EA0000000782
B1429525610618N00841887EA0000000779
B1429585610719N00841769EA0000000771
B1430035610806N00841675EA0000000764
B1430135610979N00841492EA0000000765
B1430185611065N00841403EA0000000763
B1430245611170N00841290EA0000000753
B1430315611295N00841158EA0000000740
B1430375611406N00841048EA0000000724
B1430445611537N00840923EA0000000711
B1430505611651N00840816EA0000000703
B1430565611769N00840703EA0000000693
B1431015611870N00840607EA0000000674
B1431085612015N00840474EA0000000650
B1431165612181N00840324EA0000000628
B1431235612323N00840208EA0000000615
B1431315612480N00840074EA0000000589
B1431365612578N00839991EA0000000572
B1431415612675N00839912EA0000000559
B1431465612773N00839842EA0000000551
B1431525612886N00839758EA0000000545
B1431575612977N00839688EA0000000539
B1432035613081N00839610EA0000000541
B1432125613233N00839494EA0000000563
B1432175613319N00839426EA0000000560
B1432225613405N00839350EA0000000555
B1432275613490N00839277EA0000000553
B1432365613638N00839147EA0000000539
B1432415613721N00839072EA0000000535
B1432465613804N00838996EA0000000529
B1432525613907N00838892EA0000000531
B1432585614013N00838787EA0000000536
B1433055614141N00838666EA0000000523
B1433145614306N00838503EA0000000515
B1433205614419N00838391EA0000000516
B1433265614533N00838280EA0000000509
B1433315614630N00838190EA0000000500
B1433375614740N00838089EA0000000501
B1433435614846N00837985EA0000000498
B1433505614974N00837866EA0000000500
B1433595615143N00837715EA0000000491
B1434045615239N00837634EA0000000485
B1434105615357N00837540EA0000000479
B1434195615535N00837397EA0000000465
B1434255615652N00837301EA0000000459
B1434345615821N00837161EA0000000450
B1434435615987N00837009EA0000000441
B1434485616081N00836920EA0000000434
B1434545616194N00836808EA0000000421
B1435005616305N00836700EA0000000409
B1435105616494N00836530EA0000000397
B1435205616686N00836370EA0000000381
B1435265616800N00836276EA0000000374
B1435315616895N00836199EA0000000371
B1435375617015N00836117EA0000000367
B1435445617163N00836043EA0000000361
B1435505617289N00835995EA0000000360
B1435555617393N00835963EA0000000350
B1436045617576N00835947EA0000000313
B1436095617678N00835949EA0000000284
B1436155617805N00835952EA0000000264
B1436215617929N00835971EA0000000247
B1436275618023N00835868EA0000000250
B1436325618009N00835704EA0000000245
B1436395617892N00835565EA0000000219
B1436475617751N00835437EA0000000206
B1436525617690N00835306EA0000000194
B1436595617652N00835071EA0000000178
B1437055617654N00834862EA0000000163
B1437105617689N00834704EA0000000154
B1437155617760N00834607EA0000000146
B1437205617839N00834626EA0000000138
B1437295617965N00834789EA0000000098
B1437355618052N00834886EA0000000070
B1437415618136N00834976EA0000000048
B1437485618230N00835063EA0000000038
B1437565618329N00835149EA0000000034
B1438045618414N00835225EA0000000031
B1438095618457N00835261EA0000000031
