AOGNOGN
HFDTE190625
HFFXA050
HFPLTPILOTINCHARGE:
HFGTYGLIDERTYPE:Astir CS
HFGIDGLIDERID:OY-XGG
HFDTM100GPSDATUM:WGS-1984
HFRFWFIRMWAREVERSION:
HFRHWHARDWAREVERSION:
HFFTYFRTYPE:OGN-FLIGHTBOOK
HFGPSGENERIC
HFPRSPRESSALTSENSOR:
HFCIDCOMPETITIONID:G6
B1137155720632N01024912EA0000000036
B1137205720659N01024813EA0000000119
B1137255720681N01024713EA0000000213
B1137355720734N01024526EA0000000361
B1137415720772N01024407EA0000000384
B1137475720813N01024291EA0000000394
B1137545720846N01024166EA0000000389
B1138015720823N01024029EA0000000384
B1138065720786N01023937EA0000000377
B1138115720748N01023841EA0000000366
B1138165720704N01023742EA0000000357
B1138215720660N01023652EA0000000356
B1138285720596N01023528EA0000000338
B1138385720498N01023361EA0000000318
B1138435720425N01023301EA0000000297
B1138485720346N01023407EA0000000286
B1138535720306N01023584EA0000000273
B1138585720343N01023740EA0000000261
B1139045720416N01023861EA0000000254
B1139095720453N01024007EA0000000242
B1139145720446N01024193EA0000000224
B1139215720403N01024461EA0000000204
B1139265720369N01024654EA0000000200
B1139315720330N01024835EA0000000194
B1139375720351N01025065EA0000000184
B1139425720395N01025239EA0000000175
B1139475720479N01025285EA0000000167
B1139525720543N01025202EA0000000139
B1139575720584N01025076EA0000000090
B1140035720622N01024914EA0000000042
B1140085720654N01024800EA0000000032
B1140145720677N01024712EA0000000032
