AOGNOGN
HFDTE180825
HFFXA050
HFPLTPILOTINCHARGE:
HFGTYGLIDERTYPE:Ventus 2ct
HFGIDGLIDERID:OY-CXT
HFDTM100GPSDATUM:WGS-1984
HFRFWFIRMWAREVERSION:
HFRHWHARDWAREVERSION:
HFFTYFRTYPE:OGN-FLIGHTBOOK
HFGPSGENERIC
HFPRSPRESSALTSENSOR:
HFCIDCOMPETITIONID:CT
B1050065527160N01138291EA0000000039
B1050105527161N01138359EA0000000037
B1050195527164N01138572EA0000000038
B1050265527169N01138790EA0000000045
B1050315527163N01138950EA0000000063
B1050375527142N01139137EA0000000084
B1050455527095N01139384EA0000000110
B1050515527059N01139566EA0000000142
B1050565527023N01139713EA0000000159
B1051035526968N01139919EA0000000177
B1051085526927N01140061EA0000000201
B1051135526884N01140204EA0000000212
B1051185526838N01140345EA0000000222
B1051255526774N01140538EA0000000238
B1051325526709N01140741EA0000000251
B1051395526630N01140934EA0000000266
B1051455526544N01141067EA0000000287
B1051515526453N01141184EA0000000312
B1051565526377N01141276EA0000000341
B1052015526294N01141360EA0000000358
B1052065526210N01141439EA0000000383
B1052115526125N01141501EA0000000413
B1052195525985N01141559EA0000000455
B1052275525841N01141575EA0000000480
B1052335525732N01141557EA0000000499
B1052385525647N01141518EA0000000516
B1052445525548N01141441EA0000000537
B1052495525468N01141356EA0000000551
B1052545525397N01141253EA0000000577
B1052595525336N01141135EA0000000602
B1053065525251N01140996EA0000000613
B1053145525122N01141048EA0000000618
B1053195525083N01141181EA0000000619
B1053265525102N01141391EA0000000619
B1053335525197N01141489EA0000000619
B1053405525313N01141524EA0000000626
B1053475525391N01141386EA0000000621
B1053535525418N01141217EA0000000634
B1053585525377N01141112EA0000000639
B1054035525306N01141185EA0000000640
B1054085525343N01141302EA0000000649
B1054145525396N01141188EA0000000660
B1054225525292N01141201EA0000000677
B1054275525315N01141331EA0000000684
B1054325525386N01141316EA0000000697
B1054375525392N01141189EA0000000703
B1054455525287N01141208EA0000000724
B1054505525295N01141334EA0000000737
B1054555525359N01141359EA0000000744
B1055025525377N01141201EA0000000748
B1055075525304N01141162EA0000000756
B1055125525246N01141262EA0000000764
B1055175525265N01141396EA0000000774
B1055225525336N01141425EA0000000784
B1055275525380N01141328EA0000000786
B1055325525351N01141213EA0000000791
B1055395525257N01141266EA0000000800
B1055445525278N01141401EA0000000809
B1055505525364N01141378EA0000000817
B1055565525349N01141232EA0000000823
B1056035525261N01141321EA0000000835
B1056085525295N01141450EA0000000839
B1056135525372N01141433EA0000000842
B1056185525379N01141298EA0000000845
B1056245525290N01141288EA0000000852
B1056305525277N01141462EA0000000855
B1056355525344N01141541EA0000000859
B1056405525412N01141470EA0000000857
B1056475525378N01141289EA0000000855
B1056525525295N01141266EA0000000867
B1056575525243N01141373EA0000000874
B1057045525319N01141473EA0000000881
B1057115525340N01141302EA0000000884
B1057185525232N01141317EA0000000883
B1057235525223N01141458EA0000000893
B1057285525288N01141506EA0000000899
B1057385525287N01141281EA0000000894
B1057435525206N01141307EA0000000892
B1057505525181N01141501EA0000000899
B1057555525239N01141586EA0000000900
B1058035525363N01141564EA0000000912
B1058085525368N01141433EA0000000907
B1058135525293N01141373EA0000000903
B1058195525203N01141454EA0000000904
B1058245525179N01141590EA0000000920
B1058295525241N01141631EA0000000928
B1058345525250N01141510EA0000000937
B1058405525167N01141523EA0000000951
B1058465525195N01141649EA0000000958
B1058515525260N01141605EA0000000957
B1058575525238N01141453EA0000000973
B1059025525160N01141465EA0000000986
B1059075525146N01141584EA0000000997
B1059125525197N01141657EA0000001005
B1059195525268N01141565EA0000001005
B1059255525203N01141453EA0000001015
B1059315525140N01141563EA0000001022
B1059365525187N01141670EA0000001024
B1059415525258N01141617EA0000001028
B1059465525223N01141502EA0000001046
B1059535525171N01141635EA0000001059
B1059585525240N01141677EA0000001063
B1100045525283N01141551EA0000001073
B1100125525176N01141538EA0000001083
B1100175525174N01141674EA0000001088
B1100225525244N01141724EA0000001091
B1100275525298N01141631EA0000001092
B1100325525270N01141515EA0000001098
B1100395525177N01141563EA0000001105
B1100445525183N01141697EA0000001109
B1100495525254N01141716EA0000001111
B1100565525279N01141546EA0000001110
B1101035525185N01141524EA0000001125
B1101085525172N01141648EA0000001127
B1101135525237N01141735EA0000001109
B1101185525327N01141689EA0000001100
B1101275525441N01141456EA0000001072
B1101325525493N01141314EA0000001069
B1101375525540N01141179EA0000001067
B1101425525589N01141049EA0000001058
B1101485525653N01140899EA0000001051
B1101535525712N01140778EA0000001039
B1102015525818N01140586EA0000001017
B1102065525889N01140468EA0000001008
B1102125525974N01140331EA0000001004
B1102185526055N01140190EA0000000996
B1102265526163N01140004EA0000000991
B1102325526244N01139864EA0000000983
B1102385526326N01139716EA0000000975
B1102475526453N01139490EA0000000967
B1102525526525N01139374EA0000000983
B1102575526593N01139275EA0000000978
B1103075526733N01139081EA0000000969
B1103175526877N01138880EA0000000946
B1103235526965N01138744EA0000000942
B1103295527047N01138600EA0000000947
B1103355527125N01138460EA0000000948
B1103425527223N01138297EA0000000945
B1103485527311N01138164EA0000000941
B1104005527483N01137916EA0000000948
B1104085527595N01137760EA0000000941
B1104135527671N01137666EA0000000935
B1104195527769N01137573EA0000000944
B1104265527893N01137503EA0000000946
B1104425528188N01137312EA0000000923
B1105015528538N01137013EA0000000885
B1105095528687N01136876EA0000000868
B1105175528831N01136737EA0000000869
B1105245528956N01136620EA0000000865
B1105295529046N01136534EA0000000859
B1105405529252N01136347EA0000000855
B1105585529580N01136019EA0000000837
B1106035529665N01135917EA0000000838
B1106265530018N01135529EA0000000805
B1106405530224N01135251EA0000000777
B1106465530312N01135137EA0000000774
B1106525530395N01135024EA0000000789
B1107185530837N01134829EA0000000764
B1107255530961N01134770EA0000000759
B1107395531183N01134567EA0000000769
B1107535531361N01134326EA0000000783
B1108025531489N01134185EA0000000771
B1108075531566N01134115EA0000000760
B1108405531965N01133417EA0000000711
B1108465532021N01133258EA0000000701
B1109045532197N01132801EA0000000656
B1109145532294N01132543EA0000000663
B1109195532366N01132510EA0000000683
B1109255532385N01132650EA0000000685
B1109305532308N01132691EA0000000677
B1109385532259N01132514EA0000000693
B1109445532313N01132410EA0000000692
B1109515532360N01132546EA0000000700
B1109565532285N01132586EA0000000694
B1110085532341N01132378EA0000000721
B1110145532382N01132498EA0000000730
B1110215532287N01132507EA0000000729
B1110305532345N01132329EA0000000746
B1110355532371N01132446EA0000000753
B1110415532284N01132513EA0000000755
B1110485532217N01132358EA0000000775
B1110555532290N01132327EA0000000785
B1111005532265N01132454EA0000000794
B1111085532189N01132334EA0000000821
B1111135532252N01132332EA0000000829
B1111185532241N01132459EA0000000841
B1111295532198N01132316EA0000000865
B1111375532229N01132471EA0000000875
B1111425532154N01132463EA0000000887
B1111475532146N01132344EA0000000894
B1111525532211N01132325EA0000000899
B1111585532217N01132476EA0000000911
B1112035532141N01132515EA0000000925
B1112085532106N01132414EA0000000937
B1112135532151N01132336EA0000000940
B1112195532209N01132430EA0000000952
B1112245532162N01132533EA0000000958
B1112365532174N01132372EA0000000975
B1112575532126N01132396EA0000001010
B1113025532176N01132485EA0000001016
B1113075532136N01132598EA0000001021
B1113125532068N01132555EA0000001022
B1113395532366N01131877EA0000001005
B1113445532462N01131786EA0000001005
B1114205533137N01131127EA0000000945
B1114365533434N01130826EA0000000907
B1114415533524N01130719EA0000000897
B1114525533719N01130496EA0000000890
B1115145534090N01130057EA0000000850
B1115275534308N01129780EA0000000844
B1115365534460N01129589EA0000000859
B1116025534878N01129081EA0000000821
B1116225535192N01128650EA0000000790
B1116295535291N01128465EA0000000782
B1116365535388N01128287EA0000000770
B1117085535756N01127363EA0000000684
B1117345536210N01127144EA0000000727
B1117435536292N01127029EA0000000746
B1117505536183N01126997EA0000000756
B1118035536224N01127154EA0000000786
B1118165536130N01127174EA0000000824
B1118235536213N01127150EA0000000844
B1118425536206N01127163EA0000000892
B1119035536184N01127147EA0000000948
B1119165536098N01127194EA0000000986
B1119235536158N01127102EA0000001004
B1119345536059N01127180EA0000001037
B1119425536144N01127143EA0000001052
B1120045536133N01127110EA0000001107
B1120185536030N01127169EA0000001136
B1120315536094N01127005EA0000001157
B1120415536000N01127139EA0000001185
B1120505536089N01127087EA0000001198
B1121045535977N01127133EA0000001233
B1121145536060N01127035EA0000001245
B1121265535960N01127139EA0000001272
B1122165536941N01126410EA0000001236
B1122255537111N01126171EA0000001218
B1122325537244N01126000EA0000001218
B1122455537503N01125691EA0000001188
B1122505537600N01125564EA0000001183
B1122565537712N01125407EA0000001180
B1123055537873N01125171EA0000001176
B1123105537959N01125037EA0000001169
B1123195538104N01124797EA0000001171
B1123245538182N01124664EA0000001166
B1123335538310N01124409EA0000001160
B1123415538419N01124176EA0000001152
B1123465538487N01124029EA0000001149
B1123525538594N01123926EA0000001145
B1123585538718N01123903EA0000001144
B1124045538845N01123898EA0000001142
B1124125539017N01123897EA0000001120
B1124185539149N01123898EA0000001112
B1124285539368N01123903EA0000001103
B1124375539521N01123737EA0000001099
B1124435539503N01123503EA0000001081
B1124485539428N01123346EA0000001078
B1124545539307N01123234EA0000001072
B1125215538723N01123361EA0000001027
B1125275538598N01123472EA0000001017
B1125335538480N01123593EA0000001017
B1125425538306N01123773EA0000001013
B1125485538190N01123880EA0000001013
B1125545538072N01123989EA0000000997
B1125595537970N01124086EA0000000990
B1126055537848N01124197EA0000000990
B1126105537748N01124284EA0000000984
B1126205537556N01124476EA0000000966
B1126275537426N01124637EA0000000956
B1126345537299N01124793EA0000000952
B1126405537189N01124930EA0000000948
B1126465537081N01125065EA0000000940
B1126525536975N01125206EA0000000939
B1127015536835N01125431EA0000000948
B1127075536748N01125582EA0000000946
B1127155536623N01125783EA0000000933
B1127215536523N01125919EA0000000931
B1127315536325N01126043EA0000000932
B1127365536226N01126102EA0000000933
B1127465536032N01126251EA0000000920
B1127535535895N01126383EA0000000908
B1127595535778N01126493EA0000000908
B1128055535661N01126576EA0000000906
B1128105535563N01126652EA0000000891
B1128175535423N01126768EA0000000894
B1128335535089N01126839EA0000000892
B1128435534864N01126815EA0000000889
B1128565534582N01126793EA0000000876
B1129025534462N01126804EA0000000893
B1129085534368N01126855EA0000000918
B1129225534400N01126997EA0000000943
B1129275534361N01126897EA0000000950
B1129355534312N01127033EA0000000972
B1129435534379N01126939EA0000000992
B1129525534281N01126972EA0000001005
B1130005534364N01126962EA0000001026
B1130085534275N01126879EA0000001046
B1130135534264N01126992EA0000001058
B1130255534322N01126839EA0000001074
B1130385534215N01126976EA0000001097
B1130485534313N01126913EA0000001116
B1131035534241N01127067EA0000001134
B1131115534325N01127009EA0000001146
B1131225534207N01127049EA0000001166
B1131325534300N01127004EA0000001178
B1131415534173N01126965EA0000001192
B1131475534182N01127118EA0000001196
B1131525534253N01127112EA0000001205
B1131575534254N01126985EA0000001212
B1132025534173N01126914EA0000001208
B1132145533928N01126956EA0000001203
B1132195533831N01127035EA0000001215
B1132255533715N01127150EA0000001197
B1132305533614N01127261EA0000001190
B1132365533496N01127396EA0000001191
B1132425533377N01127521EA0000001182
B1132495533237N01127664EA0000001173
B1132575533082N01127840EA0000001167
B1133055532933N01128045EA0000001150
B1133265532545N01128533EA0000001138
B1133325532426N01128628EA0000001146
B1133445532183N01128801EA0000001145
B1133505532064N01128889EA0000001141
B1133585531901N01129023EA0000001126
B1134055531759N01129153EA0000001111
B1134225531427N01129474EA0000001133
B1134275531350N01129562EA0000001124
B1134325531265N01129668EA0000001094
B1134395531137N01129831EA0000001080
B1134445531046N01129941EA0000001077
B1134525530901N01130130EA0000001058
B1135005530754N01130327EA0000001048
B1135065530644N01130463EA0000001036
B1135135530513N01130612EA0000001021
B1135205530385N01130766EA0000001003
B1135255530296N01130880EA0000000995
B1135345530138N01131079EA0000000992
B1135405530036N01131223EA0000000992
B1135475529914N01131388EA0000000980
B1135565529750N01131582EA0000000972
B1136065529560N01131781EA0000000958
B1136125529447N01131903EA0000000950
B1136215529282N01132083EA0000000939
B1136285529151N01132214EA0000000930
B1136355529015N01132335EA0000000918
B1136415528895N01132429EA0000000915
B1136475528775N01132509EA0000000924
B1136555528624N01132613EA0000000932
B1137025528482N01132714EA0000000904
B1137075528377N01132789EA0000000902
B1137125528276N01132860EA0000000901
B1137195528137N01132957EA0000000896
B1137255528021N01133045EA0000000889
B1137305527925N01133135EA0000000874
B1137355527826N01133226EA0000000862
B1137435527664N01133353EA0000000849
B1137495527538N01133435EA0000000830
B1137565527392N01133542EA0000000834
B1138045527233N01133651EA0000000821
B1138115527082N01133757EA0000000796
B1138195526929N01133906EA0000000819
B1138255526824N01134033EA0000000792
B1138315526715N01134177EA0000000784
B1138365526633N01134296EA0000000784
B1138415526552N01134426EA0000000760
B1138465526463N01134570EA0000000741
B1138535526326N01134738EA0000000738
B1139015526161N01134846EA0000000742
B1139065526065N01134918EA0000000740
B1139155525915N01135111EA0000000729
B1139205525848N01135237EA0000000729
B1139305525735N01135506EA0000000708
B1139385525659N01135748EA0000000680
B1139455525601N01135967EA0000000680
B1139505525562N01136118EA0000000682
B1139575525508N01136323EA0000000686
B1140035525463N01136488EA0000000685
B1140085525427N01136625EA0000000686
B1140185525341N01136890EA0000000668
B1140235525278N01137008EA0000000666
B1140295525200N01137149EA0000000668
B1140365525110N01137284EA0000000677
B1140455524983N01137444EA0000000660
B1140525524873N01137519EA0000000653
B1141005524766N01137670EA0000000633
B1141055524722N01137806EA0000000625
B1141145524709N01138092EA0000000611
B1141215524717N01138306EA0000000607
B1141265524714N01138455EA0000000610
B1141315524706N01138606EA0000000608
B1141365524697N01138756EA0000000598
B1141435524701N01138965EA0000000590
B1141485524723N01139106EA0000000581
B1141565524780N01139314EA0000000567
B1142015524821N01139435EA0000000568
B1142075524867N01139572EA0000000579
B1142145524920N01139721EA0000000576
B1142195524955N01139829EA0000000570
B1142245524993N01139954EA0000000546
B1142345525090N01140205EA0000000536
B1142405525155N01140336EA0000000533
B1142515525270N01140602EA0000000514
B1142585525326N01140786EA0000000505
B1143035525363N01140920EA0000000499
B1143085525397N01141056EA0000000495
B1143155525457N01141231EA0000000477
B1143255525585N01141423EA0000000466
B1143345525697N01141596EA0000000465
B1143425525770N01141787EA0000000472
B1143495525805N01141971EA0000000487
B1143545525867N01142026EA0000000490
B1144015525880N01141877EA0000000492
B1144095525779N01141967EA0000000505
B1144165525847N01142069EA0000000520
B1144235525843N01141917EA0000000532
B1144285525770N01141955EA0000000536
B1144335525778N01142093EA0000000543
B1144385525846N01142098EA0000000555
B1144435525849N01141978EA0000000557
B1144495525766N01142004EA0000000567
B1144545525795N01142125EA0000000577
B1144595525846N01142052EA0000000588
B1145075525752N01142035EA0000000596
B1145125525760N01142172EA0000000607
B1145175525814N01142117EA0000000612
B1145245525726N01142071EA0000000622
B1145295525722N01142210EA0000000634
B1145355525798N01142204EA0000000645
B1145405525787N01142087EA0000000646
B1145475525678N01142129EA0000000654
B1145525525688N01142261EA0000000660
B1145575525760N01142256EA0000000666
B1146025525783N01142143EA0000000668
B1146075525720N01142065EA0000000672
B1146145525645N01142171EA0000000690
B1146195525708N01142223EA0000000693
B1146255525725N01142092EA0000000708
B1146315525649N01142014EA0000000718
B1146365525607N01142122EA0000000724
B1146415525662N01142182EA0000000732
B1146485525674N01142036EA0000000735
B1146535525603N01142044EA0000000745
B1146585525612N01142163EA0000000748
B1147075525660N01142028EA0000000756
B1147145525569N01142070EA0000000767
B1147195525587N01142182EA0000000773
B1147245525652N01142169EA0000000772
B1147295525663N01142039EA0000000774
B1147345525605N01141957EA0000000785
B1147395525551N01142046EA0000000794
B1147445525598N01142122EA0000000806
B1147525525617N01141971EA0000000813
B1147575525543N01141989EA0000000815
B1148025525544N01142112EA0000000823
B1148075525607N01142093EA0000000836
B1148135525581N01141966EA0000000842
B1148195525502N01142041EA0000000846
B1148245525529N01142152EA0000000858
B1148305525593N01142091EA0000000867
B1148375525521N01141992EA0000000880
B1148425525478N01142100EA0000000884
B1148475525525N01142179EA0000000895
B1148525525570N01142096EA0000000897
B1148575525518N01142007EA0000000902
B1149045525456N01142135EA0000000911
B1149125525545N01142150EA0000000924
B1149175525539N01142026EA0000000923
B1149235525446N01142023EA0000000931
B1149285525434N01142146EA0000000940
B1149335525494N01142168EA0000000946
B1149385525522N01142048EA0000000939
B1149445525535N01141887EA0000000960
B1149495525492N01141796EA0000000952
B1149555525409N01141868EA0000000941
B1150005525415N01142001EA0000000939
B1150055525466N01142106EA0000000950
B1150125525546N01142069EA0000000960
B1150175525501N01141980EA0000000963
B1150235525446N01142099EA0000000971
B1150315525531N01142110EA0000000985
B1150365525503N01142004EA0000000987
B1150415525432N01142031EA0000000995
B1150465525437N01142153EA0000000998
B1150515525500N01142148EA0000001004
B1150565525503N01142026EA0000000994
B1151025525406N01141934EA0000000984
B1151205525000N01142065EA0000000944
B1152455523007N01142816EA0000000863
B1152525522985N01142636EA0000000868
B1152575523050N01142551EA0000000878
B1153025523122N01142594EA0000000882
B1153085523102N01142754EA0000000877
B1153135523014N01142761EA0000000883
B1153185522984N01142624EA0000000894
B1153235523029N01142511EA0000000909
B1153285523103N01142532EA0000000913
B1153355523107N01142711EA0000000912
B1153405523029N01142718EA0000000924
B1153475523014N01142553EA0000000932
B1153525523084N01142487EA0000000936
B1154015523112N01142667EA0000000937
B1154065523033N01142678EA0000000934
B1154115522969N01142580EA0000000937
B1154215523051N01142405EA0000000949
B1154335523014N01142632EA0000000959
B1154385522957N01142542EA0000000957
B1154435522977N01142407EA0000000967
B1154485523052N01142377EA0000000975
B1154535523101N01142468EA0000000981
B1155015523112N01142672EA0000000993
B1155125522999N01142795EA0000000987
B1155205522982N01142605EA0000000994
B1155285523100N01142572EA0000000996
B1155345523180N01142631EA0000001003
B1155395523202N01142748EA0000000995
B1155445523176N01142880EA0000000993
B1156135522789N01143229EA0000000979
B1156225522634N01143267EA0000001013
B1156275522586N01143349EA0000001024
B1156325522636N01143435EA0000001023
B1156395522699N01143308EA0000001026
B1156455522647N01143173EA0000001033
B1156515522566N01143194EA0000001045
B1156565522595N01143303EA0000001053
B1157115522551N01143222EA0000001084
B1157175522623N01143275EA0000001099
B1157225522640N01143153EA0000001105
B1157325522524N01143216EA0000001117
B1157375522577N01143306EA0000001131
B1157445522621N01143177EA0000001142
B1157505522534N01143194EA0000001149
B1157555522560N01143313EA0000001161
B1158105522520N01143216EA0000001185
B1158345522520N01143266EA0000001224
B1158445522602N01143167EA0000001252
B1158525522512N01143230EA0000001251
B1158585522585N01143290EA0000001262
B1159075522595N01143084EA0000001273
B1200265520942N01143574EA0000001138
B1202435518105N01143930EA0000001001
B1205535514893N01144018EA0000000989
B1206255514762N01144166EA0000001048
B1206455514743N01144090EA0000001070
B1207025514767N01143986EA0000001096
B1207225514744N01144037EA0000001136
B1207445514780N01143981EA0000001166
B1208045514809N01144012EA0000001188
B1239565451576N01153660EA0000000922
B1240195451240N01153639EA0000000971
B1240295451254N01153881EA0000000970
B1240385451380N01153854EA0000000970
B1241095451450N01153796EA0000001008
B1241335451418N01153902EA0000001040
B1242005451471N01153898EA0000001074
B1242285451517N01154090EA0000001135
B1242485451529N01154148EA0000001174
B1243065451457N01154120EA0000001216
B1243115451522N01154173EA0000001228
B1243275451435N01154151EA0000001269
B1243325451500N01154196EA0000001280
B1243485451397N01154161EA0000001315
B1243535451449N01154232EA0000001326
B1243585451501N01154145EA0000001331
B1244085451372N01154061EA0000001350
B1244135451360N01154196EA0000001356
B1244185451420N01154249EA0000001365
B1244275451434N01154060EA0000001391
B1244335451339N01154056EA0000001387
B1244405451319N01154238EA0000001396
B1244455451377N01154279EA0000001408
B1244565451376N01154052EA0000001420
B1245015451292N01154057EA0000001417
B1245125451270N01154326EA0000001420
B1245175451339N01154332EA0000001417
B1245225451389N01154239EA0000001430
B1245285451359N01154084EA0000001422
B1246255450230N01153672EA0000001360
B1246375449996N01153585EA0000001347
B1247005449552N01153474EA0000001332
B1247175449206N01153373EA0000001306
B1247365448815N01153314EA0000001293
B1247465448620N01153283EA0000001288
B1247575448413N01153229EA0000001284
B1248115448158N01153149EA0000001278
B1248355447717N01152969EA0000001258
B1248415447605N01152922EA0000001256
B1248555447341N01152839EA0000001236
B1249025447202N01152817EA0000001236
B1249075447108N01152803EA0000001242
B1249225446828N01152771EA0000001231
B1249455446379N01152735EA0000001213
B1249515446262N01152727EA0000001205
B1249565446166N01152718EA0000001207
B1250015446098N01152635EA0000001213
B1250065446104N01152497EA0000001197
B1250115446172N01152399EA0000001178
B1250165446266N01152349EA0000001167
B1252205448414N01152513EA0000001079
B1255205451329N01151664EA0000000959
B1255345451463N01151790EA0000000999
B1256195451419N01151833EA0000001052
B1256435451396N01151887EA0000001080
B1257025451379N01151940EA0000001096
B1257135451271N01151875EA0000001108
B1257335451292N01152046EA0000001121
B1258025451411N01152419EA0000001130
B1258175451543N01152790EA0000001144
B1259525452161N01155348EA0000001187
B1300285452465N01156447EA0000001154
B1301395453602N01156557EA0000001182
B1301445453659N01156459EA0000001182
B1302325454512N01156087EA0000001152
B1302455454429N01155928EA0000001152
B1302585454478N01156212EA0000001169
B1303105454516N01155970EA0000001171
B1303215454381N01155998EA0000001177
B1303365454461N01156346EA0000001162
B1303445454564N01156500EA0000001171
B1321225506927N01159069EA0000001284
B1321495506889N01159097EA0000001308
B1322295507695N01158910EA0000001237
B1324525510663N01157907EA0000001188
B1324595510816N01157988EA0000001201
B1325465511859N01158257EA0000001237
B1325555512031N01158366EA0000001243
B1326175511968N01158799EA0000001247
B1326225511901N01158725EA0000001258
B1326385512009N01158454EA0000001273
B1326575511927N01158794EA0000001262
B1327025511861N01158688EA0000001264
B1327255511981N01158016EA0000001280
B1328105512924N01157963EA0000001223
B1328165513056N01158024EA0000001227
B1328215513164N01158084EA0000001224
B1328275513291N01158162EA0000001218
B1328325513397N01158235EA0000001200
B1328375513508N01158309EA0000001186
B1331395517031N01156143EA0000001073
B1331535517248N01155746EA0000001055
B1331585517325N01155604EA0000001053
B1332065517485N01155532EA0000001055
B1332135517618N01155644EA0000001046
B1332355517909N01156328EA0000000999
B1333075518435N01155820EA0000000987
B1333185518539N01155491EA0000001018
B1333285518601N01155172EA0000001025
B1333385518662N01154825EA0000001017
B1333445518700N01154611EA0000000999
B1333515518747N01154357EA0000000980
B1333575518788N01154134EA0000000962
B1334065518860N01153802EA0000000935
B1334135518919N01153549EA0000000925
B1334185518964N01153371EA0000000917
B1334245519022N01153160EA0000000907
B1334305519080N01152949EA0000000896
B1334385519152N01152666EA0000000882
B1334475519226N01152339EA0000000864
B1334585519319N01151937EA0000000853
B1335055519379N01151690EA0000000838
B1335245519520N01151006EA0000000807
B1335385519626N01150533EA0000000811
B1335445519694N01150340EA0000000797
B1335495519769N01150206EA0000000790
B1335565519885N01150030EA0000000776
B1336015519968N01149907EA0000000772
B1336065520047N01149786EA0000000763
B1336155520182N01149554EA0000000763
B1336225520279N01149374EA0000000762
B1336275520344N01149244EA0000000757
B1336335520419N01149084EA0000000749
B1336445520554N01148803EA0000000726
B1336495520619N01148680EA0000000720
B1336545520681N01148559EA0000000730
B1337025520783N01148370EA0000000703
B1337115520903N01148139EA0000000684
B1337185520992N01147954EA0000000669
B1337265521097N01147756EA0000000669
B1337325521176N01147610EA0000000669
B1337385521245N01147458EA0000000685
B1337435521238N01147337EA0000000703
B1337495521174N01147422EA0000000713
B1337545521221N01147535EA0000000719
B1337595521288N01147492EA0000000728
B1338045521272N01147381EA0000000737
B1338145521188N01147515EA0000000747
B1338195521245N01147615EA0000000752
B1338375521233N01147507EA0000000768
B1339015521272N01147617EA0000000800
B1339185521399N01147427EA0000000803
B1339275521287N01147444EA0000000816
B1339365521376N01147522EA0000000826
B1339415521365N01147401EA0000000827
B1339465521298N01147394EA0000000844
B1339515521274N01147509EA0000000851
B1339565521329N01147607EA0000000845
B1340015521417N01147596EA0000000835
B1340085521538N01147474EA0000000816
B1340135521620N01147358EA0000000812
B1340205521722N01147186EA0000000809
B1340255521788N01147059EA0000000804
B1340305521855N01146924EA0000000783
B1340355521924N01146781EA0000000766
B1340425522016N01146591EA0000000782
B1340505522114N01146379EA0000000777
B1340565522198N01146216EA0000000774
B1341025522288N01146059EA0000000786
B1341075522362N01145937EA0000000793
B1341125522434N01145809EA0000000781
B1341215522565N01145566EA0000000753
B1341285522672N01145359EA0000000735
B1341395522831N01145046EA0000000733
B1341445522903N01144904EA0000000742
B1341495522975N01144764EA0000000736
B1341555523068N01144594EA0000000738
B1342015523162N01144420EA0000000729
B1342065523244N01144271EA0000000721
B1342175523426N01143939EA0000000700
B1342235523522N01143763EA0000000693
B1342295523618N01143591EA0000000683
B1342355523715N01143420EA0000000667
B1342475523911N01143100EA0000000637
B1342545524024N01142921EA0000000634
B1343005524115N01142785EA0000000651
B1343055524185N01142679EA0000000645
B1343115524272N01142543EA0000000628
B1343165524353N01142418EA0000000605
B1343245524471N01142196EA0000000599
B1343315524548N01141976EA0000000605
B1343375524608N01141787EA0000000590
B1343425524659N01141622EA0000000572
B1343485524722N01141420EA0000000563
B1343545524783N01141226EA0000000556
B1344005524845N01141041EA0000000543
B1344055524907N01140897EA0000000532
B1344105524992N01140786EA0000000520
B1344155525089N01140721EA0000000537
B1344225525221N01140700EA0000000541
B1344275525310N01140696EA0000000546
B1344325525397N01140691EA0000000530
B1344415525564N01140674EA0000000512
B1344475525676N01140667EA0000000498
B1344535525788N01140656EA0000000489
B1344595525900N01140635EA0000000481
B1345135526124N01140389EA0000000458
B1345185526183N01140255EA0000000455
B1345235526227N01140110EA0000000452
B1345305526272N01139906EA0000000452
B1345385526314N01139668EA0000000448
B1345475526331N01139393EA0000000426
B1345525526335N01139234EA0000000413
B1345575526341N01139077EA0000000399
B1346055526327N01138825EA0000000375
B1346105526300N01138680EA0000000372
B1346165526255N01138520EA0000000379
B1346215526199N01138436EA0000000392
B1346265526147N01138525EA0000000398
B1346315526193N01138627EA0000000399
B1346385526284N01138529EA0000000399
B1346435526281N01138398EA0000000409
B1346485526203N01138396EA0000000414
B1346555526202N01138568EA0000000441
B1347005526270N01138546EA0000000448
B1347055526264N01138432EA0000000454
B1347125526168N01138494EA0000000459
B1347175526190N01138618EA0000000467
B1347225526261N01138590EA0000000468
B1347295526237N01138433EA0000000477
B1347345526162N01138475EA0000000477
B1347395526155N01138611EA0000000490
B1347465526251N01138633EA0000000487
B1347515526294N01138513EA0000000485
B1347575526225N01138423EA0000000494
B1348025526175N01138532EA0000000501
B1348075526221N01138633EA0000000509
B1348125526294N01138596EA0000000508
B1348195526281N01138429EA0000000513
B1348245526203N01138450EA0000000522
B1348295526186N01138586EA0000000535
B1348365526276N01138644EA0000000542
B1348415526313N01138529EA0000000537
B1348465526259N01138430EA0000000549
B1348535526170N01138533EA0000000557
B1348585526203N01138655EA0000000569
B1349035526276N01138642EA0000000568
B1349105526290N01138461EA0000000570
B1349155526211N01138420EA0000000580
B1349205526163N01138539EA0000000581
B1349275526236N01138666EA0000000598
B1349325526287N01138584EA0000000595
B1349375526256N01138465EA0000000596
B1349445526142N01138504EA0000000597
B1349495526137N01138654EA0000000605
B1349545526207N01138699EA0000000619
B1350015526239N01138544EA0000000617
B1350065526164N01138500EA0000000624
B1350115526106N01138609EA0000000623
B1350185526168N01138773EA0000000639
B1350235526247N01138740EA0000000640
B1350325526300N01138504EA0000000645
B1350385526299N01138324EA0000000649
B1350435526280N01138179EA0000000660
B1350485526212N01138119EA0000000670
B1350535526170N01138225EA0000000674
B1350585526216N01138318EA0000000678
B1351045526289N01138245EA0000000682
B1351115526264N01138075EA0000000688
B1351165526184N01138091EA0000000688
B1351215526147N01138212EA0000000689
B1351265526168N01138342EA0000000692
B1351315526225N01138427EA0000000700
B1351385526320N01138437EA0000000716
B1351435526381N01138399EA0000000713
B1351485526429N01138295EA0000000705
B1351545526449N01138136EA0000000728
B1352005526368N01138132EA0000000732
B1352055526357N01138265EA0000000736
B1352105526414N01138353EA0000000747
B1352175526475N01138234EA0000000758
B1352235526398N01138168EA0000000772
B1352285526352N01138278EA0000000777
B1352345526412N01138371EA0000000797
B1352405526447N01138247EA0000000798
B1352465526360N01138213EA0000000806
B1352515526319N01138340EA0000000820
B1352575526375N01138447EA0000000832
B1353025526434N01138376EA0000000838
B1353085526413N01138222EA0000000843
B1353135526348N01138151EA0000000856
B1353185526290N01138231EA0000000848
B1353255526346N01138376EA0000000858
B1353305526409N01138305EA0000000865
B1353355526382N01138185EA0000000880
B1353425526294N01138270EA0000000881
B1353475526318N01138396EA0000000894
B1353525526388N01138406EA0000000900
B1354005526392N01138231EA0000000912
B1354055526319N01138257EA0000000917
B1354105526314N01138389EA0000000928
B1354165526393N01138404EA0000000939
B1354215526398N01138284EA0000000941
B1354265526327N01138282EA0000000952
B1354325526327N01138430EA0000000967
B1354375526395N01138430EA0000000969
B1354435526396N01138286EA0000000974
B1354495526308N01138298EA0000000985
B1354545526302N01138435EA0000000996
B1354595526371N01138482EA0000001002
B1355065526404N01138324EA0000000998
B1355115526336N01138256EA0000001011
B1355165526279N01138353EA0000001016
B1355235526347N01138470EA0000001031
B1355285526388N01138374EA0000001032
B1355345526323N01138281EA0000001042
B1355405526271N01138407EA0000001052
B1355465526338N01138490EA0000001061
B1355515526383N01138397EA0000001059
B1355585526319N01138257EA0000001071
B1356035526247N01138296EA0000001080
B1356085526251N01138421EA0000001086
B1356145526328N01138402EA0000001093
B1356215526282N01138265EA0000001098
B1356265526211N01138332EA0000001107
B1356315526217N01138457EA0000001120
B1356365526284N01138485EA0000001118
B1356415526326N01138383EA0000001118
B1356485526248N01138269EA0000001125
B1356535526176N01138340EA0000001134
B1356585526175N01138470EA0000001144
B1357055526271N01138498EA0000001133
B1357105526329N01138408EA0000001141
B1357195526341N01138186EA0000001150
B1357255526276N01138079EA0000001144
B1357305526201N01138099EA0000001144
B1357355526164N01138207EA0000001143
B1357405526182N01138329EA0000001143
B1357475526272N01138384EA0000001149
B1357535526350N01138351EA0000001152
B1357585526403N01138272EA0000001134
B1358055526514N01138174EA0000001121
B1358105526604N01138149EA0000001134
B1358165526704N01138179EA0000001148
B1358215526780N01138248EA0000001146
B1358325526951N01138401EA0000001124
B1358375527015N01138511EA0000001122
B1358425527091N01138525EA0000001121
B1358475527149N01138410EA0000001098
B1358535527181N01138210EA0000001085
B1359015527188N01137926EA0000001087
B1359125527164N01137550EA0000001115
B1359175527122N01137436EA0000001140
B1359225527047N01137471EA0000001131
B1359275527026N01137612EA0000001135
B1359325527070N01137720EA0000001140
B1400065527271N01136907EA0000001132
B1400135527234N01136661EA0000001138
B1400185527197N01136513EA0000001161
B1400295527079N01136224EA0000001124
B1401375526681N01134016EA0000001046
B1402445526339N01131983EA0000000989
B1402535526285N01131692EA0000000982
B1403025526241N01131413EA0000000986
B1403115526189N01131159EA0000000995
B1403415525898N01130374EA0000000985
B1403475525827N01130235EA0000000987
B1403525525761N01130145EA0000001007
B1403575525689N01130189EA0000001004
B1404115525813N01130402EA0000001010
B1404175525898N01130357EA0000001022
B1404275525889N01130143EA0000001014
B1404325525817N01130193EA0000001022
B1404395525834N01130374EA0000001027
B1404445525904N01130391EA0000001030
B1405105525864N01129644EA0000001011
B1405315525720N01129039EA0000000997
B1405365525686N01128892EA0000000995
B1406015525523N01128075EA0000000940
B1406175525485N01127631EA0000000995
B1407035525378N01126271EA0000000932
B1407455524956N01125071EA0000000908
B1407585524816N01124716EA0000000898
B1408065524843N01124508EA0000000891
B1409085525641N01125390EA0000000866
B1409145525702N01125475EA0000000888
B1409195525729N01125393EA0000000882
B1409245525653N01125323EA0000000883
B1409315525592N01125482EA0000000899
B1409405525658N01125425EA0000000911
B1409455525584N01125367EA0000000917
B1409565525587N01125558EA0000000926
B1410025525602N01125425EA0000000932
B1410075525521N01125371EA0000000938
B1410275525536N01125427EA0000000943
B1410325525461N01125342EA0000000958
B1410435525322N01125564EA0000000956
B1410485525325N01125731EA0000000935
B1410535525352N01125904EA0000000931
B1410595525388N01126110EA0000000922
B1411065525431N01126351EA0000000913
B1411135525473N01126589EA0000000909
B1411195525498N01126799EA0000000913
B1411245525514N01126970EA0000000926
B1411305525536N01127174EA0000000922
B1411365525569N01127381EA0000000915
B1411445525614N01127660EA0000000917
B1411545525672N01127995EA0000000934
B1412005525717N01128181EA0000000940
B1412125525820N01128564EA0000000923
B1412185525867N01128765EA0000000907
B1412275525918N01129092EA0000000897
B1412335525946N01129320EA0000000902
B1412385525970N01129515EA0000000892
B1412435525997N01129717EA0000000870
B1412485526026N01129927EA0000000853
B1412555526064N01130213EA0000000846
B1413015526098N01130447EA0000000842
B1413065526127N01130638EA0000000822
B1413125526164N01130888EA0000000793
B1413185526195N01131149EA0000000788
B1413315526261N01131730EA0000000786
B1413375526294N01132000EA0000000775
B1413425526323N01132229EA0000000762
B1413515526367N01132654EA0000000732
B1413565526384N01132892EA0000000720
B1414025526369N01133169EA0000000725
B1414105526296N01133513EA0000000702
B1414155526245N01133730EA0000000691
B1414235526164N01134059EA0000000714
B1414285526119N01134264EA0000000711
B1414365526049N01134609EA0000000696
B1414415526007N01134823EA0000000699
B1414475525961N01135060EA0000000697
B1414535525916N01135305EA0000000671
B1415055525825N01135806EA0000000647
B1415105525790N01136015EA0000000639
B1415205525731N01136431EA0000000620
B1415285525701N01136770EA0000000606
B1415345525685N01137024EA0000000597
B1415445525668N01137460EA0000000581
B1415495525688N01137672EA0000000580
B1415545525733N01137869EA0000000567
B1416015525835N01138106EA0000000540
B1416075525949N01138273EA0000000514
B1416125526057N01138386EA0000000506
B1416185526192N01138506EA0000000493
B1416245526329N01138621EA0000000494
B1416305526460N01138751EA0000000483
B1416355526557N01138899EA0000000465
B1416405526617N01139101EA0000000459
B1416455526629N01139330EA0000000461
B1416565526530N01139790EA0000000442
B1417015526435N01139927EA0000000441
B1417065526321N01139992EA0000000433
B1417115526203N01139970EA0000000430
B1417165526106N01139857EA0000000425
B1417235526037N01139604EA0000000419
B1417295526028N01139363EA0000000405
B1417405526038N01138908EA0000000397
B1417455526048N01138700EA0000000394
B1417525526069N01138402EA0000000375
B1417575526085N01138193EA0000000374
B1418025526094N01137989EA0000000370
B1418075526058N01137807EA0000000369
B1418125525973N01137693EA0000000362
B1418175525869N01137692EA0000000356
B1418225525777N01137797EA0000000350
B1418275525723N01137964EA0000000345
B1418345525699N01138231EA0000000330
B1418405525703N01138459EA0000000313
B1418475525734N01138722EA0000000295
B1418565525790N01139056EA0000000293
B1419025525837N01139270EA0000000293
B1419085525893N01139478EA0000000290
B1419135525940N01139646EA0000000293
B1419195525995N01139834EA0000000298
B1419265526064N01140056EA0000000297
B1419315526124N01140202EA0000000293
B1419375526216N01140355EA0000000295
B1419435526314N01140497EA0000000301
B1419495526420N01140637EA0000000286
B1419545526512N01140753EA0000000287
B1419595526601N01140869EA0000000282
B1420045526694N01140959EA0000000276
B1420115526825N01141030EA0000000274
B1420165526914N01141034EA0000000272
B1420225527019N01141006EA0000000255
B1420275527096N01140937EA0000000244
B1420335527147N01140797EA0000000223
B1420385527168N01140667EA0000000213
B1420455527177N01140479EA0000000191
B1420575527172N01140148EA0000000166
B1421085527176N01139832EA0000000134
B1421135527173N01139675EA0000000116
B1421195527168N01139487EA0000000094
B1421265527162N01139267EA0000000068
B1421405527158N01138850EA0000000039
B1421485527153N01138627EA0000000036
B1421575527143N01138433EA0000000036
