AOGNOGN
HFDTE180825
HFFXA050
HFPLTPILOTINCHARGE:
HFGTYGLIDERTYPE:WT9 Dynamic
HFGIDGLIDERID:OY-9397
HFDTM100GPSDATUM:WGS-1984
HFRFWFIRMWAREVERSION:
HFRHWHARDWAREVERSION:
HFFTYFRTYPE:OGN-FLIGHTBOOK
HFGPSGENERIC
HFPRSPRESSALTSENSOR:
HFCIDCOMPETITIONID:
B1147055527144N01138453EA0000000037
B1147125527143N01138630EA0000000066
B1147185527144N01138781EA0000000081
B1147265527139N01139006EA0000000093
B1147315527137N01139156EA0000000101
B1147395527129N01139400EA0000000110
B1147465527115N01139613EA0000000134
B1147515527105N01139769EA0000000142
B1147565527093N01139936EA0000000143
B1148025527075N01140145EA0000000147
B1148105527052N01140434EA0000000161
B1148185527029N01140738EA0000000165
B1148305527033N01141207EA0000000185
B1148365527052N01141441EA0000000208
B1148445527079N01141757EA0000000217
B1148525527113N01142064EA0000000247
B1149015527148N01142397EA0000000273
B1149125527187N01142805EA0000000278
B1149215527216N01143129EA0000000284
B1149295527245N01143431EA0000000281
B1149355527275N01143664EA0000000284
B1149415527312N01143887EA0000000301
B1149465527348N01144073EA0000000313
B1149515527387N01144256EA0000000325
B1149585527442N01144513EA0000000353
B1150065527509N01144808EA0000000359
B1150125527560N01145028EA0000000367
B1150195527617N01145284EA0000000383
B1150245527659N01145466EA0000000388
B1150295527702N01145653EA0000000386
B1150375527768N01145946EA0000000391
B1150425527808N01146125EA0000000398
B1150495527870N01146381EA0000000387
B1150565527938N01146642EA0000000401
B1151045528009N01146942EA0000000405
B1151095528045N01147136EA0000000403
B1151155528083N01147373EA0000000404
B1151235528135N01147688EA0000000399
B1151285528170N01147888EA0000000395
B1151375528234N01148251EA0000000404
B1151425528269N01148451EA0000000414
B1151505528327N01148770EA0000000418
B1151575528383N01149031EA0000000418
B1152045528443N01149289EA0000000416
B1152105528491N01149511EA0000000414
B1152185528554N01149802EA0000000406
B1152285528642N01150164EA0000000396
B1152345528695N01150379EA0000000391
B1152395528738N01150554EA0000000385
B1152455528792N01150766EA0000000375
B1152515528850N01150982EA0000000379
B1152575528908N01151199EA0000000383
B1153085529017N01151596EA0000000386
B1153155529066N01151861EA0000000397
B1153205529098N01152050EA0000000396
B1153285529147N01152353EA0000000386
B1153375529207N01152695EA0000000378
B1153435529246N01152924EA0000000370
B1153525529310N01153274EA0000000361
B1153595529366N01153545EA0000000354
B1154045529405N01153733EA0000000346
B1154115529460N01153994EA0000000338
B1154185529511N01154256EA0000000331
B1154235529545N01154443EA0000000326
B1154285529576N01154628EA0000000325
B1154375529635N01154959EA0000000312
B1154435529677N01155183EA0000000303
B1154485529714N01155368EA0000000302
B1154565529775N01155668EA0000000299
B1155045529841N01155965EA0000000308
B1155115529902N01156216EA0000000312
B1155175529956N01156433EA0000000318
B1155255530019N01156720EA0000000327
B1155365530099N01157123EA0000000326
B1155455530152N01157461EA0000000331
B1155515530183N01157687EA0000000335
B1155565530209N01157870EA0000000340
B1156015530233N01158050EA0000000348
B1156095530272N01158347EA0000000359
B1156165530302N01158617EA0000000370
B1156275530342N01159031EA0000000375
B1156355530392N01159320EA0000000374
B1156425530474N01159532EA0000000369
B1156515530609N01159748EA0000000367
B1156565530687N01159865EA0000000364
B1157015530765N01159981EA0000000364
B1157115530922N01200218EA0000000363
B1157175531014N01200357EA0000000367
B1157265531151N01200571EA0000000369
B1157325531243N01200707EA0000000364
B1157435531410N01200963EA0000000354
B1157495531503N01201101EA0000000360
B1157555531592N01201246EA0000000375
B1158065531764N01201477EA0000000383
B1158135531883N01201596EA0000000384
B1158245532076N01201792EA0000000393
B1158305532181N01201904EA0000000397
B1158405532358N01202074EA0000000405
B1158485532509N01202207EA0000000404
B1158575532679N01202353EA0000000398
B1159075532867N01202510EA0000000390
B1159145532997N01202611EA0000000388
B1159195533087N01202686EA0000000394
B1159255533199N01202773EA0000000402
B1159345533370N01202919EA0000000403
B1159395533463N01203004EA0000000410
B1159455533574N01203109EA0000000407
B1159505533667N01203200EA0000000403
B1200015533875N01203403EA0000000393
B1200095534033N01203547EA0000000379
B1200155534160N01203580EA0000000380
B1200225534308N01203554EA0000000382
B1200295534461N01203546EA0000000382
B1200365534617N01203548EA0000000372
B1200425534751N01203556EA0000000369
B1200495534906N01203573EA0000000362
B1200565535067N01203589EA0000000348
B1201025535206N01203592EA0000000345
B1201085535342N01203599EA0000000354
B1201155535500N01203613EA0000000353
B1201225535655N01203635EA0000000346
B1201305535825N01203671EA0000000337
B1201385535994N01203696EA0000000330
B1201495536219N01203724EA0000000332
B1201595536413N01203775EA0000000349
B1202075536563N01203834EA0000000367
B1202245536829N01204160EA0000000371
B1202395536975N01204635EA0000000370
B1205245539462N01208021EA0000000391
B1207245541978N01208108EA0000000422
B1207355542231N01208122EA0000000399
B1207445542441N01208128EA0000000386
B1207515542603N01208135EA0000000376
B1207585542760N01208103EA0000000377
B1208045542890N01208067EA0000000384
B1208115543040N01208031EA0000000390
B1208165543148N01208002EA0000000387
B1208235543296N01207968EA0000000394
B1208295543421N01207944EA0000000387
B1208395543639N01207941EA0000000378
B1208445543747N01207939EA0000000376
B1208495543854N01207941EA0000000369
B1208555543980N01207947EA0000000367
B1209025544124N01207961EA0000000361
B1209145544379N01207965EA0000000359
B1209295544710N01207948EA0000000351
B1209345544821N01207946EA0000000348
B1209405544952N01207943EA0000000352
B1209485545125N01207929EA0000000355
B1209555545273N01207905EA0000000361
B1210025545410N01207889EA0000000378
B1210075545508N01207884EA0000000381
B1210135545625N01207877EA0000000390
B1210195545740N01207870EA0000000392
B1210245545834N01207862EA0000000400
B1210305545947N01207851EA0000000396
B1210385546096N01207825EA0000000402
B1210445546211N01207804EA0000000403
B1210495546310N01207781EA0000000399
B1210565546453N01207750EA0000000396
B1211015546554N01207735EA0000000393
B1211105546746N01207736EA0000000389
B1211155546853N01207747EA0000000390
B1211215546981N01207754EA0000000395
B1211275547108N01207753EA0000000386
B1211355547280N01207750EA0000000379
B1211415547403N01207757EA0000000379
B1211475547521N01207770EA0000000375
B1211525547621N01207782EA0000000373
B1211575547721N01207795EA0000000380
B1212035547839N01207809EA0000000390
B1212095547957N01207820EA0000000390
B1212145548056N01207825EA0000000387
B1212195548152N01207834EA0000000387
B1212245548250N01207850EA0000000387
B1212295548347N01207863EA0000000391
B1212355548464N01207879EA0000000393
B1212405548558N01207887EA0000000394
B1212495548725N01207899EA0000000398
B1212595548909N01207902EA0000000413
B1213095549093N01207894EA0000000417
B1213145549189N01207894EA0000000411
B1213205549311N01207899EA0000000406
B1213265549435N01207902EA0000000404
B1213315549539N01207904EA0000000401
B1213365549643N01207908EA0000000403
B1213435549787N01207913EA0000000417
B1213495549911N01207919EA0000000425
B1213555550034N01207934EA0000000434
B1214005550136N01207952EA0000000426
B1214075550287N01207967EA0000000412
B1214135550414N01207977EA0000000407
B1214215550575N01208008EA0000000394
B1214295550735N01208050EA0000000392
B1214345550833N01208077EA0000000396
B1214415550967N01208116EA0000000410
B1214465551064N01208144EA0000000408
B1214515551156N01208165EA0000000426
B1214585551282N01208193EA0000000435
B1215085551468N01208239EA0000000439
B1215145551582N01208272EA0000000456
B1215255551780N01208342EA0000000472
B1215315551889N01208373EA0000000478
B1215425552088N01208409EA0000000506
B1215495552206N01208422EA0000000532
B1216015552418N01208451EA0000000555
B1216105552585N01208484EA0000000561
B1216165552701N01208508EA0000000559
B1216255552883N01208549EA0000000551
B1216325553026N01208577EA0000000552
B1216405553187N01208612EA0000000548
B1216495553361N01208663EA0000000563
B1216555553470N01208703EA0000000575
B1217015553573N01208739EA0000000593
B1217065553662N01208767EA0000000599
B1217135553792N01208804EA0000000614
B1217235553989N01208857EA0000000624
B1217305554131N01208895EA0000000625
B1217375554274N01208935EA0000000629
B1217455554440N01208981EA0000000622
B1217515554562N01209006EA0000000640
B1217575554682N01209037EA0000000650
B1218025554784N01209060EA0000000652
B1218085554910N01209085EA0000000649
B1218145555039N01209101EA0000000655
B1218235555235N01209121EA0000000648
B1218315555417N01209154EA0000000644
B1218385555586N01209183EA0000000640
B1218455555754N01209202EA0000000641
B1218565556009N01209223EA0000000650
B1219055556210N01209235EA0000000655
B1219165556447N01209192EA0000000670
B1219225556571N01209157EA0000000678
B1219295556713N01209113EA0000000682
B1219395556913N01209048EA0000000687
B1219475557071N01209000EA0000000686
B1219575557274N01208921EA0000000685
B1220035557394N01208877EA0000000696
B1220135557599N01208804EA0000000695
B1220245557826N01208695EA0000000694
B1220305557949N01208630EA0000000697
B1220415558176N01208515EA0000000694
B1220515558385N01208395EA0000000692
B1220575558511N01208323EA0000000691
B1221125558832N01208176EA0000000688
B1221195558983N01208123EA0000000682
B1221265559133N01208087EA0000000686
B1221315559241N01208070EA0000000688
B1221365559349N01208056EA0000000689
B1221415559458N01208039EA0000000683
B1221465559566N01208027EA0000000681
B1221515559671N01208010EA0000000683
B1221595559840N01207989EA0000000681
B1222045559944N01207981EA0000000681
B1222115600093N01207967EA0000000667
B1222205600283N01207932EA0000000656
B1222255600391N01207914EA0000000644
B1222325600544N01207887EA0000000629
B1222375600651N01207872EA0000000616
B1222435600776N01207858EA0000000600
B1222485600881N01207849EA0000000586
B1222545601005N01207842EA0000000570
B1222595601109N01207835EA0000000553
B1223045601214N01207826EA0000000535
B1223105601343N01207816EA0000000507
B1223165601475N01207807EA0000000488
B1223265601689N01207785EA0000000455
B1223315601795N01207773EA0000000438
B1223385601945N01207766EA0000000411
B1223445602073N01207764EA0000000389
B1223545602277N01207752EA0000000368
B1223595602372N01207786EA0000000362
B1224065602466N01207935EA0000000353
B1224175602554N01208232EA0000000332
B1224235602597N01208415EA0000000311
B1224295602637N01208612EA0000000296
B1224365602687N01208844EA0000000278
B1224415602727N01209011EA0000000267
B1224475602778N01209213EA0000000258
B1224535602846N01209372EA0000000235
B1225035603004N01209514EA0000000213
B1225085603080N01209542EA0000000204
B1225155603185N01209544EA0000000176
B1251535603237N01209658EA0000000208
B1251585603123N01209702EA0000000218
B1252035603007N01209696EA0000000241
B1252085602895N01209642EA0000000252
B1252135602786N01209557EA0000000264
B1252225602597N01209373EA0000000277
B1252295602459N01209217EA0000000296
B1252345602361N01209109EA0000000306
B1252425602202N01208953EA0000000325
B1252505602033N01208794EA0000000328
B1252565601908N01208666EA0000000344
B1253025601782N01208545EA0000000354
B1253075601676N01208442EA0000000358
B1253125601570N01208341EA0000000366
B1253185601442N01208221EA0000000366
B1253245601311N01208097EA0000000372
B1253305601179N01207969EA0000000386
B1253375601025N01207819EA0000000397
B1253435600896N01207690EA0000000408
B1253495600770N01207560EA0000000420
B1253565600625N01207412EA0000000437
B1254015600522N01207300EA0000000441
B1254065600421N01207181EA0000000445
B1254115600318N01207060EA0000000447
B1254175600192N01206919EA0000000463
B1254235600067N01206782EA0000000472
B1254285559964N01206669EA0000000475
B1254335559862N01206551EA0000000481
B1254435559655N01206302EA0000000486
B1254485559548N01206174EA0000000488
B1254575559351N01205955EA0000000497
B1255035559217N01205828EA0000000505
B1255145558969N01205597EA0000000511
B1255195558857N01205495EA0000000520
B1255245558748N01205393EA0000000529
B1255315558590N01205272EA0000000539
B1255395558414N01205135EA0000000550
B1255445558303N01205038EA0000000560
B1255505558174N01204930EA0000000570
B1255575558018N01204815EA0000000573
B1256025557902N01204733EA0000000581
B1256075557789N01204663EA0000000599
B1256135557652N01204590EA0000000607
B1256185557535N01204563EA0000000610
B1256275557318N01204565EA0000000614
B1256325557198N01204582EA0000000620
B1256395557032N01204628EA0000000627
B1256455556894N01204679EA0000000632
B1256515556759N01204733EA0000000632
B1256585556602N01204797EA0000000632
B1257045556466N01204843EA0000000635
B1257105556325N01204888EA0000000627
B1257155556204N01204925EA0000000618
B1257215556053N01204964EA0000000604
B1257305555821N01205013EA0000000600
B1257355555695N01205043EA0000000597
B1257415555547N01205082EA0000000596
B1257475555400N01205125EA0000000591
B1257555555204N01205186EA0000000588
B1258075554908N01205258EA0000000551
B1258135554759N01205291EA0000000533
B1258185554639N01205318EA0000000521
B1258265554446N01205363EA0000000493
B1258315554326N01205394EA0000000480
B1258385554158N01205438EA0000000468
B1258475553948N01205496EA0000000442
B1258555553762N01205552EA0000000423
B1259025553598N01205601EA0000000412
B1259125553366N01205693EA0000000403
B1259185553227N01205752EA0000000398
B1259235553112N01205789EA0000000390
B1259295552978N01205841EA0000000390
B1259355552849N01205898EA0000000389
B1259465552616N01205998EA0000000378
B1259525552488N01206041EA0000000374
B1259575552375N01206076EA0000000368
B1300035552230N01206114EA0000000362
B1300085552107N01206144EA0000000366
B1300135551984N01206176EA0000000369
B1300215551781N01206227EA0000000366
B1300275551627N01206268EA0000000366
B1300325551497N01206305EA0000000368
B1300395551317N01206358EA0000000369
B1300455551160N01206403EA0000000367
B1300505551029N01206437EA0000000362
B1301015550737N01206506EA0000000352
B1301075550582N01206548EA0000000357
B1301175550327N01206602EA0000000341
B1301225550201N01206623EA0000000338
B1301295550021N01206642EA0000000331
B1301365549837N01206647EA0000000326
B1301445549629N01206666EA0000000328
B1301495549504N01206692EA0000000338
B1301545549383N01206721EA0000000352
B1302015549211N01206742EA0000000350
B1302065549092N01206716EA0000000355
B1302125548957N01206659EA0000000368
B1302185548826N01206587EA0000000373
B1302265548657N01206474EA0000000391
B1302355548471N01206343EA0000000401
B1302495548191N01206127EA0000000404
B1302545548090N01206042EA0000000405
B1302595547985N01205954EA0000000402
B1303065547838N01205832EA0000000394
B1303165547628N01205648EA0000000395
B1303295547355N01205415EA0000000397
B1303365547208N01205284EA0000000397
B1303435547061N01205153EA0000000399
B1303515546894N01205009EA0000000399
B1303565546791N01204918EA0000000403
B1304015546697N01204809EA0000000409
B1304075546594N01204663EA0000000411
B1304175546429N01204393EA0000000405
B1304235546331N01204227EA0000000407
B1304355546145N01203888EA0000000425
B1304425546041N01203680EA0000000417
B1304515545902N01203397EA0000000419
B1304575545806N01203203EA0000000417
B1305085545632N01202845EA0000000428
B1305135545553N01202684EA0000000438
B1305195545463N01202488EA0000000446
B1305255545372N01202283EA0000000435
B1305335545252N01202002EA0000000426
B1305435545102N01201652EA0000000435
B1305515544980N01201382EA0000000429
B1306015544829N01201037EA0000000431
B1306065544757N01200868EA0000000434
B1306115544688N01200699EA0000000428
B1306185544586N01200466EA0000000437
B1306245544499N01200276EA0000000441
B1306295544425N01200109EA0000000429
B1306415544232N01159700EA0000000410
B1307235543542N01158429EA0000000424
B1313175536168N01151423EA0000000387
B1313235536048N01151294EA0000000389
B1313285535949N01151188EA0000000395
B1313345535832N01151065EA0000000415
B1313455535607N01150832EA0000000402
B1313515535475N01150740EA0000000415
B1313565535362N01150672EA0000000423
B1314035535205N01150572EA0000000433
B1314085535092N01150500EA0000000435
B1314165534911N01150376EA0000000433
B1314215534798N01150299EA0000000438
B1314275534661N01150205EA0000000439
B1314325534546N01150131EA0000000448
B1314425534314N01149984EA0000000427
B1314485534173N01149892EA0000000427
B1314535534059N01149814EA0000000430
B1314595533917N01149727EA0000000414
B1315045533794N01149665EA0000000415
B1315105533653N01149602EA0000000410
B1315165533511N01149549EA0000000401
B1315225533368N01149501EA0000000394
B1315305533176N01149460EA0000000394
B1315355533054N01149441EA0000000384
B1315435532852N01149421EA0000000389
B1315495532706N01149419EA0000000400
B1315565532542N01149425EA0000000400
B1316025532399N01149432EA0000000396
B1316085532259N01149446EA0000000394
B1316155532096N01149469EA0000000388
B1316235531913N01149496EA0000000391
B1316295531780N01149518EA0000000394
B1316355531651N01149543EA0000000390
B1316405531541N01149567EA0000000386
B1316485531365N01149610EA0000000387
B1316545531234N01149647EA0000000386
B1317035531032N01149710EA0000000378
B1317085530920N01149754EA0000000382
B1317165530738N01149812EA0000000386
B1317225530603N01149846EA0000000389
B1317315530405N01149907EA0000000404
B1317395530229N01149962EA0000000407
B1317445530117N01149984EA0000000404
B1317525529935N01150011EA0000000411
B1317585529798N01150040EA0000000423
B1318075529598N01150083EA0000000415
B1318135529465N01150097EA0000000416
B1318185529353N01150111EA0000000423
B1318235529240N01150125EA0000000425
B1318295529105N01150136EA0000000427
B1318355528970N01150144EA0000000429
B1318405528859N01150155EA0000000430
B1318495528662N01150189EA0000000416
B1318585528474N01150228EA0000000419
B1319055528332N01150261EA0000000414
B1319135528169N01150302EA0000000399
B1319205528022N01150339EA0000000408
B1319255527920N01150363EA0000000414
B1319305527820N01150393EA0000000412
B1319375527679N01150446EA0000000391
B1319425527579N01150482EA0000000385
B1319475527478N01150513EA0000000372
B1319525527373N01150547EA0000000360
B1319575527266N01150578EA0000000355
B1320045527115N01150629EA0000000340
B1320125526949N01150690EA0000000322
B1320175526844N01150731EA0000000304
B1320245526696N01150788EA0000000288
B1320315526549N01150821EA0000000269
B1320385526400N01150835EA0000000266
B1320435526295N01150841EA0000000260
B1320485526192N01150849EA0000000244
B1320555526050N01150853EA0000000245
B1321035525898N01150790EA0000000251
B1321125525742N01150645EA0000000251
B1321185525640N01150524EA0000000264
B1321265525510N01150360EA0000000269
B1321335525403N01150201EA0000000271
B1321385525331N01150084EA0000000277
B1321475525208N01149865EA0000000276
B1321555525101N01149676EA0000000283
B1322025525004N01149507EA0000000294
B1322085524914N01149358EA0000000294
B1322165524785N01149172EA0000000306
B1322225524696N01149044EA0000000322
B1322285524606N01148914EA0000000323
B1322335524526N01148798EA0000000317
B1322395524432N01148647EA0000000311
B1322465524336N01148471EA0000000297
B1322535524268N01148275EA0000000288
B1323015524194N01148048EA0000000270
B1323065524156N01147908EA0000000264
B1323135524099N01147705EA0000000255
B1323205524043N01147498EA0000000264
B1323275524000N01147284EA0000000274
B1323325523993N01147132EA0000000268
B1323385524026N01146963EA0000000266
B1323445524089N01146823EA0000000249
B1323495524158N01146726EA0000000236
B1324015524356N01146547EA0000000230
B1324075524457N01146490EA0000000222
B1324125524540N01146457EA0000000220
B1324185524645N01146456EA0000000208
B1324235524725N01146515EA0000000210
B1324285524787N01146616EA0000000213
B1324365524867N01146822EA0000000204
B1324445524944N01147020EA0000000188
B1324495524990N01147145EA0000000162
B1324575525075N01147343EA0000000139
B1325025525129N01147465EA0000000133
B1325145525256N01147757EA0000000099
B1325205525317N01147896EA0000000081
B1353455525531N01148373EA0000000093
B1353515525471N01148252EA0000000122
B1353595525374N01148070EA0000000151
B1354045525308N01147957EA0000000172
B1354115525219N01147819EA0000000188
B1354165525148N01147718EA0000000189
B1354215525071N01147611EA0000000191
B1354285524987N01147422EA0000000205
B1354335524959N01147260EA0000000214
B1354395524957N01147053EA0000000216
B1354445524990N01146889EA0000000225
B1354495525042N01146739EA0000000238
B1354545525101N01146586EA0000000240
B1355025525199N01146344EA0000000276
B1355075525260N01146206EA0000000301
B1355145525349N01146013EA0000000296
B1355205525424N01145835EA0000000292
B1355265525483N01145638EA0000000300
B1355325525532N01145436EA0000000303
B1355375525572N01145264EA0000000311
B1355435525625N01145068EA0000000328
B1355515525696N01144800EA0000000338
B1355575525743N01144585EA0000000344
B1356055525799N01144307EA0000000356
B1356105525830N01144134EA0000000363
B1356165525866N01143931EA0000000363
B1356235525907N01143710EA0000000370
B1356285525939N01143547EA0000000364
B1356335525963N01143370EA0000000364
B1356385525945N01143195EA0000000369
B1356435525883N01143055EA0000000353
B1356485525795N01142993EA0000000360
B1356535525712N01143045EA0000000352
B1356585525672N01143199EA0000000340
B1357055525714N01143421EA0000000338
B1357105525795N01143500EA0000000335
B1357155525886N01143487EA0000000336
B1357235525979N01143307EA0000000351
B1357285526023N01143179EA0000000362
B1357365526099N01142949EA0000000354
B1357415526151N01142804EA0000000364
B1357465526232N01142735EA0000000379
B1357515526327N01142770EA0000000382
B1357565526383N01142909EA0000000398
B1358015526368N01143068EA0000000406
B1358065526287N01143172EA0000000397
B1358135526164N01143086EA0000000419
B1358195526167N01142877EA0000000422
B1358245526200N01142722EA0000000429
B1358305526240N01142538EA0000000413
B1358355526227N01142373EA0000000400
B1358405526169N01142258EA0000000412
B1358485526041N01142287EA0000000387
B1358545526014N01142481EA0000000382
B1358595526088N01142591EA0000000367
B1359045526176N01142521EA0000000366
B1359095526203N01142361EA0000000364
B1359145526246N01142222EA0000000370
B1359215526357N01142269EA0000000351
B1359265526344N01142430EA0000000343
B1359325526246N01142455EA0000000350
B1359385526222N01142278EA0000000341
B1359455526261N01142073EA0000000343
B1359555526322N01141800EA0000000340
B1400005526347N01141670EA0000000353
B1400065526369N01141506EA0000000351
B1400125526381N01141342EA0000000374
B1400205526390N01141138EA0000000404
B1400305526392N01140865EA0000000421
B1400365526390N01140703EA0000000451
B1400425526390N01140540EA0000000471
B1400485526383N01140360EA0000000492
B1400545526375N01140147EA0000000485
B1401005526365N01139925EA0000000486
B1401055526355N01139753EA0000000494
B1401195526358N01139289EA0000000505
B1401265526365N01139052EA0000000516
B1401315526370N01138885EA0000000517
B1401365526379N01138717EA0000000521
B1401415526395N01138556EA0000000536
B1401485526417N01138321EA0000000521
B1401535526439N01138137EA0000000519
B1401585526464N01137952EA0000000528
B1402055526504N01137716EA0000000533
B1402105526507N01137543EA0000000521
B1402155526454N01137391EA0000000510
B1402205526367N01137314EA0000000502
B1402275526232N01137368EA0000000475
B1402325526167N01137492EA0000000480
B1402375526153N01137642EA0000000479
B1402445526233N01137815EA0000000452
B1402495526324N01137811EA0000000451
B1402545526383N01137701EA0000000451
B1403015526394N01137487EA0000000442
B1403095526398N01137230EA0000000430
B1403145526445N01137099EA0000000431
B1403195526530N01137093EA0000000420
B1403245526576N01137241EA0000000396
B1403295526524N01137383EA0000000401
B1403355526427N01137332EA0000000386
B1403415526432N01137137EA0000000378
B1403465526459N01136992EA0000000384
B1403535526494N01136787EA0000000376
B1403585526490N01136632EA0000000377
B1404035526435N01136522EA0000000381
B1404095526335N01136539EA0000000386
B1404145526286N01136669EA0000000383
B1404195526288N01136827EA0000000392
B1404265526358N01136994EA0000000391
B1404315526407N01137130EA0000000384
B1404385526428N01137360EA0000000365
B1404435526414N01137526EA0000000362
B1404485526402N01137690EA0000000350
B1404545526404N01137897EA0000000332
B1405015526419N01138131EA0000000318
B1405065526434N01138292EA0000000317
B1405115526447N01138439EA0000000311
B1405175526465N01138616EA0000000291
B1405245526483N01138818EA0000000274
B1405345526504N01139096EA0000000256
B1405395526514N01139242EA0000000241
B1405455526524N01139423EA0000000229
B1405515526535N01139600EA0000000213
B1405565526566N01139734EA0000000200
B1406015526630N01139820EA0000000189
B1406115526780N01139836EA0000000171
B1406165526855N01139812EA0000000148
B1406215526933N01139771EA0000000135
B1406295527046N01139684EA0000000116
B1406345527109N01139603EA0000000105
B1406395527144N01139478EA0000000093
B1406545527147N01139039EA0000000046
B1407025527146N01138822EA0000000036
B1407095527145N01138665EA0000000035
B1407165527143N01138569EA0000000035
