AOGNOGN
HFDTE180825
HFFXA050
HFPLTPILOTINCHARGE:
HFGTYGLIDERTYPE:WT9 Dynamic
HFGIDGLIDERID:OY-9397
HFDTM100GPSDATUM:WGS-1984
HFRFWFIRMWAREVERSION:
HFRHWHARDWAREVERSION:
HFFTYFRTYPE:OGN-FLIGHTBOOK
HFGPSGENERIC
HFPRSPRESSALTSENSOR:
HFCIDCOMPETITIONID:
B1603355526559N01136239EA0000000609
B1603425526662N01136329EA0000000617
B1603515526787N01136434EA0000000624
B1603515526787N01136434EA0000000624
B1603595526902N01136518EA0000000620
B1604085527040N01136613EA0000000622
B1604185527193N01136710EA0000000628
B1604255527295N01136783EA0000000635
B1604325527401N01136840EA0000000624
B1604375527477N01136882EA0000000627
B1604425527552N01136927EA0000000628
B1604505527673N01137002EA0000000627
B1604585527793N01137070EA0000000626
B1605055527899N01137119EA0000000622
B1605145528033N01137190EA0000000623
B1605205528123N01137240EA0000000625
B1605285528242N01137310EA0000000632
B1605345528332N01137363EA0000000631
B1605405528424N01137412EA0000000633
B1605515528590N01137494EA0000000641
B1605575528684N01137542EA0000000642
B1606035528776N01137602EA0000000644
B1606105528882N01137677EA0000000646
B1606175528988N01137754EA0000000645
B1606235529081N01137826EA0000000646
B1606285529159N01137874EA0000000645
B1606365529286N01137933EA0000000648
B1606415529363N01137972EA0000000655
B1606485529462N01138024EA0000000666
B1606535529539N01138045EA0000000661
B1606585529614N01137991EA0000000660
B1607065529667N01137775EA0000000660
B1607115529649N01137613EA0000000659
B1607165529589N01137471EA0000000668
B1607225529480N01137381EA0000000685
B1607285529365N01137391EA0000000695
B1607335529278N01137462EA0000000702
B1607425529175N01137710EA0000000705
B1607485529155N01137911EA0000000710
B1607535529170N01138080EA0000000711
B1608005529224N01138304EA0000000719
B1608055529283N01138449EA0000000723
B1608105529365N01138542EA0000000719
B1608155529457N01138562EA0000000712
B1608205529538N01138483EA0000000704
B1608265529583N01138294EA0000000699
B1608315529598N01138114EA0000000681
B1608375529567N01137887EA0000000659
B1608435529482N01137701EA0000000655
B1608505529350N01137505EA0000000664
B1608555529242N01137375EA0000000672
B1609045529028N01137166EA0000000672
B1609105528866N01137061EA0000000666
B1609155528725N01136989EA0000000663
B1609215528549N01136911EA0000000644
B1609275528373N01136840EA0000000642
B1609325528227N01136780EA0000000634
B1609385528055N01136699EA0000000630
B1609445527885N01136624EA0000000626
B1609505527718N01136565EA0000000632
B1609555527580N01136524EA0000000637
B1610015527419N01136472EA0000000646
B1610085527243N01136396EA0000000657
B1610175527041N01136315EA0000000659
B1610225526935N01136276EA0000000658
B1610295526790N01136218EA0000000654
B1610385526609N01136135EA0000000655
B1610465526452N01136060EA0000000650
B1610555526278N01135992EA0000000654
B1611035526120N01135965EA0000000646
B1611085526025N01136027EA0000000641
B1611135525953N01136156EA0000000638
B1611195525926N01136366EA0000000635
B1611245525946N01136552EA0000000629
B1611315526025N01136771EA0000000627
B1611385526151N01136891EA0000000628
B1611435526252N01136912EA0000000630
B1611485526350N01136872EA0000000630
B1611535526432N01136771EA0000000630
B1611585526484N01136615EA0000000634
B1612045526493N01136392EA0000000640
B1612105526461N01136165EA0000000629
B1612155526377N01136010EA0000000618
B1612205526255N01135922EA0000000610
B1612275526068N01135948EA0000000602
B1612325525962N01136093EA0000000598
B1612375525910N01136308EA0000000592
B1612445525952N01136613EA0000000591
B1612495526041N01136759EA0000000587
B1612545526154N01136843EA0000000582
B1613015526275N01137054EA0000000572
B1613065526386N01137070EA0000000571
B1613155526556N01136898EA0000000580
B1613205526647N01136805EA0000000588
B1613315526859N01136685EA0000000600
B1613365526956N01136707EA0000000584
B1613415527007N01136911EA0000000537
B1613475527008N01137211EA0000000524
B1613525526932N01137405EA0000000521
B1613575526814N01137515EA0000000517
B1614025526755N01137704EA0000000514
B1614095526795N01137970EA0000000505
B1614155526908N01138024EA0000000500
B1614205526978N01137923EA0000000492
B1614265526987N01137722EA0000000471
B1614315526922N01137573EA0000000462
B1614385526772N01137487EA0000000465
B1614435526657N01137514EA0000000480
B1614505526507N01137636EA0000000501
B1614565526383N01137776EA0000000510
B1615015526280N01137905EA0000000515
B1615085526133N01138087EA0000000524
B1615235525819N01138497EA0000000539
B1615285525721N01138656EA0000000535
B1615345525599N01138846EA0000000541
B1615395525516N01139020EA0000000541
B1615455525492N01139274EA0000000546
B1615515525561N01139461EA0000000551
B1615565525657N01139488EA0000000547
B1616015525725N01139377EA0000000544
B1616085525668N01139168EA0000000547
B1616135525558N01139151EA0000000544
B1616185525467N01139279EA0000000538
B1616255525491N01139518EA0000000530
B1616305525580N01139524EA0000000517
B1616355525622N01139383EA0000000508
B1616425525533N01139204EA0000000505
B1616475525429N01139212EA0000000515
B1616525525358N01139335EA0000000524
B1616595525376N01139546EA0000000515
B1617055525468N01139595EA0000000506
B1617105525522N01139503EA0000000502
B1617165525507N01139334EA0000000504
B1617215525437N01139243EA0000000507
B1617265525345N01139249EA0000000514
B1617325525257N01139370EA0000000512
B1617375525236N01139522EA0000000511
B1617425525270N01139647EA0000000511
B1617495525369N01139705EA0000000505
B1617545525428N01139630EA0000000502
B1617595525429N01139493EA0000000499
B1618065525339N01139343EA0000000499
B1618125525222N01139302EA0000000509
B1618175525116N01139347EA0000000524
B1618235525027N01139522EA0000000544
B1618285525026N01139715EA0000000557
B1618335525075N01139882EA0000000565
B1618415525189N01140074EA0000000538
B1618515525358N01140203EA0000000509
B1618575525448N01140327EA0000000469
B1619025525524N01140451EA0000000444
B1619095525639N01140618EA0000000417
B1619145525727N01140717EA0000000404
B1619195525819N01140801EA0000000392
B1619275525968N01140923EA0000000376
B1619325526061N01140990EA0000000366
B1619385526172N01141059EA0000000349
B1619455526303N01141122EA0000000330
B1619525526426N01141167EA0000000309
B1620055526642N01141169EA0000000278
B1620105526725N01141164EA0000000270
B1620185526852N01141164EA0000000261
B1620255526952N01141146EA0000000255
B1620355527071N01141054EA0000000224
B1620405527111N01140956EA0000000208
B1620455527130N01140830EA0000000191
B1620535527138N01140611EA0000000167
B1621005527140N01140423EA0000000151
B1621055527139N01140289EA0000000138
B1621155527140N01140012EA0000000120
B1621235527145N01139800EA0000000102
B1621315527152N01139589EA0000000083
B1621405527151N01139350EA0000000062
B1621475527149N01139165EA0000000049
B1621555527147N01138961EA0000000035
B1622055527141N01138753EA0000000034
B1622105527137N01138679EA0000000034
