AOGNOGN
HFDTE290625
HFFXA050
HFPLTPILOTINCHARGE:
HFGTYGLIDERTYPE:LS-4
HFGIDGLIDERID:OY-PNX
HFDTM100GPSDATUM:WGS-1984
HFRFWFIRMWAREVERSION:
HFRHWHARDWAREVERSION:
HFFTYFRTYPE:OGN-FLIGHTBOOK
HFGPSGENERIC
HFPRSPRESSALTSENSOR:
HFCIDCOMPETITIONID:5M
B1306255554423N00927258EA0000000101
B1306265554427N00927238EA0000000110
B1306315554447N00927148EA0000000195
B1306365554466N00927059EA0000000286
B1306435554489N00926916EA0000000412
B1306485554507N00926803EA0000000465
B1306565554533N00926608EA0000000529
B1307025554555N00926472EA0000000545
B1307075554582N00926385EA0000000553
B1307135554624N00926292EA0000000558
B1307185554626N00926209EA0000000562
B1307235554602N00926123EA0000000561
B1307295554633N00926044EA0000000565
B1307345554702N00926088EA0000000580
B1307405554734N00926289EA0000000591
B1307455554670N00926447EA0000000591
B1307505554583N00926452EA0000000591
B1307555554573N00926362EA0000000604
B1308015554635N00926319EA0000000628
B1308065554700N00926402EA0000000639
B1308115554707N00926583EA0000000652
B1308165554630N00926706EA0000000642
B1308215554546N00926664EA0000000648
B1308265554545N00926555EA0000000663
B1308335554644N00926567EA0000000677
B1308385554689N00926745EA0000000679
B1308435554643N00926930EA0000000694
B1308485554551N00926969EA0000000704
B1308535554509N00926879EA0000000713
B1308585554552N00926824EA0000000738
B1309035554619N00926894EA0000000726
B1309095554638N00927130EA0000000735
B1309145554576N00927302EA0000000744
B1309215554456N00927350EA0000000758
B1309275554427N00927221EA0000000764
B1309325554485N00927176EA0000000785
B1309395554579N00927328EA0000000784
B1309445554568N00927522EA0000000787
B1309505554463N00927609EA0000000787
B1309565554411N00927487EA0000000792
B1310015554436N00927389EA0000000803
B1310085554535N00927454EA0000000779
B1310135554531N00927663EA0000000763
B1310185554433N00927754EA0000000769
B1310235554385N00927680EA0000000765
B1310285554399N00927581EA0000000740
B1310335554433N00927474EA0000000723
B1310425554511N00927274EA0000000696
B1310475554547N00927161EA0000000690
B1310525554563N00927048EA0000000680
B1310595554567N00926863EA0000000665
B1311045554572N00926736EA0000000687
B1311095554538N00926636EA0000000714
B1311145554453N00926642EA0000000724
B1311195554382N00926789EA0000000729
B1311245554394N00926983EA0000000740
B1311305554482N00927067EA0000000755
B1311355554521N00926984EA0000000774
B1311405554480N00926898EA0000000789
B1311455554390N00926916EA0000000787
B1311515554308N00927124EA0000000794
B1311565554334N00927317EA0000000815
B1312025554426N00927401EA0000000823
B1312075554479N00927335EA0000000839
B1312135554448N00927221EA0000000856
B1312185554361N00927221EA0000000858
B1312255554279N00927444EA0000000870
B1312305554334N00927590EA0000000882
B1312365554399N00927552EA0000000897
B1312415554354N00927486EA0000000900
B1312465554267N00927569EA0000000893
B1312515554266N00927770EA0000000912
B1312565554334N00927863EA0000000926
B1313065554368N00927739EA0000000944
B1313125554269N00927759EA0000000956
B1313175554220N00927920EA0000000971
B1313225554263N00928071EA0000000971
B1313315554310N00927991EA0000000980
B1313375554214N00928016EA0000000986
B1313425554185N00928192EA0000001004
B1313475554239N00928314EA0000000999
B1313525554292N00928278EA0000000995
B1313575554248N00928204EA0000001003
B1314045554136N00928305EA0000001016
B1314115554150N00928551EA0000001034
B1314165554219N00928608EA0000001028
B1314215554248N00928532EA0000001032
B1314265554190N00928482EA0000001039
B1314315554114N00928586EA0000001045
B1314365554109N00928772EA0000001052
B1314415554173N00928892EA0000001057
B1314475554238N00928854EA0000001057
B1314585554108N00928793EA0000001068
B1315055554012N00928970EA0000001083
B1315105554027N00929143EA0000001089
B1315155554096N00929195EA0000001088
B1315205554121N00929116EA0000001089
B1315255554066N00929058EA0000001101
B1315315553957N00929127EA0000001105
B1315365553897N00929284EA0000001105
B1315425553938N00929485EA0000001104
B1315475554016N00929527EA0000001115
B1315525554039N00929451EA0000001126
B1315595553943N00929428EA0000001130
B1316075553873N00929700EA0000001117
B1316125553935N00929848EA0000001126
B1316175554007N00929870EA0000001129
B1316255553970N00929760EA0000001130
B1316305553881N00929826EA0000001132
B1316355553849N00930006EA0000001139
B1316405553902N00930134EA0000001143
B1316455553964N00930113EA0000001128
B1316525554005N00929963EA0000001097
B1316595554047N00929784EA0000001075
B1317065554088N00929606EA0000001064
B1317135554135N00929438EA0000001052
B1317195554184N00929303EA0000001046
B1317255554215N00929166EA0000001035
B1317355554230N00928920EA0000001026
B1317435554208N00928725EA0000001024
B1317485554188N00928602EA0000001033
B1317585554156N00928370EA0000001062
B1318035554146N00928257EA0000001058
B1318105554141N00928091EA0000001057
B1318185554138N00927907EA0000001026
B1318245554142N00927769EA0000001017
B1318305554154N00927639EA0000001012
B1318365554169N00927508EA0000001002
B1318415554180N00927380EA0000000981
B1318485554183N00927178EA0000000966
B1318535554189N00927033EA0000000959
B1319025554185N00926775EA0000000939
B1319145554190N00926444EA0000000932
B1319195554199N00926319EA0000000958
B1319265554207N00926171EA0000000968
B1319315554219N00926076EA0000000959
B1319375554244N00925945EA0000000936
B1319485554280N00925646EA0000000939
B1319545554294N00925504EA0000000966
B1320005554310N00925385EA0000000970
B1320055554324N00925278EA0000000978
B1320115554338N00925146EA0000000988
B1320185554355N00924990EA0000000997
B1320245554370N00924859EA0000001008
B1320305554390N00924731EA0000000998
B1320375554419N00924561EA0000000975
B1320425554443N00924418EA0000000978
B1320475554465N00924293EA0000001002
B1320555554499N00924128EA0000001029
B1321015554521N00924022EA0000001037
B1321065554537N00923929EA0000001021
B1321175554579N00923656EA0000000987
B1321225554606N00923542EA0000000996
B1321275554636N00923449EA0000001028
B1321345554680N00923340EA0000001029
B1321425554731N00923199EA0000001026
B1321475554755N00923109EA0000001022
B1321525554779N00923006EA0000001000
B1321575554807N00922886EA0000000977
B1322035554840N00922716EA0000000952
B1322105554880N00922511EA0000000951
B1322165554917N00922350EA0000000950
B1322215554947N00922220EA0000000947
B1322265554965N00922092EA0000000943
B1322315554979N00921954EA0000000938
B1322365554994N00921819EA0000000950
B1322425554997N00921668EA0000000981
B1322475554926N00921594EA0000000986
B1322525554824N00921677EA0000000984
B1322575554797N00921879EA0000000976
B1323025554848N00922035EA0000000974
B1323085554936N00922134EA0000000981
B1323135555001N00922111EA0000000979
B1323185554986N00922004EA0000000984
B1323245554877N00921978EA0000000990
B1323295554784N00922104EA0000000982
B1323355554733N00922341EA0000000980
B1323405554765N00922503EA0000000989
B1323455554832N00922543EA0000000994
B1323525554852N00922456EA0000000986
B1323575554762N00922484EA0000000997
B1324025554697N00922636EA0000001004
B1324075554729N00922793EA0000000995
B1324135554785N00922734EA0000000992
B1324185554723N00922648EA0000000993
B1324235554615N00922706EA0000000996
B1324285554519N00922836EA0000000990
B1324335554450N00923028EA0000000975
B1324425554350N00923440EA0000000952
B1324555554223N00924069EA0000000926
B1325005554151N00924297EA0000000910
B1325065554055N00924572EA0000000899
B1325125553963N00924833EA0000000898
B1325185553878N00925098EA0000000880
B1325235553834N00925321EA0000000893
B1325285553880N00925489EA0000000888
B1325335553956N00925590EA0000000918
B1325395554005N00925815EA0000000924
B1325445553969N00926030EA0000000930
B1325505553847N00926116EA0000000926
B1325555553790N00926011EA0000000928
B1326015553835N00925871EA0000000944
B1326065553918N00925888EA0000000970
B1326135553956N00926166EA0000000981
B1326185553870N00926289EA0000000989
B1326235553791N00926238EA0000000997
B1326285553755N00926130EA0000001006
B1326335553794N00926054EA0000001025
B1326385553868N00926130EA0000001041
B1326435553875N00926329EA0000001047
B1326495553773N00926442EA0000001044
B1326545553749N00926347EA0000001053
B1326595553807N00926305EA0000001067
B1327055553889N00926404EA0000001082
B1327105553892N00926599EA0000001072
B1327165553790N00926739EA0000001062
B1327215553722N00926680EA0000001058
B1327265553712N00926572EA0000001071
B1327315553767N00926527EA0000001083
B1327375553846N00926653EA0000001070
B1327425553820N00926858EA0000001039
B1327475553718N00926887EA0000001024
B1327525553699N00926767EA0000001036
B1327575553738N00926659EA0000001043
B1328035553831N00926677EA0000001040
B1328125553853N00927017EA0000001023
B1328275553571N00927475EA0000001005
B1328345553477N00927724EA0000001031
B1328395553462N00927919EA0000001036
B1328445553527N00928031EA0000001024
B1328525553535N00927906EA0000001009
B1328585553417N00927903EA0000000997
B1329055553298N00928104EA0000001011
B1329115553309N00928328EA0000001028
B1329165553381N00928331EA0000001031
B1329255553283N00928217EA0000001025
B1329305553196N00928359EA0000001058
B1329355553181N00928551EA0000001077
B1329405553250N00928651EA0000001065
B1329475553275N00928528EA0000001077
B1329555553132N00928529EA0000001094
B1330025553078N00928779EA0000001106
B1330085553164N00928899EA0000001109
B1330145553200N00928795EA0000001109
B1330205553136N00928697EA0000001125
B1330265553038N00928818EA0000001132
B1330315553056N00929008EA0000001138
B1330365553128N00929037EA0000001139
B1330425553116N00928919EA0000001145
B1330525552965N00929056EA0000001163
B1330575552995N00929224EA0000001173
B1331025553063N00929244EA0000001174
B1331085553068N00929128EA0000001174
B1331155552956N00929089EA0000001175
B1331205552876N00929218EA0000001192
B1331255552898N00929398EA0000001205
B1331325552979N00929389EA0000001208
B1331395552895N00929315EA0000001211
B1331455552830N00929513EA0000001226
B1331505552878N00929654EA0000001240
B1331555552938N00929640EA0000001231
B1332005552917N00929537EA0000001224
B1332125552719N00929764EA0000001250
B1332185552746N00929964EA0000001250
B1332235552811N00929961EA0000001253
B1332285552833N00929865EA0000001259
B1332345552860N00929759EA0000001263
B1332395552891N00929681EA0000001270
B1332455552931N00929590EA0000001247
B1332505552975N00929503EA0000001224
B1332565553064N00929461EA0000001216
B1333015553151N00929484EA0000001204
B1333085553283N00929547EA0000001179
B1333155553422N00929638EA0000001154
B1333225553564N00929741EA0000001128
B1333275553670N00929812EA0000001102
B1333325553783N00929886EA0000001083
B1333395553936N00930004EA0000001079
B1333465554086N00930129EA0000001052
B1333515554196N00930215EA0000001040
B1333575554324N00930309EA0000001031
B1334025554427N00930387EA0000001023
B1334075554527N00930466EA0000001019
B1334145554665N00930577EA0000001020
B1334215554797N00930690EA0000001024
B1334265554877N00930717EA0000001041
B1334315554926N00930657EA0000001024
B1334395555011N00930507EA0000000997
B1334445555067N00930412EA0000000993
B1334505555136N00930287EA0000000988
B1334575555213N00930141EA0000000986
B1335025555267N00930036EA0000000994
B1335075555289N00929925EA0000001025
B1335145555199N00929829EA0000001013
B1335195555117N00929976EA0000001034
B1335245555125N00930173EA0000001046
B1335295555196N00930267EA0000001046
B1335345555257N00930215EA0000001051
B1335475555102N00930141EA0000001047
B1335535555079N00930377EA0000001054
B1336005555169N00930526EA0000001064
B1336065555220N00930466EA0000001060
B1336125555143N00930388EA0000001069
B1336175555049N00930446EA0000001071
B1336225554989N00930597EA0000001064
B1336275555027N00930750EA0000001055
B1336345555121N00930726EA0000001057
B1336425555216N00930668EA0000001057
B1336475555278N00930647EA0000001058
B1336535555333N00930568EA0000001027
B1336585555394N00930487EA0000001006
B1337035555480N00930453EA0000000996
B1337085555573N00930452EA0000000991
B1337135555666N00930479EA0000000991
B1337185555756N00930507EA0000000975
B1337255555888N00930524EA0000000962
B1337315555990N00930522EA0000000957
B1337395556126N00930499EA0000000930
B1337465556245N00930480EA0000000921
B1337525556338N00930465EA0000000918
B1337585556430N00930448EA0000000892
B1338035556516N00930436EA0000000872
B1338105556646N00930420EA0000000853
B1338185556789N00930381EA0000000843
B1338265556920N00930328EA0000000826
B1338325557016N00930282EA0000000812
B1338375557097N00930235EA0000000806
B1338425557175N00930189EA0000000827
B1338475557213N00930106EA0000000848
B1338525557173N00930013EA0000000845
B1338585557058N00930080EA0000000855
B1339045557034N00930320EA0000000847
B1339105557120N00930388EA0000000858
B1339155557142N00930300EA0000000862
B1339205557071N00930239EA0000000861
B1339255556977N00930331EA0000000872
B1339335556985N00930617EA0000000848
B1339385557063N00930627EA0000000862
B1339435557091N00930534EA0000000863
B1339485557035N00930431EA0000000866
B1339545556913N00930452EA0000000887
B1339595556835N00930612EA0000000879
B1340055556867N00930831EA0000000861
B1340105556931N00930823EA0000000859
B1340165556917N00930675EA0000000860
B1340225556886N00930519EA0000000863
B1340285556938N00930410EA0000000867
B1340335557017N00930489EA0000000870
B1340385557021N00930702EA0000000874
B1340435556928N00930851EA0000000888
B1340505556788N00930849EA0000000914
B1340555556765N00930740EA0000000907
B1341015556847N00930711EA0000000894
B1341065556904N00930881EA0000000895
B1341115556862N00931100EA0000000911
B1341165556756N00931213EA0000000923
B1341225556645N00931159EA0000000935
B1341285556657N00931042EA0000000937
B1341335556730N00931078EA0000000931
B1341385556759N00931269EA0000000939
B1341435556688N00931443EA0000000947
B1341485556580N00931451EA0000000951
B1341535556528N00931338EA0000000949
B1341585556564N00931239EA0000000931
B1342035556652N00931266EA0000000920
B1342085556717N00931445EA0000000911
B1342155556656N00931757EA0000000927
B1342205556549N00931875EA0000000941
B1342265556435N00931829EA0000000944
B1342375556479N00931612EA0000000922
B1342425556555N00931549EA0000000894
B1342495556669N00931449EA0000000886
B1342555556759N00931358EA0000000884
B1343025556865N00931245EA0000000854
B1343075556948N00931149EA0000000848
B1343125557027N00931060EA0000000839
B1343185557129N00930952EA0000000804
B1343235557215N00930863EA0000000787
B1343315557352N00930701EA0000000763
B1343375557446N00930572EA0000000758
B1343425557513N00930466EA0000000758
B1343495557600N00930314EA0000000758
B1343565557698N00930212EA0000000772
B1344025557723N00930081EA0000000758
B1344075557635N00929998EA0000000746
B1344125557512N00930055EA0000000745
B1344185557426N00930295EA0000000753
B1344245557453N00930549EA0000000756
B1344305557543N00930617EA0000000752
B1344355557564N00930511EA0000000740
B1344405557520N00930381EA0000000709
B1344465557436N00930219EA0000000688
B1344525557351N00930049EA0000000667
B1345005557237N00929798EA0000000654
B1345065557163N00929619EA0000000685
B1345115557097N00929499EA0000000702
B1345165557027N00929392EA0000000689
B1345245556910N00929199EA0000000648
B1345325556795N00928974EA0000000623
B1345385556721N00928798EA0000000616
B1345435556658N00928656EA0000000598
B1345485556590N00928508EA0000000580
B1345555556498N00928286EA0000000565
B1346015556423N00928086EA0000000551
B1346065556353N00927938EA0000000551
B1346115556274N00927802EA0000000534
B1346165556186N00927667EA0000000515
B1346235556059N00927487EA0000000513
B1346305555945N00927311EA0000000501
B1346385555840N00927084EA0000000489
B1346455555787N00926875EA0000000496
B1346515555750N00926708EA0000000505
B1346565555691N00926594EA0000000505
B1347015555595N00926548EA0000000520
B1347065555499N00926659EA0000000530
B1347115555481N00926857EA0000000532
B1347165555544N00926982EA0000000531
B1347215555617N00926978EA0000000546
B1347265555623N00926868EA0000000552
B1347315555546N00926803EA0000000559
B1347365555445N00926878EA0000000557
B1347415555407N00927080EA0000000555
B1347465555453N00927240EA0000000562
B1347515555522N00927258EA0000000580
B1347565555525N00927161EA0000000589
B1348015555447N00927124EA0000000601
B1348065555356N00927225EA0000000594
B1348115555331N00927421EA0000000594
B1348165555383N00927542EA0000000610
B1348215555442N00927530EA0000000616
B1348265555450N00927426EA0000000616
B1348315555372N00927375EA0000000626
B1348375555263N00927511EA0000000630
B1348425555239N00927711EA0000000625
B1348475555296N00927834EA0000000628
B1348535555374N00927812EA0000000635
B1348585555394N00927717EA0000000642
B1349035555326N00927668EA0000000653
B1349095555234N00927826EA0000000650
B1349145555256N00928007EA0000000648
B1349195555324N00928046EA0000000656
B1349245555350N00927959EA0000000653
B1349295555291N00927891EA0000000665
B1349345555197N00927970EA0000000665
B1349395555168N00928167EA0000000670
B1349445555218N00928315EA0000000677
B1349495555286N00928321EA0000000677
B1349545555296N00928221EA0000000678
B1349595555222N00928180EA0000000686
B1350045555129N00928294EA0000000690
B1350095555106N00928497EA0000000699
B1350145555164N00928623EA0000000708
B1350195555222N00928585EA0000000716
B1350245555207N00928484EA0000000717
B1350295555119N00928472EA0000000727
B1350345555035N00928599EA0000000730
B1350415555057N00928855EA0000000730
B1350465555130N00928866EA0000000743
B1350515555135N00928767EA0000000739
B1350565555049N00928758EA0000000745
B1351015554978N00928911EA0000000752
B1351065554996N00929095EA0000000759
B1351125555079N00929146EA0000000766
B1351175555098N00929059EA0000000761
B1351255554981N00929068EA0000000769
B1351345554954N00929389EA0000000773
B1351395555021N00929486EA0000000778
B1351445555076N00929464EA0000000774
B1351495555077N00929363EA0000000762
B1351545555012N00929289EA0000000761
B1351595554915N00929340EA0000000763
B1352045554857N00929520EA0000000758
B1352095554889N00929704EA0000000772
B1352145554957N00929770EA0000000770
B1352195555000N00929705EA0000000756
B1352255554966N00929578EA0000000751
B1352315554863N00929551EA0000000744
B1352375554759N00929716EA0000000750
B1352425554722N00929916EA0000000753
B1352475554767N00930077EA0000000757
B1352535554847N00930083EA0000000762
B1352595554848N00929969EA0000000761
B1353065554730N00929930EA0000000753
B1353125554649N00930138EA0000000761
B1353175554675N00930328EA0000000774
B1353225554743N00930422EA0000000779
B1353275554806N00930396EA0000000770
B1353335554796N00930267EA0000000768
B1353435554624N00930362EA0000000761
B1353485554615N00930566EA0000000762
B1353535554679N00930694EA0000000762
B1353585554746N00930679EA0000000765
B1354035554762N00930582EA0000000755
B1354095554688N00930498EA0000000759
B1354145554593N00930542EA0000000764
B1354195554530N00930703EA0000000768
B1354255554562N00930903EA0000000776
B1354305554632N00930947EA0000000774
B1354385554716N00930853EA0000000767
B1354455554795N00930766EA0000000769
B1354515554860N00930702EA0000000776
B1354585554933N00930613EA0000000754
B1355085555036N00930431EA0000000731
B1355155555115N00930295EA0000000718
B1355215555185N00930184EA0000000718
B1355295555275N00930046EA0000000709
B1355365555355N00929910EA0000000692
B1355435555436N00929766EA0000000688
B1355515555529N00929609EA0000000691
B1355565555580N00929527EA0000000703
B1356035555654N00929412EA0000000685
B1356095555719N00929295EA0000000682
B1356145555751N00929191EA0000000687
B1356225555806N00929031EA0000000665
B1356295555867N00928889EA0000000658
B1356365555937N00928760EA0000000655
B1356425555993N00928656EA0000000652
B1356495556050N00928514EA0000000648
B1356585556123N00928334EA0000000661
B1357065556139N00928173EA0000000677
B1357115556181N00928107EA0000000683
B1357165556256N00928173EA0000000694
B1357225556281N00928402EA0000000689
B1357275556205N00928570EA0000000681
B1357325556109N00928560EA0000000674
B1357375556098N00928445EA0000000661
B1357425556149N00928350EA0000000659
B1357475556200N00928257EA0000000656
B1357535556242N00928122EA0000000665
B1357595556261N00927993EA0000000676
B1358045556207N00927916EA0000000684
B1358095556110N00927947EA0000000691
B1358145556037N00928103EA0000000698
B1358205556071N00928320EA0000000695
B1358255556150N00928347EA0000000695
B1358305556161N00928255EA0000000702
B1358355556106N00928181EA0000000709
B1358405556018N00928201EA0000000717
B1358455555945N00928323EA0000000726
B1358505555945N00928495EA0000000747
B1358565556022N00928602EA0000000730
B1359015556059N00928534EA0000000724
B1359065556020N00928456EA0000000726
B1359115555937N00928447EA0000000717
B1359165555851N00928545EA0000000708
B1359215555843N00928736EA0000000718
B1359265555906N00928849EA0000000741
B1359315555961N00928828EA0000000756
B1359375555988N00928737EA0000000751
B1359435556013N00928626EA0000000758
B1359495556037N00928518EA0000000769
B1359545556057N00928437EA0000000761
B1359595556079N00928346EA0000000747
B1400045556111N00928244EA0000000746
B1400095556142N00928148EA0000000770
B1400145556166N00928065EA0000000789
B1400195556225N00928043EA0000000792
B1400245556289N00928171EA0000000803
B1400295556262N00928365EA0000000800
B1400345556167N00928431EA0000000799
B1400395556112N00928353EA0000000809
B1400445556116N00928248EA0000000815
B1400495556181N00928232EA0000000831
B1400545556237N00928373EA0000000842
B1400595556219N00928577EA0000000845
B1401045556129N00928696EA0000000842
B1401105556057N00928616EA0000000863
B1401155556091N00928527EA0000000866
B1401215556185N00928610EA0000000882
B1401265556205N00928811EA0000000878
B1401335556090N00929013EA0000000878
B1401385556010N00928956EA0000000875
B1401435556023N00928841EA0000000883
B1401485556092N00928802EA0000000893
B1401535556169N00928903EA0000000892
B1401585556173N00929124EA0000000886
B1402035556087N00929284EA0000000888
B1402085555998N00929266EA0000000884
B1402145556002N00929140EA0000000887
B1402215556096N00929123EA0000000889
B1402265556155N00929282EA0000000883
B1402315556132N00929505EA0000000870
B1402365556028N00929603EA0000000855
B1402415555962N00929521EA0000000855
B1402495555954N00929327EA0000000867
B1402555555973N00929196EA0000000864
B1403005555999N00929083EA0000000868
B1403055556032N00928971EA0000000877
B1403105556052N00928867EA0000000896
B1403205555902N00928858EA0000000924
B1403275555878N00929123EA0000000925
B1403325555949N00929215EA0000000923
B1403385555984N00929119EA0000000917
B1403445555905N00929038EA0000000934
B1403495555819N00929122EA0000000942
B1403565555827N00929374EA0000000946
B1404015555903N00929414EA0000000941
B1404065555915N00929320EA0000000934
B1404135555802N00929244EA0000000941
B1404185555710N00929357EA0000000957
B1404235555694N00929553EA0000000961
B1404285555761N00929648EA0000000971
B1404335555813N00929593EA0000000973
B1404415555724N00929481EA0000000987
B1404465555629N00929575EA0000000988
B1404525555601N00929815EA0000000998
B1404575555661N00929937EA0000001009
B1405025555721N00929905EA0000001010
B1405075555708N00929803EA0000001017
B1405125555619N00929800EA0000001021
B1405195555540N00930039EA0000001029
B1405245555584N00930196EA0000001028
B1405295555649N00930175EA0000001035
B1405355555623N00930066EA0000001046
B1405405555534N00930109EA0000001054
B1405465555501N00930324EA0000001061
B1405515555564N00930434EA0000001075
B1405565555618N00930399EA0000001076
B1406015555597N00930298EA0000001072
B1406075555486N00930279EA0000001075
B1406135555380N00930433EA0000001085
B1406185555347N00930629EA0000001094
B1406245555394N00930829EA0000001099
B1406295555471N00930866EA0000001096
B1406355555500N00930749EA0000001111
B1406405555441N00930669EA0000001114
B1406455555340N00930715EA0000001115
B1406515555275N00930940EA0000001126
B1406585555337N00931168EA0000001145
B1407035555412N00931179EA0000001145
B1407085555429N00931078EA0000001158
B1407135555369N00931002EA0000001158
B1407185555267N00931066EA0000001159
B1407245555213N00931302EA0000001167
B1407315555296N00931510EA0000001169
B1407365555367N00931479EA0000001177
B1407415555367N00931368EA0000001179
B1407555555141N00931551EA0000001191
B1408025555187N00931786EA0000001199
B1408075555253N00931785EA0000001208
B1408125555258N00931696EA0000001205
B1408175555184N00931650EA0000001199
B1408225555089N00931743EA0000001213
B1408275555048N00931928EA0000001216
B1408335555100N00932111EA0000001212
B1408385555170N00932124EA0000001211
B1408435555196N00932045EA0000001209
B1408485555183N00931943EA0000001202
B1408545555162N00931810EA0000001198
B1408595555157N00931698EA0000001199
B1409065555169N00931545EA0000001201
B1409125555197N00931416EA0000001187
B1409175555228N00931314EA0000001171
B1409225555268N00931195EA0000001142
B1409285555322N00931045EA0000001133
B1409365555396N00930858EA0000001129
B1409415555430N00930739EA0000001137
B1409475555458N00930614EA0000001146
B1409535555474N00930492EA0000001156
B1410015555471N00930328EA0000001152
B1410065555484N00930211EA0000001164
B1410115555503N00930109EA0000001178
B1410165555519N00930010EA0000001169
B1410215555543N00929899EA0000001158
B1410265555574N00929774EA0000001156
B1410315555604N00929663EA0000001180
B1410375555633N00929541EA0000001193
B1410425555657N00929442EA0000001209
B1410485555681N00929331EA0000001211
B1410545555710N00929202EA0000001190
B1411015555748N00929046EA0000001206
B1411075555775N00928916EA0000001189
B1411135555808N00928761EA0000001144
B1411185555843N00928611EA0000001131
B1411235555874N00928475EA0000001135
B1411285555902N00928345EA0000001129
B1411375555953N00928115EA0000001121
B1411425555981N00927987EA0000001115
B1411485555997N00927843EA0000001133
B1411535556002N00927740EA0000001133
B1411585556004N00927632EA0000001126
B1412085556005N00927415EA0000001138
B1412135555987N00927311EA0000001136
B1412185555969N00927218EA0000001143
B1412235555956N00927120EA0000001130
B1412295555951N00926985EA0000001120
B1412365555962N00926808EA0000001118
B1412415555971N00926692EA0000001132
B1412475555980N00926565EA0000001145
B1412525555985N00926462EA0000001153
B1413015555986N00926267EA0000001153
B1413075555989N00926122EA0000001141
B1413135555993N00925975EA0000001158
B1413195555993N00925839EA0000001165
B1413255555987N00925705EA0000001150
B1413305555984N00925577EA0000001152
B1413375555981N00925429EA0000001175
B1413435555984N00925295EA0000001179
B1413495555988N00925175EA0000001189
B1413555555991N00925053EA0000001161
B1414015555996N00924897EA0000001129
B1414095556008N00924652EA0000001108
B1414175556018N00924405EA0000001102
B1414245556020N00924204EA0000001109
B1414325556021N00924011EA0000001140
B1414395556022N00923864EA0000001140
B1414455556021N00923727EA0000001150
B1414525556022N00923583EA0000001143
B1415015556030N00923363EA0000001133
B1415065556038N00923234EA0000001127
B1415135556055N00923057EA0000001136
B1415185556065N00922949EA0000001156
B1415235556075N00922850EA0000001152
B1415285556092N00922743EA0000001145
B1415345556120N00922597EA0000001155
B1415415556152N00922456EA0000001175
B1415465556172N00922346EA0000001171
B1415535556195N00922193EA0000001161
B1416025556231N00921975EA0000001176
B1416095556253N00921834EA0000001197
B1416165556272N00921699EA0000001198
B1416255556302N00921529EA0000001196
B1416305556322N00921424EA0000001195
B1416355556339N00921321EA0000001212
B1416425556360N00921191EA0000001197
B1416475556377N00921083EA0000001177
B1416545556405N00920906EA0000001152
B1416595556430N00920772EA0000001156
B1417045556452N00920652EA0000001179
B1417115556470N00920514EA0000001174
B1417185556492N00920353EA0000001185
B1417235556505N00920250EA0000001202
B1417315556530N00920096EA0000001221
B1417365556541N00919995EA0000001223
B1417415556549N00919886EA0000001201
B1417485556564N00919723EA0000001197
B1417545556572N00919590EA0000001199
B1418005556582N00919449EA0000001173
B1418065556597N00919284EA0000001160
B1418125556616N00919114EA0000001170
B1418175556626N00918991EA0000001195
B1418235556635N00918870EA0000001194
B1418285556640N00918766EA0000001190
B1418355556648N00918595EA0000001197
B1418425556659N00918451EA0000001217
B1418475556671N00918346EA0000001196
B1418525556685N00918221EA0000001164
B1418585556704N00918062EA0000001152
B1419055556699N00917877EA0000001151
B1419115556672N00917725EA0000001150
B1419175556640N00917570EA0000001142
B1419235556608N00917397EA0000001129
B1419305556573N00917186EA0000001109
B1419385556542N00916943EA0000001093
B1419435556532N00916793EA0000001084
B1419505556540N00916593EA0000001080
B1419555556555N00916458EA0000001071
B1420025556584N00916258EA0000001050
B1420105556637N00916028EA0000001031
B1420185556695N00915815EA0000001045
B1420245556730N00915679EA0000001057
B1420305556761N00915552EA0000001065
B1420375556789N00915410EA0000001061
B1420445556842N00915282EA0000001063
B1420545556941N00915139EA0000001067
B1420595557018N00915192EA0000001070
B1421045557053N00915381EA0000001085
B1421095557011N00915580EA0000001090
B1421165556871N00915675EA0000001084
B1421225556803N00915557EA0000001087
B1421285556849N00915448EA0000001084
B1421335556936N00915483EA0000001091
B1421385556987N00915654EA0000001128
B1421435556969N00915851EA0000001134
B1421485556884N00915985EA0000001128
B1421545556779N00915941EA0000001119
B1421595556776N00915819EA0000001109
B1422045556849N00915759EA0000001113
B1422105556956N00915813EA0000001138
B1422155557009N00915975EA0000001144
B1422205556982N00916177EA0000001134
B1422275556850N00916265EA0000001138
B1422325556769N00916194EA0000001132
B1422375556742N00916065EA0000001143
B1422425556787N00915983EA0000001171
B1422485556876N00916019EA0000001164
B1422535556920N00916202EA0000001154
B1422585556880N00916410EA0000001144
B1423035556776N00916483EA0000001136
B1423085556684N00916430EA0000001146
B1423145556652N00916294EA0000001167
B1423195556702N00916227EA0000001158
B1423255556782N00916374EA0000001150
B1423305556749N00916580EA0000001151
B1423375556612N00916664EA0000001157
B1423425556539N00916598EA0000001177
B1423475556541N00916492EA0000001186
B1423525556610N00916474EA0000001190
B1423575556672N00916616EA0000001191
B1424025556652N00916822EA0000001180
B1424085556535N00916939EA0000001172
B1424135556462N00916862EA0000001175
B1424195556476N00916736EA0000001193
B1424245556550N00916731EA0000001188
B1424295556616N00916886EA0000001187
B1424365556576N00917183EA0000001177
B1424415556473N00917279EA0000001166
B1424465556386N00917217EA0000001168
B1424515556365N00917088EA0000001182
B1424575556424N00916999EA0000001207
B1425035556519N00917076EA0000001203
B1425125556528N00917436EA0000001196
B1425275556359N00918073EA0000001168
B1425335556282N00918317EA0000001192
B1425425556171N00918655EA0000001205
B1425505556069N00918962EA0000001200
B1426325555580N00920732EA0000001193
B1426395555510N00921039EA0000001164
B1426525555386N00921629EA0000001177
B1427005555321N00922000EA0000001136
B1427065555283N00922309EA0000001119
B1427135555243N00922677EA0000001104
B1427205555204N00923052EA0000001087
B1427315555133N00923653EA0000001067
B1427405555071N00924152EA0000001052
B1427475555018N00924536EA0000001045
B1427545554955N00924900EA0000001047
B1427595554909N00925141EA0000001082
B1428075554843N00925478EA0000001102
B1428135554815N00925735EA0000001103
B1428225554759N00926102EA0000001129
B1428275554723N00926308EA0000001129
B1428365554655N00926684EA0000001148
B1428445554596N00926993EA0000001155
B1428535554528N00927340EA0000001163
B1428585554495N00927534EA0000001162
B1429145554370N00928208EA0000001157
B1429215554324N00928503EA0000001182
B1429285554281N00928795EA0000001173
B1429335554255N00929012EA0000001171
B1429395554236N00929269EA0000001176
B1429525554203N00929823EA0000001156
B1429575554178N00930036EA0000001143
B1430045554135N00930339EA0000001134
B1430105554170N00930583EA0000001114
B1430155554253N00930670EA0000001101
B1430215554330N00930599EA0000001082
B1430275554351N00930442EA0000001055
B1430335554366N00930261EA0000001034
B1430415554383N00930006EA0000001014
B1430515554367N00929669EA0000000986
B1430575554358N00929466EA0000000976
B1431035554368N00929277EA0000000984
B1431085554379N00929133EA0000000982
B1431165554383N00928921EA0000000999
B1431215554374N00928800EA0000001007
B1431265554366N00928682EA0000001012
B1431315554370N00928559EA0000001021
B1431375554380N00928425EA0000001040
B1431425554387N00928304EA0000001034
B1431495554411N00928138EA0000001043
B1431555554459N00928019EA0000001036
B1432015554546N00927945EA0000001031
B1432065554629N00927907EA0000001022
B1432115554716N00927876EA0000001006
B1432165554812N00927869EA0000000992
B1432215554912N00927888EA0000000975
B1432275555034N00927928EA0000000965
B1432325555134N00927977EA0000000962
B1432375555230N00928022EA0000000960
B1432425555324N00928068EA0000000957
B1432475555412N00928096EA0000000952
B1432535555502N00928041EA0000000930
B1432585555530N00927918EA0000000926
B1433055555499N00927717EA0000000904
B1433125555453N00927496EA0000000881
B1433185555426N00927298EA0000000868
B1433315555415N00926860EA0000000839
B1433375555429N00926661EA0000000821
B1433445555456N00926428EA0000000808
B1433505555481N00926237EA0000000816
B1433565555491N00926057EA0000000826
B1434015555509N00925923EA0000000826
B1434085555523N00925713EA0000000803
B1434145555539N00925524EA0000000807
B1434195555555N00925375EA0000000808
B1434255555577N00925207EA0000000802
B1434325555607N00925004EA0000000795
B1434385555627N00924830EA0000000797
B1434435555641N00924691EA0000000789
B1434505555670N00924487EA0000000768
B1434555555691N00924335EA0000000755
B1435035555728N00924082EA0000000739
B1435085555745N00923926EA0000000739
B1435145555751N00923738EA0000000727
B1435195555759N00923583EA0000000720
B1435305555779N00923240EA0000000693
B1435365555794N00923060EA0000000688
B1435415555807N00922915EA0000000678
B1435465555816N00922767EA0000000660
B1435525555827N00922586EA0000000643
B1435585555833N00922408EA0000000629
B1436035555821N00922263EA0000000621
B1436085555742N00922177EA0000000615
B1436135555630N00922268EA0000000604
B1436185555570N00922497EA0000000581
B1436235555537N00922756EA0000000558
B1436305555493N00923127EA0000000537
B1436355555461N00923392EA0000000525
B1436425555418N00923767EA0000000509
B1436475555383N00924036EA0000000494
B1436535555340N00924365EA0000000475
B1436595555297N00924682EA0000000491
B1437045555267N00924916EA0000000498
B1437095555239N00925143EA0000000500
B1437145555210N00925365EA0000000505
B1437205555165N00925612EA0000000524
B1437265555124N00925854EA0000000520
B1437315555101N00926054EA0000000520
B1437365555094N00926251EA0000000523
B1437415555140N00926390EA0000000518
B1437465555199N00926392EA0000000505
B1437515555221N00926293EA0000000494
B1437575555244N00926156EA0000000492
B1438035555275N00926021EA0000000487
B1438085555294N00925899EA0000000480
B1438135555306N00925774EA0000000474
B1438195555312N00925612EA0000000458
B1438295555316N00925344EA0000000479
B1438345555307N00925212EA0000000483
B1438425555303N00925006EA0000000485
B1438495555305N00924835EA0000000463
B1438555555312N00924683EA0000000449
B1439015555317N00924542EA0000000442
B1439075555325N00924407EA0000000439
B1439145555336N00924245EA0000000426
B1439205555348N00924108EA0000000423
B1439265555360N00923971EA0000000408
B1439315555328N00923862EA0000000407
B1439365555236N00923849EA0000000399
B1439415555150N00923995EA0000000381
B1439465555111N00924216EA0000000360
B1439515555083N00924455EA0000000341
B1439565555054N00924700EA0000000332
B1440055554986N00925125EA0000000315
B1440115554949N00925414EA0000000299
B1440165554921N00925659EA0000000291
B1440215554895N00925897EA0000000291
B1440275554867N00926170EA0000000301
B1440335554841N00926426EA0000000306
B1440415554801N00926761EA0000000302
B1440475554772N00927009EA0000000305
B1440555554746N00927334EA0000000301
B1441025554740N00927616EA0000000295
B1441095554729N00927896EA0000000285
B1441155554659N00928105EA0000000285
B1441205554581N00928255EA0000000268
B1441255554477N00928338EA0000000255
B1441315554361N00928305EA0000000263
B1441365554316N00928192EA0000000255
B1441415554332N00928063EA0000000246
B1441495554362N00927884EA0000000198
B1441555554383N00927760EA0000000170
B1442015554404N00927638EA0000000140
B1442065554417N00927546EA0000000119
B1442145554436N00927389EA0000000093
B1442195554446N00927301EA0000000090
