AOGNOGN
HFDTE290625
HFFXA050
HFPLTPILOTINCHARGE:
HFGTYGLIDERTYPE:LS-4
HFGIDGLIDERID:OY-XLM
HFDTM100GPSDATUM:WGS-1984
HFRFWFIRMWAREVERSION:
HFRHWHARDWAREVERSION:
HFFTYFRTYPE:OGN-FLIGHTBOOK
HFGPSGENERIC
HFPRSPRESSALTSENSOR:
HFCIDCOMPETITIONID:N9
B0926365554425N00927237EA0000000096
B0926365554425N00927237EA0000000096
B0926415554443N00927130EA0000000143
B0926465554456N00927034EA0000000223
B0926525554470N00926926EA0000000314
B0926585554483N00926806EA0000000394
B0927035554494N00926698EA0000000442
B0927085554515N00926585EA0000000459
B0927135554537N00926473EA0000000469
B0927195554557N00926371EA0000000465
B0927245554597N00926312EA0000000449
B0927295554667N00926319EA0000000436
B0927365554770N00926429EA0000000415
B0927415554838N00926534EA0000000404
B0927475554917N00926663EA0000000412
B0927545555014N00926801EA0000000406
B0927595555082N00926907EA0000000401
B0928055555104N00927118EA0000000389
B0928105555041N00927277EA0000000377
B0928155554947N00927321EA0000000367
B0928205554881N00927256EA0000000359
B0928255554866N00927145EA0000000363
B0928305554874N00927043EA0000000377
B0928355554909N00926956EA0000000377
B0928405554975N00926947EA0000000379
B0928455555034N00927051EA0000000371
B0928505555034N00927226EA0000000368
B0928555554961N00927351EA0000000354
B0929005554878N00927324EA0000000338
B0929065554852N00927184EA0000000331
B0929135554871N00927025EA0000000345
B0929185554896N00926928EA0000000333
B0929245554955N00926833EA0000000318
B0929295555034N00926841EA0000000318
B0929345555093N00926966EA0000000307
B0929395555095N00927167EA0000000296
B0929445555056N00927363EA0000000292
B0929505554987N00927580EA0000000295
B0929585554895N00927850EA0000000288
B0930035554824N00928002EA0000000273
B0930135554627N00928185EA0000000247
B0930205554484N00928187EA0000000248
B0930255554401N00928130EA0000000247
B0930335554394N00927915EA0000000227
B0930405554402N00927745EA0000000179
B0930475554418N00927560EA0000000134
B0930525554432N00927426EA0000000106
B0930585554451N00927271EA0000000094
B0931045554465N00927169EA0000000094
