AOGNOGN
HFDTE210625
HFFXA050
HFPLTPILOTINCHARGE:
HFGTYGLIDERTYPE:SF-25
HFGIDGLIDERID:OY-XZG
HFDTM100GPSDATUM:WGS-1984
HFRFWFIRMWAREVERSION:
HFRHWHARDWAREVERSION:
HFFTYFRTYPE:OGN-FLIGHTBOOK
HFGPSGENERIC
HFPRSPRESSALTSENSOR:
HFCIDCOMPETITIONID:ZG
B0920065624545N00924813EA0000000029
B0920085624551N00924784EA0000000032
B0920135624567N00924707EA0000000044
B0920185624585N00924627EA0000000056
B0920235624604N00924545EA0000000068
B0920315624638N00924416EA0000000088
B0920385624665N00924299EA0000000105
B0920435624680N00924216EA0000000112
B0920515624700N00924084EA0000000125
B0921045624732N00923867EA0000000140
B0921105624746N00923760EA0000000159
B0921165624757N00923653EA0000000169
B0921225624768N00923552EA0000000182
B0921275624779N00923464EA0000000184
B0921325624790N00923374EA0000000192
B0921405624805N00923234EA0000000206
B0921495624824N00923075EA0000000219
B0921545624835N00922992EA0000000222
B0922005624851N00922895EA0000000230
B0922085624858N00922768EA0000000237
B0922135624838N00922691EA0000000244
B0922185624795N00922630EA0000000251
B0922285624683N00922582EA0000000263
B0922365624577N00922621EA0000000274
B0922425624498N00922695EA0000000288
B0922475624440N00922777EA0000000314
B0922535624373N00922898EA0000000325
B0923005624304N00923064EA0000000337
B0923085624235N00923271EA0000000344
B0923195624159N00923588EA0000000355
B0923255624121N00923764EA0000000364
B0923325624079N00923967EA0000000376
B0923385624043N00924140EA0000000382
B0923475623988N00924412EA0000000389
B0923535623954N00924600EA0000000388
B0924005623913N00924823EA0000000389
B0924055623887N00924983EA0000000395
B0924115623869N00925179EA0000000404
B0924195623871N00925443EA0000000414
B0924285623896N00925735EA0000000412
B0924345623930N00925927EA0000000416
B0924405623980N00926106EA0000000416
B0924455624029N00926245EA0000000424
B0924505624080N00926371EA0000000427
B0924555624132N00926491EA0000000434
B0925005624182N00926607EA0000000441
B0925075624251N00926771EA0000000446
B0925155624333N00926954EA0000000463
B0925255624441N00927179EA0000000481
B0925305624496N00927288EA0000000484
B0925395624607N00927488EA0000000483
B0925475624711N00927662EA0000000484
B0925545624802N00927824EA0000000483
B0926025624914N00928009EA0000000484
B0926075624985N00928119EA0000000496
B0926125625055N00928229EA0000000509
B0926195625152N00928381EA0000000512
B0926265625251N00928532EA0000000513
B0926315625314N00928645EA0000000515
B0926385625401N00928813EA0000000508
B0926455625495N00928985EA0000000507
B0926515625574N00929123EA0000000512
B0926585625665N00929273EA0000000518
B0927035625726N00929377EA0000000522
B0927145625871N00929609EA0000000519
B0927195625940N00929722EA0000000519
B0927325626123N00930033EA0000000514
B0927385626209N00930175EA0000000515
B0927435626277N00930297EA0000000517
B0927525626389N00930511EA0000000521
B0927585626460N00930647EA0000000529
B0928035626522N00930760EA0000000523
B0928085626588N00930875EA0000000519
B0928145626672N00931014EA0000000514
B0928195626742N00931132EA0000000512
B0928255626824N00931281EA0000000508
B0928315626911N00931429EA0000000503
B0928365626985N00931547EA0000000501
B0928415627060N00931669EA0000000503
B0928575627287N00932060EA0000000508
B0929045627385N00932226EA0000000508
B0930065628255N00933542EA0000000495
B0930415628781N00934238EA0000000485
B0932045630092N00935506EA0000000478
B0932185630309N00935694EA0000000461
B0932265630430N00935793EA0000000462
B0932335630538N00935895EA0000000461
B0932395630637N00935991EA0000000449
B0932505630803N00936212EA0000000447
B0932565630886N00936367EA0000000443
B0933045630987N00936579EA0000000444
B0933155631113N00936898EA0000000444
B0933225631196N00937099EA0000000444
B0933355631357N00937454EA0000000441
B0933405631418N00937591EA0000000439
B0933505631529N00937884EA0000000431
B0933585631620N00938115EA0000000427
B0934045631661N00938310EA0000000432
B0934125631618N00938557EA0000000433
B0934185631536N00938619EA0000000429
B0934245631470N00938565EA0000000423
B0934335631390N00938436EA0000000420
B0934545631216N00938122EA0000000416
B0935085631099N00937889EA0000000418
B0935185631016N00937723EA0000000414
B0935595630550N00937179EA0000000414
B0936205630384N00936790EA0000000433
B0936285630328N00936639EA0000000430
B0936335630299N00936545EA0000000429
B0936385630269N00936458EA0000000425
B0936505630200N00936258EA0000000416
B0937065630116N00935988EA0000000412
B0937135630084N00935874EA0000000430
B0937185630057N00935794EA0000000431
B0937275629999N00935646EA0000000450
B0937355629946N00935512EA0000000446
B0937465629871N00935328EA0000000438
B0937565629805N00935168EA0000000435
B0938045629750N00935043EA0000000432
B0938555629366N00934309EA0000000382
B0941585628122N00931300EA0000000376
B0942275627954N00930783EA0000000367
B0942395627858N00930591EA0000000361
B0945345626531N00928572EA0000000354
B0945475626447N00928420EA0000000359
B0945575626383N00928306EA0000000361
B0946135626268N00928129EA0000000357
B0946205626214N00928051EA0000000362
B0946265626167N00927986EA0000000365
B0946365626091N00927881EA0000000374
B0946425626043N00927821EA0000000377
B0946505625974N00927748EA0000000370
B0946585625904N00927674EA0000000371
B0947055625840N00927608EA0000000369
B0947145625760N00927515EA0000000362
B0947245625673N00927400EA0000000361
B0947325625604N00927304EA0000000353
B0947385625550N00927230EA0000000349
B0947465625477N00927129EA0000000352
B0947545625408N00927017EA0000000349
B0948035625325N00926883EA0000000338
B0948085625277N00926809EA0000000331
B0948135625230N00926733EA0000000323
B0948215625152N00926618EA0000000315
B0948315625055N00926477EA0000000299
B0948405624975N00926363EA0000000300
B0948465624933N00926281EA0000000296
B0948535624897N00926166EA0000000290
B0948585624879N00926079EA0000000283
B0949075624868N00925922EA0000000283
B0949145624879N00925802EA0000000284
B0949225624909N00925676EA0000000290
B0949295624943N00925569EA0000000291
B0949365624980N00925463EA0000000290
B0949455625030N00925339EA0000000291
B0949545625084N00925233EA0000000283
B0950025625129N00925135EA0000000283
B0950105625172N00925044EA0000000293
B0950195625219N00924931EA0000000290
B0950245625242N00924861EA0000000289
B0950315625273N00924767EA0000000289
B0950395625312N00924659EA0000000288
B0950465625345N00924554EA0000000289
B0950525625369N00924464EA0000000288
B0950585625389N00924377EA0000000289
B0951065625412N00924250EA0000000291
B0951145625417N00924113EA0000000283
B0951245625395N00923943EA0000000283
B0951305625372N00923854EA0000000284
B0951355625355N00923781EA0000000290
B0951425625331N00923677EA0000000303
B0951485625304N00923583EA0000000304
B0951565625262N00923469EA0000000302
B0952035625218N00923381EA0000000301
B0952095625178N00923317EA0000000305
B0952165625123N00923235EA0000000297
B0952285625022N00923093EA0000000299
B0952355624966N00923014EA0000000297
B0952415624918N00922945EA0000000293
B0952465624876N00922880EA0000000289
B0952545624813N00922770EA0000000284
B0952595624776N00922698EA0000000280
B0953085624710N00922562EA0000000273
B0953175624638N00922435EA0000000278
B0953235624584N00922352EA0000000282
B0953315624496N00922272EA0000000298
B0953365624431N00922264EA0000000308
B0953425624352N00922330EA0000000308
B0953475624306N00922449EA0000000312
B0953545624298N00922654EA0000000305
B0954005624346N00922806EA0000000295
B0954065624420N00922894EA0000000301
B0954125624491N00922900EA0000000317
B0954195624548N00922834EA0000000328
B0954245624567N00922755EA0000000328
B0954295624566N00922669EA0000000342
B0954355624545N00922570EA0000000351
B0954425624496N00922466EA0000000375
B0954485624426N00922434EA0000000382
B0954545624351N00922485EA0000000380
B0954595624299N00922596EA0000000376
B0955045624278N00922751EA0000000376
B0955125624321N00922998EA0000000369
B0955175624380N00923106EA0000000368
B0955225624449N00923166EA0000000372
B0955285624531N00923161EA0000000377
B0955335624579N00923105EA0000000389
B0955405624605N00922975EA0000000392
B0955465624598N00922858EA0000000400
B0955525624567N00922755EA0000000391
B0955575624531N00922675EA0000000390
B0956025624476N00922639EA0000000399
B0956075624410N00922675EA0000000395
B0956135624343N00922809EA0000000382
B0956185624300N00922957EA0000000367
B0956235624264N00923108EA0000000352
B0956305624216N00923322EA0000000319
B0956355624177N00923471EA0000000296
B0956415624125N00923652EA0000000274
B0956485624069N00923863EA0000000262
B0956565624020N00924128EA0000000232
B0957025624000N00924341EA0000000219
B0957085623985N00924547EA0000000215
B0957145623976N00924744EA0000000204
B0957195623993N00924911EA0000000190
B0957255624030N00925103EA0000000184
B0957335624116N00925330EA0000000171
B0957385624176N00925461EA0000000171
B0957435624251N00925552EA0000000164
B0957485624334N00925580EA0000000146
B0957545624408N00925503EA0000000109
B0957595624432N00925390EA0000000094
B0958045624448N00925280EA0000000084
B0958105624474N00925161EA0000000065
B0958165624498N00925046EA0000000051
B0958275624539N00924843EA0000000030
B0958325624554N00924769EA0000000028
