AOGNOGN
HFDTE210625
HFFXA050
HFPLTPILOTINCHARGE:
HFGTYGLIDERTYPE:EuroFox
HFGIDGLIDERID:OY-9448
HFDTM100GPSDATUM:WGS-1984
HFRFWFIRMWAREVERSION:
HFRHWHARDWAREVERSION:
HFFTYFRTYPE:OGN-FLIGHTBOOK
HFGPSGENERIC
HFPRSPRESSALTSENSOR:
HFCIDCOMPETITIONID:
B1106585624551N00924775EA0000000029
B1107015624562N00924726EA0000000030
B1107065624585N00924627EA0000000033
B1107115624615N00924515EA0000000046
B1107165624640N00924401EA0000000062
B1107215624661N00924286EA0000000081
B1107275624684N00924162EA0000000113
B1107325624700N00924066EA0000000135
B1107385624705N00923954EA0000000143
B1107445624689N00923842EA0000000156
B1107495624668N00923754EA0000000165
B1107555624629N00923658EA0000000193
B1108005624587N00923583EA0000000211
B1108055624537N00923515EA0000000241
B1108105624482N00923454EA0000000250
B1108155624417N00923422EA0000000248
B1108215624328N00923461EA0000000250
B1108285624229N00923583EA0000000266
B1108345624150N00923732EA0000000272
B1108415624086N00923955EA0000000302
B1108465624077N00924138EA0000000311
B1108525624107N00924349EA0000000323
B1108575624157N00924499EA0000000330
B1109025624233N00924600EA0000000328
B1109095624353N00924637EA0000000339
B1109145624432N00924608EA0000000354
B1109195624505N00924558EA0000000382
B1109265624592N00924466EA0000000406
B1109335624652N00924334EA0000000427
B1109385624673N00924229EA0000000443
B1109435624673N00924124EA0000000461
B1109525624650N00923941EA0000000486
B1109575624635N00923846EA0000000499
B1110035624616N00923728EA0000000520
B1110085624604N00923635EA0000000536
B1110145624589N00923524EA0000000548
B1110215624570N00923397EA0000000571
B1110265624553N00923309EA0000000577
B1110325624533N00923204EA0000000592
B1110405624515N00923074EA0000000605
B1110475624493N00922959EA0000000607
B1110525624522N00922871EA0000000559
B1110585624626N00922910EA0000000534
B1111035624673N00923074EA0000000516
B1111095624670N00923324EA0000000463
B1111145624636N00923533EA0000000455
B1111205624574N00923736EA0000000440
B1111265624494N00923909EA0000000411
B1111325624414N00924074EA0000000387
B1111385624332N00924224EA0000000373
B1111435624267N00924339EA0000000355
B1111525624153N00924550EA0000000317
B1111585624083N00924707EA0000000289
B1112045624013N00924872EA0000000267
B1112105623971N00925068EA0000000249
B1112155623972N00925242EA0000000231
B1112205624004N00925398EA0000000228
B1112255624059N00925517EA0000000209
B1112305624134N00925594EA0000000180
B1112375624248N00925661EA0000000158
B1112425624324N00925659EA0000000145
B1112475624374N00925593EA0000000143
B1112525624402N00925506EA0000000130
B1112575624423N00925417EA0000000105
B1113035624448N00925301EA0000000087
B1113115624479N00925137EA0000000057
B1113175624503N00925012EA0000000036
B1113225624522N00924918EA0000000024
B1113285624540N00924829EA0000000023
