AOGNOGN
HFDTE300625
HFFXA050
HFPLTPILOTINCHARGE:
HFGTYGLIDERTYPE:LS-4
HFGIDGLIDERID:OY-XML
HFDTM100GPSDATUM:WGS-1984
HFRFWFIRMWAREVERSION:
HFRHWHARDWAREVERSION:
HFFTYFRTYPE:OGN-FLIGHTBOOK
HFGPSGENERIC
HFPRSPRESSALTSENSOR:
HFCIDCOMPETITIONID:ML
B1551335600730N00901321EA0000000038
B1551385600724N00901215EA0000000080
B1551435600716N00901120EA0000000163
B1551485600707N00901024EA0000000243
B1551535600692N00900923EA0000000319
B1551585600675N00900816EA0000000377
B1552035600658N00900702EA0000000431
B1552105600639N00900524EA0000000468
B1552165600631N00900349EA0000000462
B1552215600628N00900226EA0000000481
B1552265600645N00900128EA0000000481
B1552325600726N00900118EA0000000473
B1552395600814N00900127EA0000000482
B1552465600888N00900128EA0000000486
B1552525600960N00900145EA0000000479
B1552575601023N00900168EA0000000477
B1553045601107N00900204EA0000000475
B1553105601177N00900234EA0000000472
B1553155601236N00900261EA0000000470
B1553205601292N00900294EA0000000483
B1553255601346N00900328EA0000000486
B1553325601424N00900368EA0000000482
B1553375601447N00900459EA0000000478
B1553445601367N00900578EA0000000463
B1553495601309N00900650EA0000000461
B1553545601317N00900754EA0000000430
B1554005601387N00900720EA0000000454
B1554065601436N00900681EA0000000425
B1554115601486N00900665EA0000000434
B1554165601530N00900660EA0000000412
B1554215601587N00900627EA0000000398
B1554265601631N00900687EA0000000411
B1554315601605N00900788EA0000000397
B1554365601534N00900789EA0000000390
B1554425601491N00900689EA0000000389
B1554485601462N00900582EA0000000393
B1554585601416N00900412EA0000000384
B1555045601392N00900309EA0000000373
B1555095601371N00900213EA0000000360
B1555145601354N00900128EA0000000354
B1555205601333N00900019EA0000000348
B1555255601319N00859943EA0000000332
B1555305601300N00859828EA0000000329
B1555355601326N00859747EA0000000337
B1555405601369N00859833EA0000000331
B1555465601376N00859991EA0000000332
B1555515601372N00900124EA0000000317
B1555565601364N00900275EA0000000278
B1556015601345N00900426EA0000000293
B1556065601331N00900532EA0000000305
B1556125601324N00900668EA0000000301
B1556175601319N00900791EA0000000292
B1556225601313N00900930EA0000000282
B1556295601308N00901134EA0000000278
B1556355601306N00901303EA0000000274
B1556415601307N00901464EA0000000266
B1556465601312N00901598EA0000000259
B1556525601315N00901763EA0000000237
B1556575601293N00901902EA0000000240
B1557035601228N00902037EA0000000236
B1557085601173N00902143EA0000000219
B1557155601098N00902279EA0000000191
B1557205601026N00902317EA0000000190
B1557255600948N00902329EA0000000182
B1557315600854N00902334EA0000000161
B1557365600797N00902254EA0000000152
B1557415600764N00902124EA0000000134
B1557475600744N00901961EA0000000110
B1557535600723N00901790EA0000000085
B1558005600700N00901566EA0000000043
B1558055600686N00901413EA0000000038
B1558115600671N00901272EA0000000036
B1558195600637N00901183EA0000000036
