AOGNOGN
HFDTE300625
HFFXA050
HFPLTPILOTINCHARGE:
HFGTYGLIDERTYPE:Duo Discus xlt
HFGIDGLIDERID:OY-XSA
HFDTM100GPSDATUM:WGS-1984
HFRFWFIRMWAREVERSION:
HFRHWHARDWAREVERSION:
HFFTYFRTYPE:OGN-FLIGHTBOOK
HFGPSGENERIC
HFPRSPRESSALTSENSOR:
HFCIDCOMPETITIONID:SA
B1350205600723N00901284EA0000000041
B1350255600711N00901131EA0000000112
B1350305600706N00900982EA0000000215
B1350355600695N00900831EA0000000319
B1350405600677N00900680EA0000000375
B1350485600652N00900442EA0000000385
B1350575600631N00900167EA0000000373
B1351035600610N00859991EA0000000368
B1351085600595N00859848EA0000000365
B1351145600578N00859680EA0000000369
B1351195600511N00859599EA0000000365
B1351245600430N00859647EA0000000369
B1351295600397N00859788EA0000000356
B1351345600435N00859936EA0000000339
B1351395600521N00859952EA0000000336
B1351445600571N00859855EA0000000347
B1351495600551N00859740EA0000000349
B1351545600478N00859721EA0000000342
B1352005600430N00859868EA0000000327
B1352055600489N00859980EA0000000311
B1352105600564N00859935EA0000000320
B1352155600570N00859814EA0000000319
B1352215600483N00859763EA0000000306
B1352265600415N00859866EA0000000297
B1352315600386N00900024EA0000000289
B1352375600369N00900221EA0000000287
B1352435600356N00900415EA0000000273
B1352485600341N00900577EA0000000264
B1352535600297N00900707EA0000000258
B1352585600219N00900724EA0000000242
B1353035600173N00900605EA0000000244
B1353085600191N00900471EA0000000241
B1353135600263N00900431EA0000000235
B1353185600322N00900550EA0000000231
B1353235600330N00900721EA0000000219
B1353335600332N00901066EA0000000207
B1353385600333N00901236EA0000000200
B1353435600333N00901404EA0000000189
B1353495600345N00901610EA0000000181
B1353545600361N00901779EA0000000179
B1354005600380N00901966EA0000000188
B1354075600410N00902187EA0000000181
B1354125600438N00902342EA0000000180
B1354195600535N00902436EA0000000178
B1354255600627N00902483EA0000000176
B1354325600726N00902426EA0000000166
B1354375600771N00902319EA0000000159
B1354425600763N00902170EA0000000144
B1354475600748N00902027EA0000000132
B1354535600735N00901864EA0000000097
B1355005600716N00901666EA0000000059
B1355055600701N00901528EA0000000040
B1355115600691N00901388EA0000000033
