AOGNOGN
HFDTE300625
HFFXA050
HFPLTPILOTINCHARGE:
HFGTYGLIDERTYPE:ASK-21
HFGIDGLIDERID:OY-XPC
HFDTM100GPSDATUM:WGS-1984
HFRFWFIRMWAREVERSION:
HFRHWHARDWAREVERSION:
HFFTYFRTYPE:OGN-FLIGHTBOOK
HFGPSGENERIC
HFPRSPRESSALTSENSOR:
HFCIDCOMPETITIONID:PC
B1622425600729N00901324EA0000000043
B1622435600727N00901302EA0000000045
B1622485600717N00901166EA0000000128
B1622535600710N00901037EA0000000240
B1622585600704N00900908EA0000000336
B1623035600695N00900776EA0000000408
B1623085600684N00900645EA0000000470
B1623135600673N00900509EA0000000510
B1623185600663N00900365EA0000000530
B1623235600661N00900246EA0000000552
B1623285600678N00900145EA0000000551
B1623345600724N00900042EA0000000557
B1623395600765N00859969EA0000000569
B1623455600792N00859848EA0000000568
B1623505600815N00859754EA0000000582
B1623565600877N00859721EA0000000583
B1624025600900N00859844EA0000000593
B1624075600843N00859905EA0000000591
B1624125600789N00859842EA0000000600
B1624175600772N00859736EA0000000605
B1624225600806N00859661EA0000000606
B1624275600864N00859698EA0000000600
B1624325600878N00859813EA0000000613
B1624375600836N00859909EA0000000615
B1624425600770N00859880EA0000000621
B1624475600758N00859771EA0000000628
B1624535600818N00859728EA0000000626
B1624585600852N00859824EA0000000634
B1625035600810N00859920EA0000000639
B1625085600744N00859882EA0000000644
B1625135600729N00859770EA0000000648
B1625185600781N00859722EA0000000644
B1625235600828N00859803EA0000000653
B1625285600804N00859914EA0000000665
B1625335600734N00859939EA0000000664
B1625385600682N00859856EA0000000673
B1625435600695N00859746EA0000000676
B1625485600753N00859722EA0000000677
B1625535600794N00859812EA0000000681
B1625585600765N00859926EA0000000690
B1626035600695N00859930EA0000000695
B1626085600669N00859820EA0000000701
B1626135600715N00859755EA0000000702
B1626185600764N00859825EA0000000704
B1626235600745N00859944EA0000000712
B1626285600675N00859973EA0000000719
B1626335600635N00859878EA0000000718
B1626385600669N00859782EA0000000719
B1626435600731N00859799EA0000000717
B1626485600752N00859917EA0000000723
B1626535600705N00900019EA0000000732
B1626585600634N00900002EA0000000743
B1627035600608N00859889EA0000000740
B1627085600646N00859802EA0000000740
B1627145600718N00859832EA0000000739
B1627205600739N00859976EA0000000746
B1627275600684N00900131EA0000000760
B1627335600599N00900166EA0000000753
B1627385600539N00900085EA0000000762
B1627435600535N00859969EA0000000768
B1627485600587N00859912EA0000000763
B1627535600644N00859971EA0000000770
B1627585600646N00900094EA0000000774
B1628035600591N00900180EA0000000784
B1628085600521N00900170EA0000000785
B1628135600479N00900070EA0000000792
B1628185600502N00859971EA0000000789
B1628235600563N00859958EA0000000789
B1628285600607N00900048EA0000000792
B1628335600596N00900169EA0000000803
B1628385600537N00900234EA0000000807
B1628435600470N00900198EA0000000810
B1628485600435N00900091EA0000000815
B1628535600444N00859981EA0000000815
B1628585600485N00859909EA0000000812
B1629045600559N00859904EA0000000805
B1629105600634N00859949EA0000000803
B1629155600693N00859966EA0000000802
B1629225600776N00859974EA0000000794
B1629315600882N00900014EA0000000796
B1629375600953N00900045EA0000000796
B1629425601016N00900073EA0000000794
B1629475601076N00900099EA0000000796
B1629525601135N00900132EA0000000799
B1629575601192N00900173EA0000000800
B1630025601250N00900169EA0000000802
B1630095601330N00900159EA0000000802
B1630145601386N00900189EA0000000795
B1630215601471N00900203EA0000000780
B1630265601544N00900190EA0000000736
B1630345601655N00900181EA0000000743
B1630395601738N00900181EA0000000719
B1630445601788N00900089EA0000000702
B1630495601716N00900078EA0000000682
B1630545601763N00900131EA0000000675
B1630595601741N00859991EA0000000679
B1631045601706N00859872EA0000000678
B1631095601708N00859741EA0000000655
B1631145601736N00859636EA0000000681
B1631195601766N00859695EA0000000616
B1631245601733N00859905EA0000000621
B1631305601702N00900012EA0000000670
B1631355601658N00900103EA0000000636
B1631405601591N00900176EA0000000638
B1631465601507N00900151EA0000000621
B1631515601484N00900022EA0000000612
B1631565601513N00859901EA0000000613
B1632015601551N00859797EA0000000616
B1632065601591N00859699EA0000000612
B1632115601631N00859604EA0000000618
B1632165601672N00859515EA0000000621
B1632225601692N00859379EA0000000621
B1632275601654N00859260EA0000000620
B1632325601586N00859196EA0000000628
B1632375601510N00859211EA0000000618
B1632425601447N00859316EA0000000609
B1632475601439N00859462EA0000000610
B1632535601494N00859594EA0000000606
B1632585601550N00859687EA0000000610
B1633045601609N00859804EA0000000616
B1633115601676N00859931EA0000000616
B1633175601740N00900030EA0000000607
B1633235601809N00900126EA0000000598
B1633305601891N00900235EA0000000586
B1633385601987N00900355EA0000000573
B1633435602037N00900455EA0000000568
B1633485602064N00900580EA0000000565
B1633575602063N00900827EA0000000568
B1634045602060N00901021EA0000000562
B1634125602055N00901250EA0000000551
B1634205602039N00901474EA0000000548
B1634265602021N00901643EA0000000542
B1634315602005N00901789EA0000000540
B1634405601983N00902062EA0000000539
B1634485601968N00902295EA0000000530
B1634545601958N00902469EA0000000524
B1635045601952N00902758EA0000000515
B1635105601944N00902927EA0000000508
B1635185601919N00903147EA0000000495
B1635235601905N00903282EA0000000486
B1635305601884N00903470EA0000000479
B1635445601827N00903840EA0000000467
B1635505601782N00903995EA0000000468
B1635565601728N00904144EA0000000478
B1636065601624N00904363EA0000000478
B1636185601463N00904554EA0000000467
B1636255601355N00904602EA0000000466
B1636315601261N00904591EA0000000470
B1636365601186N00904550EA0000000473
B1636425601107N00904478EA0000000483
B1636485601031N00904404EA0000000492
B1636545600959N00904327EA0000000496
B1636595600893N00904263EA0000000497
B1637065600804N00904173EA0000000502
B1637125600737N00904082EA0000000506
B1637195600662N00903966EA0000000488
B1637285600590N00903782EA0000000476
B1637365600552N00903600EA0000000462
B1637445600504N00903421EA0000000452
B1637495600476N00903308EA0000000448
B1637575600431N00903123EA0000000455
B1638035600392N00902988EA0000000445
B1638085600362N00902870EA0000000443
B1638155600322N00902698EA0000000443
B1638215600290N00902552EA0000000448
B1638265600266N00902431EA0000000447
B1638315600241N00902304EA0000000446
B1638365600217N00902179EA0000000443
B1638425600193N00902031EA0000000436
B1638485600171N00901885EA0000000429
B1638555600162N00901711EA0000000425
B1639005600157N00901583EA0000000423
B1639065600149N00901432EA0000000425
B1639125600141N00901285EA0000000433
B1639185600120N00901142EA0000000434
B1639235600071N00901051EA0000000442
B1639285600006N00901000EA0000000445
B1639345559924N00900958EA0000000438
B1639415559838N00900870EA0000000430
B1639465559788N00900787EA0000000420
B1639515559761N00900673EA0000000406
B1639575559778N00900528EA0000000407
B1640025559830N00900454EA0000000405
B1640095559923N00900414EA0000000405
B1640145559973N00900333EA0000000397
B1640195559985N00900212EA0000000390
B1640245559947N00900100EA0000000384
B1640295559873N00900065EA0000000382
B1640345559811N00900152EA0000000377
B1640405559822N00900331EA0000000366
B1640485559861N00900571EA0000000357
B1640535559889N00900718EA0000000355
B1640595559921N00900890EA0000000330
B1641055559962N00901053EA0000000302
B1641105559997N00901185EA0000000284
B1641185600049N00901399EA0000000258
B1641235600077N00901539EA0000000250
B1641285600104N00901680EA0000000242
B1641345600138N00901845EA0000000232
B1641395600178N00901969EA0000000219
B1641465600259N00902099EA0000000199
B1641515600321N00902184EA0000000190
B1641565600385N00902264EA0000000181
B1642065600525N00902398EA0000000169
B1642125600615N00902459EA0000000165
B1642175600692N00902496EA0000000162
B1642225600766N00902483EA0000000165
B1642275600799N00902366EA0000000159
B1642325600789N00902224EA0000000140
B1642385600772N00902055EA0000000106
B1642445600758N00901885EA0000000077
B1642495600749N00901751EA0000000063
B1642545600741N00901621EA0000000052
B1643015600727N00901457EA0000000037
