AOGNOGN
HFDTE040825
HFFXA050
HFPLTPILOTINCHARGE:
HFGTYGLIDERTYPE:Ventus 3T
HFGIDGLIDERID:OY-XII
HFDTM100GPSDATUM:WGS-1984
HFRFWFIRMWAREVERSION:
HFRHWHARDWAREVERSION:
HFFTYFRTYPE:OGN-FLIGHTBOOK
HFGPSGENERIC
HFPRSPRESSALTSENSOR:
HFCIDCOMPETITIONID:I
B1132045600703N00901419EA0000000043
B1132045600703N00901419EA0000000043
B1132115600697N00901270EA0000000043
B1132165600688N00901137EA0000000046
B1132225600677N00900974EA0000000069
B1132285600663N00900816EA0000000090
B1132345600656N00900660EA0000000112
B1132405600679N00900518EA0000000134
B1132455600722N00900405EA0000000142
B1132545600854N00900237EA0000000167
B1132595600944N00900202EA0000000194
B1133075601093N00900190EA0000000215
B1133125601193N00900197EA0000000224
B1133175601292N00900200EA0000000236
B1133265601469N00900198EA0000000271
B1133315601568N00900208EA0000000284
B1133365601668N00900218EA0000000292
B1133425601790N00900230EA0000000305
B1133495601931N00900253EA0000000326
B1133555602053N00900323EA0000000345
B1134025602186N00900485EA0000000356
B1134075602269N00900631EA0000000373
B1134135602360N00900817EA0000000393
B1134195602446N00901021EA0000000402
B1134245602515N00901197EA0000000417
B1134315602611N00901440EA0000000437
B1134365602680N00901616EA0000000450
B1134425602754N00901836EA0000000470
B1134475602806N00902032EA0000000485
B1134535602848N00902276EA0000000508
B1134595602874N00902518EA0000000538
B1135045602901N00902699EA0000000552
B1135095602975N00902808EA0000000558
B1135145603046N00902765EA0000000546
B1135195603037N00902663EA0000000547
B1135245602975N00902659EA0000000550
B1135295602913N00902709EA0000000561
B1135345602856N00902802EA0000000557
B1135395602853N00902964EA0000000559
B1135445602917N00903060EA0000000555
B1135495602980N00903025EA0000000557
B1135545603005N00902937EA0000000559
B1135595602991N00902855EA0000000566
B1136045602932N00902857EA0000000566
B1136105602901N00903024EA0000000562
B1136155602964N00903148EA0000000561
B1136205603039N00903160EA0000000569
B1136255603060N00903075EA0000000567
B1136305603006N00903085EA0000000576
B1136355602996N00903237EA0000000577
B1136405603068N00903302EA0000000578
B1136455603087N00903217EA0000000578
B1136505603031N00903247EA0000000588
B1136555603029N00903404EA0000000594
B1137015603113N00903469EA0000000598
B1137065603138N00903385EA0000000594
B1137115603097N00903342EA0000000604
B1137165603048N00903434EA0000000600
B1137215603077N00903589EA0000000601
B1137265603151N00903614EA0000000615
B1137315603178N00903539EA0000000606
B1137365603145N00903480EA0000000613
B1137415603091N00903569EA0000000607
B1137465603116N00903731EA0000000611
B1137515603192N00903813EA0000000621
B1137565603239N00903752EA0000000614
B1138015603212N00903688EA0000000621
B1138065603159N00903754EA0000000620
B1138115603157N00903918EA0000000617
B1138165603225N00904012EA0000000629
B1138215603282N00903971EA0000000624
B1138275603288N00903856EA0000000611
B1138335603279N00903728EA0000000606
B1138385603267N00903611EA0000000593
B1138435603257N00903501EA0000000601
B1138485603246N00903404EA0000000603
B1138535603233N00903322EA0000000606
B1138595603217N00903223EA0000000597
B1139045603204N00903136EA0000000575
B1139105603184N00902986EA0000000541
B1139165603165N00902843EA0000000557
B1139225603153N00902719EA0000000569
B1139295603142N00902579EA0000000572
B1139365603135N00902441EA0000000583
B1139455603130N00902273EA0000000594
B1140095603129N00901852EA0000000613
B1140145603126N00901765EA0000000616
B1140195603119N00901675EA0000000621
B1140265603108N00901544EA0000000638
B1140315603091N00901455EA0000000628
B1140365603069N00901359EA0000000620
B1140425603044N00901237EA0000000611
B1140475603030N00901126EA0000000601
B1140535603013N00900992EA0000000611
B1141005603004N00900851EA0000000619
B1141055602998N00900758EA0000000621
B1141125602999N00900610EA0000000602
B1141195603001N00900431EA0000000594
B1141255603013N00900272EA0000000595
B1141305603030N00900159EA0000000618
B1141365603030N00900050EA0000000618
B1141425603033N00859918EA0000000605
B1141485603040N00859778EA0000000600
B1141535603054N00859645EA0000000585
B1141585603088N00859511EA0000000582
B1142035603133N00859399EA0000000604
B1142095603184N00859286EA0000000608
B1142145603227N00859188EA0000000605
B1142215603280N00859056EA0000000603
B1142285603289N00858904EA0000000582
B1142345603273N00858766EA0000000571
B1142415603251N00858592EA0000000552
B1142465603237N00858458EA0000000541
B1142525603220N00858302EA0000000547
B1142595603197N00858134EA0000000550
B1143055603182N00857991EA0000000536
B1143105603178N00857856EA0000000536
B1143155603175N00857736EA0000000550
B1143225603172N00857577EA0000000548
B1143275603168N00857472EA0000000553
B1143355603159N00857291EA0000000518
B1143415603147N00857129EA0000000507
B1143475603143N00856957EA0000000510
B1143565603146N00856735EA0000000525
B1144035603147N00856580EA0000000532
B1144105603154N00856438EA0000000540
B1144155603126N00856366EA0000000539
B1144205603074N00856451EA0000000544
B1144255603094N00856607EA0000000543
B1144305603160N00856716EA0000000551
B1144355603236N00856739EA0000000548
B1144405603276N00856665EA0000000548
B1144455603239N00856615EA0000000549
B1144505603192N00856696EA0000000550
B1144555603199N00856853EA0000000549
B1145025603280N00857019EA0000000556
B1145075603356N00857059EA0000000543
B1145125603407N00856992EA0000000540
B1145175603385N00856918EA0000000539
B1145225603331N00856951EA0000000543
B1145275603294N00857067EA0000000542
B1145335603271N00857242EA0000000548
B1145385603305N00857383EA0000000537
B1145445603394N00857496EA0000000543
B1145495603468N00857583EA0000000541
B1145565603582N00857713EA0000000514
B1146025603695N00857851EA0000000490
B1146105603852N00858061EA0000000470
B1146155603950N00858197EA0000000466
B1146215604062N00858351EA0000000480
B1146265604145N00858468EA0000000474
B1146325604249N00858618EA0000000454
B1146375604336N00858758EA0000000450
B1146465604482N00859012EA0000000450
B1146515604564N00859151EA0000000439
B1146585604683N00859354EA0000000426
B1147035604768N00859491EA0000000448
B1147085604849N00859514EA0000000461
B1147135604855N00859427EA0000000468
B1147185604798N00859429EA0000000480
B1147235604757N00859541EA0000000486
B1147285604788N00859689EA0000000487
B1147345604863N00859680EA0000000497
B1147395604858N00859601EA0000000488
B1147445604798N00859579EA0000000497
B1147495604748N00859675EA0000000505
B1147545604767N00859834EA0000000501
B1147595604839N00859892EA0000000511
B1148045604865N00859819EA0000000510
B1148095604812N00859794EA0000000516
B1148155604787N00859962EA0000000524
B1148205604849N00900075EA0000000522
B1148255604900N00900028EA0000000526
B1148305604887N00859942EA0000000533
B1148355604830N00859963EA0000000534
B1148405604807N00900115EA0000000525
B1148455604856N00900254EA0000000530
B1148505604929N00900291EA0000000535
B1148555604980N00900240EA0000000538
B1149005604989N00900155EA0000000533
B1149055604934N00900133EA0000000529
B1149105604890N00900259EA0000000529
B1149155604922N00900418EA0000000527
B1149215605000N00900560EA0000000528
B1149265605071N00900679EA0000000526
B1149315605145N00900807EA0000000530
B1149365605215N00900930EA0000000544
B1149425605297N00901069EA0000000550
B1149475605368N00901172EA0000000551
B1149525605448N00901186EA0000000538
B1149575605475N00901094EA0000000532
B1150025605428N00901045EA0000000529
B1150085605345N00901107EA0000000526
B1150135605296N00901227EA0000000533
B1150185605279N00901388EA0000000541
B1150235605291N00901549EA0000000543
B1150285605367N00901639EA0000000540
B1150335605417N00901565EA0000000543
B1150385605370N00901518EA0000000545
B1150435605312N00901611EA0000000544
B1150495605289N00901807EA0000000545
B1150545605334N00901953EA0000000553
B1150595605408N00901964EA0000000546
B1151045605419N00901862EA0000000543
B1151095605356N00901852EA0000000547
B1151145605303N00901977EA0000000549
B1151195605310N00902152EA0000000554
B1151245605374N00902268EA0000000553
B1151295605459N00902294EA0000000548
B1151365605570N00902288EA0000000557
B1151445605704N00902253EA0000000545
B1151495605788N00902238EA0000000549
B1151545605865N00902209EA0000000539
B1151595605904N00902123EA0000000539
B1152045605874N00902058EA0000000530
B1152095605814N00902095EA0000000525
B1152145605783N00902242EA0000000512
B1152205605804N00902459EA0000000501
B1152255605842N00902644EA0000000489
B1152335605900N00902978EA0000000467
B1152405605936N00903290EA0000000466
B1152465605958N00903535EA0000000485
B1152515605972N00903714EA0000000493
B1152575605992N00903917EA0000000493
B1153025606017N00904082EA0000000485
B1153075606055N00904244EA0000000478
B1153125606102N00904410EA0000000465
B1153195606164N00904650EA0000000463
B1153285606251N00904970EA0000000436
B1153345606304N00905197EA0000000431
B1153435606377N00905544EA0000000413
B1153485606419N00905737EA0000000413
B1153535606456N00905924EA0000000414
B1153585606496N00906104EA0000000411
B1154035606541N00906287EA0000000403
B1154095606592N00906512EA0000000409
B1154145606632N00906695EA0000000408
B1154195606673N00906875EA0000000415
B1154245606712N00907046EA0000000418
B1154305606761N00907251EA0000000412
B1154355606800N00907425EA0000000415
B1154405606841N00907601EA0000000408
B1154455606883N00907784EA0000000394
B1154515606929N00908019EA0000000382
B1154565606966N00908222EA0000000377
B1155015607005N00908419EA0000000381
B1155065607041N00908597EA0000000392
B1155115607078N00908769EA0000000388
B1155165607115N00908938EA0000000390
B1155215607148N00909101EA0000000395
B1155275607192N00909301EA0000000385
B1155325607230N00909478EA0000000382
B1155375607271N00909651EA0000000399
B1155425607320N00909797EA0000000398
B1155475607406N00909836EA0000000383
B1155525607451N00909748EA0000000381
B1156005607399N00909636EA0000000396
B1156055607342N00909634EA0000000397
B1156105607284N00909698EA0000000387
B1156155607254N00909850EA0000000379
B1156225607280N00910091EA0000000397
B1156275607303N00910257EA0000000400
B1156325607359N00910376EA0000000410
B1156375607433N00910382EA0000000410
B1156425607450N00910287EA0000000415
B1156475607396N00910262EA0000000426
B1156525607351N00910371EA0000000430
B1156575607367N00910521EA0000000442
B1157025607438N00910590EA0000000444
B1157075607492N00910536EA0000000452
B1157125607469N00910463EA0000000456
B1157175607411N00910513EA0000000459
B1157235607412N00910705EA0000000469
B1157285607474N00910811EA0000000477
B1157345607554N00910769EA0000000478
B1157395607551N00910678EA0000000490
B1157445607492N00910688EA0000000492
B1157495607469N00910828EA0000000498
B1157545607519N00910953EA0000000511
B1157595607589N00910940EA0000000513
B1158045607596N00910851EA0000000519
B1158095607540N00910875EA0000000520
B1158145607520N00911018EA0000000528
B1158195607556N00911154EA0000000539
B1158255607641N00911161EA0000000538
B1158305607639N00911073EA0000000542
B1158355607580N00911112EA0000000547
B1158405607569N00911261EA0000000554
B1158455607630N00911368EA0000000560
B1158505607696N00911326EA0000000569
B1158555607685N00911239EA0000000570
B1159005607625N00911279EA0000000574
B1159055607611N00911429EA0000000581
B1159105607650N00911581EA0000000588
B1159165607715N00911739EA0000000601
B1159215607767N00911867EA0000000617
B1159265607843N00911911EA0000000606
B1159315607884N00911823EA0000000603
B1159365607845N00911766EA0000000603
B1159425607771N00911781EA0000000604
B1159475607714N00911855EA0000000618
B1159525607698N00912003EA0000000604
B1159575607727N00912171EA0000000599
B1200025607778N00912315EA0000000609
B1200075607833N00912441EA0000000619
B1200125607892N00912571EA0000000614
B1200175607955N00912710EA0000000626
B1200225607994N00912861EA0000000640
B1200275607938N00912956EA0000000652
B1200325607917N00912891EA0000000666
B1200375607983N00912875EA0000000676
B1200425608019N00913017EA0000000688
B1200475607962N00913093EA0000000699
B1200525607950N00913022EA0000000706
B1200575608007N00912976EA0000000713
B1201025608073N00913072EA0000000721
B1201075608045N00913207EA0000000734
B1201125607998N00913164EA0000000748
B1201175608046N00913105EA0000000759
B1201225608113N00913201EA0000000767
B1201275608085N00913336EA0000000781
B1201325608041N00913290EA0000000791
B1201375608094N00913243EA0000000804
B1201425608161N00913343EA0000000809
B1201475608140N00913486EA0000000828
B1201525608087N00913465EA0000000837
B1201575608123N00913397EA0000000848
B1202025608200N00913457EA0000000857
B1202085608244N00913640EA0000000869
B1202135608274N00913810EA0000000867
B1202185608328N00913984EA0000000853
B1202235608396N00914172EA0000000838
B1202285608468N00914369EA0000000840
B1202335608531N00914579EA0000000839
B1202395608610N00914834EA0000000834
B1202455608689N00915095EA0000000827
B1202505608759N00915304EA0000000844
B1202555608828N00915497EA0000000848
B1203015608907N00915740EA0000000853
B1203065608966N00915951EA0000000851
B1203115609015N00916170EA0000000862
B1203175609064N00916440EA0000000862
B1203235609103N00916726EA0000000857
B1203285609126N00916968EA0000000858
B1203355609156N00917308EA0000000856
B1203405609178N00917550EA0000000851
B1203455609195N00917799EA0000000837
B1203505609210N00918055EA0000000823
B1203585609233N00918469EA0000000809
B1204035609244N00918728EA0000000804
B1204085609256N00918984EA0000000796
B1204135609268N00919246EA0000000782
B1204215609283N00919670EA0000000772
B1204275609297N00919981EA0000000770
B1204355609330N00920384EA0000000761
B1204405609355N00920634EA0000000753
B1204455609374N00920883EA0000000760
B1204505609388N00921116EA0000000780
B1204555609400N00921331EA0000000790
B1205055609434N00921764EA0000000774
B1205105609450N00921985EA0000000771
B1205155609464N00922203EA0000000775
B1205205609479N00922417EA0000000771
B1205255609494N00922624EA0000000784
B1205325609513N00922898EA0000000790
B1205385609527N00923130EA0000000796
B1205445609540N00923363EA0000000793
B1205495609552N00923565EA0000000784
B1205545609563N00923778EA0000000771
B1205595609574N00924004EA0000000772
B1206045609582N00924220EA0000000787
B1206095609589N00924417EA0000000798
B1206155609604N00924662EA0000000782
B1206205609620N00924880EA0000000771
B1206255609635N00925103EA0000000768
B1206305609651N00925326EA0000000769
B1206355609664N00925524EA0000000807
B1206405609678N00925696EA0000000821
B1206465609701N00925882EA0000000837
B1206525609723N00926062EA0000000839
B1206585609746N00926249EA0000000843
B1207045609766N00926438EA0000000836
B1207095609784N00926620EA0000000825
B1207145609801N00926798EA0000000845
B1207205609808N00926981EA0000000857
B1207275609819N00927218EA0000000839
B1207325609847N00927412EA0000000851
B1207375609871N00927582EA0000000873
B1207425609894N00927742EA0000000878
B1207495609930N00927972EA0000000879
B1207545609959N00928144EA0000000873
B1207595609992N00928334EA0000000868
B1208055610030N00928563EA0000000883
B1208105610063N00928749EA0000000872
B1208155610100N00928959EA0000000847
B1208205610138N00929184EA0000000869
B1208255610169N00929370EA0000000909
B1208315610206N00929567EA0000000924
B1208375610242N00929752EA0000000939
B1208425610273N00929902EA0000000940
B1208475610305N00930054EA0000000957
B1208525610329N00930200EA0000000963
B1208575610352N00930350EA0000000962
B1209035610382N00930554EA0000000928
B1209095610424N00930810EA0000000895
B1209175610485N00931185EA0000000889
B1209225610527N00931419EA0000000880
B1209275610572N00931658EA0000000867
B1209325610618N00931904EA0000000857
B1209375610667N00932149EA0000000854
B1209425610717N00932390EA0000000853
B1209475610767N00932628EA0000000850
B1209525610819N00932864EA0000000854
B1209575610878N00933084EA0000000861
B1210025610943N00933290EA0000000858
B1210085611038N00933521EA0000000848
B1210135611127N00933702EA0000000846
B1210185611217N00933871EA0000000851
B1210245611331N00934067EA0000000825
B1210315611476N00934295EA0000000815
B1210365611576N00934462EA0000000810
B1210425611695N00934669EA0000000803
B1210475611788N00934852EA0000000796
B1210535611889N00935078EA0000000805
B1210585611961N00935241EA0000000835
B1211045612042N00935411EA0000000836
B1211105612126N00935570EA0000000843
B1211165612203N00935718EA0000000858
B1211215612265N00935831EA0000000872
B1211265612342N00935871EA0000000867
B1211315612365N00935788EA0000000871
B1211365612315N00935761EA0000000872
B1211415612252N00935799EA0000000873
B1211465612189N00935862EA0000000880
B1211515612139N00935968EA0000000880
B1212005612127N00936264EA0000000887
B1212055612157N00936414EA0000000898
B1212105612239N00936449EA0000000885
B1212155612272N00936353EA0000000899
B1212205612229N00936321EA0000000908
B1212255612178N00936390EA0000000910
B1212315612164N00936561EA0000000919
B1212365612217N00936678EA0000000919
B1212415612289N00936655EA0000000923
B1212465612282N00936576EA0000000932
B1212515612230N00936588EA0000000932
B1212565612193N00936697EA0000000933
B1213025612182N00936877EA0000000939
B1213075612188N00937035EA0000000946
B1213125612209N00937194EA0000000948
B1213185612248N00937402EA0000000915
B1213235612289N00937616EA0000000885
B1213285612332N00937853EA0000000865
B1213375612411N00938307EA0000000847
B1213425612449N00938555EA0000000870
B1213475612485N00938778EA0000000875
B1213525612522N00939004EA0000000871
B1213585612562N00939265EA0000000882
B1214035612593N00939480EA0000000873
B1214095612636N00939746EA0000000862
B1214145612671N00939975EA0000000858
B1214225612723N00940342EA0000000848
B1214285612763N00940614EA0000000853
B1214345612799N00940876EA0000000863
B1214405612832N00941135EA0000000856
B1214455612859N00941349EA0000000885
B1214505612877N00941535EA0000000913
B1214555612872N00941698EA0000000927
B1215015612800N00941757EA0000000935
B1215065612786N00941682EA0000000948
B1215115612838N00941639EA0000000950
B1215165612901N00941721EA0000000959
B1215215612909N00941872EA0000000968
B1215265612854N00941953EA0000000971
B1215315612816N00941899EA0000000984
B1215365612852N00941835EA0000000990
B1215415612922N00941870EA0000000997
B1215465612954N00942011EA0000001000
B1215515612913N00942135EA0000001008
B1215565612867N00942098EA0000001009
B1216015612906N00942028EA0000001021
B1216075612985N00942128EA0000001031
B1216125612974N00942283EA0000001039
B1216175612914N00942318EA0000001044
B1216225612910N00942230EA0000001050
B1216275612976N00942206EA0000001060
B1216325613037N00942317EA0000001062
B1216375613032N00942476EA0000001076
B1216435612966N00942536EA0000001082
B1216485612958N00942457EA0000001082
B1216535613022N00942432EA0000001090
B1216585613081N00942548EA0000001094
B1217045613072N00942757EA0000001092
B1217095613053N00942951EA0000001074
B1217145613033N00943177EA0000001036
B1217215613002N00943536EA0000001008
B1217275612963N00943842EA0000001003
B1217335612912N00944144EA0000000983
B1217395612882N00944465EA0000000975
B1217445612869N00944734EA0000000967
B1217515612847N00945112EA0000000952
B1217565612832N00945381EA0000000949
B1218025612816N00945694EA0000000950
B1218085612799N00945997EA0000000953
B1218135612788N00946245EA0000000946
B1218185612781N00946494EA0000000940
B1218235612767N00946738EA0000000940
B1218285612746N00946979EA0000000927
B1218345612719N00947273EA0000000918
B1218405612693N00947568EA0000000910
B1218465612666N00947858EA0000000897
B1218515612648N00948100EA0000000906
B1218565612627N00948323EA0000000927
B1219015612606N00948520EA0000000952
B1219065612606N00948691EA0000000975
B1219115612673N00948796EA0000000986
B1219165612735N00948763EA0000001001
B1219215612735N00948690EA0000001001
B1219265612683N00948675EA0000000998
B1219315612626N00948738EA0000001010
B1219365612597N00948856EA0000001006
B1219415612592N00949026EA0000000990
B1219475612568N00949237EA0000000986
B1219525612549N00949416EA0000000993
B1219585612529N00949613EA0000001017
B1220035612529N00949766EA0000001022
B1220085612592N00949859EA0000001021
B1220135612642N00949809EA0000001018
B1220185612627N00949723EA0000001022
B1220235612583N00949684EA0000001039
B1220285612529N00949743EA0000001038
B1220335612496N00949889EA0000001041
B1220385612467N00950034EA0000001044
B1220435612437N00950191EA0000001044
B1220485612409N00950353EA0000001031
B1220545612363N00950584EA0000000997
B1221005612307N00950836EA0000000980
B1221065612251N00951090EA0000000968
B1221145612170N00951444EA0000000943
B1221215612093N00951765EA0000000930
B1221275612025N00952038EA0000000920
B1221325611969N00952266EA0000000913
B1221375611916N00952501EA0000000901
B1221425611862N00952737EA0000000894
B1221475611809N00952966EA0000000894
B1221565611708N00953375EA0000000883
B1222025611634N00953637EA0000000876
B1222095611563N00953957EA0000000867
B1222155611537N00954257EA0000000860
B1222215611528N00954567EA0000000847
B1222285611529N00954933EA0000000832
B1222365611540N00955374EA0000000798
B1222505611539N00956137EA0000000795
B1222585611535N00956547EA0000000782
B1223055611537N00956896EA0000000779
B1223125611550N00957231EA0000000780
B1223195611582N00957557EA0000000772
B1223245611615N00957787EA0000000758
B1223325611673N00958156EA0000000734
B1223375611710N00958373EA0000000741
B1223425611744N00958573EA0000000750
B1223485611786N00958782EA0000000759
B1223555611868N00958987EA0000000759
B1224005611932N00959131EA0000000760
B1224065612004N00959297EA0000000763
B1224115612066N00959441EA0000000743
B1224165612135N00959605EA0000000716
B1224215612205N00959790EA0000000698
B1224265612265N00959979EA0000000717
B1224325612326N01000187EA0000000732
B1224375612369N01000347EA0000000760
B1224425612342N01000485EA0000000763
B1224485612290N01000432EA0000000778
B1224535612331N01000352EA0000000795
B1224585612411N01000392EA0000000804
B1225045612434N01000569EA0000000809
B1225095612381N01000654EA0000000819
B1225145612351N01000583EA0000000824
B1225205612417N01000500EA0000000837
B1225255612476N01000608EA0000000849
B1225305612442N01000729EA0000000857
B1225375612410N01000643EA0000000875
B1225425612483N01000614EA0000000880
B1225485612522N01000774EA0000000892
B1225535612468N01000846EA0000000896
B1225585612444N01000768EA0000000906
B1226035612514N01000715EA0000000908
B1226085612581N01000825EA0000000918
B1226135612564N01000970EA0000000920
B1226185612505N01001035EA0000000932
B1226245612500N01000931EA0000000934
B1226295612581N01000941EA0000000949
B1226345612601N01001089EA0000000950
B1226405612546N01001216EA0000000964
B1226455612512N01001163EA0000000968
B1226505612566N01001091EA0000000975
B1226555612642N01001164EA0000000978
B1227005612659N01001325EA0000000984
B1227055612615N01001430EA0000000991
B1227105612573N01001388EA0000000998
B1227155612610N01001303EA0000001006
B1227205612691N01001338EA0000001008
B1227255612714N01001489EA0000001014
B1227315612654N01001572EA0000001024
B1227365612630N01001503EA0000001027
B1227415612666N01001412EA0000001032
B1227465612746N01001391EA0000001023
B1227515612838N01001369EA0000001004
B1227565612943N01001338EA0000000966
B1228015613060N01001287EA0000000944
B1228085613227N01001202EA0000000932
B1228135613345N01001142EA0000000923
B1228235613580N01001013EA0000000908
B1228285613696N01000945EA0000000900
B1228355613860N01000847EA0000000889
B1228415614002N01000769EA0000000885
B1228465614119N01000708EA0000000882
B1228545614300N01000619EA0000000882
B1228595614413N01000563EA0000000873
B1229045614524N01000506EA0000000869
B1229115614679N01000423EA0000000856
B1229245614972N01000272EA0000000842
B1229325615149N01000183EA0000000839
B1229375615260N01000131EA0000000836
B1229455615433N01000033EA0000000829
B1229505615542N00959971EA0000000828
B1229575615689N00959882EA0000000814
B1230085615919N00959749EA0000000803
B1230135616020N00959694EA0000000796
B1230245616238N00959570EA0000000787
B1230325616399N00959494EA0000000792
B1230375616500N00959452EA0000000796
B1230435616605N00959401EA0000000818
B1230485616680N00959371EA0000000825
B1230565616800N00959333EA0000000813
B1231035616920N00959322EA0000000800
B1231105617057N00959358EA0000000781
B1231155617161N00959416EA0000000767
B1231205617270N00959491EA0000000750
B1231265617406N00959594EA0000000733
B1231335617566N00959728EA0000000715
B1231395617706N00959842EA0000000708
B1231455617846N00959938EA0000000704
B1231515617987N01000035EA0000000696
B1231585618153N01000151EA0000000686
B1232055618320N01000253EA0000000670
B1232105618439N01000319EA0000000667
B1232165618579N01000398EA0000000659
B1232215618696N01000458EA0000000659
B1232265618808N01000515EA0000000675
B1232325618920N01000589EA0000000703
B1232375618997N01000648EA0000000713
B1232425619067N01000654EA0000000721
B1232485619086N01000560EA0000000715
B1232545619020N01000525EA0000000728
B1232595618967N01000624EA0000000727
B1233045618963N01000783EA0000000727
B1233095619012N01000919EA0000000732
B1233165619098N01001043EA0000000737
B1233225619191N01001096EA0000000724
B1233275619286N01001139EA0000000713
B1233325619380N01001184EA0000000732
B1233375619438N01001147EA0000000743
B1233425619411N01001067EA0000000742
B1233475619347N01001113EA0000000752
B1233525619320N01001240EA0000000771
B1233575619366N01001360EA0000000766
B1234035619436N01001323EA0000000758
B1234085619413N01001250EA0000000765
B1234135619350N01001283EA0000000765
B1234195619301N01001433EA0000000783
B1234245619303N01001577EA0000000789
B1234295619361N01001696EA0000000791
B1234365619471N01001750EA0000000789
B1234415619556N01001793EA0000000796
B1234465619639N01001838EA0000000805
B1234515619723N01001877EA0000000812
B1234575619826N01001932EA0000000814
B1235025619912N01001973EA0000000804
B1235075620009N01002008EA0000000773
B1235125620119N01002043EA0000000748
B1235175620237N01002084EA0000000738
B1235225620356N01002130EA0000000742
B1235285620495N01002182EA0000000737
B1235335620612N01002223EA0000000736
B1235385620722N01002261EA0000000767
B1235435620817N01002288EA0000000795
B1235485620866N01002235EA0000000816
B1235545620814N01002220EA0000000813
B1236015620790N01002405EA0000000834
B1236065620840N01002509EA0000000828
B1236115620906N01002487EA0000000844
B1236165620895N01002423EA0000000850
B1236215620842N01002474EA0000000846
B1236265620826N01002606EA0000000862
B1236315620863N01002731EA0000000861
B1236365620934N01002754EA0000000867
B1236415620961N01002671EA0000000866
B1236475620902N01002650EA0000000876
B1236525620865N01002765EA0000000880
B1236575620871N01002909EA0000000892
B1237025620929N01003007EA0000000888
B1237095620999N01002941EA0000000900
B1237145620954N01002907EA0000000902
B1237205620908N01003035EA0000000915
B1237265620943N01003197EA0000000914
B1237325621019N01003314EA0000000925
B1237375621087N01003380EA0000000933
B1237425621161N01003409EA0000000928
B1237475621237N01003401EA0000000936
B1237535621319N01003381EA0000000939
B1238005621421N01003331EA0000000908
B1238065621528N01003266EA0000000882
B1238115621628N01003204EA0000000866
B1238185621779N01003120EA0000000852
B1238245621914N01003045EA0000000837
B1238315622071N01002956EA0000000823
B1238375622203N01002882EA0000000826
B1238425622305N01002827EA0000000850
B1238485622407N01002777EA0000000865
B1238545622517N01002721EA0000000831
B1238595622622N01002664EA0000000810
B1239055622754N01002597EA0000000797
B1239145622954N01002509EA0000000797
B1239195623059N01002456EA0000000798
B1239245623160N01002399EA0000000806
B1239295623251N01002362EA0000000819
B1239365623384N01002308EA0000000785
B1239485623654N01002150EA0000000746
B1239535623763N01002072EA0000000738
B1240005623900N01001945EA0000000748
B1240055623987N01001872EA0000000788
B1240105624043N01001807EA0000000810
B1240155624016N01001730EA0000000809
B1240205623960N01001801EA0000000831
B1240255623953N01001951EA0000000824
B1240305624002N01002103EA0000000821
B1240355624074N01002198EA0000000842
B1240415624146N01002184EA0000000858
B1240465624117N01002116EA0000000855
B1240525624053N01002245EA0000000859
B1240585624066N01002443EA0000000875
B1241035624142N01002483EA0000000868
B1241085624150N01002396EA0000000895
B1241135624090N01002426EA0000000910
B1241185624070N01002581EA0000000912
B1241235624125N01002703EA0000000906
B1241285624201N01002719EA0000000913
B1241335624212N01002638EA0000000922
B1241385624149N01002657EA0000000936
B1241445624153N01002840EA0000000953
B1241495624228N01002883EA0000000949
B1241545624274N01002811EA0000000970
B1242025624205N01002788EA0000000982
B1242075624200N01002949EA0000000997
B1242125624269N01003012EA0000001006
B1242175624293N01002933EA0000001016
B1242225624235N01002935EA0000001027
B1242285624216N01003116EA0000001034
B1242335624284N01003198EA0000001039
B1242385624324N01003126EA0000001053
B1242435624276N01003099EA0000001062
B1242495624240N01003264EA0000001069
B1242545624300N01003376EA0000001073
B1242595624372N01003343EA0000001081
B1243045624380N01003248EA0000001094
B1243095624317N01003262EA0000001098
B1243155624308N01003449EA0000001110
B1243205624385N01003522EA0000001112
B1243255624436N01003462EA0000001131
B1243305624400N01003405EA0000001134
B1243355624346N01003506EA0000001137
B1243405624363N01003665EA0000001148
B1243455624439N01003731EA0000001152
B1243515624475N01003641EA0000001172
B1243565624421N01003649EA0000001182
B1244015624398N01003806EA0000001180
B1244065624460N01003915EA0000001186
B1244115624535N01003904EA0000001197
B1244165624542N01003815EA0000001210
B1244215624483N01003839EA0000001221
B1244265624458N01003990EA0000001224
B1244315624507N01004130EA0000001237
B1244365624581N01004150EA0000001249
B1244415624615N01004069EA0000001253
B1244465624573N01004026EA0000001268
B1244515624522N01004124EA0000001272
B1244565624534N01004286EA0000001278
B1245015624594N01004405EA0000001288
B1245065624670N01004425EA0000001292
B1245125624742N01004363EA0000001303
B1245175624805N01004299EA0000001294
B1245225624879N01004214EA0000001259
B1245275624966N01004106EA0000001237
B1245325625058N01003986EA0000001218
B1245375625154N01003859EA0000001198
B1245425625251N01003726EA0000001186
B1245495625394N01003545EA0000001171
B1245555625518N01003402EA0000001171
B1246015625639N01003264EA0000001161
B1246075625762N01003124EA0000001148
B1246125625865N01003007EA0000001144
B1246175625964N01002891EA0000001137
B1246245626104N01002726EA0000001118
B1246325626261N01002552EA0000001125
B1246405626415N01002382EA0000001110
B1246475626546N01002217EA0000001097
B1246525626642N01002099EA0000001085
B1246585626757N01001954EA0000001071
B1247065626913N01001752EA0000001052
B1247125627035N01001605EA0000001048
B1247175627130N01001495EA0000001081
B1247225627207N01001409EA0000001116
B1247275627273N01001334EA0000001134
B1247325627336N01001267EA0000001147
B1247385627411N01001184EA0000001136
B1247445627487N01001091EA0000001145
B1247505627562N01001001EA0000001136
B1247555627627N01000911EA0000001107
B1248005627699N01000793EA0000001079
B1248065627793N01000637EA0000001079
B1248115627867N01000513EA0000001084
B1248175627952N01000359EA0000001076
B1248225628022N01000225EA0000001065
B1248275628095N01000088EA0000001058
B1248325628165N00959951EA0000001060
B1248375628230N00959815EA0000001059
B1248425628292N00959676EA0000001054
B1248475628356N00959532EA0000001035
B1248525628426N00959378EA0000001018
B1248585628515N00959191EA0000001008
B1249035628591N00959041EA0000001005
B1249095628683N00958863EA0000000993
B1249145628759N00958715EA0000000986
B1249205628843N00958536EA0000000985
B1249255628910N00958391EA0000000982
B1249305628979N00958247EA0000000975
B1249355629049N00958109EA0000000977
B1249405629121N00957984EA0000000980
B1249465629206N00957833EA0000000979
B1249515629265N00957695EA0000000976
B1249565629284N00957538EA0000000974
B1250015629257N00957386EA0000000967
B1250065629193N00957267EA0000000960
B1250125629098N00957159EA0000000954
B1250185628991N00957073EA0000000936
B1250245628872N00957000EA0000000928
B1250295628772N00956941EA0000000920
B1250345628672N00956884EA0000000923
B1250395628572N00956835EA0000000916
B1250445628471N00956787EA0000000909
B1250495628372N00956735EA0000000906
B1250575628211N00956657EA0000000888
B1251055628049N00956576EA0000000872
B1251135627898N00956494EA0000000864
B1251225627718N00956411EA0000000845
B1251295627574N00956360EA0000000854
B1251345627479N00956316EA0000000859
B1251395627386N00956271EA0000000865
B1251445627301N00956230EA0000000882
B1251535627159N00956175EA0000000889
B1251585627079N00956142EA0000000870
B1252055626955N00956074EA0000000850
B1252145626793N00955973EA0000000843
B1252205626682N00955909EA0000000844
B1252255626597N00955866EA0000000871
B1252305626523N00955827EA0000000887
B1252365626438N00955783EA0000000891
B1252425626347N00955742EA0000000879
B1252495626222N00955692EA0000000849
B1252575626065N00955607EA0000000832
B1253105625815N00955477EA0000000819
B1253205625629N00955383EA0000000807
B1253285625482N00955283EA0000000790
B1253335625399N00955199EA0000000790
B1253385625320N00955114EA0000000784
B1253445625224N00955007EA0000000778
B1253495625146N00954919EA0000000774
B1253565625033N00954799EA0000000761
B1254015624951N00954707EA0000000753
B1254095624826N00954559EA0000000755
B1254195624668N00954389EA0000000734
B1254255624566N00954290EA0000000731
B1254315624474N00954196EA0000000755
B1254375624399N00954116EA0000000771
B1254435624332N00954043EA0000000780
B1254485624276N00953983EA0000000780
B1254575624163N00953928EA0000000790
B1255025624095N00953948EA0000000801
B1255085624020N00953963EA0000000809
B1255145624003N00953866EA0000000792
B1255195624070N00953848EA0000000785
B1255245624138N00953950EA0000000779
B1255295624181N00954108EA0000000774
B1255345624216N00954271EA0000000787
B1255395624220N00954434EA0000000791
B1255445624169N00954544EA0000000792
B1255505624086N00954551EA0000000788
B1255565623990N00954555EA0000000766
B1256015623893N00954596EA0000000753
B1256075623778N00954657EA0000000743
B1256125623668N00954720EA0000000719
B1256205623490N00954811EA0000000731
B1256255623386N00954872EA0000000727
B1256325623239N00954952EA0000000710
B1256385623109N00955011EA0000000700
B1256435623006N00955060EA0000000717
B1256485622916N00955107EA0000000750
B1256535622846N00955150EA0000000773
B1256585622792N00955113EA0000000761
B1257035622807N00955010EA0000000764
B1257085622879N00954994EA0000000775
B1257135622957N00955079EA0000000766
B1257185623013N00955225EA0000000775
B1257255622990N00955439EA0000000794
B1257315622920N00955495EA0000000778
B1257365622914N00955406EA0000000783
B1257415622990N00955431EA0000000786
B1257465623054N00955550EA0000000794
B1257525623079N00955726EA0000000790
B1258015622967N00955902EA0000000746
B1258065622876N00955943EA0000000728
B1258145622720N00955954EA0000000707
B1258215622591N00955900EA0000000694
B1258285622473N00955809EA0000000683
B1258335622388N00955734EA0000000668
B1258385622304N00955648EA0000000664
B1258465622179N00955512EA0000000670
B1258535622077N00955393EA0000000675
B1259015621984N00955291EA0000000721
B1259075621924N00955230EA0000000733
B1259125621913N00955134EA0000000737
B1259175621982N00955103EA0000000750
B1259225622044N00955215EA0000000745
B1259285622031N00955399EA0000000760
B1259345621966N00955448EA0000000769
B1259395621940N00955372EA0000000770
B1259445621993N00955311EA0000000778
B1259505622071N00955421EA0000000785
B1259565622053N00955592EA0000000795
B1300025621986N00955618EA0000000792
B1300075621992N00955527EA0000000794
B1300135622083N00955537EA0000000801
B1300185622137N00955666EA0000000804
B1300245622118N00955830EA0000000811
B1300295622064N00955802EA0000000819
B1300345622097N00955716EA0000000831
B1300395622175N00955779EA0000000829
B1300445622181N00955941EA0000000837
B1300495622119N00955984EA0000000850
B1300545622105N00955896EA0000000856
B1300595622170N00955853EA0000000862
B1301045622234N00955966EA0000000863
B1301095622216N00956114EA0000000870
B1301145622156N00956124EA0000000877
B1301195622167N00956023EA0000000882
B1301245622246N00956026EA0000000888
B1301295622293N00956169EA0000000892
B1301365622237N00956332EA0000000897
B1301425622201N00956256EA0000000900
B1301495622297N00956219EA0000000911
B1301545622347N00956357EA0000000907
B1301595622330N00956507EA0000000918
B1302045622275N00956549EA0000000924
B1302105622269N00956443EA0000000920
B1302155622340N00956411EA0000000930
B1302205622411N00956509EA0000000925
B1302255622443N00956661EA0000000934
B1302305622422N00956794EA0000000942
B1302355622367N00956815EA0000000937
B1302405622374N00956726EA0000000939
B1302455622453N00956739EA0000000940
B1302505622508N00956873EA0000000951
B1302555622486N00957004EA0000000955
B1303005622433N00957001EA0000000953
B1303055622446N00956909EA0000000956
B1303105622525N00956922EA0000000960
B1303155622566N00957060EA0000000967
B1303205622532N00957176EA0000000974
B1303255622474N00957208EA0000000971
B1303315622386N00957203EA0000000942
B1303365622294N00957188EA0000000910
B1303415622190N00957161EA0000000892
B1303465622085N00957135EA0000000888
B1303525621954N00957120EA0000000878
B1303585621821N00957114EA0000000875
B1304045621694N00957095EA0000000876
B1304095621590N00957077EA0000000862
B1304165621440N00957047EA0000000851
B1304255621252N00956996EA0000000841
B1304325621103N00956976EA0000000825
B1304385620973N00956968EA0000000818
B1304435620867N00956962EA0000000814
B1304495620742N00956947EA0000000807
B1304545620637N00956926EA0000000796
B1305045620427N00956867EA0000000786
B1305105620306N00956828EA0000000779
B1305165620189N00956785EA0000000770
B1305265619991N00956725EA0000000768
B1305345619841N00956692EA0000000772
B1305415619720N00956629EA0000000771
B1305475619634N00956535EA0000000770
B1305525619576N00956455EA0000000800
B1305595619513N00956361EA0000000781
B1306055619444N00956249EA0000000744
B1306135619344N00956056EA0000000725
B1306215619257N00955854EA0000000719
B1306275619196N00955712EA0000000718
B1306325619145N00955594EA0000000722
B1306385619094N00955475EA0000000747
B1306445619052N00955384EA0000000748
B1306495619016N00955290EA0000000722
B1306545618972N00955175EA0000000704
B1307005618915N00955026EA0000000698
B1307055618865N00954900EA0000000686
B1307125618792N00954716EA0000000673
B1307195618717N00954532EA0000000666
B1307245618663N00954401EA0000000658
B1307305618593N00954246EA0000000645
B1307355618535N00954122EA0000000664
B1307405618487N00954027EA0000000679
B1307455618435N00953938EA0000000659
B1307505618376N00953829EA0000000641
B1307575618296N00953669EA0000000636
B1308025618241N00953554EA0000000629
B1308095618166N00953391EA0000000620
B1308145618112N00953282EA0000000628
B1308195618057N00953187EA0000000625
B1308265617961N00953076EA0000000602
B1308345617843N00952943EA0000000589
B1308415617743N00952820EA0000000583
B1308465617673N00952729EA0000000580
B1308515617604N00952640EA0000000579
B1308575617521N00952530EA0000000569
B1309055617410N00952376EA0000000555
B1309105617343N00952282EA0000000567
B1309155617283N00952198EA0000000576
B1309205617225N00952120EA0000000574
B1309285617123N00951992EA0000000549
B1309365617003N00951877EA0000000548
B1309425616907N00951816EA0000000544
B1309495616801N00951772EA0000000567
B1309555616716N00951740EA0000000560
B1310065616564N00951700EA0000000574
B1310125616487N00951690EA0000000586
B1310175616445N00951628EA0000000577
B1310225616480N00951533EA0000000577
B1310275616566N00951545EA0000000577
B1310325616623N00951683EA0000000576
B1310385616614N00951879EA0000000586
B1310435616576N00952015EA0000000587
B1310485616514N00952098EA0000000587
B1310545616446N00952095EA0000000595
B1311005616389N00952070EA0000000600
B1311055616353N00952017EA0000000584
B1311105616341N00951909EA0000000563
B1311165616337N00951753EA0000000560
B1311225616338N00951601EA0000000572
B1311285616342N00951468EA0000000576
B1311365616342N00951267EA0000000556
B1311415616336N00951137EA0000000567
B1311485616329N00950969EA0000000579
B1311535616326N00950867EA0000000587
B1311585616317N00950765EA0000000562
B1312055616286N00950588EA0000000550
B1312115616259N00950436EA0000000553
B1312165616235N00950308EA0000000554
B1312215616213N00950183EA0000000563
B1312265616190N00950074EA0000000582
B1312345616154N00949935EA0000000598
B1312405616146N00949827EA0000000592
B1312455616142N00949730EA0000000589
B1312515616121N00949620EA0000000580
B1312575616087N00949494EA0000000561
B1313035616049N00949349EA0000000561
B1313085616028N00949233EA0000000576
B1313135616012N00949126EA0000000589
B1313185615955N00949097EA0000000592
B1313235615913N00949224EA0000000610
B1313285615958N00949362EA0000000613
B1313335616036N00949387EA0000000613
B1313385616091N00949327EA0000000620
B1313435616101N00949241EA0000000630
B1313485616049N00949235EA0000000628
B1313545616020N00949404EA0000000630
B1313595616068N00949540EA0000000636
B1314045616142N00949599EA0000000642
B1314095616194N00949532EA0000000636
B1314145616171N00949458EA0000000650
B1314195616118N00949514EA0000000653
B1314245616109N00949672EA0000000650
B1314295616166N00949799EA0000000658
B1314345616237N00949805EA0000000671
B1314395616263N00949723EA0000000665
B1314445616213N00949694EA0000000671
B1314495616171N00949806EA0000000680
B1314545616199N00949961EA0000000676
B1314595616276N00950012EA0000000689
B1315045616315N00949943EA0000000693
B1315095616278N00949888EA0000000685
B1315145616223N00949966EA0000000692
B1315205616217N00950157EA0000000695
B1315255616288N00950263EA0000000692
B1315305616356N00950228EA0000000701
B1315355616356N00950143EA0000000703
B1315405616306N00950126EA0000000708
B1315455616263N00950235EA0000000713
B1315505616290N00950391EA0000000711
B1315565616381N00950438EA0000000717
B1316025616407N00950345EA0000000719
B1316075616360N00950316EA0000000721
B1316125616318N00950431EA0000000724
B1316185616365N00950600EA0000000726
B1316235616440N00950603EA0000000728
B1316285616454N00950523EA0000000734
B1316335616422N00950452EA0000000735
B1316385616388N00950387EA0000000742
B1316435616357N00950329EA0000000737
B1316485616319N00950252EA0000000714
B1316535616273N00950150EA0000000698
B1316595616215N00950021EA0000000711
B1317065616161N00949897EA0000000740
B1317115616151N00949804EA0000000737
B1317165616217N00949746EA0000000745
B1317215616287N00949846EA0000000753
B1317265616292N00949994EA0000000739
B1317315616234N00950076EA0000000734
B1317365616172N00950085EA0000000741
B1317415616119N00950066EA0000000748
B1317465616095N00949991EA0000000743
B1317515616165N00949963EA0000000747
B1317565616197N00950103EA0000000761
B1318025616133N00950166EA0000000765
B1318085616142N00950073EA0000000772
B1318135616217N00950106EA0000000773
B1318185616246N00950247EA0000000781
B1318245616192N00950344EA0000000785
B1318295616160N00950287EA0000000790
B1318345616206N00950223EA0000000785
B1318405616288N00950324EA0000000794
B1318455616278N00950466EA0000000799
B1318505616222N00950503EA0000000804
B1318565616197N00950425EA0000000807
B1319015616236N00950358EA0000000802
B1319065616307N00950341EA0000000806
B1319125616386N00950444EA0000000803
B1319175616376N00950589EA0000000809
B1319225616325N00950581EA0000000805
B1319295616316N00950443EA0000000819
B1319345616301N00950364EA0000000824
B1319405616275N00950282EA0000000836
B1319455616258N00950221EA0000000841
B1319505616211N00950212EA0000000830
B1319555616175N00950346EA0000000832
B1320015616213N00950521EA0000000841
B1320065616280N00950602EA0000000842
B1320115616339N00950556EA0000000839
B1320165616338N00950472EA0000000851
B1320215616322N00950406EA0000000858
B1320265616308N00950342EA0000000860
B1320315616293N00950272EA0000000862
B1320365616278N00950203EA0000000865
B1320415616263N00950136EA0000000864
B1320485616239N00950034EA0000000873
B1320535616221N00949963EA0000000864
B1320595616190N00949849EA0000000838
B1321045616160N00949728EA0000000825
B1321115616126N00949534EA0000000807
B1321175616106N00949351EA0000000806
B1321255616082N00949100EA0000000785
B1321305616068N00948936EA0000000779
B1321375616045N00948707EA0000000769
B1321455616027N00948434EA0000000759
B1321535616013N00948159EA0000000755
B1321585616006N00947990EA0000000751
B1322035616004N00947822EA0000000744
B1322085616000N00947653EA0000000730
B1322145615993N00947446EA0000000724
B1322205615983N00947245EA0000000716
B1322255615974N00947076EA0000000705
B1322305615965N00946908EA0000000698
B1322365615955N00946713EA0000000699
B1322425615946N00946521EA0000000690
B1322495615940N00946302EA0000000690
B1322555615936N00946116EA0000000680
B1323015615931N00945929EA0000000675
B1323065615928N00945773EA0000000676
B1323125615917N00945595EA0000000674
B1323215615883N00945331EA0000000662
B1323265615863N00945184EA0000000658
B1323315615845N00945034EA0000000656
B1323385615821N00944836EA0000000671
B1323445615798N00944688EA0000000680
B1323505615776N00944554EA0000000688
B1323565615754N00944430EA0000000694
B1324025615737N00944308EA0000000682
B1324095615741N00944131EA0000000675
B1324165615755N00943934EA0000000657
B1324225615767N00943759EA0000000665
B1324285615775N00943598EA0000000684
B1324335615790N00943485EA0000000697
B1324385615805N00943381EA0000000705
B1324445615817N00943263EA0000000708
B1324495615787N00943200EA0000000711
B1324545615734N00943246EA0000000711
B1324595615721N00943386EA0000000718
B1325045615774N00943511EA0000000721
B1325095615852N00943535EA0000000730
B1325145615895N00943462EA0000000727
B1325195615880N00943382EA0000000732
B1325245615833N00943395EA0000000731
B1325305615808N00943548EA0000000731
B1325355615855N00943678EA0000000742
B1325405615930N00943695EA0000000742
B1325455615967N00943610EA0000000741
B1325515615946N00943515EA0000000739
B1325565615925N00943439EA0000000750
B1326025615917N00943343EA0000000754
B1326075615964N00943261EA0000000755
B1326125616046N00943257EA0000000761
B1326175616120N00943347EA0000000760
B1326225616151N00943486EA0000000764
B1326275616135N00943607EA0000000759
B1326325616090N00943672EA0000000763
B1326375616050N00943649EA0000000773
B1326435616037N00943558EA0000000781
B1326485616047N00943475EA0000000779
B1326535616118N00943433EA0000000774
B1326585616190N00943524EA0000000775
B1327045616210N00943703EA0000000775
B1327115616156N00943830EA0000000789
B1327165616112N00943832EA0000000785
B1327215616107N00943749EA0000000789
B1327265616165N00943693EA0000000789
B1327315616242N00943756EA0000000784
B1327365616264N00943906EA0000000780
B1327415616223N00943984EA0000000794
B1327465616188N00943945EA0000000796
B1327515616178N00943864EA0000000793
B1327575616168N00943733EA0000000777
B1328045616158N00943550EA0000000754
B1328155616127N00943221EA0000000730
B1328225616102N00943014EA0000000731
B1328295616071N00942819EA0000000734
B1328345616046N00942683EA0000000731
B1328415616014N00942486EA0000000733
B1328465615990N00942348EA0000000743
B1328515615971N00942236EA0000000768
B1328565615958N00942146EA0000000776
B1329015615944N00942061EA0000000777
B1329075615922N00941970EA0000000784
B1329125615898N00941898EA0000000776
B1329185615856N00941806EA0000000746
B1329255615758N00941744EA0000000727
B1329315615659N00941725EA0000000720
B1329365615577N00941717EA0000000744
B1329415615516N00941708EA0000000752
B1329485615412N00941702EA0000000712
B1329535615323N00941699EA0000000708
B1329585615232N00941695EA0000000695
B1330035615137N00941690EA0000000686
B1330085615040N00941680EA0000000679
B1330155614908N00941667EA0000000681
B1330205614816N00941660EA0000000675
B1330275614685N00941642EA0000000662
B1330345614552N00941623EA0000000653
B1330395614457N00941606EA0000000650
B1330465614327N00941580EA0000000645
B1330525614217N00941556EA0000000640
B1331015614055N00941522EA0000000627
B1331065613965N00941499EA0000000620
B1331145613824N00941462EA0000000616
B1331195613739N00941433EA0000000626
B1331245613670N00941404EA0000000649
B1331315613591N00941382EA0000000661
B1331365613534N00941366EA0000000659
B1331435613453N00941337EA0000000670
B1331485613398N00941323EA0000000667
B1331565613290N00941286EA0000000641
B1332035613184N00941250EA0000000641
B1332085613113N00941215EA0000000639
B1332135613046N00941164EA0000000633
B1332215612989N00940981EA0000000619
B1332265612976N00940852EA0000000634
B1332325612966N00940707EA0000000629
B1332375612959N00940579EA0000000641
B1332525612956N00940204EA0000000608
B1333015612952N00939928EA0000000618
B1333065612953N00939779EA0000000614
B1333115612956N00939627EA0000000612
B1333185612958N00939420EA0000000609
B1333275612959N00939154EA0000000587
B1333325612962N00939000EA0000000584
B1333385612968N00938815EA0000000578
B1333435612973N00938656EA0000000568
B1333495612981N00938472EA0000000572
B1333545612984N00938322EA0000000559
B1334015612992N00938099EA0000000540
B1334065613001N00937935EA0000000538
B1334115613009N00937773EA0000000534
B1334185613011N00937551EA0000000537
B1334265613004N00937320EA0000000536
B1334325612991N00937149EA0000000543
B1334385612982N00937002EA0000000569
B1334445612975N00936884EA0000000583
B1334495612984N00936791EA0000000584
B1334545613053N00936736EA0000000582
B1334595613136N00936785EA0000000584
B1335045613186N00936915EA0000000583
B1335095613178N00937055EA0000000581
B1335165613107N00937138EA0000000587
B1335215613058N00937128EA0000000590
B1335275613030N00937047EA0000000594
B1335365613034N00936894EA0000000576
B1335425613072N00936762EA0000000568
B1335485613105N00936622EA0000000566
B1335555613144N00936448EA0000000557
B1336005613173N00936320EA0000000545
B1336055613203N00936177EA0000000529
B1336105613231N00936023EA0000000522
B1336155613262N00935890EA0000000543
B1336205613280N00935769EA0000000538
B1336285613287N00935568EA0000000541
B1336335613289N00935449EA0000000534
B1336385613294N00935313EA0000000512
B1336445613304N00935137EA0000000501
B1336505613324N00934956EA0000000485
B1336575613355N00934736EA0000000478
B1337035613370N00934555EA0000000481
B1337085613378N00934412EA0000000469
B1337155613377N00934204EA0000000448
B1337205613394N00934052EA0000000442
B1337255613410N00933906EA0000000444
B1337305613425N00933766EA0000000464
B1337365613429N00933638EA0000000478
B1337415613375N00933604EA0000000469
B1337465613328N00933718EA0000000486
B1337525613356N00933902EA0000000490
B1337575613430N00933974EA0000000492
B1338025613494N00933942EA0000000499
B1338085613495N00933839EA0000000495
B1338135613445N00933850EA0000000503
B1338185613419N00933981EA0000000504
B1338235613457N00934125EA0000000504
B1338285613533N00934173EA0000000511
B1338335613588N00934121EA0000000513
B1338385613575N00934038EA0000000513
B1338435613524N00934084EA0000000517
B1338485613518N00934235EA0000000517
B1338535613576N00934356EA0000000521
B1338585613651N00934373EA0000000529
B1339035613670N00934280EA0000000530
B1339085613620N00934287EA0000000536
B1339135613602N00934432EA0000000530
B1339185613658N00934564EA0000000538
B1339235613732N00934580EA0000000551
B1339285613758N00934490EA0000000550
B1339335613709N00934475EA0000000556
B1339385613671N00934596EA0000000560
B1339435613704N00934746EA0000000563
B1339485613781N00934780EA0000000571
B1339535613814N00934701EA0000000578
B1339585613767N00934670EA0000000579
B1340035613730N00934790EA0000000583
B1340085613773N00934935EA0000000587
B1340135613848N00934936EA0000000588
B1340185613856N00934844EA0000000600
B1340235613801N00934846EA0000000608
B1340295613777N00935022EA0000000609
B1340345613836N00935151EA0000000611
B1340395613913N00935157EA0000000612
B1340445613939N00935069EA0000000611
B1340495613896N00935029EA0000000632
B1340545613864N00935146EA0000000632
B1340595613908N00935291EA0000000636
B1341045613982N00935303EA0000000641
B1341105614009N00935203EA0000000637
B1341155613964N00935178EA0000000656
B1341205613938N00935309EA0000000658
B1341255613992N00935443EA0000000662
B1341305614069N00935462EA0000000662
B1341355614101N00935370EA0000000661
B1341405614055N00935332EA0000000685
B1341455614019N00935439EA0000000692
B1341505614051N00935592EA0000000685
B1341555614133N00935651EA0000000689
B1342005614198N00935600EA0000000695
B1342055614204N00935509EA0000000706
B1342105614158N00935527EA0000000718
B1342155614156N00935680EA0000000716
B1342205614231N00935761EA0000000729
B1342255614277N00935696EA0000000736
B1342305614249N00935636EA0000000747
B1342355614209N00935725EA0000000751
B1342405614242N00935877EA0000000759
B1342455614320N00935901EA0000000766
B1342505614340N00935809EA0000000769
B1342555614292N00935805EA0000000784
B1343005614276N00935943EA0000000790
B1343055614339N00936050EA0000000801
B1343105614401N00936002EA0000000798
B1343155614387N00935921EA0000000810
B1343205614337N00935973EA0000000821
B1343255614344N00936125EA0000000829
B1343305614418N00936191EA0000000832
B1343355614458N00936107EA0000000838
B1343405614422N00936074EA0000000854
B1343455614388N00936180EA0000000862
B1343505614427N00936322EA0000000864
B1343555614504N00936339EA0000000871
B1344005614537N00936254EA0000000875
B1344055614507N00936203EA0000000884
B1344105614460N00936281EA0000000870
B1344155614466N00936443EA0000000883
B1344205614538N00936525EA0000000885
B1344255614593N00936457EA0000000893
B1344305614578N00936369EA0000000892
B1344355614541N00936288EA0000000870
B1344405614487N00936185EA0000000838
B1344455614423N00936063EA0000000817
B1344515614343N00935916EA0000000809
B1344565614278N00935793EA0000000804
B1345025614202N00935643EA0000000795
B1345075614137N00935517EA0000000786
B1345135614059N00935365EA0000000779
B1345225613938N00935141EA0000000765
B1345275613872N00935019EA0000000761
B1345325613809N00934897EA0000000757
B1345385613737N00934751EA0000000749
B1345435613680N00934627EA0000000742
B1345495613608N00934478EA0000000731
B1345565613524N00934303EA0000000721
B1346025613453N00934147EA0000000711
B1346085613383N00933985EA0000000695
B1346135613337N00933835EA0000000691
B1346185613302N00933682EA0000000696
B1346235613274N00933537EA0000000697
B1346295613242N00933358EA0000000697
B1346345613217N00933214EA0000000698
B1346395613194N00933069EA0000000690
B1346445613170N00932921EA0000000685
B1346495613148N00932778EA0000000688
B1346555613121N00932618EA0000000692
B1347015613094N00932452EA0000000674
B1347065613072N00932306EA0000000671
B1347115613054N00932171EA0000000674
B1347205613022N00931933EA0000000664
B1347255613005N00931805EA0000000663
B1347305612985N00931684EA0000000664
B1347355612967N00931561EA0000000655
B1347405612950N00931431EA0000000647
B1347475612931N00931248EA0000000638
B1347525612915N00931116EA0000000627
B1347595612883N00930931EA0000000620
B1348045612856N00930804EA0000000613
B1348105612825N00930648EA0000000601
B1348155612803N00930516EA0000000599
B1348215612780N00930361EA0000000600
B1348265612759N00930233EA0000000591
B1348315612741N00930100EA0000000588
B1348365612721N00929969EA0000000586
B1348415612699N00929839EA0000000578
B1348475612671N00929676EA0000000567
B1348535612645N00929509EA0000000561
B1348585612626N00929368EA0000000553
B1349045612600N00929203EA0000000550
B1349105612568N00929049EA0000000544
B1349205612515N00928797EA0000000542
B1349265612483N00928642EA0000000542
B1349315612460N00928524EA0000000562
B1349395612440N00928359EA0000000568
B1349445612434N00928261EA0000000576
B1349495612410N00928192EA0000000565
B1349545612354N00928170EA0000000557
B1349595612292N00928214EA0000000550
B1350045612229N00928304EA0000000535
B1350105612153N00928435EA0000000526
B1350195612033N00928619EA0000000509
B1350245611966N00928715EA0000000502
B1350305611883N00928816EA0000000496
B1350355611813N00928877EA0000000501
B1350405611754N00928919EA0000000517
B1350465611692N00928952EA0000000520
B1350535611618N00929034EA0000000508
B1350585611588N00929167EA0000000502
B1351035611609N00929338EA0000000496
B1351085611679N00929468EA0000000494
B1351135611769N00929532EA0000000489
B1351185611855N00929512EA0000000484
B1351255611928N00929384EA0000000475
B1351305611965N00929275EA0000000474
B1351375612010N00929129EA0000000483
B1351425612046N00929028EA0000000479
B1351475612096N00928941EA0000000478
B1351525612163N00928883EA0000000481
B1351585612261N00928862EA0000000474
B1352035612349N00928879EA0000000466
B1352095612461N00928918EA0000000454
B1352155612579N00928954EA0000000440
B1352205612679N00928945EA0000000403
B1352255612762N00928843EA0000000380
B1352305612804N00928715EA0000000404
B1352355612807N00928606EA0000000415
B1352405612790N00928510EA0000000416
B1352455612763N00928416EA0000000416
B1352515612728N00928319EA0000000432
B1353035612642N00928171EA0000000445
B1353115612578N00928084EA0000000447
B1353195612511N00927996EA0000000451
B1353245612469N00927936EA0000000457
B1353295612429N00927880EA0000000461
B1353355612379N00927812EA0000000463
B1353435612313N00927720EA0000000469
B1353495612265N00927653EA0000000475
B1353555612216N00927588EA0000000479
B1354005612175N00927534EA0000000483
B1354055612135N00927480EA0000000490
B1354105612097N00927423EA0000000497
B1354165612052N00927353EA0000000500
B1354225612002N00927283EA0000000507
B1354285611954N00927214EA0000000512
B1354355611898N00927132EA0000000515
B1354415611850N00927057EA0000000516
B1354475611802N00926983EA0000000523
B1354535611760N00926906EA0000000529
B1354585611727N00926836EA0000000531
B1355075611670N00926704EA0000000529
B1355145611630N00926597EA0000000537
B1355195611601N00926521EA0000000539
B1355245611570N00926445EA0000000540
B1355315611529N00926340EA0000000547
B1355375611495N00926250EA0000000551
B1355425611464N00926173EA0000000548
B1355475611429N00926097EA0000000551
B1355535611386N00926007EA0000000556
B1355585611351N00925932EA0000000563
B1356035611317N00925862EA0000000567
B1356095611275N00925771EA0000000569
B1356165611225N00925664EA0000000574
B1356215611192N00925583EA0000000579
B1356275611153N00925488EA0000000584
B1356325611119N00925408EA0000000588
B1356375611086N00925334EA0000000596
B1356435611044N00925253EA0000000596
B1356485611004N00925188EA0000000595
B1356535610971N00925111EA0000000597
