AOGNOGN
HFDTE040825
HFFXA050
HFPLTPILOTINCHARGE:
HFGTYGLIDERTYPE:Ventus 2ct
HFGIDGLIDERID:OY-XVJ
HFDTM100GPSDATUM:WGS-1984
HFRFWFIRMWAREVERSION:
HFRHWHARDWAREVERSION:
HFFTYFRTYPE:OGN-FLIGHTBOOK
HFGPSGENERIC
HFPRSPRESSALTSENSOR:
HFCIDCOMPETITIONID:VJ
B1150445600703N00901461EA0000000043
B1150485600697N00901392EA0000000043
B1150535600691N00901283EA0000000043
B1150585600684N00901151EA0000000043
B1151035600676N00901004EA0000000047
B1151085600669N00900854EA0000000062
B1151145600639N00900695EA0000000085
B1151205600580N00900555EA0000000092
B1151265600482N00900477EA0000000106
B1151315600390N00900473EA0000000127
B1151375600281N00900558EA0000000140
B1151435600184N00900715EA0000000155
B1151485600132N00900901EA0000000167
B1151535600112N00901111EA0000000183
B1152035600138N00901551EA0000000202
B1152095600167N00901816EA0000000213
B1152155600204N00902071EA0000000225
B1152205600256N00902265EA0000000238
B1152255600336N00902424EA0000000248
B1152305600428N00902555EA0000000261
B1152365600544N00902680EA0000000273
B1152425600668N00902749EA0000000285
B1152485600791N00902771EA0000000306
B1152535600895N00902776EA0000000318
B1152595601027N00902784EA0000000326
B1153055601157N00902785EA0000000338
B1153105601263N00902799EA0000000363
B1153175601401N00902739EA0000000378
B1153235601494N00902623EA0000000390
B1153285601575N00902540EA0000000404
B1153335601684N00902546EA0000000410
B1153385601792N00902641EA0000000418
B1153435601881N00902805EA0000000424
B1153495601956N00903051EA0000000438
B1153545601997N00903264EA0000000456
B1154005602032N00903527EA0000000466
B1154065602059N00903788EA0000000482
B1154115602074N00904009EA0000000494
B1154165602086N00904228EA0000000507
B1154215602099N00904441EA0000000529
B1154275602134N00904672EA0000000537
B1154345602167N00904941EA0000000535
B1154395602195N00905128EA0000000528
B1154445602226N00905319EA0000000521
B1154495602247N00905520EA0000000513
B1154545602230N00905718EA0000000508
B1154595602161N00905830EA0000000505
B1155045602106N00905782EA0000000516
B1155095602096N00905678EA0000000518
B1155145602110N00905568EA0000000506
B1155195602124N00905454EA0000000507
B1155245602129N00905345EA0000000509
B1155305602131N00905213EA0000000507
B1155365602145N00905072EA0000000497
B1155415602160N00904948EA0000000491
B1155465602174N00904825EA0000000495
B1155525602193N00904678EA0000000496
B1155595602206N00904507EA0000000488
B1156045602213N00904384EA0000000495
B1156095602219N00904269EA0000000488
B1156145602207N00904156EA0000000480
B1156195602157N00904081EA0000000479
B1156265602063N00904027EA0000000472
B1156315601990N00903996EA0000000464
B1156375601900N00903969EA0000000463
B1156455601777N00903945EA0000000452
B1156525601670N00903921EA0000000453
B1156595601566N00903890EA0000000448
B1157045601502N00903823EA0000000448
B1157095601454N00903731EA0000000448
B1157155601449N00903593EA0000000447
B1157205601434N00903481EA0000000434
B1157265601381N00903372EA0000000429
B1157355601288N00903224EA0000000420
B1157415601221N00903118EA0000000417
B1157475601156N00903014EA0000000416
B1157535601099N00902894EA0000000418
B1157585601088N00902774EA0000000424
B1158035601161N00902728EA0000000426
B1158085601230N00902851EA0000000420
B1158135601208N00903019EA0000000421
B1158205601110N00903029EA0000000427
B1158255601107N00902928EA0000000421
B1158305601191N00902931EA0000000422
B1158355601238N00903085EA0000000424
B1158405601203N00903243EA0000000430
B1158455601146N00903212EA0000000431
B1158505601207N00903148EA0000000429
B1158555601263N00903283EA0000000438
B1159005601214N00903409EA0000000433
B1159055601161N00903344EA0000000426
B1159105601217N00903265EA0000000429
B1159155601293N00903370EA0000000437
B1159205601283N00903528EA0000000441
B1159255601228N00903504EA0000000437
B1159305601281N00903440EA0000000439
B1159355601341N00903569EA0000000443
B1159415601284N00903692EA0000000435
B1159465601273N00903595EA0000000440
B1159515601353N00903606EA0000000443
B1159575601386N00903800EA0000000439
B1200025601319N00903862EA0000000443
B1200075601288N00903767EA0000000442
B1200135601322N00903638EA0000000437
B1200185601338N00903517EA0000000442
B1200235601276N00903479EA0000000444
B1200285601243N00903624EA0000000442
B1200335601309N00903742EA0000000439
B1200385601380N00903692EA0000000445
B1200435601425N00903601EA0000000449
B1200495601471N00903480EA0000000438
B1200545601500N00903362EA0000000430
B1201015601520N00903180EA0000000419
B1201075601527N00903018EA0000000412
B1201135601538N00902870EA0000000414
B1201195601564N00902728EA0000000400
B1201245601588N00902601EA0000000393
B1201315601616N00902419EA0000000390
B1201385601642N00902236EA0000000391
B1201445601661N00902085EA0000000395
B1201495601677N00901962EA0000000393
B1201575601701N00901759EA0000000388
B1202025601716N00901632EA0000000389
B1202075601727N00901510EA0000000391
B1202125601731N00901385EA0000000383
B1202285601738N00900988EA0000000370
B1202355601752N00900805EA0000000357
B1202405601761N00900675EA0000000351
B1202465601755N00900525EA0000000342
B1202525601734N00900380EA0000000345
B1202575601717N00900263EA0000000347
B1203025601686N00900155EA0000000347
B1203075601619N00900101EA0000000343
B1203125601543N00900151EA0000000354
B1203175601479N00900278EA0000000349
B1203235601388N00900313EA0000000339
B1203305601285N00900285EA0000000336
B1203375601179N00900291EA0000000329
B1203425601096N00900328EA0000000316
B1203475601018N00900406EA0000000306
B1203525600947N00900526EA0000000281
B1203575600898N00900708EA0000000271
B1204035600889N00900955EA0000000267
B1204095600934N00901192EA0000000273
B1204145600987N00901362EA0000000272
B1204195601013N00901552EA0000000268
B1204255600988N00901776EA0000000261
B1204315600954N00902003EA0000000252
B1204365600896N00902155EA0000000250
B1204415600818N00902263EA0000000256
B1204475600729N00902407EA0000000239
B1204525600684N00902592EA0000000230
B1204575600706N00902802EA0000000226
B1205025600796N00902911EA0000000221
B1205075600879N00902858EA0000000216
B1205135600884N00902697EA0000000209
B1205205600855N00902516EA0000000192
B1205255600836N00902394EA0000000174
B1205335600804N00902192EA0000000150
B1205385600784N00902065EA0000000137
B1205435600764N00901941EA0000000122
B1205485600745N00901816EA0000000104
B1205545600726N00901657EA0000000079
B1205595600708N00901515EA0000000059
B1206065600682N00901328EA0000000042
B1206125600659N00901188EA0000000041
B1206175600642N00901100EA0000000042
