AOGNOGN
HFDTE040825
HFFXA050
HFPLTPILOTINCHARGE:
HFGTYGLIDERTYPE:LS-8
HFGIDGLIDERID:OY-TNX
HFDTM100GPSDATUM:WGS-1984
HFRFWFIRMWAREVERSION:
HFRHWHARDWAREVERSION:
HFFTYFRTYPE:OGN-FLIGHTBOOK
HFGPSGENERIC
HFPRSPRESSALTSENSOR:
HFCIDCOMPETITIONID:X
B1015245600686N00901236EA0000000042
B1015245600686N00901236EA0000000042
B1015325600667N00901053EA0000000042
B1015375600655N00900913EA0000000045
B1015455600635N00900699EA0000000078
B1015535600613N00900496EA0000000094
B1015585600593N00900365EA0000000105
B1016065600553N00900170EA0000000132
B1016135600508N00900012EA0000000151
B1016185600482N00859894EA0000000164
B1016235600465N00859777EA0000000181
B1016285600449N00859662EA0000000193
B1016335600437N00859540EA0000000200
B1016425600419N00859323EA0000000219
B1016495600402N00859152EA0000000224
B1016545600388N00859019EA0000000228
B1017015600378N00858836EA0000000249
B1017065600376N00858708EA0000000256
B1017145600422N00858498EA0000000258
B1017225600517N00858340EA0000000292
B1017285600606N00858260EA0000000305
B1017355600730N00858207EA0000000319
B1017405600820N00858184EA0000000333
B1017465600933N00858158EA0000000353
B1017535601066N00858129EA0000000370
B1017585601159N00858108EA0000000384
B1018055601292N00858080EA0000000405
B1018115601406N00858076EA0000000426
B1018165601501N00858078EA0000000435
B1018235601638N00858085EA0000000448
B1018285601739N00858103EA0000000457
B1018335601839N00858135EA0000000467
B1018405601980N00858182EA0000000480
B1018475602120N00858205EA0000000502
B1018525602219N00858216EA0000000515
B1019015602395N00858223EA0000000526
B1019075602509N00858204EA0000000537
B1019135602620N00858200EA0000000550
B1019195602727N00858241EA0000000565
B1019265602831N00858221EA0000000557
B1019315602896N00858161EA0000000554
B1019375602994N00858128EA0000000539
B1019455603146N00858135EA0000000541
B1019515603251N00858240EA0000000536
B1019585603320N00858490EA0000000521
B1020045603330N00858727EA0000000531
B1020095603306N00858905EA0000000549
B1020155603228N00858917EA0000000548
B1020205603262N00858826EA0000000560
B1020285603339N00859023EA0000000565
B1020345603261N00859102EA0000000575
B1020395603246N00858994EA0000000577
B1020445603321N00859002EA0000000593
B1020495603344N00859164EA0000000596
B1020545603274N00859233EA0000000602
B1020595603242N00859136EA0000000606
B1021045603313N00859118EA0000000615
B1021095603350N00859270EA0000000620
B1021145603285N00859366EA0000000634
B1021195603238N00859297EA0000000637
B1021245603294N00859236EA0000000634
B1021295603365N00859342EA0000000646
B1021345603348N00859503EA0000000663
B1021395603275N00859550EA0000000662
B1021455603244N00859431EA0000000673
B1021505603310N00859411EA0000000681
B1021565603349N00859590EA0000000688
B1022015603288N00859683EA0000000697
B1022065603230N00859633EA0000000692
B1022115603263N00859549EA0000000695
B1022165603340N00859629EA0000000695
B1022215603356N00859806EA0000000713
B1022265603291N00859893EA0000000714
B1022315603253N00859799EA0000000714
B1022365603314N00859754EA0000000736
B1022415603379N00859851EA0000000731
B1022465603355N00900010EA0000000741
B1022515603281N00900039EA0000000749
B1022595603280N00859907EA0000000759
B1023045603357N00859945EA0000000762
B1023095603397N00900091EA0000000771
B1023155603337N00900236EA0000000775
B1023205603267N00900202EA0000000774
B1023255603270N00900105EA0000000784
B1023305603342N00900089EA0000000780
B1023365603435N00900197EA0000000792
B1023425603443N00900392EA0000000802
B1023475603373N00900483EA0000000809
B1023525603310N00900430EA0000000813
B1023575603328N00900324EA0000000818
B1024035603425N00900294EA0000000810
B1024115603587N00900265EA0000000797
B1024205603779N00900247EA0000000775
B1024295603979N00900226EA0000000764
B1024355604106N00900202EA0000000761
B1024435604260N00900147EA0000000758
B1024485604349N00900102EA0000000762
B1024545604455N00900038EA0000000748
B1024595604514N00859920EA0000000759
B1025045604523N00859779EA0000000767
B1025095604516N00859644EA0000000770
B1025165604500N00859452EA0000000778
B1025215604491N00859319EA0000000785
B1025265604482N00859186EA0000000783
B1025315604471N00859051EA0000000770
B1025365604460N00858912EA0000000763
B1025445604443N00858684EA0000000764
B1025495604430N00858544EA0000000762
B1025545604404N00858405EA0000000756
B1025595604355N00858282EA0000000757
B1026055604282N00858156EA0000000766
B1026105604227N00858051EA0000000787
B1026165604177N00857914EA0000000807
B1026235604130N00857745EA0000000822
B1026315604078N00857536EA0000000818
B1026365604047N00857381EA0000000811
B1026415604020N00857223EA0000000821
B1026465603993N00857072EA0000000814
B1026515603971N00856909EA0000000795
B1027045603934N00856425EA0000000747
B1027115603925N00856152EA0000000733
B1027215603916N00855772EA0000000729
B1027265603917N00855586EA0000000727
B1027315603919N00855406EA0000000733
B1027365603925N00855249EA0000000781
B1027435603936N00855073EA0000000760
B1027525603962N00854754EA0000000730
B1027575604021N00854623EA0000000765
B1028035604136N00854673EA0000000766
B1028085604181N00854863EA0000000775
B1028165604144N00855170EA0000000776
B1028215604112N00855362EA0000000777
B1028265604093N00855577EA0000000757
B1028325604083N00855865EA0000000754
B1028385604083N00856150EA0000000760
B1028435604086N00856389EA0000000742
B1028485604091N00856642EA0000000718
B1028535604094N00856904EA0000000699
B1029005604103N00857280EA0000000675
B1029065604111N00857606EA0000000656
B1029165604116N00858122EA0000000657
B1029225604134N00858409EA0000000667
B1029275604165N00858631EA0000000687
B1029325604198N00858825EA0000000712
B1029385604240N00859037EA0000000733
B1029465604298N00859307EA0000000747
B1029525604343N00859508EA0000000747
B1030015604408N00859825EA0000000732
B1030075604444N00900068EA0000000714
B1030145604477N00900380EA0000000693
B1030195604487N00900616EA0000000694
B1030265604487N00900941EA0000000701
B1030315604488N00901154EA0000000733
B1030365604492N00901344EA0000000739
B1030415604500N00901537EA0000000750
B1030465604512N00901720EA0000000773
B1030515604575N00901837EA0000000783
B1030585604663N00901771EA0000000786
B1031035604650N00901672EA0000000790
B1031085604586N00901632EA0000000795
B1031135604505N00901663EA0000000808
B1031185604438N00901781EA0000000815
B1031235604425N00901962EA0000000819
B1031285604474N00902109EA0000000814
B1031335604556N00902169EA0000000816
B1031385604629N00902137EA0000000822
B1031435604664N00902034EA0000000824
B1031485604650N00901915EA0000000829
B1031535604587N00901846EA0000000839
B1031585604503N00901876EA0000000854
B1032035604434N00902010EA0000000852
B1032115604388N00902317EA0000000846
B1032165604410N00902518EA0000000830
B1032225604500N00902713EA0000000806
B1032275604607N00902715EA0000000796
B1032325604661N00902564EA0000000789
B1032375604651N00902370EA0000000787
B1032435604619N00902157EA0000000833
B1032495604573N00901952EA0000000819
B1032585604570N00901593EA0000000806
B1033035604582N00901397EA0000000804
B1033135604589N00901000EA0000000783
B1033185604586N00900800EA0000000773
B1033235604573N00900604EA0000000768
B1033305604505N00900369EA0000000766
B1033365604400N00900236EA0000000771
B1033415604300N00900221EA0000000802
B1033465604216N00900304EA0000000820
B1033515604157N00900454EA0000000823
B1033565604142N00900644EA0000000824
B1034035604196N00900921EA0000000810
B1034095604261N00901168EA0000000809
B1034145604317N00901375EA0000000820
B1034225604400N00901702EA0000000822
B1034285604463N00901955EA0000000798
B1034335604515N00902184EA0000000790
B1034415604574N00902563EA0000000785
B1034465604612N00902802EA0000000799
B1034515604651N00903031EA0000000819
B1034595604703N00903377EA0000000848
B1035065604745N00903680EA0000000850
B1035135604793N00904010EA0000000836
B1035215604855N00904410EA0000000838
B1035285604897N00904764EA0000000851
B1035335604915N00905018EA0000000856
B1035395604926N00905320EA0000000866
B1035455604973N00905587EA0000000896
B1035535605052N00905912EA0000000896
B1035585605105N00906133EA0000000860
B1036045605182N00906440EA0000000822
B1036095605246N00906707EA0000000813
B1036145605309N00906968EA0000000813
B1036205605379N00907273EA0000000810
B1036315605501N00907839EA0000000775
B1036385605582N00908222EA0000000755
B1036465605670N00908673EA0000000730
B1036515605723N00908958EA0000000729
B1036565605815N00909128EA0000000777
B1037025605928N00909070EA0000000759
B1037085605930N00908861EA0000000722
B1037165605822N00908591EA0000000688
B1037245605691N00908324EA0000000664
B1037295605611N00908154EA0000000654
B1037375605492N00907870EA0000000632
B1037485605345N00907456EA0000000601
B1037535605287N00907260EA0000000588
B1038025605195N00906899EA0000000573
B1038095605128N00906624EA0000000578
B1038165605064N00906368EA0000000591
B1038215605029N00906202EA0000000617
B1038265605002N00906050EA0000000632
B1038315604977N00905898EA0000000649
B1038365604954N00905765EA0000000674
B1038445604921N00905577EA0000000684
B1038495604896N00905449EA0000000663
B1038595604838N00905135EA0000000639
B1039095604773N00904794EA0000000637
B1039145604740N00904628EA0000000644
B1039195604704N00904469EA0000000648
B1039255604661N00904287EA0000000663
B1039345604598N00904042EA0000000657
B1039395604561N00903898EA0000000644
B1039445604526N00903749EA0000000651
B1039505604486N00903579EA0000000669
B1039555604459N00903451EA0000000681
B1040005604432N00903319EA0000000677
B1040065604391N00903148EA0000000664
B1040125604351N00902972EA0000000668
B1040195604316N00902770EA0000000680
B1040265604281N00902571EA0000000677
B1040335604249N00902376EA0000000704
B1040385604226N00902252EA0000000721
B1040455604195N00902085EA0000000734
B1040555604144N00901836EA0000000744
B1041025604107N00901648EA0000000727
B1041085604078N00901475EA0000000735
B1041135604056N00901333EA0000000735
B1041205604036N00901127EA0000000747
B1041265604037N00900954EA0000000760
B1041325604050N00900781EA0000000758
B1041395604087N00900590EA0000000751
B1041445604132N00900457EA0000000735
B1041505604204N00900314EA0000000757
B1041555604255N00900212EA0000000771
B1042015604309N00900083EA0000000752
B1042085604386N00859908EA0000000731
B1042135604465N00859827EA0000000740
B1042185604562N00859825EA0000000733
B1042235604651N00859952EA0000000721
B1042285604666N00900160EA0000000720
B1042335604615N00900324EA0000000711
B1042405604503N00900465EA0000000698
B1042475604375N00900554EA0000000678
B1042535604261N00900618EA0000000676
B1043005604129N00900703EA0000000669
B1043055604030N00900778EA0000000654
B1043105603928N00900857EA0000000657
B1043155603832N00900934EA0000000677
B1043225603704N00901047EA0000000681
B1043315603540N00901205EA0000000672
B1043385603409N00901284EA0000000662
B1043445603291N00901323EA0000000650
B1043515603155N00901389EA0000000644
B1043565603057N00901422EA0000000639
B1044015602960N00901445EA0000000630
B1044065602856N00901475EA0000000615
B1044175602617N00901576EA0000000590
B1044225602515N00901642EA0000000604
B1044285602410N00901739EA0000000631
B1044335602326N00901761EA0000000630
B1044385602277N00901674EA0000000626
B1044435602305N00901564EA0000000621
B1044515602438N00901525EA0000000627
B1044565602527N00901578EA0000000639
B1045015602597N00901705EA0000000637
B1045065602617N00901885EA0000000635
B1045115602580N00902049EA0000000635
B1045165602501N00902107EA0000000632
B1045215602435N00902037EA0000000636
B1045275602418N00901895EA0000000632
B1045335602473N00901765EA0000000652
B1045385602555N00901750EA0000000666
B1045435602626N00901865EA0000000667
B1045485602621N00902035EA0000000668
B1045535602555N00902116EA0000000666
B1045585602493N00902061EA0000000675
B1046035602509N00901950EA0000000690
B1046085602592N00901942EA0000000695
B1046145602655N00902115EA0000000700
B1046205602598N00902270EA0000000705
B1046255602531N00902254EA0000000716
B1046305602531N00902153EA0000000722
B1046355602608N00902137EA0000000719
B1046405602665N00902284EA0000000719
B1046465602609N00902439EA0000000720
B1046515602533N00902431EA0000000727
B1046575602505N00902306EA0000000739
B1047035602581N00902244EA0000000745
B1047085602656N00902363EA0000000740
B1047135602658N00902543EA0000000754
B1047185602596N00902639EA0000000760
B1047235602541N00902585EA0000000755
B1047285602569N00902476EA0000000760
B1047335602650N00902491EA0000000767
B1047395602683N00902690EA0000000762
B1047445602617N00902763EA0000000770
B1047505602601N00902643EA0000000767
B1047555602675N00902606EA0000000778
B1048005602744N00902726EA0000000774
B1048055602733N00902898EA0000000781
B1048105602665N00902963EA0000000779
B1048165602634N00902844EA0000000781
B1048215602710N00902812EA0000000787
B1048265602767N00902953EA0000000788
B1048335602690N00903081EA0000000787
B1048395602661N00902962EA0000000786
B1048445602728N00902890EA0000000796
B1048495602810N00902957EA0000000799
B1048545602843N00903128EA0000000790
B1048595602808N00903290EA0000000792
B1049055602716N00903347EA0000000790
B1049105602657N00903270EA0000000782
B1049155602664N00903142EA0000000786
B1049205602734N00903072EA0000000797
B1049275602844N00903174EA0000000791
B1049325602862N00903360EA0000000782
B1049375602823N00903520EA0000000787
B1049425602751N00903591EA0000000783
B1049495602655N00903512EA0000000759
B1049555602647N00903343EA0000000758
B1050005602689N00903214EA0000000748
B1050095602765N00902960EA0000000729
B1050145602782N00902811EA0000000733
B1050195602792N00902666EA0000000736
B1050245602796N00902531EA0000000745
B1050315602791N00902340EA0000000735
B1050395602758N00902114EA0000000726
B1050455602722N00901948EA0000000716
B1050525602674N00901751EA0000000704
B1050585602633N00901583EA0000000698
B1051035602595N00901447EA0000000701
B1051095602547N00901295EA0000000696
B1051145602508N00901171EA0000000693
B1051205602489N00901008EA0000000685
B1051255602522N00900871EA0000000675
B1051305602604N00900787EA0000000669
B1051365602732N00900805EA0000000651
B1051435602877N00900974EA0000000628
B1051515603033N00901235EA0000000591
B1051585603171N00901493EA0000000572
B1052045603283N00901731EA0000000560
B1052115603406N00902022EA0000000549
B1052185603522N00902319EA0000000543
B1052235603586N00902540EA0000000547
B1052285603609N00902772EA0000000547
B1052345603583N00903030EA0000000548
B1052395603526N00903214EA0000000537
B1052445603448N00903367EA0000000525
B1052505603339N00903517EA0000000519
B1052555603245N00903624EA0000000514
B1053025603109N00903741EA0000000511
B1053085602993N00903795EA0000000517
B1053135602909N00903780EA0000000533
B1053185602853N00903700EA0000000543
B1053235602851N00903576EA0000000551
B1053285602909N00903494EA0000000564
B1053335602991N00903532EA0000000569
B1053385603022N00903705EA0000000561
B1053435602963N00903819EA0000000570
B1053485602910N00903754EA0000000571
B1053535602942N00903645EA0000000582
B1053595603043N00903699EA0000000587
B1054055603049N00903912EA0000000587
B1054115602967N00903978EA0000000591
B1054165602931N00903881EA0000000598
B1054225602991N00903781EA0000000603
B1054275603075N00903861EA0000000606
B1054325603078N00904037EA0000000607
B1054375603006N00904097EA0000000607
B1054425602979N00903993EA0000000611
B1054475603048N00903935EA0000000618
B1054525603127N00904038EA0000000626
B1054575603132N00904213EA0000000626
B1055025603069N00904316EA0000000624
B1055085602984N00904301EA0000000635
B1055135602955N00904204EA0000000644
B1055185602995N00904111EA0000000643
B1055235603080N00904129EA0000000648
B1055285603135N00904274EA0000000652
B1055365603069N00904477EA0000000648
B1055415603014N00904417EA0000000649
B1055465603015N00904301EA0000000650
B1055515603070N00904220EA0000000657
B1055575603167N00904266EA0000000653
B1056025603214N00904428EA0000000648
B1056075603200N00904608EA0000000650
B1056125603147N00904743EA0000000652
B1056175603075N00904779EA0000000654
B1056225603033N00904695EA0000000656
B1056285603079N00904582EA0000000659
B1056335603164N00904624EA0000000657
B1056395603198N00904827EA0000000653
B1056455603133N00904976EA0000000659
B1056505603065N00904979EA0000000660
B1056555603037N00904877EA0000000664
B1057015603082N00904749EA0000000657
B1057085603150N00904573EA0000000638
B1057155603197N00904355EA0000000627
B1057225603223N00904119EA0000000619
B1057315603215N00903825EA0000000621
B1057375603197N00903647EA0000000625
B1057445603169N00903446EA0000000623
B1057515603166N00903243EA0000000619
B1057565603215N00903122EA0000000616
B1058015603306N00903073EA0000000607
B1058065603402N00903147EA0000000603
B1058115603461N00903311EA0000000590
B1058165603459N00903508EA0000000581
B1058215603409N00903665EA0000000580
B1058265603331N00903747EA0000000584
B1058315603252N00903750EA0000000590
B1058375603195N00903644EA0000000576
B1058445603182N00903449EA0000000548
B1058505603181N00903259EA0000000529
B1058585603180N00902990EA0000000508
B1059055603178N00902745EA0000000499
B1059125603159N00902505EA0000000499
B1059185603136N00902313EA0000000512
B1059235603127N00902161EA0000000520
B1059295603178N00902015EA0000000542
B1059355603282N00902064EA0000000547
B1059415603304N00902268EA0000000552
B1059465603245N00902376EA0000000559
B1059515603176N00902348EA0000000568
B1059565603162N00902233EA0000000571
B1100015603222N00902158EA0000000580
B1100075603318N00902240EA0000000577
B1100125603336N00902412EA0000000578
B1100175603278N00902531EA0000000587
B1100225603204N00902524EA0000000599
B1100275603183N00902419EA0000000605
B1100325603236N00902335EA0000000608
B1100385603335N00902399EA0000000609
B1100435603360N00902560EA0000000607
B1100495603296N00902710EA0000000615
B1100545603227N00902704EA0000000621
B1100595603222N00902590EA0000000627
B1101045603291N00902531EA0000000633
B1101105603386N00902630EA0000000634
B1101165603396N00902829EA0000000630
B1101215603345N00902954EA0000000637
B1101265603271N00902973EA0000000645
B1101315603225N00902891EA0000000642
B1101365603259N00902782EA0000000648
B1101425603360N00902806EA0000000657
B1101475603405N00902952EA0000000664
B1101535603350N00903099EA0000000658
B1101585603287N00903047EA0000000664
B1102035603289N00902926EA0000000668
B1102085603351N00902841EA0000000667
B1102145603460N00902890EA0000000663
B1102205603507N00903087EA0000000659
B1102255603451N00903206EA0000000656
B1102305603381N00903177EA0000000655
B1102355603356N00903068EA0000000667
B1102425603412N00902920EA0000000660
B1102475603501N00902922EA0000000661
B1102525603564N00903060EA0000000651
B1102585603552N00903266EA0000000645
B1103035603485N00903360EA0000000638
B1103085603407N00903348EA0000000635
B1103135603350N00903259EA0000000641
B1103185603308N00903142EA0000000639
B1103245603276N00902987EA0000000650
B1103295603265N00902859EA0000000668
B1103345603280N00902737EA0000000664
B1103395603289N00902604EA0000000655
B1103445603253N00902500EA0000000653
B1103505603176N00902417EA0000000630
B1103565603081N00902344EA0000000612
B1104025602980N00902287EA0000000610
B1104125602806N00902199EA0000000604
B1104185602705N00902137EA0000000618
B1104245602609N00902082EA0000000626
B1104295602532N00902043EA0000000626
B1104355602432N00902006EA0000000606
B1104415602323N00901983EA0000000600
B1104465602233N00901968EA0000000602
B1104545602093N00901961EA0000000606
B1104595602009N00901968EA0000000611
B1105065601891N00901982EA0000000613
B1105115601808N00901991EA0000000619
B1105175601708N00901996EA0000000622
B1105225601623N00901999EA0000000618
B1105285601525N00901983EA0000000621
B1105335601458N00901927EA0000000638
B1105385601444N00901819EA0000000647
B1105435601504N00901761EA0000000655
B1105485601569N00901865EA0000000656
B1105535601545N00902034EA0000000656
B1105585601466N00902066EA0000000675
B1106035601437N00901974EA0000000678
B1106085601489N00901906EA0000000685
B1106145601571N00902001EA0000000691
B1106205601551N00902200EA0000000690
B1106255601473N00902239EA0000000707
B1106305601442N00902150EA0000000710
B1106355601501N00902086EA0000000711
B1106405601570N00902179EA0000000721
B1106465601555N00902378EA0000000722
B1106515601478N00902439EA0000000737
B1106565601432N00902368EA0000000746
B1107025601481N00902270EA0000000754
B1107075601555N00902314EA0000000763
B1107125601573N00902477EA0000000759
B1107195601473N00902624EA0000000768
B1107245601414N00902570EA0000000779
B1107295601437N00902472EA0000000781
B1107345601520N00902488EA0000000785
B1107395601574N00902631EA0000000797
B1107445601548N00902799EA0000000800
B1107505601451N00902835EA0000000803
B1107555601435N00902724EA0000000807
B1108005601497N00902654EA0000000818
B1108065601584N00902752EA0000000832
B1108115601585N00902929EA0000000829
B1108175601488N00902997EA0000000828
B1108225601445N00902890EA0000000830
B1108275601482N00902757EA0000000820
B1108335601604N00902716EA0000000811
B1108395601729N00902833EA0000000811
B1108445601763N00903042EA0000000808
B1108505601680N00903258EA0000000795
B1108555601565N00903326EA0000000786
B1109005601452N00903312EA0000000796
B1109065601322N00903265EA0000000787
B1109115601213N00903217EA0000000768
B1109165601099N00903164EA0000000757
B1109235600941N00903093EA0000000747
B1109315600762N00903009EA0000000730
B1109385600605N00902936EA0000000719
B1109445600469N00902906EA0000000725
B1109495600359N00902924EA0000000734
B1109565600219N00903016EA0000000738
B1110015600132N00903134EA0000000734
B1110085600059N00903394EA0000000737
B1110145600022N00903638EA0000000763
B1110205559937N00903762EA0000000787
B1110255559877N00903703EA0000000780
B1110325559943N00903577EA0000000798
B1110375600029N00903673EA0000000799
B1110425600045N00903874EA0000000807
B1110475559980N00904017EA0000000816
B1110525559892N00904030EA0000000810
B1110575559848N00903923EA0000000810
B1111025559885N00903801EA0000000812
B1111075559986N00903786EA0000000815
B1111125600070N00903941EA0000000809
B1111195600049N00904273EA0000000808
B1111275559976N00904643EA0000000806
B1111355559907N00905048EA0000000769
B1111405559873N00905320EA0000000755
B1111465559840N00905657EA0000000739
B1111515559822N00905945EA0000000728
B1111585559799N00906342EA0000000720
B1112035559781N00906618EA0000000719
B1112105559758N00906989EA0000000718
B1112175559747N00907356EA0000000706
B1112255559746N00907768EA0000000703
B1112335559769N00908179EA0000000694
B1112385559803N00908430EA0000000695
B1112435559854N00908667EA0000000698
B1112485559915N00908893EA0000000699
B1112545559988N00909131EA0000000730
B1112595600052N00909327EA0000000696
B1113075600184N00909675EA0000000661
B1113125600275N00909897EA0000000652
B1113185600384N00910158EA0000000654
B1113265600522N00910508EA0000000640
B1113315600607N00910735EA0000000629
B1113375600696N00911031EA0000000620
B1113425600751N00911277EA0000000667
B1113475600796N00911485EA0000000701
B1113525600838N00911692EA0000000715
B1113585600886N00911934EA0000000727
B1114045600944N00912197EA0000000707
B1114115601020N00912536EA0000000685
B1114175601088N00912843EA0000000676
B1114235601155N00913159EA0000000662
B1114315601239N00913591EA0000000665
B1114365601283N00913827EA0000000718
B1114425601328N00914082EA0000000727
B1114495601386N00914398EA0000000691
B1114565601444N00914764EA0000000671
B1115015601485N00915035EA0000000653
B1115075601534N00915364EA0000000637
B1115135601582N00915690EA0000000633
B1115185601619N00915950EA0000000648
B1115235601651N00916173EA0000000689
B1115295601692N00916440EA0000000660
B1115375601741N00916827EA0000000653
B1115425601767N00917065EA0000000643
B1115535601829N00917617EA0000000616
B1116015601875N00918027EA0000000600
B1116075601910N00918330EA0000000628
B1116275602013N00919177EA0000000642
B1117025602191N00920960EA0000000629
B1117095602223N00921275EA0000000634
B1117215602285N00921799EA0000000663
B1117275602314N00922067EA0000000645
B1117325602334N00922306EA0000000636
B1117415602362N00922765EA0000000609
B1117505602374N00923223EA0000000610
B1118145602467N00924331EA0000000616
B1118495602672N00926038EA0000000619
B1118585602664N00926513EA0000000606
B1119045602638N00926824EA0000000609
B1119125602607N00927188EA0000000648
B1119175602592N00927403EA0000000629
B1119225602581N00927635EA0000000643
B1119445602625N00928543EA0000000658
B1119515602689N00928860EA0000000683
B1120065602818N00929442EA0000000746
B1120245602999N00930188EA0000000763
B1120355603095N00930719EA0000000705
B1120415603135N00931037EA0000000730
B1120475603168N00931345EA0000000728
B1120535603190N00931660EA0000000717
B1120595603204N00931985EA0000000707
B1121065603215N00932364EA0000000693
B1121115603211N00932637EA0000000685
B1121185603187N00933005EA0000000683
B1121235603159N00933250EA0000000688
B1121315603118N00933607EA0000000719
B1121375603104N00933871EA0000000714
B1121455603103N00934227EA0000000727
B1121525603107N00934553EA0000000715
B1121575603117N00934800EA0000000701
B1122025603127N00935059EA0000000692
B1122085603133N00935372EA0000000690
B1122165603139N00935795EA0000000682
B1122245603139N00936212EA0000000671
B1122305603135N00936536EA0000000645
B1122355603128N00936809EA0000000643
B1122415603110N00937124EA0000000647
B1122465603087N00937373EA0000000663
B1122515603059N00937595EA0000000706
B1122565602986N00937696EA0000000737
B1123025602935N00937604EA0000000721
B1123075603003N00937533EA0000000730
B1123125603087N00937595EA0000000759
B1123195603089N00937820EA0000000783
B1123245603013N00937837EA0000000794
B1123305603009N00937711EA0000000803
B1123375603119N00937743EA0000000832
B1123425603134N00937913EA0000000845
B1123475603063N00937995EA0000000859
B1123535603020N00937890EA0000000866
B1124035603159N00937976EA0000000886
B1124115603169N00938254EA0000000902
B1124165603144N00938433EA0000000905
B1124225603107N00938663EA0000000883
B1124285603057N00938924EA0000000857
B1124345602997N00939198EA0000000848
B1124395602945N00939433EA0000000848
B1124455602883N00939720EA0000000827
B1124505602829N00939969EA0000000812
B1124565602760N00940276EA0000000794
B1125025602687N00940591EA0000000780
B1125095602603N00940956EA0000000772
B1125145602542N00941211EA0000000764
B1125205602467N00941521EA0000000741
B1125255602407N00941793EA0000000727
B1125315602354N00942131EA0000000722
B1125375602314N00942471EA0000000712
B1125435602287N00942814EA0000000698
B1125495602266N00943160EA0000000684
B1125545602251N00943452EA0000000671
B1126005602236N00943805EA0000000660
B1126065602223N00944144EA0000000670
B1126175602203N00944741EA0000000653
B1126245602183N00945111EA0000000653
B1126295602169N00945368EA0000000643
B1126375602148N00945790EA0000000620
B1126455602127N00946214EA0000000614
B1126515602112N00946525EA0000000613
B1126565602101N00946779EA0000000622
B1127015602092N00947010EA0000000644
B1127075602084N00947278EA0000000641
B1127125602077N00947500EA0000000650
B1127185602069N00947764EA0000000648
B1127255602057N00948080EA0000000645
B1127315602050N00948352EA0000000636
B1127365602047N00948590EA0000000624
B1127475602038N00949113EA0000000622
B1127525602029N00949346EA0000000635
B1127575602021N00949566EA0000000639
B1128025602011N00949795EA0000000619
B1128135601990N00950318EA0000000599
B1128215601971N00950699EA0000000589
B1128295601955N00951089EA0000000575
B1128365601952N00951437EA0000000561
B1128415601948N00951690EA0000000554
B1128465601942N00951942EA0000000555
B1128555601936N00952387EA0000000548
B1129105601937N00953108EA0000000532
B1129165601943N00953402EA0000000528
B1129235601964N00953736EA0000000527
B1129285601986N00953955EA0000000569
B1129335602005N00954138EA0000000602
B1129385602023N00954313EA0000000604
B1129455602043N00954592EA0000000576
B1129505602054N00954817EA0000000562
B1129555602062N00955055EA0000000552
B1130015602068N00955349EA0000000552
B1130065602069N00955588EA0000000550
B1130125602064N00955878EA0000000535
B1130175602055N00956126EA0000000528
B1130255602034N00956518EA0000000531
B1130305602017N00956753EA0000000541
B1130375601998N00957040EA0000000567
B1130435601983N00957292EA0000000537
B1130495601961N00957571EA0000000540
B1130545601946N00957773EA0000000579
B1130595601934N00957971EA0000000575
B1131075601918N00958285EA0000000590
B1131155601902N00958592EA0000000585
B1131205601896N00958788EA0000000580
B1131265601885N00959034EA0000000569
B1131345601862N00959386EA0000000556
B1131395601848N00959609EA0000000562
B1131445601833N00959814EA0000000575
B1131555601788N01000215EA0000000588
B1132015601751N01000416EA0000000578
B1132065601724N01000597EA0000000565
B1132135601701N01000876EA0000000560
B1132185601688N01001084EA0000000543
B1132255601679N01001394EA0000000520
B1132325601681N01001724EA0000000503
B1132375601684N01001961EA0000000512
B1132455601688N01002312EA0000000527
B1132535601688N01002649EA0000000526
B1132595601694N01002909EA0000000513
B1133065601706N01003226EA0000000484
B1133125601714N01003517EA0000000461
B1133205601714N01003921EA0000000441
B1133285601709N01004336EA0000000424
B1133335601703N01004595EA0000000417
B1133405601688N01004946EA0000000411
B1133495601659N01005374EA0000000408
B1133555601639N01005646EA0000000404
B1134005601623N01005870EA0000000399
B1134065601606N01006132EA0000000398
B1134135601588N01006427EA0000000399
B1134205601578N01006708EA0000000391
B1134285601612N01007022EA0000000384
B1134355601663N01007279EA0000000387
B1134455601724N01007648EA0000000386
B1134515601739N01007863EA0000000399
B1135025601622N01007960EA0000000417
B1135095601671N01007828EA0000000421
B1135145601740N01007915EA0000000431
B1135265601628N01008062EA0000000446
B1135325601654N01007940EA0000000449
B1135375601733N01007992EA0000000455
B1135505601632N01008213EA0000000472
B1136025601731N01008079EA0000000488
B1136085601767N01008251EA0000000495
B1136165601665N01008300EA0000000502
B1136215601679N01008188EA0000000510
B1136265601759N01008205EA0000000507
B1136325601780N01008400EA0000000513
B1136395601676N01008440EA0000000526
B1136445601685N01008320EA0000000528
B1136495601767N01008313EA0000000532
B1136545601810N01008468EA0000000536
B1137045601693N01008572EA0000000564
B1137095601717N01008467EA0000000559
B1137175601799N01008628EA0000000568
B1137265601682N01008696EA0000000583
B1137325601721N01008590EA0000000594
B1137375601788N01008679EA0000000599
B1137525601728N01008694EA0000000609
B1137575601807N01008744EA0000000612
B1138155601734N01008798EA0000000637
B1138275601811N01009076EA0000000646
B1138415601790N01009029EA0000000669
B1138465601828N01009183EA0000000676
B1138595601771N01009137EA0000000693
B1139045601863N01009173EA0000000700
B1139095601957N01009240EA0000000687
B1139165602099N01009334EA0000000671
B1139215602202N01009393EA0000000662
B1139265602311N01009452EA0000000651
B1139525602900N01009645EA0000000615
B1141155604872N01008998EA0000000467
B1141265605085N01008873EA0000000491
B1141325605185N01008787EA0000000492
B1141475605422N01008528EA0000000465
B1141525605493N01008426EA0000000467
B1141585605570N01008296EA0000000472
B1142055605647N01008144EA0000000493
B1142135605661N01007975EA0000000507
B1142185605599N01007983EA0000000504
B1142245605568N01008164EA0000000511
B1142345605704N01008354EA0000000512
B1142415605813N01008295EA0000000505
B1142485605906N01008165EA0000000491
B1142545605987N01008050EA0000000503
B1143035606079N01007849EA0000000506
B1143135606143N01007596EA0000000489
B1143185606206N01007511EA0000000486
B1143235606288N01007523EA0000000476
B1143295606340N01007688EA0000000469
B1143395606223N01007902EA0000000444
B1143445606136N01007944EA0000000432
B1143505606022N01007974EA0000000410
B1144025605786N01008005EA0000000410
B1144075605695N01008020EA0000000413
B1144125605607N01008040EA0000000427
B1144245605593N01007931EA0000000448
B1144295605642N01008061EA0000000452
B1144355605573N01008210EA0000000438
B1144455605488N01008113EA0000000467
B1144505605566N01008139EA0000000467
B1145015605499N01008378EA0000000482
B1145085605535N01008276EA0000000483
B1145155605617N01008455EA0000000498
B1145325605547N01008483EA0000000506
B1145385605633N01008592EA0000000521
B1145475605547N01008797EA0000000522
B1145545605556N01008676EA0000000529
B1145595605642N01008713EA0000000542
B1146185605618N01008811EA0000000554
B1146265605720N01008944EA0000000565
B1146335605642N01009112EA0000000561
B1146405605633N01009005EA0000000566
B1146475605744N01009038EA0000000569
B1146525605817N01009141EA0000000589
B1147035605773N01009361EA0000000597
B1147085605782N01009257EA0000000599
B1147135605864N01009255EA0000000619
B1147185605909N01009388EA0000000625
B1147255605829N01009507EA0000000634
B1147335605843N01009350EA0000000646
B1147385605918N01009391EA0000000662
B1147495605840N01009594EA0000000663
B1147545605831N01009472EA0000000679
B1148005605914N01009483EA0000000695
B1148105605858N01009705EA0000000697
B1148185605846N01009553EA0000000732
B1148245605936N01009558EA0000000721
B1148305606042N01009608EA0000000690
B1148385606218N01009636EA0000000685
B1148465606394N01009678EA0000000678
B1148525606520N01009731EA0000000676
B1148585606643N01009792EA0000000660
B1149055606787N01009880EA0000000651
B1149105606893N01009948EA0000000639
B1149155607005N01010019EA0000000621
B1149255607243N01010146EA0000000605
B1149365607514N01010253EA0000000583
B1149465607762N01010327EA0000000564
B1149525607914N01010345EA0000000555
B1149585608066N01010351EA0000000546
B1150045608220N01010354EA0000000538
B1150115608400N01010353EA0000000534
B1150205608627N01010325EA0000000519
B1150275608802N01010311EA0000000511
B1150365609032N01010290EA0000000487
B1150415609161N01010274EA0000000480
B1150505609393N01010251EA0000000468
B1150565609542N01010240EA0000000469
B1151015609663N01010235EA0000000463
B1151065609784N01010232EA0000000455
B1151175610044N01010236EA0000000447
B1151225610157N01010236EA0000000465
B1151285610276N01010263EA0000000497
B1151335610333N01010397EA0000000504
B1151385610292N01010526EA0000000504
B1151445610227N01010474EA0000000513
B1151495610252N01010363EA0000000521
B1151545610335N01010361EA0000000526
B1152015610376N01010568EA0000000525
B1152065610310N01010632EA0000000529
B1152115610280N01010533EA0000000528
B1152175610344N01010424EA0000000546
B1152225610431N01010442EA0000000550
B1152285610541N01010535EA0000000538
B1152355610687N01010605EA0000000524
B1152425610843N01010637EA0000000504
B1152485610980N01010651EA0000000496
B1152535611095N01010660EA0000000494
B1152585611211N01010664EA0000000487
B1153115611520N01010679EA0000000461
B1153185611692N01010696EA0000000443
B1153255611864N01010716EA0000000434
B1153305611989N01010731EA0000000426
B1153365612138N01010751EA0000000436
B1153435612301N01010778EA0000000441
B1153495612436N01010803EA0000000433
B1153575612612N01010844EA0000000414
B1154025612720N01010882EA0000000410
B1154105612890N01010943EA0000000391
B1154165613014N01010972EA0000000388
B1154215613119N01010985EA0000000388
B1154275613239N01010994EA0000000394
B1154325613335N01010998EA0000000395
B1154485613637N01010969EA0000000370
B1154545613738N01010901EA0000000361
B1155005613812N01010783EA0000000353
B1155105613883N01010531EA0000000331
B1155185613915N01010302EA0000000315
B1155235613932N01010151EA0000000307
B1155285613945N01010004EA0000000300
B1155335613960N01009859EA0000000292
B1155425613993N01009587EA0000000274
B1155475614014N01009438EA0000000278
B1155545614049N01009243EA0000000277
B1156005614085N01009081EA0000000265
B1156055614120N01008949EA0000000266
B1156105614155N01008824EA0000000273
B1156175614182N01008657EA0000000278
B1156225614139N01008576EA0000000281
B1156285614050N01008632EA0000000283
B1156345614000N01008806EA0000000287
B1156395614022N01008976EA0000000284
B1156445614103N01009066EA0000000287
B1156505614174N01008993EA0000000293
B1156555614139N01008906EA0000000294
B1157015614059N01008990EA0000000301
B1157065614070N01009158EA0000000309
B1157115614143N01009245EA0000000307
B1157165614209N01009189EA0000000308
B1157225614190N01009070EA0000000311
B1157285614106N01009089EA0000000309
B1157345614074N01009274EA0000000322
B1157395614136N01009388EA0000000321
B1157445614207N01009352EA0000000325
B1157495614210N01009250EA0000000328
B1157545614148N01009201EA0000000325
B1157595614077N01009269EA0000000335
B1158045614054N01009425EA0000000335
B1158095614111N01009559EA0000000321
B1158145614192N01009557EA0000000328
B1158195614227N01009465EA0000000332
B1158245614195N01009369EA0000000333
B1158295614119N01009367EA0000000337
B1158345614076N01009507EA0000000343
B1158405614134N01009672EA0000000338
B1158455614214N01009670EA0000000336
B1158505614251N01009576EA0000000343
B1158565614200N01009496EA0000000347
B1159015614140N01009599EA0000000344
B1159065614139N01009766EA0000000344
B1159125614216N01009908EA0000000344
B1159175614294N01009896EA0000000353
B1159225614320N01009806EA0000000354
B1159285614298N01009688EA0000000346
B1159345614236N01009598EA0000000339
B1159445614090N01009511EA0000000327
B1159495614011N01009477EA0000000335
B1159545613935N01009486EA0000000350
B1200015613937N01009694EA0000000351
B1200065614019N01009733EA0000000346
B1200115614061N01009642EA0000000343
B1200165614038N01009532EA0000000344
B1200225613957N01009490EA0000000354
B1200275613914N01009615EA0000000359
B1200325613959N01009761EA0000000361
B1200375614042N01009783EA0000000356
B1200425614077N01009685EA0000000356
B1200485614044N01009557EA0000000356
B1200545613964N01009497EA0000000354
B1201015613857N01009553EA0000000369
B1201075613844N01009726EA0000000379
B1201125613924N01009797EA0000000370
B1201175613990N01009726EA0000000374
B1201225613985N01009615EA0000000380
B1201275613929N01009541EA0000000379
B1201325613852N01009546EA0000000398
B1201375613831N01009689EA0000000410
B1201425613909N01009772EA0000000410
B1201475613958N01009683EA0000000415
B1201525613913N01009609EA0000000425
B1201575613849N01009693EA0000000441
B1202025613866N01009854EA0000000450
B1202085613967N01009882EA0000000456
B1202135613987N01009766EA0000000466
B1202185613926N01009716EA0000000471
B1202245613866N01009861EA0000000485
B1202295613920N01009998EA0000000499
B1202345614000N01009963EA0000000501
B1202405613979N01009829EA0000000519
B1202455613903N01009851EA0000000529
B1202505613873N01010007EA0000000531
B1202565613956N01010147EA0000000542
B1203015614026N01010084EA0000000554
B1203065614000N01009983EA0000000561
B1203125613911N01010021EA0000000577
B1203175613904N01010181EA0000000580
B1203225613986N01010250EA0000000581
B1203285614034N01010121EA0000000595
B1203335613978N01010050EA0000000607
B1203385613909N01010133EA0000000607
B1203445613933N01010331EA0000000620
B1203495614018N01010371EA0000000627
B1203545614064N01010270EA0000000633
B1204015613979N01010221EA0000000642
B1204065613939N01010370EA0000000640
B1204125614014N01010515EA0000000645
B1204175614099N01010483EA0000000660
B1204225614117N01010362EA0000000669
B1204275614049N01010331EA0000000673
B1204325613999N01010467EA0000000676
B1204375614035N01010625EA0000000693
B1204425614117N01010638EA0000000701
B1204485614116N01010501EA0000000706
B1204535614048N01010553EA0000000725
B1204585614056N01010719EA0000000731
B1205045614159N01010750EA0000000737
B1205095614178N01010622EA0000000744
B1205145614116N01010568EA0000000752
B1205205614059N01010716EA0000000760
B1205255614112N01010860EA0000000765
B1205325614244N01010860EA0000000769
B1205385614365N01010794EA0000000741
B1205435614476N01010728EA0000000715
B1205505614642N01010627EA0000000692
B1205585614835N01010500EA0000000674
B1206055615001N01010378EA0000000673
B1206125615158N01010267EA0000000678
B1206185615293N01010179EA0000000671
B1206275615501N01010052EA0000000644
B1206335615645N01009976EA0000000633
B1206385615765N01009919EA0000000625
B1206435615876N01009875EA0000000661
B1206505616020N01009825EA0000000628
B1206575616180N01009780EA0000000639
B1207025616278N01009752EA0000000690
B1207075616302N01009652EA0000000725
B1207125616226N01009628EA0000000722
B1207175616188N01009805EA0000000731
B1207225616262N01009921EA0000000750
B1207285616326N01009832EA0000000776
B1207335616267N01009757EA0000000791
B1207385616191N01009867EA0000000800
B1207445616218N01010078EA0000000829
B1207495616297N01010112EA0000000852
B1207555616297N01009989EA0000000875
B1208015616200N01010054EA0000000889
B1208065616210N01010237EA0000000916
B1208115616289N01010296EA0000000931
B1208165616330N01010197EA0000000960
B1208215616273N01010129EA0000000975
B1208265616200N01010239EA0000000981
B1208325616232N01010450EA0000000994
B1208395616362N01010514EA0000001006
B1208445616469N01010518EA0000001019
B1208495616586N01010525EA0000001008
B1208555616742N01010524EA0000000992
B1209005616877N01010520EA0000000996
B1209075617065N01010521EA0000000989
B1209145617256N01010519EA0000000974
B1209235617513N01010516EA0000000944
B1209305617725N01010514EA0000000904
B1209365617909N01010500EA0000000891
B1209425618095N01010489EA0000000870
B1209485618282N01010481EA0000000853
B1209545618469N01010473EA0000000847
B1209595618620N01010466EA0000000848
B1210045618767N01010461EA0000000843
B1210095618912N01010455EA0000000828
B1210185619171N01010415EA0000000807
B1210255619370N01010373EA0000000789
B1210385619739N01010269EA0000000748
B1210465619970N01010197EA0000000717
B1210565620262N01010091EA0000000682
B1211045620499N01009996EA0000000655
B1211145620795N01009863EA0000000623
B1211525621681N01008898EA0000000561
B1212015621842N01008625EA0000000549
B1212065621927N01008470EA0000000542
B1212115622007N01008312EA0000000544
B1212165622080N01008164EA0000000571
B1212215622142N01008039EA0000000602
B1213115622957N01006751EA0000000511
B1219355626293N01002005EA0000000323
B1220285626215N01002100EA0000000385
B1220475626344N01002044EA0000000412
B1220575626231N01002225EA0000000432
B1221465626372N01002477EA0000000495
B1221595626463N01002800EA0000000521
B1222095626445N01002614EA0000000544
B1222345626527N01002791EA0000000591
B1222535626550N01003115EA0000000633
B1223035626533N01002909EA0000000648
B1223115626440N01003084EA0000000664
B1223205626561N01003280EA0000000684
B1223275626580N01003114EA0000000700
B1223335626488N01003124EA0000000711
B1223555626581N01003275EA0000000764
B1224025626511N01003462EA0000000785
B1224095626615N01003607EA0000000802
B1224205626626N01003388EA0000000830
B1224255626547N01003399EA0000000836
B1224305626461N01003430EA0000000800
B1224375626308N01003479EA0000000755
B1224445626140N01003518EA0000000735
B1225265625045N01003573EA0000000641
B1225375624756N01003570EA0000000618
B1225425624635N01003573EA0000000636
B1225475624521N01003584EA0000000620
B1226445623212N01003421EA0000000604
B1226515623233N01003287EA0000000619
B1227005623343N01003494EA0000000618
B1227085623258N01003647EA0000000632
B1227175623155N01003536EA0000000621
B1227225623106N01003422EA0000000626
B1227315623028N01003201EA0000000647
B1227375622985N01003058EA0000000667
B1227425622951N01002946EA0000000663
B1227485622903N01002804EA0000000657
B1227565622815N01002630EA0000000653
B1228085622627N01002442EA0000000666
B1228255622300N01002233EA0000000597
B1228405621960N01002145EA0000000564
B1228515621703N01002068EA0000000539
B1229015621472N01001971EA0000000514
B1229085621315N01001853EA0000000487
B1229135621216N01001731EA0000000478
B1229245621018N01001426EA0000000464
B1229345620845N01001174EA0000000461
B1229395620762N01001059EA0000000463
B1229485620622N01000865EA0000000469
B1229535620552N01000758EA0000000474
B1230095620367N01000404EA0000000523
B1230205620499N01000454EA0000000548
B1230255620464N01000593EA0000000562
B1230335620403N01000490EA0000000583
B1230475620484N01000697EA0000000615
B1230525620427N01000647EA0000000626
B1231025620547N01000662EA0000000652
B1231135620458N01000733EA0000000671
B1231215620573N01000726EA0000000692
B1231315620504N01000917EA0000000703
B1231485620588N01001005EA0000000730
B1231555620512N01000947EA0000000746
B1232085620609N01001109EA0000000766
B1232205620395N01001143EA0000000731
B1232285620222N01001098EA0000000700
B1232345620084N01001050EA0000000678
B1232425619892N01000979EA0000000660
B1232485619743N01000933EA0000000649
B1232535619621N01000891EA0000000650
B1232595619480N01000834EA0000000653
B1233045619362N01000778EA0000000636
B1233105619212N01000692EA0000000610
B1233175619036N01000603EA0000000632
B1233235618896N01000574EA0000000654
B1233295618768N01000563EA0000000661
B1233365618611N01000545EA0000000623
B1233445618423N01000501EA0000000599
B1233525618239N01000453EA0000000590
B1234025618019N01000380EA0000000580
B1234085617888N01000334EA0000000563
B1234175617681N01000248EA0000000527
B1234245617514N01000161EA0000000507
B1234325617323N01000079EA0000000497
B1234405617130N01000005EA0000000478
B1234505616898N00959896EA0000000456
B1234575616744N00959817EA0000000451
B1235025616635N00959769EA0000000447
B1235075616530N00959726EA0000000450
B1235135616406N00959682EA0000000470
B1235185616321N00959616EA0000000492
B1235265616298N00959408EA0000000484
B1235335616252N00959204EA0000000470
B1235385616190N00959077EA0000000468
B1235465616056N00958924EA0000000461
B1235535615929N00958824EA0000000457
B1235585615832N00958776EA0000000459
B1236045615716N00958744EA0000000475
B1236095615633N00958703EA0000000494
B1236145615589N00958608EA0000000512
B1236195615634N00958512EA0000000516
B1236245615725N00958554EA0000000523
B1236295615772N00958714EA0000000526
B1236345615736N00958873EA0000000523
B1236395615659N00958923EA0000000532
B1236445615599N00958868EA0000000534
B1236495615605N00958749EA0000000537
B1236565615722N00958713EA0000000544
B1237015615786N00958849EA0000000564
B1237065615782N00959020EA0000000567
B1237115615718N00959102EA0000000574
B1237165615677N00959036EA0000000577
B1237235615765N00958964EA0000000580
B1237285615820N00959114EA0000000589
B1237335615785N00959267EA0000000591
B1237385615717N00959285EA0000000596
B1237435615714N00959184EA0000000592
B1237505615835N00959181EA0000000601
B1237575615887N00959400EA0000000611
B1238025615829N00959501EA0000000612
B1238085615795N00959405EA0000000617
B1238145615885N00959352EA0000000626
B1238195615961N00959465EA0000000632
B1238245615943N00959634EA0000000633
B1238295615868N00959718EA0000000626
B1238375615717N00959786EA0000000614
B1238425615614N00959810EA0000000596
B1238485615482N00959823EA0000000576
B1238545615345N00959829EA0000000559
B1238595615230N00959836EA0000000547
B1239065615072N00959835EA0000000548
B1239125614947N00959836EA0000000568
B1239185614839N00959850EA0000000600
B1239245614797N00959759EA0000000611
B1239295614865N00959730EA0000000600
B1239365614922N00959965EA0000000621
B1239415614877N01000108EA0000000628
B1239465614809N01000126EA0000000624
B1239515614792N01000034EA0000000614
B1239565614850N00959968EA0000000617
B1240015614934N01000023EA0000000624
B1240085614987N01000253EA0000000631
B1240135614930N01000356EA0000000639
B1240185614904N01000275EA0000000638
B1240235614982N01000253EA0000000646
B1240305615015N01000482EA0000000646
B1240355614948N01000569EA0000000655
B1240405614881N01000546EA0000000655
B1240455614820N01000488EA0000000645
B1240515614727N01000406EA0000000604
B1240595614582N01000276EA0000000584
B1241065614464N01000142EA0000000582
B1241125614386N00959990EA0000000574
B1241175614346N00959838EA0000000559
B1241265614302N00959523EA0000000530
B1241345614283N00959228EA0000000516
B1241395614278N00959043EA0000000503
B1241455614274N00958818EA0000000499
B1241525614278N00958561EA0000000486
B1242015614293N00958229EA0000000480
B1242065614303N00958048EA0000000484
B1242115614312N00957870EA0000000484
B1242175614318N00957671EA0000000506
B1242225614321N00957526EA0000000525
B1242285614391N00957428EA0000000546
B1242335614459N00957552EA0000000547
B1242385614418N00957708EA0000000550
B1242435614348N00957693EA0000000549
B1242495614352N00957557EA0000000556
B1242545614431N00957521EA0000000558
B1242595614489N00957671EA0000000556
B1243045614446N00957835EA0000000560
B1243095614369N00957861EA0000000565
B1243155614358N00957732EA0000000569
B1243205614445N00957739EA0000000574
B1243255614479N00957911EA0000000579
B1243305614417N00958022EA0000000588
B1243355614365N00957958EA0000000592
B1243405614402N00957855EA0000000599
B1243455614490N00957885EA0000000607
B1243505614516N00958054EA0000000608
B1243555614449N00958149EA0000000616
B1244005614394N00958082EA0000000624
B1244055614425N00957974EA0000000628
B1244105614512N00958015EA0000000636
B1244165614509N00958209EA0000000636
B1244215614436N00958229EA0000000633
B1244285614353N00958099EA0000000615
B1244345614294N00957932EA0000000613
B1244435614221N00957677EA0000000620
B1244505614172N00957476EA0000000610
B1244565614128N00957295EA0000000586
B1245045614065N00957040EA0000000555
B1245145613982N00956718EA0000000537
B1245205613933N00956544EA0000000547
B1245285613862N00956336EA0000000557
B1245345613807N00956195EA0000000569
B1245405613759N00956071EA0000000590
B1245455613787N00955975EA0000000597
B1245505613869N00956046EA0000000590
B1245555613873N00956232EA0000000589
B1246005613812N00956364EA0000000594
B1246055613734N00956389EA0000000601
B1246125613646N00956308EA0000000602
B1246185613579N00956191EA0000000587
B1246295613460N00955906EA0000000570
B1246405613352N00955633EA0000000594
B1246465613297N00955505EA0000000609
B1246515613259N00955407EA0000000631
B1246565613302N00955332EA0000000635
B1247015613373N00955451EA0000000629
B1247065613338N00955607EA0000000635
B1247125613265N00955584EA0000000642
B1247175613249N00955481EA0000000642
B1247225613302N00955406EA0000000643
B1247285613396N00955525EA0000000633
B1247335613400N00955711EA0000000634
B1247385613340N00955823EA0000000639
B1247445613254N00955825EA0000000641
B1247505613188N00955737EA0000000625
B1247575613102N00955586EA0000000599
B1248035613020N00955451EA0000000595
B1248085612953N00955336EA0000000591
B1248145612875N00955197EA0000000581
B1248205612797N00955058EA0000000585
B1248265612720N00954928EA0000000586
B1248335612619N00954778EA0000000559
B1248395612521N00954647EA0000000537
B1248455612423N00954514EA0000000537
B1248545612280N00954331EA0000000540
B1249015612168N00954194EA0000000556
B1249095612047N00954050EA0000000563
B1249155611954N00953945EA0000000567
B1249205611874N00953861EA0000000566
B1249265611787N00953765EA0000000564
B1249395611606N00953520EA0000000547
B1249455611534N00953391EA0000000553
B1249505611488N00953279EA0000000561
B1249555611489N00953159EA0000000577
B1250005611559N00953130EA0000000581
B1250055611616N00953268EA0000000567
B1250105611573N00953431EA0000000577
B1250155611496N00953471EA0000000583
B1250205611448N00953394EA0000000583
B1250295611437N00953149EA0000000565
B1250385611440N00952860EA0000000569
B1250435611446N00952705EA0000000586
B1250485611477N00952580EA0000000616
B1250535611561N00952619EA0000000622
B1250585611568N00952796EA0000000620
B1251035611497N00952852EA0000000624
B1251085611469N00952755EA0000000638
B1251135611535N00952698EA0000000641
B1251185611601N00952822EA0000000643
B1251235611565N00952972EA0000000641
B1251285611496N00952953EA0000000647
B1251335611493N00952840EA0000000661
B1251385611570N00952817EA0000000669
B1251445611606N00953006EA0000000666
B1251495611535N00953066EA0000000668
B1251555611491N00952937EA0000000678
B1252015611473N00952764EA0000000662
B1252075611452N00952565EA0000000659
B1252125611433N00952397EA0000000668
B1252175611418N00952239EA0000000670
B1252235611401N00952044EA0000000659
B1252285611386N00951872EA0000000645
B1252355611366N00951620EA0000000635
B1252425611351N00951375EA0000000640
B1252485611345N00951166EA0000000634
B1252535611339N00950992EA0000000641
B1252585611334N00950824EA0000000648
B1253045611326N00950630EA0000000667
B1253095611336N00950491EA0000000694
B1253155611427N00950476EA0000000700
B1253215611452N00950685EA0000000686
B1253265611375N00950752EA0000000688
B1253335611306N00950648EA0000000700
B1253385611368N00950595EA0000000697
B1253435611428N00950743EA0000000687
B1253485611379N00950904EA0000000696
B1253535611297N00950959EA0000000708
B1253585611240N00950898EA0000000715
B1254035611272N00950809EA0000000717
B1254085611349N00950885EA0000000710
B1254135611335N00951066EA0000000708
B1254185611253N00951113EA0000000711
B1254245611170N00951040EA0000000698
B1254335611104N00950809EA0000000686
B1254425611060N00950533EA0000000684
B1254485611039N00950343EA0000000688
B1254565611008N00950092EA0000000674
B1255025610980N00949892EA0000000669
B1255075610951N00949733EA0000000689
B1255125610917N00949606EA0000000706
B1255185610876N00949463EA0000000699
B1255245610825N00949316EA0000000695
B1255295610785N00949196EA0000000707
B1255345610799N00949073EA0000000716
B1255395610880N00949040EA0000000719
B1255445610958N00949164EA0000000717
B1255495610957N00949345EA0000000715
B1255555610877N00949438EA0000000719
B1256005610829N00949360EA0000000709
B1256055610798N00949232EA0000000689
B1256115610756N00949057EA0000000679
B1256165610722N00948900EA0000000677
B1256215610689N00948747EA0000000695
B1256285610648N00948542EA0000000676
B1256345610606N00948349EA0000000665
B1256395610570N00948185EA0000000654
B1256445610532N00948014EA0000000639
B1256495610491N00947839EA0000000625
B1256545610449N00947663EA0000000614
B1257005610399N00947446EA0000000601
B1257085610343N00947146EA0000000577
B1257145610308N00946916EA0000000566
B1257205610280N00946687EA0000000560
B1257255610254N00946500EA0000000547
B1257315610220N00946275EA0000000532
B1257375610187N00946048EA0000000515
B1257425610161N00945854EA0000000510
B1257475610141N00945661EA0000000507
B1257555610109N00945351EA0000000511
B1258025610080N00945100EA0000000524
B1258085610053N00944889EA0000000511
B1258145610024N00944671EA0000000503
B1258225609982N00944384EA0000000513
B1258275609957N00944226EA0000000535
B1258345609916N00944021EA0000000522
B1258405609873N00943848EA0000000530
B1258465609833N00943686EA0000000538
B1258535609786N00943500EA0000000556
B1258585609806N00943386EA0000000567
B1259035609885N00943442EA0000000563
B1259085609882N00943607EA0000000553
B1259135609805N00943638EA0000000544
B1259215609714N00943471EA0000000536
B1259285609651N00943280EA0000000537
B1259375609595N00943033EA0000000575
B1259425609650N00942959EA0000000585
B1259475609722N00943074EA0000000571
B1259525609697N00943233EA0000000569
B1259575609618N00943255EA0000000569
B1300025609551N00943192EA0000000576
B1300085609553N00943057EA0000000578
B1300145609650N00943067EA0000000566
B1300195609674N00943232EA0000000555
B1300255609593N00943297EA0000000557
B1300305609539N00943212EA0000000546
B1300375609481N00943031EA0000000533
B1300445609430N00942815EA0000000530
B1300535609376N00942553EA0000000547
B1301015609339N00942343EA0000000552
B1301085609298N00942157EA0000000536
B1301155609228N00941992EA0000000541
B1301225609138N00941864EA0000000535
B1301285609062N00941752EA0000000531
B1301335608995N00941648EA0000000507
B1301385608932N00941512EA0000000493
B1301435608959N00941346EA0000000495
B1301485609069N00941308EA0000000499
B1301535609168N00941427EA0000000507
B1301585609228N00941625EA0000000498
B1302035609197N00941809EA0000000522
B1302085609120N00941829EA0000000534
B1302145609093N00941711EA0000000544
B1302215609195N00941695EA0000000546
B1302265609223N00941851EA0000000545
B1302315609166N00941955EA0000000550
B1302365609112N00941909EA0000000551
B1302415609142N00941808EA0000000550
B1302465609227N00941841EA0000000559
B1302515609246N00941996EA0000000556
B1302565609178N00942053EA0000000557
B1303015609138N00941964EA0000000552
B1303105609101N00941702EA0000000524
B1303155609087N00941529EA0000000526
B1303205609076N00941362EA0000000539
B1303355609073N00940947EA0000000569
B1303415609076N00940796EA0000000578
B1303465609102N00940683EA0000000586
B1303525609197N00940711EA0000000586
B1303585609186N00940886EA0000000584
B1304035609124N00940876EA0000000578
B1304095609107N00940751EA0000000583
B1304145609123N00940633EA0000000576
B1304195609150N00940503EA0000000549
B1304245609189N00940359EA0000000537
B1304305609239N00940181EA0000000529
B1304385609311N00939950EA0000000516
B1304435609354N00939809EA0000000514
B1304485609399N00939670EA0000000502
B1304545609454N00939491EA0000000480
B1305045609549N00939179EA0000000470
B1305135609632N00938901EA0000000448
B1305205609701N00938689EA0000000447
B1305265609760N00938515EA0000000447
B1305335609824N00938322EA0000000446
B1305405609877N00938131EA0000000454
B1305465609927N00937971EA0000000461
B1305525609958N00937816EA0000000464
B1305575609925N00937723EA0000000471
B1306045609841N00937782EA0000000477
B1306095609829N00937928EA0000000484
B1306165609919N00938060EA0000000486
B1306225609970N00937946EA0000000470
B1306275609933N00937826EA0000000462
B1306335609861N00937706EA0000000463
B1306385609804N00937610EA0000000472
B1306475609831N00937402EA0000000483
B1306565609975N00937495EA0000000471
B1307015609975N00937661EA0000000465
B1307065609918N00937759EA0000000472
B1307125609841N00937747EA0000000468
B1307335609828N00937226EA0000000450
B1307445609845N00936921EA0000000457
B1308065609857N00936322EA0000000441
B1308125609855N00936148EA0000000425
B1308505609928N00935011EA0000000410
B1309225610022N00934132EA0000000366
B1309305609987N00933914EA0000000351
B1309375609946N00933725EA0000000337
B1309425609912N00933592EA0000000323
B1309505609848N00933379EA0000000306
B1309595609774N00933137EA0000000291
B1310045609734N00933003EA0000000288
B1310125609676N00932803EA0000000288
B1310185609634N00932658EA0000000281
B1310275609566N00932428EA0000000258
B1310415609464N00932057EA0000000246
B1310565609364N00931680EA0000000237
