AOGNOGN
HFDTE040825
HFFXA050
HFPLTPILOTINCHARGE:
HFGTYGLIDERTYPE:LS-8
HFGIDGLIDERID:OY-LXE
HFDTM100GPSDATUM:WGS-1984
HFRFWFIRMWAREVERSION:
HFRHWHARDWAREVERSION:
HFFTYFRTYPE:OGN-FLIGHTBOOK
HFGPSGENERIC
HFPRSPRESSALTSENSOR:
HFCIDCOMPETITIONID:LE
B1026025600686N00901360EA0000000043
B1026065600683N00901292EA0000000043
B1026155600671N00901083EA0000000044
B1026225600659N00900886EA0000000058
B1026275600648N00900752EA0000000072
B1026345600638N00900558EA0000000079
B1026425600645N00900324EA0000000100
B1026475600674N00900194EA0000000114
B1026555600769N00900037EA0000000130
B1027025600883N00859961EA0000000145
B1027075600971N00859924EA0000000154
B1027135601076N00859868EA0000000166
B1027205601196N00859793EA0000000181
B1027275601306N00859699EA0000000199
B1027345601416N00859601EA0000000218
B1027405601520N00859532EA0000000245
B1027475601647N00859476EA0000000271
B1027525601738N00859446EA0000000281
B1027575601830N00859424EA0000000290
B1028025601920N00859410EA0000000308
B1028075602013N00859400EA0000000313
B1028125602109N00859381EA0000000318
B1028175602205N00859361EA0000000328
B1028225602300N00859342EA0000000342
B1028275602398N00859360EA0000000352
B1028335602512N00859451EA0000000360
B1028385602594N00859587EA0000000367
B1028455602682N00859829EA0000000378
B1028505602739N00900014EA0000000388
B1028565602802N00900239EA0000000402
B1029025602860N00900470EA0000000416
B1029075602909N00900662EA0000000425
B1029165602995N00901006EA0000000445
B1029215603044N00901195EA0000000454
B1029285603112N00901460EA0000000479
B1029355603182N00901724EA0000000503
B1029405603226N00901915EA0000000526
B1029455603257N00902111EA0000000550
B1029515603288N00902342EA0000000577
B1029575603366N00902474EA0000000582
B1030025603447N00902470EA0000000594
B1030075603522N00902539EA0000000602
B1030125603535N00902708EA0000000612
B1030175603479N00902815EA0000000618
B1030225603419N00902785EA0000000620
B1030285603427N00902657EA0000000625
B1030335603477N00902584EA0000000639
B1030385603554N00902626EA0000000648
B1030435603600N00902772EA0000000653
B1030485603585N00902936EA0000000662
B1030535603526N00903036EA0000000671
B1030585603466N00903026EA0000000675
B1031035603455N00902930EA0000000673
B1031085603512N00902871EA0000000691
B1031135603589N00902912EA0000000701
B1031185603648N00903042EA0000000704
B1031235603648N00903211EA0000000706
B1031295603569N00903304EA0000000710
B1031345603521N00903246EA0000000710
B1031395603502N00903144EA0000000706
B1031445603530N00903056EA0000000723
B1031495603603N00903092EA0000000727
B1031555603648N00903270EA0000000724
B1032005603614N00903422EA0000000722
B1032055603541N00903463EA0000000726
B1032115603495N00903367EA0000000729
B1032165603531N00903276EA0000000740
B1032225603623N00903320EA0000000752
B1032285603670N00903506EA0000000749
B1032345603631N00903697EA0000000748
B1032395603558N00903755EA0000000749
B1032445603501N00903701EA0000000755
B1032495603493N00903594EA0000000755
B1032545603540N00903512EA0000000765
B1032595603616N00903561EA0000000777
B1033045603640N00903720EA0000000779
B1033095603594N00903850EA0000000786
B1033145603530N00903841EA0000000789
B1033205603521N00903719EA0000000787
B1033255603573N00903647EA0000000802
B1033305603643N00903728EA0000000803
B1033355603653N00903894EA0000000807
B1033405603596N00903995EA0000000812
B1033455603535N00903961EA0000000810
B1033505603524N00903859EA0000000817
B1033555603575N00903787EA0000000825
B1034005603650N00903844EA0000000831
B1034055603680N00904012EA0000000830
B1034105603651N00904179EA0000000833
B1034155603579N00904263EA0000000836
B1034205603512N00904230EA0000000839
B1034265603502N00904098EA0000000842
B1034325603552N00903965EA0000000854
B1034375603595N00903851EA0000000859
B1034435603660N00903721EA0000000859
B1034485603725N00903611EA0000000845
B1034545603817N00903480EA0000000830
B1034595603899N00903373EA0000000820
B1035075604036N00903209EA0000000806
B1035135604136N00903088EA0000000798
B1035185604216N00902986EA0000000791
B1035235604294N00902882EA0000000783
B1035285604349N00902757EA0000000791
B1035345604383N00902594EA0000000814
B1035425604408N00902377EA0000000824
B1035475604426N00902240EA0000000828
B1035525604447N00902101EA0000000828
B1035575604461N00901950EA0000000820
B1036025604470N00901794EA0000000818
B1036075604471N00901636EA0000000819
B1036125604457N00901485EA0000000829
B1036175604404N00901384EA0000000849
B1036225604329N00901443EA0000000859
B1036275604316N00901619EA0000000867
B1036335604399N00901770EA0000000881
B1036385604493N00901711EA0000000861
B1036435604500N00901549EA0000000869
B1036485604424N00901470EA0000000882
B1036535604335N00901558EA0000000880
B1036585604298N00901767EA0000000868
B1037035604296N00902002EA0000000871
B1037095604302N00902297EA0000000868
B1037145604315N00902554EA0000000858
B1037195604318N00902823EA0000000848
B1037245604333N00903092EA0000000838
B1037305604355N00903414EA0000000837
B1037375604362N00903790EA0000000840
B1037425604341N00904049EA0000000840
B1037475604291N00904290EA0000000833
B1037525604226N00904514EA0000000830
B1037595604117N00904799EA0000000821
B1038055604016N00905028EA0000000812
B1038125603900N00905295EA0000000803
B1038185603801N00905515EA0000000805
B1038245603703N00905729EA0000000804
B1038305603597N00905913EA0000000814
B1038365603479N00906035EA0000000813
B1038415603373N00906101EA0000000802
B1038465603264N00906127EA0000000794
B1038525603133N00906140EA0000000785
B1038575603021N00906140EA0000000777
B1039025602909N00906136EA0000000772
B1039075602796N00906135EA0000000767
B1039145602641N00906119EA0000000765
B1039215602497N00906076EA0000000763
B1039265602403N00906024EA0000000760
B1039315602321N00905943EA0000000756
B1039365602253N00905840EA0000000761
B1039425602190N00905699EA0000000760
B1039485602146N00905536EA0000000751
B1039535602121N00905390EA0000000744
B1040005602097N00905178EA0000000730
B1040065602087N00904986EA0000000723
B1040125602081N00904791EA0000000725
B1040175602076N00904636EA0000000736
B1040255602077N00904400EA0000000735
B1040305602081N00904248EA0000000726
B1040355602083N00904096EA0000000732
B1040425602087N00903895EA0000000739
B1040495602092N00903708EA0000000763
B1040545602102N00903586EA0000000778
B1040595602115N00903466EA0000000772
B1041055602134N00903305EA0000000753
B1041105602153N00903163EA0000000742
B1041155602175N00903013EA0000000736
B1041205602197N00902865EA0000000732
B1041265602227N00902690EA0000000744
B1041325602253N00902527EA0000000759
B1041375602269N00902394EA0000000759
B1041455602285N00902165EA0000000753
B1041525602294N00901957EA0000000756
B1041575602300N00901803EA0000000747
B1042025602307N00901645EA0000000745
B1042085602315N00901454EA0000000742
B1042155602324N00901227EA0000000729
B1042235602330N00900968EA0000000729
B1042285602328N00900810EA0000000736
B1042335602318N00900657EA0000000740
B1042385602301N00900507EA0000000749
B1042435602278N00900369EA0000000758
B1042525602231N00900126EA0000000759
B1042575602203N00859989EA0000000754
B1043025602183N00859847EA0000000751
B1043075602176N00859708EA0000000757
B1043125602229N00859613EA0000000761
B1043175602317N00859609EA0000000755
B1043235602426N00859705EA0000000737
B1043285602516N00859822EA0000000723
B1043345602626N00859969EA0000000712
B1043445602800N00900249EA0000000702
B1043545602977N00900525EA0000000690
B1044025603130N00900721EA0000000684
B1044085603246N00900862EA0000000680
B1044185603443N00901089EA0000000669
B1044265603599N00901277EA0000000661
B1044315603694N00901401EA0000000655
B1044365603789N00901527EA0000000648
B1044425603904N00901674EA0000000651
B1044475603993N00901786EA0000000664
B1044535604093N00901913EA0000000680
B1044585604157N00902040EA0000000697
B1045035604158N00902204EA0000000708
B1045085604096N00902302EA0000000697
B1045135604031N00902262EA0000000669
B1045195604026N00902114EA0000000659
B1045255604062N00901966EA0000000664
B1045305604119N00901889EA0000000685
B1045365604212N00901954EA0000000695
B1045415604291N00901991EA0000000692
B1045465604370N00902028EA0000000683
B1045515604429N00902171EA0000000674
B1045565604450N00902358EA0000000663
B1046025604449N00902594EA0000000643
B1046095604436N00902882EA0000000630
B1046145604422N00903087EA0000000635
B1046205604401N00903325EA0000000640
B1046255604379N00903514EA0000000654
B1046305604322N00903641EA0000000673
B1046355604252N00903650EA0000000672
B1046405604222N00903560EA0000000666
B1046465604263N00903440EA0000000675
B1046515604335N00903423EA0000000689
B1046565604384N00903550EA0000000693
B1047015604347N00903680EA0000000692
B1047065604283N00903648EA0000000693
B1047115604285N00903536EA0000000712
B1047165604359N00903526EA0000000714
B1047215604389N00903676EA0000000722
B1047275604315N00903771EA0000000724
B1047325604253N00903743EA0000000729
B1047375604280N00903646EA0000000732
B1047425604358N00903696EA0000000744
B1047475604354N00903854EA0000000746
B1047525604281N00903872EA0000000755
B1047585604282N00903748EA0000000767
B1048035604360N00903755EA0000000773
B1048085604410N00903888EA0000000776
B1048135604379N00904035EA0000000775
B1048185604302N00904067EA0000000784
B1048235604261N00903976EA0000000790
B1048285604296N00903878EA0000000791
B1048335604373N00903890EA0000000792
B1048385604430N00904018EA0000000792
B1048435604426N00904187EA0000000791
B1048485604362N00904285EA0000000811
B1048535604311N00904218EA0000000814
B1048595604368N00904128EA0000000808
B1049045604444N00904214EA0000000816
B1049095604461N00904378EA0000000823
B1049145604403N00904482EA0000000838
B1049205604335N00904423EA0000000846
B1049265604354N00904305EA0000000845
B1049315604427N00904288EA0000000847
B1049365604494N00904397EA0000000853
B1049415604507N00904560EA0000000853
B1049465604455N00904677EA0000000859
B1049515604388N00904647EA0000000862
B1049565604389N00904543EA0000000865
B1050015604461N00904520EA0000000863
B1050065604532N00904632EA0000000870
B1050125604534N00904832EA0000000870
B1050175604464N00904900EA0000000877
B1050225604414N00904824EA0000000884
B1050275604440N00904721EA0000000886
B1050325604519N00904705EA0000000889
B1050375604591N00904807EA0000000889
B1050425604601N00904971EA0000000887
B1050475604552N00905098EA0000000885
B1050525604479N00905173EA0000000894
B1050585604384N00905235EA0000000892
B1051045604277N00905284EA0000000875
B1051095604182N00905315EA0000000862
B1051145604082N00905336EA0000000848
B1051195603979N00905343EA0000000840
B1051245603876N00905334EA0000000834
B1051315603737N00905303EA0000000829
B1051425603523N00905236EA0000000815
B1051475603430N00905185EA0000000807
B1051525603340N00905125EA0000000800
B1051575603253N00905047EA0000000788
B1052025603172N00904949EA0000000780
B1052105603053N00904780EA0000000777
B1052175602973N00904607EA0000000776
B1052225602930N00904471EA0000000773
B1052285602891N00904295EA0000000764
B1052335602864N00904141EA0000000754
B1052395602836N00903953EA0000000745
B1052445602811N00903792EA0000000743
B1052505602792N00903624EA0000000764
B1052555602805N00903492EA0000000773
B1053015602870N00903387EA0000000784
B1053065602951N00903412EA0000000786
B1053115603001N00903551EA0000000784
B1053165602971N00903698EA0000000787
B1053215602901N00903718EA0000000786
B1053265602866N00903624EA0000000791
B1053315602901N00903523EA0000000791
B1053365602981N00903513EA0000000789
B1053415603050N00903625EA0000000785
B1053465603055N00903794EA0000000783
B1053515602993N00903891EA0000000786
B1053565602934N00903846EA0000000794
B1054025602946N00903717EA0000000793
B1054075603020N00903682EA0000000793
B1054135603098N00903811EA0000000789
B1054185603079N00903967EA0000000787
B1054235603010N00904019EA0000000793
B1054285602962N00903951EA0000000799
B1054335602989N00903844EA0000000799
B1054385603070N00903841EA0000000799
B1054445603139N00903991EA0000000794
B1054495603118N00904150EA0000000786
B1054565603016N00904205EA0000000789
B1055035602986N00904048EA0000000794
B1055085603049N00903967EA0000000794
B1055135603134N00904019EA0000000795
B1055185603178N00904169EA0000000790
B1055235603158N00904330EA0000000784
B1055285603093N00904423EA0000000788
B1055335603020N00904418EA0000000791
B1055385602978N00904325EA0000000792
B1055435602994N00904210EA0000000790
B1055505603087N00904115EA0000000775
B1055565603168N00904016EA0000000774
B1056015603207N00903897EA0000000764
B1056095603221N00903686EA0000000759
B1056145603225N00903556EA0000000763
B1056245603236N00903301EA0000000753
B1056315603239N00903110EA0000000736
B1056395603240N00902880EA0000000750
B1056445603294N00902794EA0000000766
B1056495603369N00902863EA0000000759
B1056545603380N00903029EA0000000749
B1056595603321N00903131EA0000000751
B1057045603250N00903154EA0000000756
B1057095603197N00903100EA0000000762
B1057145603208N00902997EA0000000770
B1057195603277N00902951EA0000000765
B1057245603351N00903021EA0000000760
B1057305603372N00903209EA0000000750
B1057365603319N00903362EA0000000751
B1057415603250N00903383EA0000000751
B1057465603193N00903330EA0000000746
B1057515603175N00903220EA0000000741
B1057565603182N00903098EA0000000731
B1058045603186N00902882EA0000000719
B1058145603183N00902604EA0000000707
B1058225603177N00902382EA0000000703
B1058275603170N00902244EA0000000706
B1058325603151N00902114EA0000000716
B1058385603126N00901969EA0000000729
B1058435603166N00901877EA0000000743
B1058485603243N00901935EA0000000737
B1058545603236N00902122EA0000000726
B1059025603119N00902144EA0000000739
B1059085603098N00902030EA0000000738
B1059145603170N00901955EA0000000732
B1059195603249N00902013EA0000000735
B1059255603289N00902193EA0000000739
B1059315603230N00902333EA0000000729
B1059365603157N00902324EA0000000735
B1059415603123N00902230EA0000000736
B1059465603141N00902122EA0000000733
B1059525603225N00902064EA0000000729
B1059575603306N00902111EA0000000736
B1100035603355N00902285EA0000000729
B1100085603336N00902444EA0000000731
B1100155603241N00902501EA0000000740
B1100205603192N00902429EA0000000743
B1100255603216N00902327EA0000000748
B1100305603290N00902300EA0000000748
B1100355603363N00902387EA0000000745
B1100405603387N00902552EA0000000745
B1100465603342N00902709EA0000000752
B1100515603277N00902697EA0000000755
B1100565603260N00902594EA0000000757
B1101025603323N00902507EA0000000763
B1101075603399N00902570EA0000000760
B1101125603429N00902721EA0000000756
B1101175603392N00902854EA0000000760
B1101225603326N00902857EA0000000766
B1101285603304N00902737EA0000000770
B1101335603365N00902675EA0000000779
B1101385603432N00902766EA0000000776
B1101435603423N00902918EA0000000772
B1101485603360N00903000EA0000000775
B1101535603300N00902953EA0000000776
B1101595603308N00902820EA0000000781
B1102045603377N00902777EA0000000773
B1102095603460N00902833EA0000000774
B1102155603516N00903007EA0000000770
B1102205603496N00903165EA0000000764
B1102265603414N00903217EA0000000766
B1102315603374N00903130EA0000000769
B1102375603405N00902996EA0000000774
B1102445603514N00902955EA0000000770
B1102495603600N00903028EA0000000761
B1102565603729N00903146EA0000000736
B1103015603829N00903236EA0000000726
B1103075603952N00903345EA0000000716
B1103125604058N00903434EA0000000705
B1103195604212N00903555EA0000000698
B1103255604345N00903646EA0000000695
B1103345604547N00903775EA0000000683
B1103395604658N00903840EA0000000675
B1103455604788N00903921EA0000000665
B1103505604896N00903985EA0000000670
B1103565605019N00904046EA0000000678
B1104015605121N00904085EA0000000673
B1104075605245N00904136EA0000000668
B1104125605350N00904162EA0000000662
B1104175605447N00904151EA0000000678
B1104225605497N00904049EA0000000693
B1104275605465N00903959EA0000000702
B1104325605400N00904027EA0000000704
B1104385605415N00904227EA0000000705
B1104435605488N00904340EA0000000713
B1104485605573N00904340EA0000000719
B1104545605602N00904216EA0000000715
B1104595605546N00904157EA0000000715
B1105045605477N00904223EA0000000727
B1105095605450N00904376EA0000000731
B1105145605472N00904540EA0000000734
B1105195605550N00904603EA0000000740
B1105245605606N00904523EA0000000746
B1105295605575N00904441EA0000000750
B1105345605517N00904512EA0000000756
B1105405605533N00904701EA0000000764
B1105455605610N00904780EA0000000773
B1105505605672N00904723EA0000000773
B1105555605667N00904617EA0000000767
B1106005605603N00904602EA0000000768
B1106055605553N00904732EA0000000777
B1106105605575N00904897EA0000000783
B1106155605658N00904954EA0000000794
B1106205605704N00904869EA0000000796
B1106255605664N00904793EA0000000799
B1106305605599N00904868EA0000000806
B1106355605600N00905028EA0000000817
B1106405605675N00905116EA0000000825
B1106455605734N00905046EA0000000827
B1106505605710N00904951EA0000000830
B1106565605629N00904989EA0000000836
B1107015605617N00905154EA0000000841
B1107075605705N00905279EA0000000850
B1107125605773N00905225EA0000000858
B1107175605766N00905123EA0000000856
B1107235605691N00905181EA0000000854
B1107285605701N00905352EA0000000864
B1107345605802N00905433EA0000000869
B1107395605859N00905356EA0000000871
B1107455605835N00905231EA0000000867
B1107515605759N00905176EA0000000876
B1107585605657N00905149EA0000000876
B1108035605577N00905147EA0000000866
B1108085605488N00905161EA0000000854
B1108135605397N00905186EA0000000850
B1108195605288N00905213EA0000000847
B1108245605196N00905225EA0000000847
B1108295605132N00905152EA0000000852
B1108355605127N00904990EA0000000846
B1108405605156N00904853EA0000000839
B1108455605197N00904717EA0000000830
B1108515605250N00904551EA0000000822
B1108565605296N00904411EA0000000818
B1109035605370N00904226EA0000000813
B1109085605426N00904101EA0000000815
B1109135605488N00903985EA0000000818
B1109185605562N00903891EA0000000819
B1109245605662N00903799EA0000000818
B1109295605757N00903741EA0000000820
B1109345605852N00903689EA0000000834
B1109405605977N00903690EA0000000837
B1109455606065N00903813EA0000000843
B1109505606074N00904003EA0000000839
B1109555606013N00904109EA0000000844
B1110005605947N00904094EA0000000850
B1110055605926N00903992EA0000000857
B1110105605972N00903903EA0000000864
B1110155606052N00903965EA0000000868
B1110215606079N00904157EA0000000865
B1110265606032N00904281EA0000000862
B1110315605966N00904303EA0000000868
B1110365605929N00904223EA0000000873
B1110415605967N00904132EA0000000882
B1110465606049N00904171EA0000000882
B1110515606091N00904321EA0000000882
B1110565606062N00904466EA0000000888
B1111015605999N00904505EA0000000894
B1111065605961N00904435EA0000000900
B1111115606005N00904347EA0000000906
B1111165606082N00904414EA0000000910
B1111215606097N00904578EA0000000909
B1111265606048N00904683EA0000000918
B1111315605992N00904655EA0000000923
B1111365606000N00904542EA0000000925
B1111415606089N00904521EA0000000917
B1111465606157N00904672EA0000000919
B1111515606125N00904831EA0000000929
B1111565606059N00904815EA0000000935
B1112015606056N00904688EA0000000926
B1112065606144N00904621EA0000000919
B1112115606240N00904725EA0000000919
B1112165606260N00904924EA0000000917
B1112215606207N00905081EA0000000921
B1112265606124N00905107EA0000000926
B1112315606073N00905012EA0000000928
B1112365606106N00904875EA0000000925
B1112425606232N00904868EA0000000918
B1112475606303N00905040EA0000000916
B1112525606282N00905238EA0000000921
B1112575606206N00905349EA0000000925
B1113025606114N00905392EA0000000928
B1113085606001N00905398EA0000000928
B1113135605901N00905397EA0000000928
B1113195605770N00905390EA0000000894
B1113245605657N00905385EA0000000906
B1113305605534N00905375EA0000000910
B1113395605353N00905368EA0000000910
B1113445605256N00905366EA0000000909
B1113515605128N00905367EA0000000911
B1113585605002N00905374EA0000000908
B1114035604921N00905383EA0000000915
B1114135604759N00905421EA0000000897
B1114185604675N00905448EA0000000890
B1114245604573N00905485EA0000000880
B1114325604433N00905534EA0000000867
B1114375604343N00905563EA0000000861
B1114425604252N00905590EA0000000854
B1114485604146N00905674EA0000000846
B1114545604053N00905813EA0000000841
B1115005603966N00905960EA0000000836
B1115055603891N00906072EA0000000831
B1115105603813N00906147EA0000000830
B1115175603699N00906217EA0000000818
B1115225603616N00906233EA0000000807
B1115305603483N00906230EA0000000793
B1115355603399N00906225EA0000000787
B1115405603315N00906238EA0000000792
B1115465603219N00906262EA0000000792
B1115525603124N00906285EA0000000784
B1115575603045N00906298EA0000000778
B1116055602919N00906296EA0000000763
B1116175602723N00906285EA0000000749
B1116225602639N00906293EA0000000740
B1116305602506N00906336EA0000000729
B1116365602435N00906487EA0000000721
B1116415602439N00906671EA0000000714
B1116475602474N00906893EA0000000703
B1116535602505N00907130EA0000000691
B1116585602522N00907337EA0000000681
B1117045602542N00907594EA0000000668
B1117105602566N00907848EA0000000676
B1117165602595N00908096EA0000000676
B1117215602631N00908300EA0000000662
B1117265602681N00908506EA0000000649
B1117325602750N00908751EA0000000638
B1117405602846N00909078EA0000000629
B1117465602922N00909320EA0000000622
B1117515602987N00909520EA0000000617
B1117575603064N00909763EA0000000610
B1118035603139N00910008EA0000000605
B1118105603224N00910299EA0000000594
B1118165603297N00910553EA0000000582
B1118235603384N00910851EA0000000573
B1118315603481N00911191EA0000000566
B1118395603579N00911529EA0000000562
B1118455603675N00911740EA0000000567
B1118525603772N00911999EA0000000565
B1118585603845N00912234EA0000000557
B1119035603901N00912436EA0000000562
B1119085603958N00912627EA0000000564
B1119135604015N00912822EA0000000548
B1119185604071N00913023EA0000000535
B1119265604157N00913349EA0000000523
B1119315604205N00913552EA0000000521
B1119365604249N00913754EA0000000513
B1119425604294N00913995EA0000000508
B1119485604349N00914230EA0000000501
B1119535604415N00914408EA0000000502
B1119585604472N00914582EA0000000512
B1120035604499N00914773EA0000000506
B1120105604505N00915049EA0000000509
B1120165604492N00915284EA0000000504
B1120255604467N00915641EA0000000496
B1120315604477N00915879EA0000000501
B1120365604491N00916063EA0000000519
B1120415604440N00916173EA0000000525
B1120465604381N00916144EA0000000521
B1120515604385N00916041EA0000000515
B1120575604460N00915955EA0000000509
B1121025604539N00915932EA0000000513
B1121085604627N00916032EA0000000507
B1121135604640N00916196EA0000000497
B1121185604608N00916345EA0000000498
B1121235604548N00916419EA0000000510
B1121285604523N00916341EA0000000508
B1121335604590N00916309EA0000000513
B1121385604642N00916434EA0000000513
B1121435604619N00916584EA0000000513
B1121485604553N00916622EA0000000520
B1121535604537N00916525EA0000000519
B1121585604602N00916468EA0000000525
B1122045604673N00916611EA0000000527
B1122095604661N00916781EA0000000529
B1122145604602N00916893EA0000000532
B1122195604564N00917047EA0000000533
B1122245604557N00917232EA0000000539
B1122295604592N00917405EA0000000548
B1122345604586N00917573EA0000000556
B1122395604556N00917733EA0000000551
B1122445604577N00917923EA0000000532
B1122495604634N00918100EA0000000518
B1122545604700N00918278EA0000000511
B1122595604764N00918455EA0000000530
B1123045604782N00918646EA0000000543
B1123095604794N00918828EA0000000561
B1123145604746N00918931EA0000000570
B1123195604710N00918864EA0000000571
B1123255604776N00918778EA0000000578
B1123305604854N00918804EA0000000580
B1123355604902N00918947EA0000000587
B1123405604878N00919091EA0000000600
B1123455604815N00919108EA0000000606
B1123505604841N00919023EA0000000604
B1123555604915N00919123EA0000000614
B1124005604890N00919268EA0000000635
B1124065604836N00919219EA0000000645
B1124115604887N00919155EA0000000650
B1124165604969N00919233EA0000000656
B1124215604978N00919393EA0000000665
B1124265604915N00919439EA0000000673
B1124315604915N00919337EA0000000679
B1124375605011N00919388EA0000000692
B1124425605001N00919548EA0000000698
B1124475604934N00919550EA0000000711
B1124525604956N00919451EA0000000724
B1124575605040N00919486EA0000000735
B1125025605055N00919647EA0000000738
B1125075604990N00919696EA0000000747
B1125125604973N00919603EA0000000755
B1125175605050N00919582EA0000000766
B1125225605102N00919726EA0000000771
B1125275605051N00919838EA0000000777
B1125325604998N00919787EA0000000788
B1125375605043N00919708EA0000000799
B1125425605118N00919805EA0000000803
B1125475605104N00919961EA0000000811
B1125525605039N00919967EA0000000821
B1125575605048N00919868EA0000000831
B1126025605129N00919886EA0000000836
B1126075605164N00920045EA0000000843
B1126125605114N00920151EA0000000846
B1126175605069N00920097EA0000000853
B1126225605110N00920012EA0000000854
B1126275605193N00920069EA0000000850
B1126325605219N00920238EA0000000860
B1126375605220N00920411EA0000000853
B1126425605224N00920594EA0000000860
B1126475605221N00920766EA0000000880
B1126535605202N00920960EA0000000884
B1126585605208N00921136EA0000000893
B1127035605218N00921319EA0000000902
B1127085605228N00921499EA0000000915
B1127135605233N00921688EA0000000914
B1127185605231N00921886EA0000000917
B1127235605225N00922088EA0000000925
B1127295605216N00922333EA0000000921
B1127345605207N00922551EA0000000903
B1127425605190N00922916EA0000000881
B1127485605177N00923199EA0000000875
B1127555605166N00923529EA0000000866
B1128015605158N00923813EA0000000856
B1128085605153N00924143EA0000000844
B1128135605150N00924378EA0000000838
B1128265605150N00924993EA0000000830
B1128325605151N00925261EA0000000838
B1128375605157N00925485EA0000000827
B1128445605174N00925811EA0000000810
B1128505605198N00926097EA0000000792
B1128555605227N00926335EA0000000795
B1129005605262N00926566EA0000000795
B1129075605315N00926888EA0000000789
B1129125605356N00927112EA0000000793
B1129175605400N00927338EA0000000796
B1129235605451N00927603EA0000000794
B1129295605504N00927867EA0000000791
B1129345605554N00928078EA0000000791
B1129395605588N00928299EA0000000791
B1129455605627N00928571EA0000000777
B1129515605669N00928850EA0000000766
B1129565605704N00929083EA0000000754
B1130045605766N00929453EA0000000751
B1130125605834N00929819EA0000000731
B1130175605878N00930049EA0000000725
B1130225605926N00930275EA0000000729
B1130275605973N00930497EA0000000729
B1130335606034N00930760EA0000000732
B1130385606092N00930968EA0000000738
B1130445606164N00931211EA0000000741
B1130495606238N00931403EA0000000730
B1130545606332N00931564EA0000000729
B1130595606428N00931712EA0000000723
B1131045606527N00931839EA0000000731
B1131105606646N00931946EA0000000749
B1131155606732N00931987EA0000000771
B1131215606764N00931885EA0000000780
B1131265606702N00931859EA0000000790
B1131315606639N00931959EA0000000807
B1131365606642N00932118EA0000000816
B1131415606706N00932187EA0000000812
B1131465606752N00932121EA0000000812
B1131515606745N00932017EA0000000819
B1131565606703N00931937EA0000000830
B1132015606635N00931935EA0000000844
B1132065606587N00932058EA0000000842
B1132115606604N00932227EA0000000851
B1132165606655N00932359EA0000000859
B1132215606710N00932493EA0000000853
B1132265606765N00932635EA0000000865
B1132315606766N00932791EA0000000879
B1132365606698N00932823EA0000000877
B1132415606689N00932731EA0000000881
B1132485606777N00932649EA0000000886
B1132535606854N00932647EA0000000899
B1132585606922N00932744EA0000000912
B1133035606981N00932866EA0000000923
B1133085607025N00933015EA0000000920
B1133135607082N00933198EA0000000884
B1133185607155N00933395EA0000000883
B1133235607235N00933575EA0000000886
B1133305607351N00933820EA0000000877
B1133365607457N00934020EA0000000878
B1133415607544N00934182EA0000000875
B1133475607654N00934359EA0000000875
B1133525607753N00934476EA0000000872
B1133575607855N00934590EA0000000875
B1134035607976N00934719EA0000000871
B1134095608096N00934853EA0000000873
B1134145608186N00934987EA0000000885
B1134195608269N00935130EA0000000882
B1134245608352N00935291EA0000000861
B1134295608430N00935474EA0000000845
B1134345608503N00935677EA0000000837
B1134395608574N00935883EA0000000850
B1134445608634N00936066EA0000000881
B1134505608703N00936270EA0000000883
B1134555608761N00936429EA0000000896
B1135005608816N00936587EA0000000894
B1135055608878N00936747EA0000000891
B1135105608939N00936929EA0000000884
B1135155609003N00937126EA0000000877
B1135205609067N00937324EA0000000890
B1135265609145N00937534EA0000000913
B1135315609198N00937713EA0000000929
B1135365609249N00937894EA0000000916
B1135425609317N00938130EA0000000905
B1135485609389N00938375EA0000000905
B1135545609460N00938619EA0000000901
B1135595609524N00938821EA0000000893
B1136045609590N00939024EA0000000887
B1136105609674N00939263EA0000000881
B1136165609759N00939497EA0000000874
B1136225609842N00939729EA0000000871
B1136275609913N00939920EA0000000861
B1136325609986N00940119EA0000000863
B1136375610057N00940318EA0000000869
B1136435610136N00940553EA0000000881
B1136485610199N00940743EA0000000877
B1136545610281N00940973EA0000000863
B1136595610350N00941173EA0000000863
B1137065610448N00941445EA0000000866
B1137115610525N00941631EA0000000868
B1137165610603N00941801EA0000000884
B1137225610694N00941988EA0000000895
B1137295610806N00942211EA0000000904
B1137345610885N00942367EA0000000909
B1137405610982N00942566EA0000000886
B1137455611073N00942740EA0000000870
B1137515611184N00942950EA0000000870
B1137585611309N00943193EA0000000877
B1138035611393N00943367EA0000000888
B1138085611476N00943538EA0000000873
B1138135611567N00943716EA0000000859
B1138205611693N00943969EA0000000851
B1138255611780N00944152EA0000000843
B1138315611881N00944377EA0000000836
B1138375611982N00944599EA0000000830
B1138425612079N00944758EA0000000837
B1138475612173N00944907EA0000000864
B1138525612247N00945071EA0000000882
B1138575612300N00945243EA0000000901
B1139035612339N00945455EA0000000908
B1139095612373N00945665EA0000000912
B1139145612391N00945845EA0000000907
B1139215612410N00946113EA0000000892
B1139295612427N00946449EA0000000872
B1139345612432N00946670EA0000000858
B1139395612436N00946894EA0000000847
B1139445612425N00947113EA0000000846
B1139495612391N00947316EA0000000840
B1139555612338N00947557EA0000000829
B1140005612295N00947761EA0000000826
B1140075612241N00948050EA0000000830
B1140135612189N00948288EA0000000844
B1140195612149N00948520EA0000000848
B1140275612130N00948841EA0000000872
B1140325612125N00949043EA0000000855
B1140385612121N00949307EA0000000843
B1140435612127N00949533EA0000000836
B1140485612130N00949765EA0000000831
B1140565612112N00950133EA0000000829
B1141015612087N00950362EA0000000813
B1141075612050N00950641EA0000000802
B1141205611969N00951252EA0000000775
B1141275611923N00951590EA0000000758
B1141335611881N00951877EA0000000754
B1141425611818N00952298EA0000000750
B1141485611774N00952569EA0000000744
B1141545611724N00952838EA0000000745
B1142015611666N00953127EA0000000772
B1142065611629N00953315EA0000000792
B1142135611575N00953577EA0000000770
B1142195611524N00953825EA0000000764
B1142265611458N00954119EA0000000758
B1142315611399N00954297EA0000000779
B1142415611269N00954594EA0000000773
B1142465611223N00954763EA0000000786
B1142515611219N00954949EA0000000793
B1142565611282N00955078EA0000000795
B1143015611356N00955055EA0000000793
B1143065611358N00954946EA0000000800
B1143125611275N00954930EA0000000812
B1143175611232N00955073EA0000000812
B1143225611283N00955227EA0000000815
B1143285611381N00955232EA0000000818
B1143335611425N00955144EA0000000827
B1143385611390N00955066EA0000000838
B1143435611324N00955143EA0000000839
B1143485611332N00955315EA0000000843
B1143535611409N00955408EA0000000846
B1143585611479N00955374EA0000000858
B1144035611484N00955280EA0000000868
B1144085611423N00955275EA0000000872
B1144135611372N00955394EA0000000874
B1144185611380N00955565EA0000000874
B1144265611439N00955837EA0000000882
B1144325611494N00956023EA0000000895
B1144375611571N00956071EA0000000907
B1144425611601N00955992EA0000000908
B1144485611529N00955979EA0000000916
B1144535611487N00956123EA0000000931
B1144585611525N00956272EA0000000942
B1145045611606N00956252EA0000000953
B1145095611567N00956186EA0000000961
B1145145611508N00956290EA0000000977
B1145205611541N00956480EA0000000990
B1145255611619N00956480EA0000000998
B1145315611605N00956382EA0000001011
B1145365611537N00956447EA0000001011
B1145415611518N00956623EA0000001024
B1145465611503N00956812EA0000001017
B1145525611483N00957048EA0000001027
B1145585611452N00957292EA0000001007
B1146055611410N00957601EA0000000989
B1146105611380N00957833EA0000000979
B1146165611345N00958113EA0000000968
B1146245611304N00958483EA0000000959
B1146375611251N00959079EA0000000947
B1146425611234N00959305EA0000000942
B1146475611215N00959529EA0000000939
B1146525611173N00959714EA0000000950
B1146575611100N00959713EA0000000938
B1147055611103N00959491EA0000000919
B1147125611155N00959296EA0000000915
B1147195611224N00959107EA0000000907
B1147315611354N00958786EA0000000889
B1147405611456N00958541EA0000000867
B1147485611552N00958316EA0000000844
B1147565611660N00958104EA0000000838
B1148015611741N00957993EA0000000837
B1148065611818N00957880EA0000000861
B1148115611833N00957766EA0000000892
B1148165611769N00957730EA0000000897
B1148215611702N00957826EA0000000910
B1148265611700N00958001EA0000000918
B1148325611786N00958135EA0000000930
B1148375611850N00958082EA0000000940
B1148425611826N00957995EA0000000948
B1148485611744N00958069EA0000000951
B1148535611752N00958250EA0000000967
B1148585611825N00958357EA0000000980
B1149045611896N00958287EA0000000991
B1149095611856N00958221EA0000001003
B1149145611792N00958301EA0000001010
B1149205611809N00958497EA0000001032
B1149255611890N00958537EA0000001036
B1149305611975N00958493EA0000001018
B1149365612106N00958427EA0000001002
B1149415612224N00958364EA0000000989
B1149465612342N00958296EA0000001007
B1149525612482N00958212EA0000000997
B1149585612621N00958130EA0000001005
B1150065612802N00958019EA0000000988
B1150115612916N00957943EA0000000978
B1150165613034N00957870EA0000000968
B1150215613158N00957817EA0000000968
B1150275613309N00957782EA0000000968
B1150355613510N00957750EA0000000961
B1150405613634N00957735EA0000000960
B1150475613797N00957753EA0000000987
B1150525613909N00957777EA0000000985
B1150585614048N00957801EA0000000971
B1151035614166N00957802EA0000000959
B1151095614305N00957784EA0000000949
B1151155614445N00957762EA0000000938
B1151235614636N00957738EA0000000931
B1151315614829N00957722EA0000000922
B1151385615001N00957710EA0000000911
B1151455615175N00957701EA0000000902
B1151525615348N00957699EA0000000896
B1151585615493N00957699EA0000000890
B1152035615613N00957707EA0000000882
B1152105615783N00957713EA0000000873
B1152155615904N00957709EA0000000861
B1152205616026N00957698EA0000000850
B1152275616197N00957676EA0000000840
B1152325616321N00957667EA0000000828
B1152395616497N00957669EA0000000813
B1152445616626N00957678EA0000000804
B1152515616808N00957692EA0000000793
B1152575616962N00957697EA0000000789
B1153055617162N00957700EA0000000780
B1153135617357N00957704EA0000000771
B1153235617596N00957710EA0000000758
B1153385617950N00957707EA0000000738
B1153455618110N00957687EA0000000730
B1153525618263N00957630EA0000000721
B1153595618410N00957554EA0000000716
B1154045618512N00957497EA0000000713
B1154105618634N00957428EA0000000702
B1154185618796N00957331EA0000000688
B1154245618917N00957255EA0000000682
B1154325619057N00957129EA0000000701
B1154385619155N00957025EA0000000682
B1154465619298N00956881EA0000000658
B1154535619430N00956752EA0000000639
B1154585619525N00956663EA0000000633
B1155035619622N00956590EA0000000642
B1155085619687N00956500EA0000000656
B1155145619699N00956360EA0000000676
B1155205619769N00956312EA0000000689
B1155265619824N00956483EA0000000686
B1155315619768N00956611EA0000000690
B1155365619696N00956586EA0000000691
B1155415619654N00956491EA0000000701
B1155465619690N00956409EA0000000711
B1155515619752N00956515EA0000000714
B1155565619710N00956652EA0000000725
B1156015619645N00956621EA0000000732
B1156075619670N00956516EA0000000747
B1156125619743N00956564EA0000000757
B1156175619759N00956727EA0000000767
B1156225619693N00956807EA0000000772
B1156275619652N00956729EA0000000788
B1156325619695N00956656EA0000000798
B1156375619771N00956701EA0000000811
B1156425619783N00956862EA0000000820
B1156485619703N00956935EA0000000831
B1156535619673N00956855EA0000000847
B1156585619720N00956782EA0000000852
B1157045619812N00956842EA0000000862
B1157095619855N00956996EA0000000862
B1157155619804N00957152EA0000000873
B1157205619739N00957127EA0000000880
B1157255619750N00957025EA0000000895
B1157305619832N00957052EA0000000906
B1157355619849N00957218EA0000000909
B1157405619783N00957304EA0000000918
B1157455619732N00957239EA0000000933
B1157505619755N00957144EA0000000950
B1157555619833N00957148EA0000000950
B1158025619871N00957356EA0000000951
B1158085619789N00957439EA0000000966
B1158135619755N00957361EA0000000978
B1158185619824N00957319EA0000000968
B1158245619913N00957463EA0000000981
B1158295619905N00957632EA0000000991
B1158345619839N00957676EA0000000996
B1158395619829N00957583EA0000001006
B1158445619907N00957554EA0000001019
B1158515620001N00957737EA0000001027
B1158575620086N00957926EA0000001011
B1159065620229N00958246EA0000000981
B1159145620360N00958547EA0000000970
B1159215620482N00958803EA0000000947
B1159285620610N00959064EA0000000941
B1159335620701N00959236EA0000000937
B1159385620794N00959399EA0000000931
B1159445620905N00959595EA0000000920
B1159545621095N00959923EA0000000900
B1200015621228N01000147EA0000000899
B1200065621326N01000304EA0000000884
B1200145621492N01000568EA0000000873
B1200195621592N01000733EA0000000878
B1200275621750N01000986EA0000000872
B1200335621868N01001170EA0000000869
B1200385621967N01001315EA0000000862
B1200445622087N01001488EA0000000854
B1200495622188N01001636EA0000000842
B1200555622311N01001823EA0000000836
B1201005622415N01001967EA0000000831
B1201065622541N01002124EA0000000826
B1201115622646N01002247EA0000000823
B1201165622748N01002370EA0000000832
B1201215622842N01002490EA0000000854
B1201265622907N01002640EA0000000876
B1201325622906N01002857EA0000000892
B1201375622885N01003029EA0000000899
B1201425622899N01003207EA0000000910
B1201475622961N01003338EA0000000924
B1201525623043N01003362EA0000000931
B1201585623140N01003345EA0000000920
B1202045623251N01003441EA0000000909
B1202115623381N01003618EA0000000891
B1202165623476N01003759EA0000000882
B1202245623636N01003991EA0000000853
B1202295623739N01004146EA0000000834
B1202345623845N01004303EA0000000819
B1202415623995N01004518EA0000000813
B1202465624102N01004665EA0000000807
B1202515624210N01004809EA0000000802
B1202585624359N01005001EA0000000804
B1203035624464N01005141EA0000000800
B1203085624568N01005280EA0000000797
B1203135624669N01005416EA0000000796
B1203215624831N01005637EA0000000782
B1203275624953N01005809EA0000000771
B1203335625073N01005979EA0000000783
B1203415625222N01006165EA0000000798
B1203465625313N01006265EA0000000802
B1203525625419N01006379EA0000000806
B1203595625543N01006529EA0000000803
B1204045625630N01006635EA0000000812
B1204105625734N01006759EA0000000798
B1204165625846N01006911EA0000000780
B1204215625937N01007048EA0000000791
B1204275626036N01007216EA0000000783
B1204325626117N01007364EA0000000777
B1204385626209N01007558EA0000000773
B1204435626280N01007731EA0000000771
B1204485626347N01007908EA0000000772
B1204565626449N01008176EA0000000794
B1205015626483N01008348EA0000000810
B1205065626463N01008507EA0000000814
B1205115626483N01008677EA0000000814
B1205165626529N01008834EA0000000818
B1205215626589N01008972EA0000000828
B1205265626676N01009006EA0000000829
B1205325626767N01009114EA0000000831
B1205375626829N01009259EA0000000819
B1205425626895N01009410EA0000000805
B1205475626964N01009564EA0000000794
B1205535627046N01009758EA0000000782
B1206025627170N01010052EA0000000778
B1206115627303N01010330EA0000000779
B1206165627382N01010477EA0000000771
B1206235627499N01010684EA0000000759
B1206325627655N01010952EA0000000750
B1206375627743N01011098EA0000000748
B1206465627902N01011356EA0000000738
B1206555628064N01011605EA0000000729
B1207025628194N01011801EA0000000716
B1207075628281N01011954EA0000000718
B1207125628319N01012141EA0000000732
B1207175628289N01012305EA0000000734
B1207225628214N01012356EA0000000716
B1207275628136N01012305EA0000000695
B1207325628069N01012207EA0000000684
B1207375628007N01012092EA0000000674
B1207435627931N01011947EA0000000668
B1207535627814N01011697EA0000000669
B1207585627757N01011571EA0000000660
B1208045627687N01011415EA0000000648
B1208125627599N01011198EA0000000640
B1208185627537N01011035EA0000000631
B1208235627488N01010899EA0000000625
B1208345627388N01010613EA0000000640
B1208395627325N01010516EA0000000636
B1208465627223N01010408EA0000000624
B1208525627124N01010317EA0000000610
B1208575627038N01010239EA0000000603
B1209045626919N01010128EA0000000605
B1209115626807N01010006EA0000000601
B1209165626739N01009907EA0000000619
B1209215626678N01009822EA0000000646
B1209265626615N01009904EA0000000664
B1209315626633N01010070EA0000000665
B1209365626710N01010123EA0000000674
B1209415626755N01010045EA0000000678
B1209465626736N01009950EA0000000684
B1209525626661N01009924EA0000000690
B1209585626602N01010070EA0000000687
B1210045626642N01010256EA0000000687
B1210095626721N01010295EA0000000693
B1210145626770N01010221EA0000000696
B1210195626767N01010112EA0000000709
B1210245626703N01010086EA0000000706
B1210315626593N01010110EA0000000684
B1210395626451N01010081EA0000000653
B1210445626362N01010040EA0000000643
B1210525626228N01009950EA0000000628
B1210575626144N01009890EA0000000618
B1211025626058N01009830EA0000000611
B1211075625970N01009775EA0000000601
B1211125625882N01009720EA0000000595
B1211175625792N01009666EA0000000591
B1211235625695N01009592EA0000000598
B1211285625617N01009521EA0000000588
B1211365625489N01009408EA0000000584
B1211425625391N01009325EA0000000570
B1211495625273N01009239EA0000000561
B1211565625156N01009152EA0000000552
B1212015625072N01009095EA0000000553
B1212065624987N01009049EA0000000547
B1212145624850N01008981EA0000000528
B1212245624671N01008897EA0000000513
B1212315624548N01008846EA0000000509
B1212375624450N01008787EA0000000505
B1212425624369N01008731EA0000000496
B1212475624288N01008671EA0000000492
B1212535624191N01008598EA0000000489
B1213005624081N01008509EA0000000482
B1213095623936N01008391EA0000000469
B1213145623851N01008331EA0000000465
B1213215623734N01008240EA0000000458
B1213275623635N01008157EA0000000451
B1213355623506N01008042EA0000000447
B1213405623431N01007969EA0000000458
B1213455623378N01007878EA0000000465
B1213525623285N01007788EA0000000450
B1213585623186N01007743EA0000000437
B1214055623074N01007684EA0000000460
B1214105623080N01007585EA0000000470
B1214155623150N01007618EA0000000476
B1214205623162N01007781EA0000000483
B1214295623041N01007853EA0000000489
B1214355623012N01007743EA0000000490
B1214405623046N01007665EA0000000501
B1214455623117N01007695EA0000000503
B1214525623140N01007912EA0000000514
B1214575623067N01007964EA0000000520
B1215025623035N01007878EA0000000527
B1215075623090N01007825EA0000000533
B1215145623188N01007939EA0000000542
B1215215623148N01008136EA0000000556
B1215265623083N01008101EA0000000554
B1215315623099N01008001EA0000000563
B1215365623174N01007992EA0000000570
B1215415623218N01008131EA0000000580
B1215485623134N01008252EA0000000591
B1215535623108N01008162EA0000000597
B1215595623193N01008142EA0000000606
B1216045623235N01008288EA0000000617
B1216095623183N01008417EA0000000625
B1216145623118N01008386EA0000000639
B1216195623137N01008293EA0000000651
B1216245623215N01008326EA0000000652
B1216325623217N01008574EA0000000669
B1216375623146N01008629EA0000000676
B1216425623116N01008540EA0000000681
B1216485623190N01008495EA0000000688
B1216535623247N01008625EA0000000692
B1216585623230N01008787EA0000000700
B1217055623131N01008823EA0000000713
B1217105623106N01008727EA0000000718
B1217155623155N01008654EA0000000724
B1217205623232N01008716EA0000000729
B1217255623253N01008881EA0000000734
B1217315623198N01009048EA0000000746
B1217365623128N01009054EA0000000756
B1217415623100N01008968EA0000000763
B1217465623147N01008908EA0000000768
B1217525623235N01008999EA0000000766
B1217585623245N01009196EA0000000773
B1218035623185N01009298EA0000000781
B1218095623094N01009275EA0000000779
B1218145623013N01009235EA0000000770
B1218205622909N01009173EA0000000757
B1218255622816N01009119EA0000000741
B1218335622659N01009028EA0000000726
B1218415622494N01008942EA0000000708
B1218465622396N01008878EA0000000703
B1218535622269N01008768EA0000000695
B1219005622151N01008637EA0000000683
B1219075622046N01008489EA0000000683
B1219145621952N01008336EA0000000684
B1219215621864N01008181EA0000000673
B1219285621775N01008023EA0000000665
B1219375621663N01007824EA0000000660
B1219425621602N01007714EA0000000657
B1219485621527N01007586EA0000000648
B1219575621412N01007391EA0000000635
B1220025621351N01007283EA0000000625
B1220085621280N01007150EA0000000613
B1220165621191N01006974EA0000000604
B1220235621118N01006807EA0000000598
B1220285621068N01006688EA0000000606
B1220375620985N01006495EA0000000622
B1220435620929N01006370EA0000000631
B1220485620871N01006306EA0000000655
B1220545620786N01006381EA0000000674
B1220595620781N01006538EA0000000687
B1221045620857N01006631EA0000000686
B1221095620917N01006572EA0000000706
B1221145620904N01006479EA0000000715
B1221195620850N01006430EA0000000721
B1221245620783N01006499EA0000000727
B1221295620779N01006662EA0000000735
B1221345620841N01006783EA0000000754
B1221395620908N01006769EA0000000765
B1221455620897N01006676EA0000000762
B1221505620833N01006662EA0000000770
B1221575620739N01006768EA0000000781
B1222025620737N01006931EA0000000781
B1222085620828N01007035EA0000000784
B1222135620877N01006963EA0000000801
B1222185620840N01006893EA0000000804
B1222235620768N01006965EA0000000794
B1222295620785N01007186EA0000000806
B1222345620868N01007261EA0000000820
B1222395620906N01007183EA0000000832
B1222445620847N01007160EA0000000843
B1222495620802N01007301EA0000000852
B1222545620846N01007456EA0000000863
B1222595620921N01007458EA0000000870
B1223045620927N01007371EA0000000881
B1223095620860N01007384EA0000000887
B1223145620840N01007551EA0000000895
B1223195620912N01007647EA0000000907
B1223245620963N01007586EA0000000917
B1223295620935N01007517EA0000000925
B1223345620865N01007556EA0000000932
B1223395620849N01007722EA0000000934
B1223445620922N01007817EA0000000939
B1223495620968N01007750EA0000000944
B1223555620922N01007663EA0000000955
B1224015620846N01007648EA0000000969
B1224065620782N01007656EA0000000977
B1224125620767N01007556EA0000000983
B1224175620738N01007486EA0000000972
B1224255620615N01007485EA0000000950
B1224335620483N01007451EA0000000944
B1224415620353N01007388EA0000000934
B1224505620210N01007287EA0000000920
B1224565620123N01007197EA0000000914
B1225095619959N01006951EA0000000893
B1225175619870N01006787EA0000000884
B1225275619766N01006562EA0000000867
B1225325619717N01006441EA0000000860
B1225415619631N01006216EA0000000850
B1225465619580N01006097EA0000000843
B1225525619516N01005962EA0000000834
B1226015619417N01005757EA0000000814
B1226065619362N01005638EA0000000800
B1226135619285N01005469EA0000000789
B1226205619211N01005293EA0000000778
B1226255619158N01005165EA0000000770
B1226305619106N01005041EA0000000773
B1226355619056N01004918EA0000000771
B1226415618994N01004778EA0000000766
B1226475618932N01004639EA0000000754
B1226525618879N01004520EA0000000747
B1226585618819N01004378EA0000000739
B1227045618762N01004232EA0000000734
B1227105618709N01004087EA0000000727
B1227155618665N01003966EA0000000722
B1227225618602N01003797EA0000000710
B1227285618551N01003649EA0000000702
B1227335618509N01003525EA0000000699
B1227385618468N01003403EA0000000692
B1227475618390N01003186EA0000000683
B1227525618346N01003069EA0000000679
B1227575618304N01002960EA0000000694
B1228035618259N01002855EA0000000698
B1228095618206N01002744EA0000000680
B1228165618143N01002600EA0000000670
B1228215618100N01002495EA0000000668
B1228285618035N01002353EA0000000659
B1228375617952N01002167EA0000000652
B1228425617907N01002066EA0000000646
B1228485617856N01001943EA0000000643
B1228545617801N01001823EA0000000635
B1229055617695N01001592EA0000000623
B1229145617601N01001412EA0000000620
B1229205617534N01001298EA0000000615
B1229265617466N01001183EA0000000613
B1229325617397N01001071EA0000000606
B1229375617341N01000977EA0000000605
B1229425617285N01000884EA0000000602
B1229475617230N01000794EA0000000598
B1229535617167N01000683EA0000000587
B1229585617120N01000583EA0000000583
B1230155616985N01000216EA0000000563
B1230225616932N01000054EA0000000555
B1230305616873N00959871EA0000000546
B1230365616825N00959731EA0000000537
B1230415616787N00959609EA0000000530
B1230485616732N00959437EA0000000523
B1230565616667N00959257EA0000000518
B1231015616626N00959141EA0000000512
B1231065616582N00959029EA0000000515
B1231145616497N00958889EA0000000530
B1231205616438N00958793EA0000000535
B1231265616384N00958694EA0000000539
B1231335616323N00958575EA0000000543
B1231385616284N00958483EA0000000541
B1231445616259N00958360EA0000000554
B1231495616328N00958317EA0000000562
B1231545616389N00958451EA0000000570
B1232005616335N00958591EA0000000573
B1232055616275N00958567EA0000000577
B1232105616278N00958467EA0000000581
B1232165616367N00958430EA0000000579
B1232225616467N00958531EA0000000568
B1232275616517N00958691EA0000000567
B1232325616500N00958857EA0000000564
B1232375616442N00958960EA0000000570
B1232425616380N00958947EA0000000568
B1232495616319N00958847EA0000000563
B1232555616270N00958741EA0000000568
B1233015616295N00958625EA0000000570
B1233065616379N00958663EA0000000570
B1233115616393N00958826EA0000000564
B1233165616334N00958923EA0000000567
B1233215616264N00958944EA0000000569
B1233265616205N00958900EA0000000578
B1233325616212N00958786EA0000000564
B1233375616257N00958701EA0000000556
B1233425616337N00958738EA0000000552
B1233475616381N00958888EA0000000541
B1233525616380N00959062EA0000000545
B1233575616331N00959171EA0000000552
B1234025616281N00959121EA0000000551
B1234085616343N00959037EA0000000548
B1234135616412N00959153EA0000000551
B1234185616397N00959313EA0000000554
B1234245616317N00959350EA0000000562
B1234295616299N00959254EA0000000565
B1234345616363N00959207EA0000000557
B1234405616437N00959354EA0000000554
B1234455616419N00959511EA0000000560
B1234515616336N00959557EA0000000563
B1234565616296N00959474EA0000000563
B1235015616310N00959360EA0000000552
B1235065616293N00959239EA0000000535
B1235125616240N00959089EA0000000525
B1235185616180N00958943EA0000000529
B1235255616088N00958790EA0000000522
B1235345615946N00958628EA0000000512
B1235415615819N00958544EA0000000512
B1235465615725N00958515EA0000000524
B1235525615626N00958509EA0000000556
B1235575615621N00958409EA0000000569
B1236025615702N00958416EA0000000583
B1236075615742N00958566EA0000000585
B1236125615702N00958701EA0000000587
B1236175615636N00958725EA0000000591
B1236225615601N00958652EA0000000601
B1236275615639N00958566EA0000000605
B1236325615719N00958598EA0000000606
B1236375615764N00958749EA0000000611
B1236425615743N00958911EA0000000619
B1236485615672N00958971EA0000000632
B1236535615665N00958883EA0000000635
B1236595615757N00958897EA0000000641
B1237045615787N00959061EA0000000647
B1237095615737N00959170EA0000000654
B1237145615690N00959126EA0000000661
B1237205615744N00959040EA0000000664
B1237255615824N00959123EA0000000673
B1237315615819N00959310EA0000000687
B1237365615756N00959357EA0000000692
B1237415615731N00959280EA0000000699
B1237465615781N00959214EA0000000706
B1237525615875N00959300EA0000000710
B1237575615894N00959465EA0000000718
B1238025615842N00959570EA0000000726
B1238085615791N00959511EA0000000731
B1238135615834N00959432EA0000000738
B1238195615928N00959505EA0000000748
B1238245615943N00959669EA0000000754
B1238295615889N00959762EA0000000759
B1238345615845N00959716EA0000000762
B1238405615888N00959615EA0000000770
B1238455615970N00959660EA0000000780
B1238515615998N00959850EA0000000785
B1238565615944N00959942EA0000000790
B1239025615899N00959875EA0000000797
B1239075615934N00959788EA0000000801
B1239125616016N00959799EA0000000810
B1239175616072N00959933EA0000000809
B1239225616056N01000091EA0000000813
B1239285615984N01000115EA0000000818
B1239345615957N01000009EA0000000825
B1239395615991N00959920EA0000000831
B1239445616072N00959934EA0000000834
B1239495616131N01000071EA0000000829
B1239545616131N01000248EA0000000829
B1240005616059N01000354EA0000000836
B1240055616002N01000325EA0000000843
B1240105615982N01000234EA0000000848
B1240175616003N01000081EA0000000834
B1240245615977N00959902EA0000000824
B1240325615933N00959687EA0000000804
B1240415615885N00959435EA0000000796
B1240485615849N00959234EA0000000793
B1240535615824N00959095EA0000000791
B1241015615782N00958875EA0000000787
B1241105615734N00958636EA0000000788
B1241205615683N00958383EA0000000787
B1241275615644N00958199EA0000000774
B1241325615615N00958062EA0000000771
B1241375615587N00957925EA0000000763
B1241435615550N00957759EA0000000760
B1241525615491N00957529EA0000000759
B1241585615452N00957378EA0000000747
B1242065615380N00957182EA0000000732
B1242125615322N00957037EA0000000726
B1242215615228N00956835EA0000000707
B1242295615138N00956656EA0000000689
B1242375615043N00956479EA0000000674
B1242435614972N00956348EA0000000668
B1242495614903N00956217EA0000000670
B1242565614836N00956074EA0000000696
B1243015614818N00955959EA0000000705
B1243065614871N00955864EA0000000715
B1243125614971N00955950EA0000000724
B1243175614965N00956124EA0000000721
B1243225614900N00956179EA0000000720
B1243285614835N00956120EA0000000723
B1243335614808N00956025EA0000000726
B1243385614816N00955920EA0000000740
B1243445614908N00955926EA0000000752
B1243495614921N00956092EA0000000749
B1243545614857N00956133EA0000000754
B1244005614871N00956012EA0000000773
B1244055614952N00956052EA0000000783
B1244115614962N00956251EA0000000780
B1244165614895N00956287EA0000000781
B1244215614858N00956202EA0000000801
B1244265614910N00956134EA0000000803
B1244325614999N00956260EA0000000780
B1244375614988N00956438EA0000000794
B1244425614927N00956512EA0000000802
B1244485614899N00956426EA0000000815
B1244535614973N00956402EA0000000815
B1244585615028N00956537EA0000000817
B1245035614992N00956673EA0000000824
B1245085614933N00956662EA0000000831
B1245135614938N00956566EA0000000836
B1245185615013N00956537EA0000000824
B1245235615090N00956654EA0000000814
B1245285615090N00956834EA0000000823
B1245335615033N00956953EA0000000829
B1245385614966N00956972EA0000000840
B1245435614959N00956886EA0000000850
B1245485615020N00956822EA0000000840
B1245535615048N00956711EA0000000810
B1246015615017N00956490EA0000000768
B1246135614923N00956132EA0000000739
B1246195614879N00955952EA0000000738
B1246245614842N00955803EA0000000733
B1246315614795N00955596EA0000000734
B1246365614764N00955447EA0000000736
B1246415614736N00955298EA0000000738
B1246465614711N00955154EA0000000745
B1246565614651N00954883EA0000000763
B1247015614621N00954753EA0000000779
B1247075614588N00954610EA0000000786
B1247125614533N00954543EA0000000805
B1247175614477N00954636EA0000000813
B1247225614499N00954797EA0000000814
B1247275614576N00954884EA0000000811
B1247325614646N00954830EA0000000809
B1247395614685N00954668EA0000000817
B1247445614642N00954602EA0000000834
B1247495614598N00954720EA0000000838
B1247545614652N00954864EA0000000842
B1248005614747N00954841EA0000000854
B1248055614746N00954745EA0000000864
B1248105614683N00954765EA0000000869
B1248155614670N00954923EA0000000876
B1248205614743N00955026EA0000000882
B1248255614813N00954987EA0000000888
B1248305614798N00954902EA0000000898
B1248355614738N00954958EA0000000904
B1248405614745N00955120EA0000000910
B1248455614826N00955185EA0000000910
B1248505614885N00955112EA0000000915
B1248555614878N00955016EA0000000924
B1249005614818N00955020EA0000000926
B1249055614789N00955170EA0000000925
B1249105614853N00955310EA0000000935
B1249155614936N00955297EA0000000945
B1249205614950N00955198EA0000000951
B1249255614896N00955178EA0000000954
B1249305614854N00955297EA0000000961
B1249355614884N00955459EA0000000966
B1249405614961N00955544EA0000000977
B1249455615026N00955494EA0000000975
B1249505615012N00955403EA0000000975
B1249555614947N00955416EA0000000977
B1250005614889N00955512EA0000000984
B1250055614886N00955678EA0000000986
B1250105614957N00955783EA0000000991
B1250155615028N00955740EA0000000988
B1250205615035N00955638EA0000000995
B1250265614973N00955597EA0000000998
B1250315614913N00955667EA0000001000
B1250365614847N00955694EA0000000993
B1250425614786N00955607EA0000000983
B1250475614743N00955503EA0000000972
B1250525614707N00955381EA0000000965
B1250595614660N00955195EA0000000953
B1251085614612N00954939EA0000000939
B1251135614590N00954794EA0000000939
B1251185614569N00954651EA0000000931
B1251235614547N00954506EA0000000925
B1251295614520N00954333EA0000000919
B1251345614495N00954193EA0000000926
B1251445614441N00953941EA0000000941
B1251495614413N00953817EA0000000939
B1251555614379N00953660EA0000000931
B1252005614346N00953522EA0000000923
B1252075614298N00953326EA0000000911
B1252155614245N00953107EA0000000902
B1252215614204N00952946EA0000000894
B1252265614170N00952812EA0000000887
B1252345614113N00952602EA0000000878
B1252405614068N00952443EA0000000867
B1252465614022N00952286EA0000000865
B1252515613985N00952156EA0000000857
B1252565613946N00952022EA0000000852
B1253025613895N00951864EA0000000848
B1253095613834N00951688EA0000000847
B1253155613782N00951537EA0000000834
B1253215613732N00951381EA0000000822
B1253285613673N00951199EA0000000807
B1253335613630N00951070EA0000000800
B1253395613578N00950916EA0000000791
B1253485613503N00950681EA0000000775
B1253535613463N00950548EA0000000768
B1254005613408N00950358EA0000000761
B1254055613369N00950224EA0000000759
B1254105613332N00950097EA0000000757
B1254175613279N00949919EA0000000740
B1254245613227N00949738EA0000000729
B1254305613182N00949583EA0000000723
B1254365613140N00949427EA0000000715
B1254415613106N00949295EA0000000712
B1254465613074N00949164EA0000000713
B1254535613024N00948987EA0000000709
B1254585612988N00948859EA0000000700
B1255035612953N00948726EA0000000699
B1255135612877N00948461EA0000000686
B1255185612843N00948322EA0000000679
B1255235612814N00948177EA0000000672
B1255315612770N00947938EA0000000662
B1255365612744N00947789EA0000000660
B1255415612720N00947644EA0000000658
B1255465612698N00947499EA0000000651
B1255575612650N00947183EA0000000637
B1256025612632N00947038EA0000000630
B1256075612612N00946893EA0000000623
B1256125612589N00946751EA0000000620
B1256185612560N00946581EA0000000611
B1256245612533N00946411EA0000000606
B1256355612489N00946101EA0000000594
B1256405612469N00945962EA0000000590
B1256455612459N00945819EA0000000584
B1256555612447N00945527EA0000000573
B1257025612431N00945320EA0000000563
B1257075612418N00945172EA0000000554
B1257125612408N00945024EA0000000547
B1257175612399N00944877EA0000000542
B1257235612390N00944701EA0000000545
B1257315612390N00944485EA0000000567
B1257365612427N00944384EA0000000574
B1257415612505N00944365EA0000000583
B1257465612576N00944478EA0000000588
B1257525612568N00944668EA0000000589
B1257575612507N00944711EA0000000586
B1258025612468N00944638EA0000000588
B1258075612491N00944535EA0000000593
B1258125612565N00944502EA0000000605
B1258175612630N00944619EA0000000608
B1258225612613N00944776EA0000000611
B1258275612552N00944797EA0000000616
B1258325612536N00944703EA0000000622
B1258375612586N00944625EA0000000633
B1258425612665N00944705EA0000000639
B1258475612653N00944867EA0000000642
B1258535612593N00944834EA0000000656
B1258585612639N00944752EA0000000665
B1259035612718N00944838EA0000000667
B1259085612704N00944999EA0000000677
B1259135612647N00944990EA0000000686
B1259185612676N00944894EA0000000693
B1259235612761N00944946EA0000000701
B1259285612779N00945113EA0000000704
B1259335612721N00945189EA0000000712
B1259395612694N00945091EA0000000721
B1259445612763N00945043EA0000000725
B1259495612828N00945166EA0000000726
B1259545612799N00945309EA0000000733
B1300005612734N00945273EA0000000738
B1300055612755N00945171EA0000000744
B1300105612839N00945192EA0000000748
B1300165612870N00945383EA0000000751
B1300215612818N00945485EA0000000759
B1300265612764N00945452EA0000000759
B1300325612783N00945334EA0000000766
B1300375612866N00945343EA0000000768
B1300425612915N00945494EA0000000764
B1300485612865N00945648EA0000000778
B1300545612813N00945587EA0000000785
B1300595612872N00945520EA0000000787
B1301045612945N00945627EA0000000788
B1301095612932N00945786EA0000000796
B1301145612870N00945809EA0000000799
B1301195612862N00945706EA0000000798
B1301245612934N00945647EA0000000803
B1301295613012N00945739EA0000000810
B1301345613016N00945904EA0000000814
B1301395612955N00945961EA0000000819
B1301445612922N00945885EA0000000818
B1301495612953N00945778EA0000000821
B1301545613032N00945740EA0000000827
B1301595613109N00945833EA0000000825
B1302045613118N00945997EA0000000818
B1302095613059N00946088EA0000000823
B1302145613005N00946047EA0000000830
B1302195613005N00945938EA0000000833
B1302245613073N00945878EA0000000834
B1302295613158N00945879EA0000000828
B1302345613201N00945779EA0000000804
B1302395613173N00945670EA0000000787
B1302445613112N00945599EA0000000776
B1302495613039N00945552EA0000000767
B1302555612953N00945475EA0000000756
B1303005612895N00945373EA0000000749
B1303075612841N00945186EA0000000736
B1303135612808N00945013EA0000000729
B1303185612790N00944867EA0000000725
B1303275612763N00944599EA0000000707
B1303345612742N00944388EA0000000698
B1303395612730N00944236EA0000000694
B1303485612712N00943968EA0000000687
B1303595612679N00943643EA0000000673
B1304045612662N00943494EA0000000665
B1304125612632N00943257EA0000000656
B1304175612612N00943114EA0000000652
B1304245612586N00942915EA0000000647
B1304325612559N00942695EA0000000645
B1304395612531N00942507EA0000000640
B1304445612517N00942371EA0000000634
B1304505612498N00942205EA0000000625
B1304565612470N00942039EA0000000625
B1305045612431N00941822EA0000000624
B1305095612406N00941687EA0000000622
B1305145612379N00941556EA0000000632
B1305215612348N00941388EA0000000638
B1305265612328N00941275EA0000000645
B1305315612305N00941171EA0000000649
B1305365612282N00941061EA0000000644
B1305415612256N00940958EA0000000645
B1305465612231N00940851EA0000000642
B1305525612212N00940720EA0000000656
B1305575612269N00940654EA0000000658
B1306025612347N00940714EA0000000649
B1306085612373N00940901EA0000000646
B1306135612328N00941027EA0000000649
B1306185612261N00941095EA0000000648
B1306235612198N00941075EA0000000647
B1306285612159N00940988EA0000000644
B1306335612128N00940888EA0000000642
B1306395612099N00940749EA0000000624
B1306445612075N00940618EA0000000617
B1306515612044N00940431EA0000000621
B1306575612013N00940286EA0000000633
B1307025611989N00940173EA0000000637
B1307085611966N00940031EA0000000622
B1307135611948N00939907EA0000000635
B1307205611917N00939753EA0000000623
B1307255611895N00939625EA0000000613
B1307305611873N00939489EA0000000603
B1307355611850N00939352EA0000000599
B1307425611823N00939166EA0000000593
B1307495611795N00938978EA0000000573
B1307555611765N00938816EA0000000568
B1308015611733N00938653EA0000000566
B1308065611707N00938519EA0000000568
B1308125611674N00938370EA0000000573
B1308235611615N00938093EA0000000554
B1308285611593N00937966EA0000000566
B1308335611547N00937885EA0000000575
B1308395611522N00937763EA0000000569
B1308455611509N00937622EA0000000559
B1308525611492N00937447EA0000000548
B1308575611480N00937319EA0000000542
B1309045611457N00937144EA0000000544
B1309095611442N00937022EA0000000552
B1309145611482N00936927EA0000000563
B1309205611576N00937019EA0000000566
B1309255611578N00937182EA0000000559
B1309315611506N00937250EA0000000561
B1309365611451N00937208EA0000000563
B1309425611415N00937099EA0000000557
B1309485611399N00936963EA0000000549
B1309575611387N00936731EA0000000539
B1310035611378N00936569EA0000000537
B1310085611368N00936435EA0000000530
B1310135611355N00936298EA0000000521
B1310215611326N00936075EA0000000504
B1310285611303N00935873EA0000000494
B1310335611285N00935730EA0000000492
B1310415611251N00935506EA0000000488
B1310475611218N00935346EA0000000492
B1310535611182N00935194EA0000000491
B1311025611129N00934967EA0000000491
B1311075611100N00934849EA0000000487
B1311125611077N00934722EA0000000480
B1311215611059N00934477EA0000000471
B1311265611059N00934335EA0000000466
B1311325611080N00934161EA0000000454
B1311395611130N00933961EA0000000447
B1311445611173N00933820EA0000000440
B1311525611237N00933588EA0000000431
B1311575611276N00933446EA0000000424
B1312145611399N00932977EA0000000404
B1312215611424N00932781EA0000000413
B1312285611386N00932615EA0000000407
B1312335611363N00932487EA0000000394
B1312385611343N00932349EA0000000386
B1312445611321N00932182EA0000000381
B1312505611306N00932014EA0000000377
B1312565611303N00931849EA0000000378
B1313015611314N00931719EA0000000383
B1313085611336N00931544EA0000000386
B1313145611402N00931440EA0000000393
B1313195611467N00931371EA0000000384
B1313265611529N00931231EA0000000372
B1313315611549N00931114EA0000000359
B1313365611558N00930991EA0000000353
B1313455611564N00930768EA0000000342
B1314045611548N00930281EA0000000316
B1314175611525N00929945EA0000000302
B1314275611502N00929691EA0000000289
B1314325611471N00929583EA0000000285
B1314385611423N00929479EA0000000278
B1314435611383N00929395EA0000000270
B1314515611321N00929253EA0000000258
B1315035611276N00929021EA0000000276
B1315085611343N00928994EA0000000281
B1315205611388N00929287EA0000000270
B1315275611303N00929373EA0000000265
B1315355611229N00929313EA0000000260
B1315435611188N00929179EA0000000256
B1316215611151N00928526EA0000000229
