AOGNOGN
HFDTE040825
HFFXA050
HFPLTPILOTINCHARGE:
HFGTYGLIDERTYPE:PA-25 Pawnee
HFGIDGLIDERID:LN-EIC
HFDTM100GPSDATUM:WGS-1984
HFRFWFIRMWAREVERSION:
HFRHWHARDWAREVERSION:
HFFTYFRTYPE:OGN-FLIGHTBOOK
HFGPSGENERIC
HFPRSPRESSALTSENSOR:
HFCIDCOMPETITIONID:IC
B1126155600709N00901334EA0000000046
B1126205600701N00901237EA0000000045
B1126255600691N00901117EA0000000046
B1126305600681N00900977EA0000000051
B1126365600669N00900803EA0000000070
B1126425600659N00900635EA0000000089
B1126475600653N00900491EA0000000098
B1126525600653N00900349EA0000000118
B1127005600703N00900151EA0000000143
B1127065600778N00900027EA0000000159
B1127145600927N00859920EA0000000188
B1127195601027N00859888EA0000000210
B1127285601211N00859892EA0000000246
B1127345601333N00859949EA0000000266
B1127405601449N00900063EA0000000283
B1127465601556N00900218EA0000000293
B1127545601686N00900461EA0000000304
B1128005601775N00900667EA0000000310
B1128055601846N00900847EA0000000322
B1128105601914N00901028EA0000000332
B1128155601983N00901204EA0000000348
B1128235602095N00901479EA0000000376
B1128295602173N00901682EA0000000410
B1128355602250N00901885EA0000000430
B1128405602313N00902055EA0000000446
B1128455602380N00902230EA0000000449
B1128505602447N00902421EA0000000460
B1128585602550N00902724EA0000000484
B1129045602622N00902956EA0000000497
B1129095602677N00903155EA0000000509
B1129145602727N00903357EA0000000517
B1129195602774N00903563EA0000000527
B1129285602850N00903931EA0000000549
B1129395602916N00904391EA0000000579
B1129455602946N00904641EA0000000596
B1129515602982N00904893EA0000000605
B1129585602966N00905201EA0000000592
B1130035602853N00905352EA0000000552
B1130085602711N00905401EA0000000527
B1130175602485N00905305EA0000000486
B1130225602383N00905200EA0000000463
B1130285602267N00905053EA0000000425
B1130345602158N00904891EA0000000390
B1130395602070N00904752EA0000000367
B1130455601970N00904580EA0000000338
B1130525601850N00904390EA0000000323
B1130575601765N00904261EA0000000320
B1131025601684N00904133EA0000000311
B1131095601572N00903945EA0000000296
B1131155601484N00903775EA0000000281
B1131225601382N00903569EA0000000258
B1131285601302N00903383EA0000000244
B1131335601236N00903226EA0000000230
B1131395601164N00903034EA0000000207
B1131445601102N00902880EA0000000193
B1131505601026N00902713EA0000000178
B1131565600965N00902557EA0000000168
B1132025600917N00902412EA0000000155
B1132075600882N00902290EA0000000140
B1132155600834N00902097EA0000000116
B1132225600801N00901917EA0000000101
B1132295600776N00901737EA0000000080
B1132355600753N00901587EA0000000058
B1132415600739N00901443EA0000000042
B1132465600731N00901353EA0000000042
