AOGNOGN
HFDTE040825
HFFXA050
HFPLTPILOTINCHARGE:
HFGTYGLIDERTYPE:LS-4
HFGIDGLIDERID:OY-XMD
HFDTM100GPSDATUM:WGS-1984
HFRFWFIRMWAREVERSION:
HFRHWHARDWAREVERSION:
HFFTYFRTYPE:OGN-FLIGHTBOOK
HFGPSGENERIC
HFPRSPRESSALTSENSOR:
HFCIDCOMPETITIONID:MD
B1046395600693N00901362EA0000000037
B1046425600688N00901302EA0000000037
B1046525600664N00901044EA0000000046
B1046585600649N00900883EA0000000069
B1047035600636N00900746EA0000000079
B1047105600630N00900545EA0000000100
B1047165600650N00900378EA0000000124
B1047215600690N00900264EA0000000146
B1047285600781N00900147EA0000000162
B1047345600881N00900091EA0000000176
B1047425601029N00900063EA0000000197
B1047515601195N00900014EA0000000219
B1047565601285N00859974EA0000000235
B1048055601446N00859912EA0000000253
B1048105601543N00859898EA0000000265
B1048205601736N00900003EA0000000293
B1048255601825N00900125EA0000000300
B1048315601911N00900323EA0000000317
B1048365601973N00900489EA0000000336
B1048425602052N00900685EA0000000348
B1048495602141N00900918EA0000000363
B1048575602240N00901185EA0000000380
B1049105602370N00901647EA0000000408
B1049175602393N00901921EA0000000423
B1049285602387N00902354EA0000000455
B1049335602384N00902550EA0000000464
B1049465602381N00903056EA0000000501
B1049575602389N00903490EA0000000517
B1050095602440N00903966EA0000000545
B1050145602481N00904151EA0000000560
B1050225602597N00904298EA0000000570
B1050305602673N00904139EA0000000574
B1050355602682N00903998EA0000000570
B1050475602720N00903675EA0000000576
B1050525602781N00903585EA0000000581
B1050575602872N00903619EA0000000582
B1051025602921N00903788EA0000000578
B1051085602865N00903954EA0000000576
B1051145602780N00903941EA0000000568
B1051205602753N00903796EA0000000559
B1051265602761N00903625EA0000000555
B1051345602786N00903402EA0000000560
B1051395602799N00903266EA0000000566
B1051455602818N00903107EA0000000582
B1051505602889N00903094EA0000000600
B1051555602900N00903252EA0000000589
B1052015602812N00903253EA0000000586
B1052075602795N00903117EA0000000603
B1052135602870N00903200EA0000000605
B1052185602811N00903300EA0000000609
B1052285602802N00903146EA0000000610
B1052365602890N00903349EA0000000625
B1052425602827N00903416EA0000000635
B1052495602871N00903290EA0000000639
B1052545602955N00903349EA0000000644
B1053005602986N00903549EA0000000646
B1053055602928N00903654EA0000000646
B1053125602855N00903563EA0000000654
B1053185602886N00903428EA0000000658
B1053245602983N00903443EA0000000664
B1053295603023N00903603EA0000000660
B1053355602964N00903760EA0000000668
B1053405602898N00903725EA0000000680
B1053455602898N00903606EA0000000686
B1053515602986N00903561EA0000000694
B1053575603064N00903700EA0000000694
B1054025603067N00903873EA0000000688
B1054075602999N00903956EA0000000695
B1054145602940N00903852EA0000000714
B1054195602978N00903759EA0000000716
B1054245603058N00903749EA0000000714
B1054335603142N00903990EA0000000703
B1054385603095N00904124EA0000000706
B1054445603016N00904157EA0000000716
B1054495602980N00904075EA0000000718
B1054565603036N00903955EA0000000722
B1055015603116N00903989EA0000000717
B1055065603162N00904138EA0000000716
B1055135603122N00904349EA0000000712
B1055185603052N00904385EA0000000719
B1055255602994N00904265EA0000000722
B1055325603045N00904130EA0000000722
B1055385603145N00904170EA0000000713
B1055445603186N00904366EA0000000716
B1055525603116N00904596EA0000000718
B1055575603043N00904618EA0000000728
B1056025602999N00904533EA0000000731
B1056085603026N00904405EA0000000734
B1056155603138N00904428EA0000000726
B1056225603172N00904664EA0000000723
B1056275603113N00904782EA0000000723
B1056325603046N00904756EA0000000724
B1056385603027N00904619EA0000000718
B1056435603061N00904503EA0000000718
B1056485603100N00904392EA0000000708
B1056545603167N00904274EA0000000700
B1057015603237N00904108EA0000000689
B1057105603286N00903859EA0000000683
B1057185603288N00903622EA0000000669
B1057265603252N00903389EA0000000668
B1057315603226N00903247EA0000000671
B1057425603321N00903037EA0000000685
B1057505603420N00903243EA0000000676
B1057555603397N00903407EA0000000679
B1058005603332N00903489EA0000000682
B1058065603252N00903467EA0000000682
B1058115603226N00903368EA0000000684
B1058165603233N00903255EA0000000679
B1058215603255N00903146EA0000000672
B1058285603291N00902984EA0000000661
B1058355603298N00902804EA0000000662
B1058435603277N00902594EA0000000650
B1058485603257N00902458EA0000000645
B1058555603230N00902258EA0000000660
B1059015603186N00902138EA0000000683
B1059065603154N00902044EA0000000677
B1059125603231N00901986EA0000000702
B1059185603301N00902126EA0000000701
B1059235603270N00902271EA0000000701
B1059295603182N00902298EA0000000693
B1059395603134N00902079EA0000000696
B1059445603202N00902025EA0000000696
B1059505603292N00902132EA0000000699
B1059555603330N00902294EA0000000696
B1100015603321N00902500EA0000000702
B1100065603252N00902569EA0000000702
B1100115603193N00902494EA0000000702
B1100175603168N00902348EA0000000710
B1100225603216N00902256EA0000000708
B1100285603316N00902317EA0000000706
B1100335603364N00902467EA0000000711
B1100415603280N00902600EA0000000721
B1100475603238N00902483EA0000000727
B1100525603291N00902405EA0000000727
B1100575603368N00902482EA0000000723
B1101045603375N00902709EA0000000719
B1101105603302N00902787EA0000000729
B1101165603275N00902669EA0000000730
B1101215603341N00902602EA0000000739
B1101285603448N00902723EA0000000740
B1101355603418N00902940EA0000000728
B1101405603339N00902972EA0000000738
B1101465603287N00902859EA0000000740
B1101535603359N00902736EA0000000740
B1102015603479N00902884EA0000000747
B1102095603438N00903102EA0000000732
B1102145603360N00903071EA0000000732
B1102195603334N00902951EA0000000740
B1102245603386N00902867EA0000000743
B1102315603501N00902950EA0000000737
B1102425603473N00903250EA0000000727
B1102485603393N00903209EA0000000735
B1102545603360N00903096EA0000000735
B1102595603324N00902999EA0000000718
B1103045603286N00902887EA0000000722
B1103095603284N00902773EA0000000742
B1103165603371N00902854EA0000000717
B1103225603301N00902940EA0000000713
B1103275603261N00902833EA0000000714
B1103355603212N00902641EA0000000701
B1103415603151N00902521EA0000000707
B1103475603075N00902431EA0000000696
B1103555602957N00902327EA0000000679
B1104005602876N00902278EA0000000677
B1104095602720N00902199EA0000000667
B1104175602571N00902135EA0000000663
B1104235602462N00902092EA0000000667
B1104325602314N00902048EA0000000665
B1104445602118N00901990EA0000000658
B1104495602033N00901972EA0000000658
B1104555601936N00901965EA0000000671
B1105015601843N00901962EA0000000682
B1105085601738N00901955EA0000000682
B1105135601660N00901949EA0000000679
B1105195601565N00901929EA0000000674
B1105325601499N00901725EA0000000703
B1105375601570N00901811EA0000000703
B1105435601531N00901991EA0000000713
B1105485601463N00901976EA0000000727
B1105535601498N00901895EA0000000734
B1105595601552N00902042EA0000000729
B1106065601457N00902146EA0000000746
B1106115601439N00902040EA0000000747
B1106165601512N00902031EA0000000756
B1106215601538N00902186EA0000000761
B1106265601469N00902268EA0000000770
B1106315601438N00902173EA0000000772
B1106385601537N00902179EA0000000780
B1106435601534N00902346EA0000000778
B1106485601456N00902359EA0000000787
B1106535601468N00902247EA0000000790
B1106585601549N00902290EA0000000794
B1107035601546N00902463EA0000000796
B1107085601466N00902490EA0000000809
B1107135601454N00902379EA0000000817
B1107195601544N00902375EA0000000822
B1107245601576N00902533EA0000000822
B1107295601514N00902653EA0000000826
B1107375601480N00902525EA0000000833
B1107445601610N00902612EA0000000827
B1107495601699N00902726EA0000000827
B1107565601823N00902908EA0000000818
B1108035601954N00903081EA0000000816
B1108085602053N00903166EA0000000824
B1108135602149N00903231EA0000000850
B1108195602253N00903301EA0000000863
B1108305602455N00903435EA0000000843
B1108365602574N00903536EA0000000832
B1108455602746N00903747EA0000000816
B1108535602889N00903962EA0000000811
B1108595602989N00904132EA0000000811
B1109055603088N00904306EA0000000808
B1109105603172N00904449EA0000000812
B1109155603250N00904591EA0000000819
B1109215603336N00904767EA0000000819
B1109285603433N00904987EA0000000822
B1109365603552N00905205EA0000000839
B1109445603681N00905357EA0000000821
B1109525603827N00905450EA0000000827
B1109595603957N00905502EA0000000826
B1110065604096N00905501EA0000000806
B1110115604195N00905478EA0000000799
B1110185604332N00905431EA0000000796
B1110235604428N00905394EA0000000791
B1110305604560N00905340EA0000000787
B1110375604690N00905282EA0000000781
B1110445604819N00905220EA0000000769
B1110515604948N00905153EA0000000756
B1110575605060N00905097EA0000000747
B1111105605299N00904978EA0000000736
B1111175605429N00904919EA0000000730
B1111225605522N00904881EA0000000731
B1111305605668N00904812EA0000000725
B1111365605773N00904754EA0000000730
B1111435605893N00904680EA0000000737
B1111495605998N00904623EA0000000742
B1111545606086N00904597EA0000000751
B1111595606166N00904666EA0000000765
B1112075606150N00904898EA0000000765
B1112155606094N00904803EA0000000767
B1112205606156N00904740EA0000000770
B1112255606234N00904814EA0000000775
B1112325606245N00905046EA0000000773
B1112375606187N00905143EA0000000783
B1112435606113N00905153EA0000000793
B1112485606098N00905071EA0000000793
B1112545606184N00905029EA0000000791
B1112595606265N00905109EA0000000794
B1113045606289N00905273EA0000000794
B1113125606201N00905433EA0000000811
B1113215606106N00905414EA0000000829
B1113265606109N00905323EA0000000837
B1113315606174N00905285EA0000000836
B1113395606287N00905420EA0000000836
B1113465606284N00905626EA0000000831
B1113525606200N00905665EA0000000838
B1113585606163N00905570EA0000000855
B1114035606223N00905515EA0000000859
B1114085606285N00905627EA0000000856
B1114175606190N00905755EA0000000856
B1114235606155N00905653EA0000000864
B1114305606218N00905522EA0000000854
B1114375606283N00905376EA0000000849
B1114435606323N00905233EA0000000844
B1114485606375N00905137EA0000000840
B1114535606450N00905237EA0000000832
B1114595606429N00905455EA0000000818
B1115045606393N00905634EA0000000801
B1115105606354N00905871EA0000000791
B1115165606302N00906110EA0000000781
B1115215606254N00906305EA0000000784
B1115265606218N00906494EA0000000805
B1115345606188N00906787EA0000000798
B1115395606190N00906999EA0000000784
B1115485606150N00907368EA0000000775
B1115535606120N00907568EA0000000773
B1115595606087N00907814EA0000000767
B1116075606060N00908154EA0000000773
B1116125606059N00908357EA0000000801
B1116225606061N00908716EA0000000828
B1116275606059N00908905EA0000000816
B1116445606059N00909567EA0000000826
B1116505606063N00909815EA0000000829
B1116565606075N00910056EA0000000837
B1117075606092N00910471EA0000000857
B1117125606091N00910658EA0000000854
B1117185606086N00910883EA0000000871
B1117255606077N00911149EA0000000854
B1117325606066N00911439EA0000000854
B1117375606061N00911647EA0000000853
B1117435606055N00911898EA0000000848
B1117485606051N00912108EA0000000839
B1117555606044N00912404EA0000000830
B1118005606042N00912617EA0000000824
B1118085606048N00912961EA0000000815
B1118145606056N00913221EA0000000812
B1118225606069N00913558EA0000000827
B1118275606080N00913750EA0000000822
B1118335606108N00913999EA0000000809
B1118415606149N00914328EA0000000821
B1118465606170N00914515EA0000000834
B1118515606188N00914702EA0000000830
B1118585606216N00914975EA0000000843
B1119035606232N00915161EA0000000844
B1119085606244N00915351EA0000000839
B1119165606255N00915664EA0000000823
B1119325606259N00916323EA0000000799
B1119395606257N00916619EA0000000798
B1119465606249N00916908EA0000000786
B1119545606242N00917238EA0000000781
B1120005606254N00917478EA0000000794
B1120075606315N00917710EA0000000783
B1120135606304N00917951EA0000000777
B1120215606238N00918218EA0000000792
B1120275606194N00918407EA0000000813
B1120325606170N00918566EA0000000813
B1120385606147N00918761EA0000000837
B1120445606129N00918950EA0000000848
B1120515606123N00919203EA0000000825
B1120575606118N00919444EA0000000815
B1121075606098N00919847EA0000000823
B1121135606083N00920079EA0000000844
B1121275606039N00920580EA0000000863
B1121335606013N00920807EA0000000850
B1121385605987N00921008EA0000000835
B1121435605956N00921210EA0000000826
B1121515605898N00921532EA0000000809
B1121595605835N00921853EA0000000799
B1122065605778N00922127EA0000000786
B1122125605721N00922353EA0000000779
B1122195605645N00922606EA0000000766
B1122245605589N00922786EA0000000762
B1122295605535N00922966EA0000000754
B1122365605460N00923220EA0000000743
B1122445605381N00923515EA0000000735
B1122495605337N00923695EA0000000742
B1122565605284N00923939EA0000000739
B1123045605236N00924234EA0000000733
B1123135605222N00924580EA0000000728
B1123195605232N00924815EA0000000712
B1123255605242N00925053EA0000000697
B1123305605245N00925249EA0000000697
B1123355605249N00925443EA0000000694
B1123405605260N00925640EA0000000686
B1123475605275N00925918EA0000000699
B1123555605289N00926222EA0000000714
B1124005605295N00926403EA0000000711
B1124055605313N00926590EA0000000699
B1124105605351N00926774EA0000000703
B1124155605388N00926946EA0000000713
B1124225605439N00927185EA0000000698
B1124295605490N00927449EA0000000684
B1124345605532N00927642EA0000000677
B1124395605582N00927838EA0000000673
B1124475605667N00928151EA0000000693
B1124525605712N00928329EA0000000711
B1124595605684N00928561EA0000000731
B1125065605641N00928492EA0000000736
B1125115605727N00928523EA0000000742
B1125175605733N00928714EA0000000765
B1125235605654N00928709EA0000000775
B1125285605678N00928621EA0000000780
B1125335605752N00928710EA0000000782
B1125415605680N00928855EA0000000805
B1125475605703N00928764EA0000000807
B1125525605772N00928863EA0000000810
B1125575605751N00929012EA0000000821
B1126025605692N00928989EA0000000826
B1126095605758N00928916EA0000000838
B1126145605810N00929052EA0000000844
B1126195605773N00929185EA0000000857
B1126245605717N00929156EA0000000862
B1126325605805N00929114EA0000000884
B1126375605818N00929275EA0000000890
B1126435605748N00929348EA0000000906
B1126495605758N00929243EA0000000910
B1126565605851N00929370EA0000000927
B1127015605817N00929504EA0000000937
B1127065605767N00929462EA0000000937
B1127125605829N00929394EA0000000951
B1127195605931N00929550EA0000000943
B1127255606016N00929751EA0000000927
B1127315606109N00929958EA0000000927
B1127405606242N00930281EA0000000915
B1127475606349N00930518EA0000000911
B1127525606424N00930687EA0000000907
B1127575606495N00930861EA0000000905
B1128035606580N00931073EA0000000906
B1128105606676N00931307EA0000000929
B1128165606759N00931510EA0000000930
B1128245606876N00931787EA0000000932
B1128305606971N00931995EA0000000927
B1128355607051N00932167EA0000000925
B1128405607133N00932339EA0000000923
B1128495607275N00932663EA0000000918
B1128555607377N00932871EA0000000908
B1129005607475N00933020EA0000000894
B1129085607639N00933249EA0000000873
B1129175607829N00933496EA0000000846
B1129225607934N00933635EA0000000838
B1129315608108N00933889EA0000000831
B1129365608195N00934048EA0000000829
B1129425608294N00934249EA0000000823
B1129475608369N00934416EA0000000840
B1129525608435N00934570EA0000000852
B1129575608496N00934721EA0000000855
B1130035608563N00934898EA0000000857
B1130085608620N00935053EA0000000849
B1130145608709N00935201EA0000000851
B1130235608851N00935416EA0000000849
B1130305608958N00935599EA0000000858
B1130365609039N00935776EA0000000863
B1130415609099N00935940EA0000000859
B1130465609142N00936136EA0000000852
B1130515609180N00936334EA0000000865
B1130585609229N00936588EA0000000873
B1131045609265N00936806EA0000000869
B1131105609286N00937040EA0000000868
B1131165609302N00937273EA0000000881
B1131255609297N00937634EA0000000880
B1131315609279N00937880EA0000000892
B1131385609260N00938174EA0000000869
B1131445609247N00938444EA0000000856
B1131495609239N00938670EA0000000853
B1131575609231N00939024EA0000000856
B1132045609228N00939322EA0000000863
B1132135609226N00939712EA0000000848
B1132185609223N00939934EA0000000835
B1132245609211N00940202EA0000000827
B1132325609191N00940554EA0000000821
B1132375609176N00940771EA0000000822
B1132455609154N00941099EA0000000826
B1132515609132N00941344EA0000000802
B1132585609097N00941639EA0000000776
B1133055609043N00941926EA0000000754
B1133135608967N00942248EA0000000739
B1133215608888N00942558EA0000000735
B1133285608817N00942820EA0000000730
B1133405608688N00943256EA0000000718
B1133465608624N00943480EA0000000710
B1133545608540N00943783EA0000000700
B1134025608453N00944080EA0000000693
B1134105608370N00944382EA0000000686
B1134225608248N00944842EA0000000674
B1134275608197N00945035EA0000000667
B1134405608068N00945541EA0000000657
B1134525607943N00945991EA0000000643
B1134595607869N00946253EA0000000633
B1135095607759N00946627EA0000000614
B1135165607689N00946899EA0000000605
B1135245607630N00947226EA0000000595
B1135305607605N00947479EA0000000592
B1135365607605N00947730EA0000000584
B1135425607630N00947981EA0000000571
B1135525607728N00948366EA0000000557
B1135585607802N00948568EA0000000579
B1136075607734N00948600EA0000000598
B1136125607805N00948577EA0000000617
B1136245607757N00948795EA0000000613
B1136295607762N00948685EA0000000632
B1136345607840N00948735EA0000000638
B1136395607830N00948906EA0000000639
B1136485607703N00948889EA0000000659
B1136535607753N00948857EA0000000657
B1136585607781N00949019EA0000000662
B1137085607681N00949048EA0000000683
B1137135607752N00949053EA0000000688
B1137265607678N00949215EA0000000722
B1137325607752N00949207EA0000000733
B1137455607677N00949344EA0000000762
B1137505607744N00949330EA0000000775
B1138115607771N00949558EA0000000840
B1138255607719N00949589EA0000000873
B1138315607776N00949742EA0000000903
B1138405607679N00949791EA0000000916
B1138455607743N00949758EA0000000929
B1138505607768N00949916EA0000000951
B1138595607675N00949909EA0000000964
B1139045607746N00949896EA0000000971
B1139165607678N00950060EA0000000986
B1139225607764N00950002EA0000000983
B1139285607834N00950236EA0000000993
B1139365607880N00950614EA0000001003
B1139445607934N00951008EA0000000979
B1139545608002N00951523EA0000000947
B1140005608041N00951841EA0000000928
B1140075608087N00952219EA0000000908
B1140135608125N00952545EA0000000910
B1140195608162N00952867EA0000000895
B1140255608200N00953200EA0000000873
B1140305608231N00953481EA0000000860
B1140375608277N00953865EA0000000857
B1140425608311N00954135EA0000000851
B1140505608367N00954569EA0000000840
B1141075608475N00955411EA0000000837
B1141135608517N00955707EA0000000831
B1141205608566N00956030EA0000000846
B1141275608621N00956355EA0000000827
B1141335608669N00956640EA0000000833
B1141405608725N00956956EA0000000845
B1141455608771N00957169EA0000000853
B1141505608821N00957367EA0000000864
B1141575608888N00957629EA0000000870
B1142045608957N00957896EA0000000860
B1142115609019N00958184EA0000000858
B1142165609061N00958395EA0000000844
B1142225609117N00958655EA0000000821
B1142285609177N00958917EA0000000821
B1142375609274N00959291EA0000000846
B1142435609334N00959517EA0000000857
B1142495609395N00959740EA0000000855
B1142545609443N00959942EA0000000835
B1143015609521N01000250EA0000000807
B1143125609658N01000734EA0000000798
B1143195609742N01001034EA0000000801
B1143255609803N01001268EA0000000816
B1143325609877N01001548EA0000000797
B1143395609953N01001839EA0000000778
B1143455610016N01002102EA0000000759
B1143525610090N01002409EA0000000747
B1143575610128N01002632EA0000000740
B1144025610141N01002856EA0000000745
B1144105610220N01003153EA0000000758
B1144165610307N01003324EA0000000762
B1144225610404N01003479EA0000000754
B1144275610492N01003593EA0000000751
B1144345610628N01003707EA0000000744
B1144415610775N01003784EA0000000721
B1144485610929N01003865EA0000000702
B1144545611065N01003923EA0000000688
B1145015611224N01003986EA0000000681
B1145105611428N01004084EA0000000663
B1145155611542N01004139EA0000000655
B1145235611725N01004230EA0000000644
B1145325611931N01004340EA0000000627
B1145375612046N01004406EA0000000622
B1145455612227N01004520EA0000000613
B1145555612452N01004663EA0000000605
B1146005612560N01004735EA0000000613
B1146065612693N01004816EA0000000595
B1146155612895N01004943EA0000000583
B1146255613111N01005094EA0000000572
B1146325613260N01005196EA0000000587
B1146385613374N01005272EA0000000600
B1146445613474N01005330EA0000000628
B1146495613480N01005239EA0000000630
B1146565613387N01005319EA0000000643
B1147035613428N01005527EA0000000635
B1147085613508N01005549EA0000000632
B1147135613567N01005476EA0000000638
B1147195613543N01005372EA0000000650
B1147245613490N01005474EA0000000653
B1147295613527N01005621EA0000000655
B1147345613604N01005637EA0000000653
B1147395613641N01005547EA0000000668
B1147445613583N01005515EA0000000678
B1147505613558N01005687EA0000000685
B1147565613639N01005774EA0000000693
B1148045613635N01005646EA0000000701
B1148105613595N01005793EA0000000714
B1148165613673N01005829EA0000000721
B1148215613663N01005729EA0000000724
B1148265613597N01005789EA0000000736
B1148325613639N01005944EA0000000746
B1148375613690N01005881EA0000000752
B1148435613625N01005828EA0000000759
B1148505613612N01006029EA0000000776
B1148555613679N01006027EA0000000777
B1149005613655N01005934EA0000000786
B1149065613588N01006050EA0000000798
B1149115613633N01006174EA0000000798
B1149165613684N01006112EA0000000805
B1149235613605N01006105EA0000000811
B1149295613624N01006282EA0000000818
B1149365613704N01006242EA0000000813
B1149425613637N01006200EA0000000819
B1149475613608N01006354EA0000000822
B1149575613716N01006645EA0000000815
B1150025613787N01006776EA0000000813
B1150085613875N01006941EA0000000817
B1150155613999N01007116EA0000000811
B1150215614120N01007236EA0000000823
B1150265614220N01007325EA0000000842
B1150315614311N01007405EA0000000846
B1150365614408N01007488EA0000000827
B1150455614599N01007660EA0000000810
B1150545614790N01007838EA0000000802
B1151385615695N01008713EA0000000744
B1151445615818N01008809EA0000000747
B1151515615950N01008908EA0000000770
B1152575617261N01010134EA0000000691
B1157205620889N01011095EA0000000560
B1157405620688N01010736EA0000000555
B1158035620492N01010307EA0000000547
B1158215620371N01009942EA0000000528
B1158415620258N01009510EA0000000513
B1159075620157N01008909EA0000000513
B1159125620113N01008815EA0000000511
B1159255619974N01008607EA0000000500
B1159315619894N01008531EA0000000496
B1159445619705N01008424EA0000000513
B1159525619599N01008371EA0000000524
B1159585619529N01008328EA0000000525
B1200335619403N01008434EA0000000586
B1200385619456N01008547EA0000000594
B1200495619427N01008468EA0000000610
B1200555619404N01008634EA0000000620
B1201075619429N01008582EA0000000635
B1201215619463N01008817EA0000000653
B1201285619413N01008719EA0000000664
B1201385619358N01008964EA0000000688
B1201485619395N01008845EA0000000699
B1201595619367N01009074EA0000000721
B1202095619393N01008946EA0000000738
B1202155619326N01009056EA0000000753
B1202205619367N01009203EA0000000758
B1202335619350N01009135EA0000000778
B1202445619423N01009346EA0000000797
B1202515619405N01009239EA0000000809
B1203175619361N01009268EA0000000791
B1203245619266N01009150EA0000000781
B1203295619198N01009058EA0000000775
B1203385619074N01008882EA0000000768
B1203445618989N01008762EA0000000767
B1203505618905N01008637EA0000000760
B1203565618819N01008518EA0000000760
B1204035618714N01008414EA0000000763
B1204125618544N01008375EA0000000740
B1204185618425N01008395EA0000000753
B1204235618329N01008413EA0000000749
B1204325618145N01008454EA0000000729
B1204405617974N01008498EA0000000706
B1204555617649N01008604EA0000000684
B1205045617461N01008674EA0000000674
B1205095617357N01008715EA0000000667
B1205235617078N01008895EA0000000659
B1205305616937N01008989EA0000000652
B1205385616782N01008982EA0000000651
B1205455616674N01008870EA0000000654
B1205505616606N01008776EA0000000663
B1205585616504N01008631EA0000000668
B1206035616429N01008553EA0000000655
B1206095616317N01008486EA0000000646
B1206145616219N01008449EA0000000645
B1206225616069N01008403EA0000000630
B1206285615958N01008378EA0000000620
B1206355615831N01008349EA0000000610
B1206405615742N01008330EA0000000612
B1206465615637N01008305EA0000000617
B1206525615545N01008278EA0000000639
B1207025615581N01008204EA0000000635
B1207075615603N01008374EA0000000634
B1207135615523N01008492EA0000000640
B1207195615426N01008512EA0000000642
B1207245615344N01008509EA0000000656
B1207345615385N01008472EA0000000675
B1207405615359N01008656EA0000000682
B1207455615281N01008657EA0000000692
B1207535615342N01008586EA0000000697
B1207585615369N01008747EA0000000717
B1208035615300N01008818EA0000000727
B1208125615356N01008731EA0000000722
B1208175615408N01008874EA0000000744
B1208335615414N01008911EA0000000771
B1208385615432N01009062EA0000000793
B1208435615368N01009081EA0000000805
B1208525615456N01009073EA0000000814
B1208575615443N01009218EA0000000842
B1209095615484N01009210EA0000000862
B1209145615469N01009363EA0000000885
B1209225615435N01009275EA0000000903
B1209275615506N01009345EA0000000915
B1209325615478N01009492EA0000000932
B1209435615495N01009404EA0000000956
B1209505615502N01009609EA0000000987
B1209565615437N01009568EA0000000988
B1210025615409N01009421EA0000000977
B1210085615355N01009278EA0000000975
B1210135615269N01009208EA0000000970
B1210185615175N01009139EA0000000956
B1210275614995N01009021EA0000000931
B1210385614762N01008869EA0000000911
B1210445614639N01008778EA0000000902
B1210495614537N01008698EA0000000890
B1211035614258N01008476EA0000000873
B1211125614084N01008348EA0000000864
B1211225613895N01008212EA0000000851
B1211285613798N01008105EA0000000837
B1211345613761N01007922EA0000000823
B1211395613768N01007750EA0000000810
B1211445613781N01007578EA0000000801
B1211535613806N01007270EA0000000781
B1211585613820N01007095EA0000000771
B1212045613841N01006887EA0000000764
B1212105613864N01006683EA0000000754
B1212195613901N01006375EA0000000737
B1212255613924N01006176EA0000000735
B1212305613943N01006017EA0000000730
B1212365613963N01005829EA0000000721
B1212415613976N01005672EA0000000714
B1212505613995N01005391EA0000000703
B1212585614011N01005136EA0000000686
B1213055614025N01004904EA0000000673
B1213155614046N01004568EA0000000654
B1213235614050N01004304EA0000000644
B1213315614052N01004039EA0000000638
B1213475614056N01003529EA0000000614
B1213525614060N01003364EA0000000601
B1213585614067N01003164EA0000000595
B1214045614072N01002964EA0000000590
B1214135614073N01002681EA0000000601
B1214205614077N01002464EA0000000621
B1214265614076N01002301EA0000000646
B1214335614074N01002133EA0000000684
B1214385614032N01002088EA0000000704
B1214435614008N01002238EA0000000705
B1214495614099N01002300EA0000000737
B1214565614092N01002188EA0000000756
B1215045614038N01002367EA0000000769
B1215095614110N01002405EA0000000793
B1215155614092N01002318EA0000000802
B1215215614043N01002458EA0000000817
B1215265614110N01002534EA0000000837
B1215325614112N01002436EA0000000852
B1215385614048N01002545EA0000000857
B1215445614121N01002634EA0000000890
B1215495614121N01002545EA0000000899
B1215545614057N01002616EA0000000904
B1216025614138N01002728EA0000000938
B1216085614089N01002672EA0000000953
B1216135614065N01002823EA0000000972
B1216185614134N01002874EA0000000992
B1216265614077N01002847EA0000001007
B1216325614115N01003016EA0000001037
B1216395614140N01002921EA0000001064
B1216445614083N01003007EA0000001067
B1216505614153N01003113EA0000001080
B1216565614132N01002975EA0000001077
B1217015614064N01002853EA0000001068
B1217075613974N01002702EA0000001068
B1217135613888N01002533EA0000001074
B1217215613781N01002296EA0000001074
B1217275613706N01002120EA0000001089
B1217375613563N01001821EA0000001102
B1217435613475N01001650EA0000001096
B1217485613401N01001504EA0000001079
B1217535613326N01001360EA0000001090
B1217585613256N01001228EA0000001099
B1218045613167N01001061EA0000001091
B1218125613060N01000861EA0000001138
B1218215612941N01000623EA0000001120
B1218265612873N01000470EA0000001108
B1218325612790N01000272EA0000001102
B1218415612656N00959979EA0000001103
B1218465612575N00959827EA0000001086
B1218575612389N00959491EA0000001058
B1219065612230N00959222EA0000001043
B1219135612121N00959016EA0000001042
B1219195612039N00958828EA0000001030
B1219305611905N00958497EA0000001040
B1219365611832N00958318EA0000001032
B1219445611731N00958081EA0000001023
B1219495611666N00957932EA0000001020
B1219565611579N00957738EA0000001037
B1220025611509N00957589EA0000001028
B1220095611422N00957415EA0000001027
B1220145611360N00957287EA0000001018
B1220225611251N00957060EA0000001014
B1220285611171N00956898EA0000001041
B1220355611073N00956732EA0000001014
B1220405610993N00956608EA0000001012
B1220465610899N00956476EA0000001018
B1220545610778N00956296EA0000001007
B1221045610599N00956147EA0000000986
B1221105610462N00956169EA0000000972
B1221185610280N00956210EA0000000964
B1221235610164N00956243EA0000000953
B1221335609930N00956320EA0000000942
B1221405609773N00956374EA0000000930
B1221455609664N00956416EA0000000937
B1221505609561N00956456EA0000000949
B1221555609461N00956492EA0000000943
B1222035609295N00956544EA0000000932
B1222085609187N00956579EA0000000918
B1222135609075N00956616EA0000000900
B1222225608869N00956683EA0000000882
B1222315608666N00956720EA0000000895
B1222375608535N00956748EA0000000886
B1222435608402N00956781EA0000000871
B1222495608272N00956813EA0000000872
B1223035607979N00956877EA0000000857
B1223245607524N00956994EA0000000821
B1223355607287N00957042EA0000000809
B1223465607054N00957067EA0000000788
B1223575606822N00957065EA0000000769
B1224025606717N00957070EA0000000760
B1224075606611N00957076EA0000000751
B1224135606486N00957084EA0000000742
B1224565605832N00956633EA0000000692
B1225025605788N00956482EA0000000684
B1225105605733N00956275EA0000000691
B1225205605666N00956014EA0000000688
B1225295605615N00955788EA0000000699
B1225375605578N00955597EA0000000694
B1225445605551N00955426EA0000000700
B1225535605529N00955218EA0000000706
B1225595605514N00955071EA0000000688
B1226125605470N00954727EA0000000667
B1226185605447N00954561EA0000000651
B1226255605420N00954370EA0000000654
B1226315605398N00954224EA0000000679
B1226365605425N00954147EA0000000692
B1226425605485N00954295EA0000000696
B1226475605430N00954393EA0000000701
B1226535605401N00954307EA0000000707
B1226595605484N00954348EA0000000712
B1227135605398N00954408EA0000000735
B1227215605499N00954496EA0000000737
B1227295605418N00954591EA0000000747
B1227355605466N00954510EA0000000752
B1227415605519N00954672EA0000000764
B1227495605432N00954719EA0000000771
B1227545605468N00954641EA0000000773
B1228095605455N00954854EA0000000786
B1228145605500N00954779EA0000000790
B1228195605565N00954889EA0000000801
B1228285605480N00955010EA0000000810
B1228335605498N00954916EA0000000815
B1228445605551N00955152EA0000000827
B1228505605501N00955088EA0000000831
B1228555605566N00955046EA0000000835
B1231145604382N00952431EA0000000648
B1231255604370N00952144EA0000000640
B1231305604373N00952009EA0000000639
B1231405604382N00951758EA0000000628
B1231495604398N00951520EA0000000616
B1231555604406N00951366EA0000000621
B1232065604426N00951100EA0000000622
B1232215604457N00950713EA0000000609
B1232295604474N00950501EA0000000603
B1232385604496N00950258EA0000000588
B1232515604522N00949918EA0000000580
B1232575604530N00949768EA0000000578
B1233045604540N00949592EA0000000576
B1233125604556N00949389EA0000000570
B1233175604568N00949262EA0000000564
B1233245604578N00949087EA0000000558
B1233365604593N00948788EA0000000540
B1233475604607N00948514EA0000000521
B1233525604613N00948390EA0000000514
B1233575604619N00948265EA0000000506
B1234065604623N00948040EA0000000502
B1235075604468N00946639EA0000000512
B1235155604420N00946504EA0000000520
B1235235604369N00946370EA0000000526
B1235285604340N00946293EA0000000534
B1235365604291N00946172EA0000000538
B1235415604264N00946092EA0000000547
B1235495604341N00946079EA0000000543
B1235555604327N00946256EA0000000547
B1236105604255N00946141EA0000000546
B1236175604301N00946313EA0000000546
B1236345604152N00946214EA0000000528
B1236465604063N00946009EA0000000512
B1236535603999N00945884EA0000000507
B1237015603931N00945748EA0000000503
B1237105603830N00945634EA0000000506
B1237165603780N00945556EA0000000505
B1237235603708N00945479EA0000000497
B1237295603629N00945439EA0000000506
B1237345603582N00945386EA0000000516
B1237395603639N00945351EA0000000524
B1237445603679N00945496EA0000000518
B1237565603623N00945503EA0000000523
B1238105603612N00945646EA0000000533
B1238185603697N00945625EA0000000538
B1238355603610N00945681EA0000000530
B1238405603685N00945730EA0000000523
B1238545603582N00945817EA0000000518
B1239145603503N00945517EA0000000514
B1239375603237N00945287EA0000000481
B1239445603152N00945232EA0000000472
B1239515603066N00945179EA0000000466
B1240045602915N00945072EA0000000454
B1240125602821N00945013EA0000000447
B1240275602653N00944888EA0000000435
B1240325602595N00944839EA0000000430
B1240425602481N00944733EA0000000413
B1240515602378N00944636EA0000000408
B1241395601897N00944058EA0000000393
B1241505601763N00943954EA0000000393
B1241555601703N00943904EA0000000396
B1242085601551N00943807EA0000000382
B1243465600677N00942636EA0000000316
B1244175600540N00942596EA0000000308
B1244235600505N00942516EA0000000310
B1244485600537N00942594EA0000000333
B1245025600509N00942633EA0000000357
B1245155600490N00942780EA0000000371
B1245225600561N00942751EA0000000383
B1245315600507N00942867EA0000000395
B1245365600551N00942802EA0000000408
B1245505600534N00942892EA0000000432
B1246065600542N00942996EA0000000459
B1246115600610N00942989EA0000000474
B1246245600571N00943053EA0000000496
B1246305600647N00943123EA0000000502
B1246445600622N00943131EA0000000524
B1246595600571N00943216EA0000000541
B1247055600651N00943227EA0000000549
B1247125600615N00943398EA0000000553
B1247205600557N00943309EA0000000567
B1247265600639N00943357EA0000000564
B1247325600596N00943498EA0000000567
B1247425600546N00943329EA0000000589
B1247535600564N00943510EA0000000586
B1252355559764N00938302EA0000000361
B1252425559823N00938474EA0000000353
B1252525559726N00938473EA0000000343
B1253045559722N00938279EA0000000350
B1253345559506N00937940EA0000000290
