AOGNOGN
HFDTE040825
HFFXA050
HFPLTPILOTINCHARGE:
HFGTYGLIDERTYPE:LS-1 f
HFGIDGLIDERID:OY-OXK
HFDTM100GPSDATUM:WGS-1984
HFRFWFIRMWAREVERSION:
HFRHWHARDWAREVERSION:
HFFTYFRTYPE:OGN-FLIGHTBOOK
HFGPSGENERIC
HFPRSPRESSALTSENSOR:
HFCIDCOMPETITIONID:OK
B1031005600697N00901348EA0000000036
B1031045600690N00901274EA0000000036
B1031115600673N00901107EA0000000037
B1031165600662N00900969EA0000000046
B1031235600654N00900781EA0000000074
B1031285600640N00900654EA0000000083
B1031375600635N00900410EA0000000103
B1031445600700N00900246EA0000000119
B1031505600790N00900146EA0000000133
B1031585600930N00900093EA0000000158
B1032045601042N00900069EA0000000167
B1032135601208N00900052EA0000000195
B1032225601386N00900059EA0000000209
B1032285601501N00900065EA0000000238
B1032335601595N00900069EA0000000258
B1032395601709N00900058EA0000000275
B1032455601823N00900020EA0000000298
B1032515601932N00859987EA0000000322
B1032565602020N00859956EA0000000339
B1033015602108N00859926EA0000000348
B1033065602198N00859894EA0000000354
B1033125602311N00859865EA0000000359
B1033175602399N00859832EA0000000383
B1033235602508N00859791EA0000000396
B1033305602641N00859772EA0000000418
B1033355602739N00859788EA0000000429
B1033405602839N00859822EA0000000439
B1033455602938N00859879EA0000000456
B1033505603033N00859953EA0000000477
B1033555603128N00900042EA0000000487
B1034015603241N00900162EA0000000499
B1034085603369N00900314EA0000000518
B1034155603495N00900478EA0000000532
B1034215603599N00900624EA0000000545
B1034265603680N00900756EA0000000555
B1034315603759N00900882EA0000000555
B1034385603890N00900992EA0000000538
B1034445604009N00901044EA0000000516
B1034515604155N00901076EA0000000508
B1034585604288N00901071EA0000000549
B1035045604276N00900967EA0000000565
B1035105604239N00901117EA0000000575
B1035155604312N00901152EA0000000591
B1035215604292N00901051EA0000000604
B1035265604247N00901161EA0000000618
B1035315604301N00901278EA0000000626
B1035365604362N00901225EA0000000643
B1035435604296N00901199EA0000000652
B1035485604309N00901349EA0000000660
B1035535604384N00901347EA0000000670
B1035595604357N00901249EA0000000678
B1036045604310N00901359EA0000000693
B1036105604381N00901484EA0000000696
B1036155604441N00901433EA0000000706
B1036205604407N00901365EA0000000719
B1036255604359N00901474EA0000000727
B1036305604414N00901602EA0000000735
B1036355604477N00901565EA0000000754
B1036425604439N00901478EA0000000749
B1036475604387N00901585EA0000000767
B1036525604435N00901708EA0000000776
B1037015604499N00901615EA0000000781
B1037065604438N00901609EA0000000792
B1037115604396N00901722EA0000000799
B1037165604423N00901871EA0000000795
B1037235604516N00901826EA0000000807
B1037285604466N00901777EA0000000819
B1037345604423N00901941EA0000000816
B1037395604495N00902058EA0000000826
B1037455604563N00901977EA0000000840
B1037505604509N00901925EA0000000845
B1037555604456N00902044EA0000000857
B1038015604483N00902262EA0000000849
B1038065604530N00902460EA0000000834
B1038125604582N00902725EA0000000820
B1038185604641N00902994EA0000000808
B1038255604703N00903304EA0000000810
B1038315604711N00903551EA0000000815
B1038375604625N00903511EA0000000783
B1038435604592N00903329EA0000000767
B1038485604559N00903167EA0000000756
B1038535604526N00903004EA0000000759
B1038585604496N00902843EA0000000763
B1039035604467N00902681EA0000000767
B1039085604431N00902544EA0000000805
B1039155604368N00902385EA0000000802
B1039205604319N00902258EA0000000802
B1039255604286N00902132EA0000000836
B1039305604342N00902067EA0000000853
B1039355604418N00902154EA0000000854
B1039445604357N00902390EA0000000856
B1039515604259N00902343EA0000000869
B1039575604251N00902223EA0000000868
B1040045604254N00902066EA0000000878
B1040105604237N00901935EA0000000873
B1040165604208N00901783EA0000000839
B1040225604159N00901609EA0000000838
B1040275604104N00901498EA0000000847
B1040325604044N00901410EA0000000859
B1040385604036N00901270EA0000000859
B1040445604043N00901111EA0000000843
B1040515604047N00900905EA0000000843
B1040585604099N00900727EA0000000865
B1041045604149N00900582EA0000000871
B1041105604203N00900444EA0000000872
B1041165604255N00900318EA0000000880
B1041215604299N00900226EA0000000880
B1041265604376N00900210EA0000000884
B1041335604497N00900260EA0000000880
B1041395604552N00900426EA0000000879
B1041445604502N00900536EA0000000861
B1041495604420N00900549EA0000000844
B1041555604321N00900538EA0000000848
B1042015604223N00900547EA0000000849
B1042065604142N00900551EA0000000852
B1042115604059N00900573EA0000000856
B1042175603959N00900606EA0000000848
B1042235603856N00900635EA0000000854
B1042285603770N00900690EA0000000854
B1042345603801N00900920EA0000000833
B1042395603894N00901071EA0000000826
B1042465604030N00901255EA0000000821
B1042535604160N00901437EA0000000814
B1042585604252N00901564EA0000000815
B1043035604331N00901705EA0000000833
B1043115604403N00901981EA0000000841
B1043165604425N00902161EA0000000839
B1043225604438N00902381EA0000000824
B1043285604438N00902603EA0000000814
B1043375604485N00902952EA0000000792
B1043425604544N00903135EA0000000778
B1043485604608N00903362EA0000000763
B1043535604632N00903564EA0000000770
B1043585604598N00903716EA0000000798
B1044055604541N00903645EA0000000815
B1044105604608N00903609EA0000000822
B1044155604659N00903722EA0000000818
B1044205604613N00903840EA0000000816
B1044255604550N00903800EA0000000824
B1044305604553N00903698EA0000000840
B1044355604620N00903675EA0000000835
B1044405604685N00903772EA0000000836
B1044455604681N00903920EA0000000834
B1044515604607N00903961EA0000000839
B1044565604570N00903879EA0000000847
B1045025604514N00903775EA0000000834
B1045085604445N00903655EA0000000817
B1045135604399N00903533EA0000000829
B1045195604350N00903404EA0000000855
B1045245604299N00903499EA0000000863
B1045315604361N00903698EA0000000864
B1045365604435N00903714EA0000000872
B1045425604445N00903591EA0000000877
B1045475604399N00903484EA0000000858
B1045535604338N00903331EA0000000847
B1045585604298N00903197EA0000000856
B1046065604237N00902992EA0000000860
B1046115604199N00902864EA0000000856
B1046165604164N00902733EA0000000863
B1046215604125N00902619EA0000000860
B1046285604066N00902464EA0000000857
B1046345604020N00902334EA0000000866
B1046405604050N00902223EA0000000875
B1046465604150N00902253EA0000000873
B1046515604213N00902397EA0000000877
B1046565604252N00902583EA0000000871
B1047035604314N00902854EA0000000873
B1047085604356N00903052EA0000000860
B1047155604417N00903333EA0000000865
B1047225604408N00903612EA0000000871
B1047275604410N00903811EA0000000875
B1047325604447N00904001EA0000000870
B1047385604498N00904235EA0000000863
B1047445604541N00904468EA0000000875
B1047495604584N00904644EA0000000892
B1047565604633N00904879EA0000000888
B1048015604642N00905075EA0000000875
B1048065604655N00905278EA0000000882
B1048115604708N00905444EA0000000896
B1048165604788N00905546EA0000000896
B1048215604861N00905507EA0000000892
B1048285604815N00905346EA0000000868
B1048375604715N00905135EA0000000862
B1048445604641N00904971EA0000000865
B1048495604590N00904850EA0000000868
B1048545604541N00904724EA0000000872
B1048595604489N00904607EA0000000873
B1049045604427N00904509EA0000000880
B1049105604369N00904369EA0000000892
B1049155604352N00904229EA0000000885
B1049215604339N00904042EA0000000876
B1049295604313N00903786EA0000000875
B1049345604295N00903624EA0000000885
B1049405604288N00903422EA0000000873
B1049495604455N00903370EA0000000884
B1049545604535N00903566EA0000000891
B1049595604616N00903723EA0000000915
B1050055604686N00903927EA0000000903
B1050125604763N00904189EA0000000869
B1050195604768N00904508EA0000000845
B1050255604745N00904770EA0000000845
B1050305604686N00904930EA0000000847
B1050365604581N00904986EA0000000845
B1050415604510N00904928EA0000000848
B1050475604512N00904790EA0000000863
B1050535604605N00904835EA0000000867
B1050585604621N00905003EA0000000858
B1051035604573N00905152EA0000000850
B1051095604488N00905289EA0000000858
B1051155604401N00905410EA0000000864
B1051205604319N00905473EA0000000835
B1051255604220N00905470EA0000000808
B1051345604033N00905470EA0000000798
B1051395603933N00905461EA0000000795
B1051455603818N00905441EA0000000793
B1051515603709N00905421EA0000000789
B1052015603531N00905385EA0000000779
B1052125603340N00905332EA0000000765
B1052175603257N00905290EA0000000760
B1052245603162N00905177EA0000000751
B1052295603099N00905082EA0000000741
B1052345603044N00904968EA0000000725
B1052425602992N00904741EA0000000716
B1052495602967N00904535EA0000000706
B1052545602945N00904384EA0000000697
B1053025602907N00904149EA0000000697
B1053105602861N00903921EA0000000689
B1053155602835N00903781EA0000000693
B1053215602834N00903600EA0000000699
B1053265602880N00903486EA0000000715
B1053315602960N00903483EA0000000726
B1053365603014N00903618EA0000000721
B1053415602980N00903759EA0000000725
B1053465602917N00903740EA0000000733
B1053535602899N00903576EA0000000728
B1054005602888N00903393EA0000000714
B1054065602854N00903244EA0000000715
B1054115602845N00903123EA0000000718
B1054165602901N00903061EA0000000715
B1054225602979N00903200EA0000000703
B1054275603020N00903382EA0000000683
B1054335603078N00903604EA0000000683
B1054405603145N00903854EA0000000684
B1054455603155N00904044EA0000000682
B1054505603116N00904203EA0000000680
B1054555603044N00904302EA0000000684
B1055005602971N00904283EA0000000695
B1055065602940N00904153EA0000000710
B1055115602982N00904074EA0000000710
B1055185603090N00904138EA0000000717
B1055245603140N00904316EA0000000720
B1055295603111N00904459EA0000000726
B1055345603043N00904508EA0000000730
B1055405602984N00904424EA0000000738
B1055455602989N00904317EA0000000739
B1055515603068N00904252EA0000000736
B1055565603144N00904315EA0000000731
B1056025603164N00904516EA0000000732
B1056075603120N00904648EA0000000738
B1056145603033N00904639EA0000000738
B1056195603034N00904535EA0000000738
B1056245603107N00904506EA0000000741
B1056295603174N00904614EA0000000741
B1056345603177N00904786EA0000000738
B1056395603115N00904879EA0000000739
B1056445603056N00904836EA0000000743
B1056495603039N00904723EA0000000737
B1056545603065N00904605EA0000000726
B1057005603100N00904434EA0000000699
B1057055603126N00904281EA0000000696
B1057105603152N00904133EA0000000689
B1057155603176N00903982EA0000000686
B1057205603188N00903834EA0000000685
B1057285603187N00903614EA0000000694
B1057345603173N00903473EA0000000710
B1057405603163N00903320EA0000000693
B1057455603203N00903196EA0000000697
B1057505603280N00903128EA0000000691
B1057585603411N00903274EA0000000683
B1058035603407N00903452EA0000000682
B1058085603338N00903547EA0000000680
B1058145603245N00903545EA0000000685
B1058195603212N00903457EA0000000689
B1058245603252N00903369EA0000000688
B1058315603339N00903496EA0000000678
B1058365603345N00903674EA0000000681
B1058415603302N00903806EA0000000679
B1058475603234N00903775EA0000000670
B1058585603224N00903497EA0000000631
B1059055603207N00903294EA0000000622
B1059105603192N00903150EA0000000614
B1059155603178N00903010EA0000000610
B1059205603162N00902870EA0000000599
B1059275603143N00902664EA0000000587
B1059325603130N00902515EA0000000588
B1059385603122N00902339EA0000000581
B1059435603131N00902199EA0000000593
B1059495603207N00902104EA0000000602
B1059545603289N00902166EA0000000614
B1100005603315N00902355EA0000000621
B1100055603277N00902495EA0000000627
B1100115603197N00902517EA0000000640
B1100175603184N00902392EA0000000639
B1100225603239N00902314EA0000000649
B1100275603317N00902333EA0000000653
B1100335603351N00902503EA0000000650
B1100385603291N00902599EA0000000652
B1100435603226N00902570EA0000000667
B1100495603251N00902456EA0000000675
B1100545603331N00902473EA0000000673
B1100595603383N00902601EA0000000680
B1101045603362N00902744EA0000000673
B1101105603282N00902815EA0000000685
B1101165603242N00902720EA0000000689
B1101215603290N00902636EA0000000698
B1101265603369N00902643EA0000000702
B1101325603432N00902789EA0000000702
B1101385603394N00902950EA0000000702
B1101435603326N00902991EA0000000704
B1101515603272N00902843EA0000000708
B1101565603314N00902760EA0000000706
B1102015603401N00902786EA0000000690
B1102065603481N00902889EA0000000700
B1102115603485N00903046EA0000000701
B1102165603421N00903123EA0000000701
B1102235603354N00903031EA0000000708
B1102285603382N00902929EA0000000706
B1102345603482N00902939EA0000000705
B1102395603538N00903077EA0000000700
B1102445603526N00903236EA0000000696
B1102495603462N00903324EA0000000691
B1102545603404N00903278EA0000000694
B1103015603392N00903117EA0000000691
B1103065603451N00903041EA0000000691
B1103115603530N00903100EA0000000691
B1103165603552N00903259EA0000000685
B1103235603504N00903493EA0000000668
B1103295603422N00903571EA0000000679
B1103355603388N00903470EA0000000694
B1103405603442N00903411EA0000000695
B1103465603518N00903530EA0000000681
B1103515603476N00903659EA0000000678
B1103565603398N00903696EA0000000681
B1104015603337N00903648EA0000000688
B1104075603343N00903528EA0000000693
B1104125603417N00903523EA0000000679
B1104175603461N00903660EA0000000677
B1104225603418N00903795EA0000000675
B1104275603355N00903769EA0000000685
B1104325603369N00903667EA0000000688
B1104375603441N00903656EA0000000676
B1104435603493N00903816EA0000000669
B1104485603441N00903943EA0000000668
B1104535603377N00903913EA0000000681
B1104585603379N00903812EA0000000687
B1105055603477N00903841EA0000000681
B1105105603490N00904001EA0000000680
B1105155603430N00904117EA0000000684
B1105205603365N00904109EA0000000686
B1105255603372N00904011EA0000000691
B1105325603467N00904077EA0000000688
B1105375603453N00904234EA0000000686
B1105425603386N00904235EA0000000687
B1105475603395N00904139EA0000000691
B1105535603481N00904193EA0000000697
B1105585603473N00904352EA0000000693
B1106035603405N00904377EA0000000694
B1106085603395N00904281EA0000000696
B1106185603513N00904402EA0000000705
B1106245603459N00904536EA0000000703
B1106305603410N00904461EA0000000696
B1106365603473N00904386EA0000000700
B1106415603535N00904487EA0000000707
B1106475603489N00904631EA0000000707
B1106535603442N00904557EA0000000711
B1106585603491N00904494EA0000000714
B1107065603569N00904673EA0000000723
B1107115603518N00904777EA0000000728
B1107165603474N00904719EA0000000723
B1107215603524N00904639EA0000000715
B1107275603623N00904716EA0000000725
B1107325603636N00904882EA0000000735
B1107375603574N00904966EA0000000737
B1107425603528N00904901EA0000000734
B1107475603557N00904806EA0000000737
B1107575603704N00904960EA0000000739
B1108025603696N00905120EA0000000747
B1108075603630N00905192EA0000000751
B1108125603584N00905126EA0000000749
B1108175603616N00905034EA0000000755
B1108225603692N00905085EA0000000760
B1108285603706N00905273EA0000000765
B1108335603641N00905326EA0000000774
B1108395603626N00905214EA0000000769
B1108445603698N00905196EA0000000781
B1108495603751N00905325EA0000000784
B1108545603723N00905476EA0000000786
B1108595603656N00905513EA0000000791
B1109045603631N00905419EA0000000783
B1109105603698N00905334EA0000000791
B1109165603776N00905452EA0000000800
B1109215603765N00905611EA0000000799
B1109265603700N00905690EA0000000803
B1109315603649N00905632EA0000000797
B1109385603692N00905496EA0000000799
B1109455603800N00905594EA0000000800
B1109515603795N00905794EA0000000809
B1109595603696N00905800EA0000000810
B1110065603717N00905652EA0000000810
B1110115603798N00905698EA0000000812
B1110225603753N00905972EA0000000823
B1110305603750N00905838EA0000000814
B1110355603834N00905893EA0000000819
B1110405603859N00906063EA0000000827
B1110475603780N00906196EA0000000831
B1110535603736N00906107EA0000000826
B1110585603793N00906040EA0000000825
B1111035603868N00906118EA0000000829
B1111085603864N00906277EA0000000830
B1111175603720N00906322EA0000000801
B1111225603620N00906318EA0000000791
B1111285603497N00906335EA0000000787
B1111345603375N00906360EA0000000774
B1111405603255N00906395EA0000000778
B1111455603164N00906448EA0000000782
B1111505603081N00906531EA0000000778
B1111555603071N00906722EA0000000774
B1112025603123N00907005EA0000000751
B1112095603181N00907299EA0000000737
B1112155603234N00907551EA0000000726
B1112215603290N00907802EA0000000721
B1112275603345N00908054EA0000000719
B1112355603418N00908392EA0000000715
B1112405603466N00908594EA0000000716
B1112465603526N00908829EA0000000712
B1112545603606N00909131EA0000000706
B1112595603655N00909315EA0000000699
B1113065603720N00909580EA0000000683
B1113125603769N00909822EA0000000675
B1113185603803N00910072EA0000000668
B1113275603847N00910446EA0000000659
B1113385603898N00910893EA0000000650
B1113435603921N00911094EA0000000642
B1113485603943N00911296EA0000000633
B1113545603968N00911543EA0000000624
B1114025603993N00911870EA0000000627
B1114095604015N00912144EA0000000651
B1114155603981N00912332EA0000000667
B1114205603942N00912452EA0000000680
B1114315603953N00912316EA0000000673
B1114365604029N00912388EA0000000685
B1114435604019N00912588EA0000000697
B1114485603961N00912556EA0000000694
B1114535603987N00912449EA0000000698
B1114585604062N00912452EA0000000706
B1115035604086N00912602EA0000000712
B1115085604023N00912654EA0000000718
B1115135604021N00912560EA0000000721
B1115185604095N00912598EA0000000724
B1115245604088N00912776EA0000000733
B1115295604025N00912780EA0000000737
B1115345604034N00912680EA0000000738
B1115405604119N00912681EA0000000744
B1115465604134N00912868EA0000000733
B1115515604066N00912983EA0000000734
B1115565603996N00913042EA0000000753
B1116015603997N00912947EA0000000747
B1116075604087N00912948EA0000000760
B1116125604115N00913094EA0000000757
B1116185604032N00913128EA0000000763
B1116235604037N00913029EA0000000768
B1116285604108N00913079EA0000000775
B1116335604121N00913235EA0000000781
B1116385604058N00913279EA0000000785
B1116435604066N00913181EA0000000771
B1116485604146N00913227EA0000000784
B1116535604184N00913394EA0000000774
B1116585604204N00913603EA0000000759
B1117035604227N00913822EA0000000755
B1117105604252N00914129EA0000000748
B1117175604268N00914438EA0000000739
B1117255604288N00914786EA0000000738
B1117315604303N00915032EA0000000760
B1117375604346N00915255EA0000000770
B1117425604385N00915440EA0000000769
B1117475604421N00915634EA0000000763
B1117555604471N00915957EA0000000762
B1118035604506N00916278EA0000000766
B1118105604530N00916561EA0000000751
B1118175604553N00916849EA0000000753
B1118225604556N00917051EA0000000748
B1118275604550N00917260EA0000000743
B1118325604551N00917467EA0000000749
B1118395604583N00917745EA0000000750
B1118515604659N00918203EA0000000767
B1118575604696N00918440EA0000000757
B1119025604733N00918646EA0000000744
B1119095604789N00918940EA0000000738
B1119175604850N00919276EA0000000725
B1119275604911N00919705EA0000000706
B1119345604953N00920004EA0000000691
B1119425605004N00920346EA0000000672
B1119505605057N00920694EA0000000656
B1119585605107N00921045EA0000000648
B1120045605142N00921309EA0000000642
B1120125605172N00921661EA0000000631
B1120175605189N00921882EA0000000620
B1120235605210N00922145EA0000000613
B1120285605231N00922364EA0000000604
B1120365605263N00922713EA0000000591
B1120435605281N00923010EA0000000586
B1120495605284N00923257EA0000000580
B1120575605283N00923582EA0000000573
B1121095605226N00924056EA0000000554
B1121215605232N00924551EA0000000540
B1121265605241N00924758EA0000000535
B1121335605248N00925053EA0000000534
B1121425605250N00925427EA0000000532
B1121505605262N00925749EA0000000520
B1122015605369N00926122EA0000000524
B1122065605437N00926260EA0000000517
B1122135605497N00926513EA0000000506
B1122185605527N00926714EA0000000512
B1122275605587N00927058EA0000000515
B1122325605614N00927239EA0000000525
B1122375605629N00927417EA0000000516
B1122465605585N00927705EA0000000541
B1122545605553N00927635EA0000000548
B1123025605607N00927804EA0000000563
B1123105605556N00927748EA0000000578
B1123155605627N00927801EA0000000589
B1123225605578N00927950EA0000000604
B1123285605585N00927856EA0000000609
B1123375605628N00928051EA0000000628
B1123445605577N00927992EA0000000637
B1123535605659N00928126EA0000000657
B1124025605592N00928104EA0000000671
B1124115605664N00928254EA0000000688
B1124195605586N00928253EA0000000699
B1124245605621N00928171EA0000000712
B1124305605688N00928284EA0000000718
B1124395605612N00928323EA0000000737
B1124455605689N00928330EA0000000738
B1124505605686N00928484EA0000000753
B1124575605624N00928443EA0000000759
B1125025605685N00928405EA0000000761
B1125075605724N00928548EA0000000769
B1125135605664N00928695EA0000000784
B1125185605630N00928636EA0000000777
B1125235605705N00928621EA0000000786
B1125295605742N00928787EA0000000805
B1125345605680N00928814EA0000000804
B1125395605694N00928721EA0000000811
B1125445605767N00928796EA0000000811
B1125505605735N00928963EA0000000827
B1125555605684N00928916EA0000000834
B1126015605740N00928846EA0000000835
B1126065605807N00928965EA0000000837
B1126115605795N00929128EA0000000851
B1126165605734N00929180EA0000000859
B1126225605723N00929072EA0000000866
B1126285605811N00929115EA0000000875
B1126345605804N00929303EA0000000884
B1126405605735N00929279EA0000000892
B1126455605784N00929222EA0000000907
B1126505605859N00929325EA0000000900
B1126565605955N00929505EA0000000891
B1127015606030N00929677EA0000000893
B1127095606163N00929939EA0000000882
B1127165606279N00930169EA0000000878
B1127215606357N00930334EA0000000876
B1127295606474N00930609EA0000000873
B1127345606553N00930769EA0000000875
B1127405606637N00930951EA0000000902
B1127465606709N00931135EA0000000915
B1127545606792N00931400EA0000000923
B1128025606880N00931674EA0000000927
B1128085606959N00931862EA0000000924
B1128175607091N00932126EA0000000924
B1128255607220N00932344EA0000000913
B1128335607366N00932543EA0000000907
B1128385607460N00932667EA0000000894
B1128465607609N00932883EA0000000880
B1128535607733N00933091EA0000000858
B1128595607841N00933271EA0000000848
B1129055607945N00933449EA0000000836
B1129115608051N00933632EA0000000821
B1129165608140N00933787EA0000000820
B1129245608268N00934050EA0000000817
B1129295608338N00934216EA0000000839
B1129355608426N00934366EA0000000845
B1129455608561N00934618EA0000000858
B1129505608625N00934743EA0000000873
B1129585608722N00934937EA0000000888
B1130095608831N00935266EA0000000901
B1130145608883N00935414EA0000000905
B1130195608934N00935566EA0000000899
B1130245608997N00935726EA0000000887
B1130305609082N00935926EA0000000884
B1130375609145N00936187EA0000000902
B1130435609184N00936405EA0000000903
B1130485609218N00936587EA0000000896
B1130535609242N00936779EA0000000888
B1131005609287N00937052EA0000000900
B1131095609350N00937379EA0000000917
B1131145609394N00937539EA0000000932
B1131195609450N00937685EA0000000919
B1131265609555N00937890EA0000000894
B1131315609632N00938040EA0000000886
B1131365609702N00938201EA0000000891
B1131425609738N00938399EA0000000943
B1131525609660N00938357EA0000000945
B1131585609731N00938443EA0000000969
B1132105609649N00938483EA0000000974
B1132175609757N00938514EA0000000989
B1132225609785N00938660EA0000001008
B1132295609706N00938646EA0000001009
B1132345609761N00938578EA0000001028
B1132395609820N00938671EA0000001026
B1132445609815N00938868EA0000001031
B1132495609800N00939091EA0000001017
B1132575609778N00939460EA0000001000
B1133025609764N00939692EA0000000989
B1133085609748N00939970EA0000000978
B1133175609716N00940383EA0000000969
B1133275609678N00940843EA0000000957
B1133365609652N00941258EA0000000949
B1133415609637N00941485EA0000000947
B1133495609617N00941852EA0000000933
B1133595609592N00942306EA0000000919
B1134085609569N00942717EA0000000899
B1134245609532N00943438EA0000000883
B1134295609522N00943660EA0000000879
B1134355609511N00943926EA0000000871
B1134405609504N00944151EA0000000864
B1134505609491N00944604EA0000000853
B1135015609474N00945103EA0000000851
B1135105609451N00945512EA0000000844
B1135185609431N00945880EA0000000827
B1135255609415N00946213EA0000000822
B1135325609398N00946539EA0000000817
B1135385609380N00946815EA0000000809
B1135455609353N00947135EA0000000803
B1135515609337N00947402EA0000000802
B1135575609320N00947663EA0000000798
B1136055609294N00948004EA0000000791
B1136115609276N00948256EA0000000787
B1136215609241N00948669EA0000000776
B1136265609224N00948875EA0000000769
B1136355609196N00949250EA0000000759
B1136495609197N00949853EA0000000746
B1136575609189N00950186EA0000000759
B1137025609199N00950379EA0000000760
B1137085609292N00950557EA0000000743
B1137145609399N00950715EA0000000735
B1137235609570N00950942EA0000000717
B1137345609778N00951242EA0000000696
B1137405609868N00951438EA0000000700
B1137485609989N00951683EA0000000681
B1137545610101N00951841EA0000000648
B1138025610266N00952034EA0000000633
B1138085610387N00952186EA0000000624
B1138135610486N00952310EA0000000618
B1138215610644N00952479EA0000000607
B1138285610789N00952612EA0000000601
B1138335610894N00952701EA0000000598
B1138385611001N00952752EA0000000600
B1138465611167N00952749EA0000000586
B1138515611271N00952727EA0000000586
B1138565611367N00952692EA0000000588
B1139015611457N00952652EA0000000595
B1139075611528N00952549EA0000000607
B1139135611578N00952435EA0000000618
B1139185611558N00952345EA0000000617
B1139235611487N00952353EA0000000609
B1139285611439N00952505EA0000000622
B1139335611457N00952690EA0000000628
B1139385611462N00952877EA0000000622
B1139445611421N00953105EA0000000610
B1139535611333N00953441EA0000000594
B1140025611232N00953767EA0000000595
B1140075611161N00953914EA0000000620
B1140125611142N00954085EA0000000634
B1140185611230N00954158EA0000000634
B1140235611245N00954066EA0000000640
B1140285611174N00954048EA0000000641
B1140335611103N00954138EA0000000649
B1140385611100N00954309EA0000000655
B1140435611175N00954341EA0000000653
B1140485611178N00954230EA0000000650
B1140535611119N00954178EA0000000661
B1140585611070N00954306EA0000000664
B1141045611138N00954452EA0000000667
B1141095611212N00954419EA0000000669
B1141145611229N00954323EA0000000670
B1141215611149N00954278EA0000000683
B1141265611131N00954439EA0000000681
B1141315611208N00954498EA0000000682
B1141365611229N00954400EA0000000687
B1141415611194N00954325EA0000000694
B1141475611128N00954435EA0000000698
B1141535611151N00954651EA0000000693
B1141585611203N00954800EA0000000697
B1142045611297N00954812EA0000000695
B1142095611307N00954711EA0000000703
B1142145611257N00954647EA0000000717
B1142195611202N00954733EA0000000718
B1142255611264N00954882EA0000000708
B1142305611321N00954806EA0000000717
B1142365611293N00954712EA0000000730
B1142415611232N00954806EA0000000733
B1142465611263N00954965EA0000000738
B1142515611336N00954951EA0000000734
B1142565611342N00954844EA0000000746
B1143015611285N00954805EA0000000756
B1143065611227N00954914EA0000000761
B1143125611255N00955111EA0000000765
B1143175611335N00955152EA0000000763
B1143225611355N00955060EA0000000766
B1143285611277N00955117EA0000000772
B1143335611292N00955295EA0000000773
B1143385611356N00955464EA0000000757
B1143445611466N00955610EA0000000770
B1143505611561N00955648EA0000000802
B1143555611557N00955557EA0000000806
B1144005611491N00955627EA0000000808
B1144055611503N00955803EA0000000820
B1144105611576N00955850EA0000000832
B1144165611578N00955755EA0000000832
B1144215611508N00955811EA0000000838
B1144265611511N00955985EA0000000851
B1144325611594N00956092EA0000000863
B1144375611616N00956012EA0000000868
B1144425611550N00956035EA0000000872
B1144485611566N00956228EA0000000884
B1144535611642N00956254EA0000000890
B1144585611641N00956171EA0000000897
B1145045611559N00956242EA0000000898
B1145095611548N00956411EA0000000915
B1145145611612N00956533EA0000000920
B1145205611697N00956600EA0000000942
B1145255611699N00956513EA0000000939
B1145305611645N00956445EA0000000949
B1145365611562N00956511EA0000000953
B1145415611584N00956684EA0000000966
B1145465611667N00956774EA0000000971
B1145535611791N00956907EA0000000985
B1145585611882N00957012EA0000000993
B1146055612026N00957127EA0000001008
B1146115612154N00957160EA0000001028
B1146185612295N00957125EA0000001026
B1146255612435N00957034EA0000001010
B1146325612577N00956929EA0000000994
B1146385612703N00956858EA0000000983
B1146445612832N00956793EA0000000968
B1146525613003N00956709EA0000000966
B1147005613164N00956630EA0000000956
B1147085613325N00956551EA0000000950
B1147145613447N00956503EA0000000947
B1147205613572N00956461EA0000000940
B1147285613741N00956416EA0000000936
B1147335613842N00956402EA0000000963
B1147385613935N00956464EA0000000979
B1147455614057N00956634EA0000000979
B1147535614196N00956853EA0000000967
B1147585614287N00956989EA0000000965
B1148065614440N00957189EA0000000966
B1148135614534N00957439EA0000000967
B1148205614617N00957719EA0000000945
B1148275614713N00957982EA0000000944
B1148345614815N00958230EA0000000934
B1148395614899N00958392EA0000000947
B1148445614988N00958534EA0000000956
B1148495615075N00958669EA0000000957
B1148565615191N00958847EA0000000979
B1149045615321N00959063EA0000000965
B1149105615426N00959236EA0000000954
B1149165615524N00959431EA0000000943
B1149215615602N00959606EA0000000934
B1149275615699N00959820EA0000000925
B1149385615885N01000203EA0000000922
B1149485616059N01000533EA0000000913
B1149565616206N01000751EA0000000913
B1150015616301N01000874EA0000000908
B1150095616457N01001078EA0000000893
B1150185616631N01001303EA0000000881
B1150245616754N01001430EA0000000863
B1150305616883N01001512EA0000000867
B1150365617014N01001583EA0000000860
B1150415617124N01001599EA0000000861
B1150475617255N01001604EA0000000862
B1150535617387N01001643EA0000000868
B1150595617512N01001726EA0000000866
B1151045617613N01001836EA0000000856
B1151105617727N01002006EA0000000873
B1151175617848N01002217EA0000000884
B1151255617983N01002447EA0000000919
B1151325618097N01002651EA0000000925
B1151395618204N01002869EA0000000924
B1151445618275N01003042EA0000000914
B1151495618353N01003221EA0000000894
B1151555618450N01003441EA0000000889
B1152035618579N01003731EA0000000887
B1152115618711N01004011EA0000000895
B1152175618807N01004222EA0000000891
B1152225618880N01004409EA0000000898
B1152275618947N01004596EA0000000904
B1152335619026N01004823EA0000000899
B1152395619109N01005061EA0000000887
B1152455619196N01005294EA0000000889
B1152505619270N01005464EA0000000908
B1152555619338N01005637EA0000000915
B1153005619400N01005795EA0000000937
B1153095619523N01006077EA0000000933
B1153145619595N01006235EA0000000948
B1153205619680N01006423EA0000000940
B1153275619763N01006683EA0000000935
B1153345619855N01006950EA0000000934
B1153405619938N01007175EA0000000939
B1153485620047N01007471EA0000000931
B1153575620173N01007817EA0000000924
B1154045620267N01008084EA0000000925
B1154095620314N01008292EA0000000918
B1154145620348N01008508EA0000000909
B1154205620376N01008773EA0000000900
B1154255620415N01008984EA0000000891
B1154315620483N01009215EA0000000886
B1154365620514N01009427EA0000000883
B1154465620588N01009829EA0000000905
B1154515620631N01010008EA0000000927
B1154585620619N01010234EA0000000929
B1155125620803N01010651EA0000000910
B1155175620878N01010794EA0000000920
B1155235620963N01010955EA0000000937
B1155335621097N01011244EA0000000921
B1156115621601N01012568EA0000000904
B1156245621697N01012973EA0000000900
B1156295621737N01012883EA0000000884
B1156345621683N01012775EA0000000874
B1156395621612N01012670EA0000000861
B1156465621515N01012526EA0000000858
B1156515621451N01012426EA0000000857
B1157035621307N01012165EA0000000839
B1157175621151N01011838EA0000000819
B1157255621060N01011641EA0000000812
B1157305621006N01011518EA0000000822
B1157375620931N01011361EA0000000824
B1157425620867N01011269EA0000000824
B1157495620773N01011132EA0000000807
B1157545620705N01011029EA0000000807
B1158015620611N01010889EA0000000802
B1158085620513N01010756EA0000000794
B1158145620441N01010619EA0000000788
B1158205620369N01010489EA0000000788
B1158255620310N01010383EA0000000793
B1158335620232N01010202EA0000000800
B1158385620190N01010097EA0000000816
B1158445620130N01009992EA0000000827
B1158495620086N01009900EA0000000831
B1158585620037N01009693EA0000000832
B1159035620005N01009561EA0000000838
B1159085619973N01009427EA0000000848
B1159135619938N01009299EA0000000857
B1159205619879N01009130EA0000000872
B1159265619822N01009023EA0000000909
B1159315619754N01009034EA0000000919
B1159365619726N01008964EA0000000931
B1159455619827N01009061EA0000000945
B1200015619826N01009029EA0000000969
B1200065619824N01009180EA0000000980
B1200115619764N01009158EA0000000986
B1200165619723N01009044EA0000000967
B1200215619680N01008903EA0000000974
B1200275619627N01008741EA0000000991
B1200325619595N01008604EA0000001017
B1200385619533N01008462EA0000001011
B1200455619442N01008304EA0000001012
B1200505619379N01008191EA0000001013
B1200575619290N01008034EA0000001001
B1201025619221N01007931EA0000000994
B1201085619108N01007897EA0000000993
B1201155618973N01007895EA0000001004
B1201215618865N01007865EA0000001011
B1201275618770N01007788EA0000001007
B1201325618688N01007718EA0000001015
B1201415618549N01007571EA0000001015
B1201465618479N01007476EA0000001009
B1201535618384N01007342EA0000001011
B1201595618311N01007215EA0000001009
B1202055618232N01007083EA0000000995
B1202105618158N01006980EA0000000991
B1202175618031N01006885EA0000000977
B1202245617889N01006827EA0000000969
B1202295617788N01006791EA0000000963
B1202405617566N01006741EA0000000939
B1202455617461N01006766EA0000000929
B1202505617359N01006852EA0000000918
B1202595617178N01007032EA0000000902
B1203045617079N01007129EA0000000898
B1203135616902N01007267EA0000000890
B1203215616748N01007401EA0000000883
B1203285616610N01007459EA0000000887
B1203335616523N01007412EA0000000891
B1203395616450N01007281EA0000000891
B1203445616382N01007200EA0000000898
B1203505616319N01007085EA0000000904
B1203575616277N01006903EA0000000877
B1204045616230N01006709EA0000000858
B1204095616200N01006574EA0000000853
B1204155616167N01006411EA0000000843
B1204205616125N01006283EA0000000835
B1204285616009N01006140EA0000000827
B1204335615923N01006081EA0000000820
B1204405615793N01006018EA0000000815
B1204455615703N01005984EA0000000826
B1204505615614N01005995EA0000000830
B1204565615505N01006087EA0000000822
B1205015615415N01006154EA0000000843
B1205065615364N01006103EA0000000867
B1205115615398N01006016EA0000000866
B1205165615472N01006046EA0000000873
B1205215615490N01006209EA0000000864
B1205265615456N01006365EA0000000876
B1205325615382N01006408EA0000000878
B1205385615345N01006288EA0000000867
B1205435615316N01006159EA0000000865
B1205485615291N01006025EA0000000873
B1205535615289N01005902EA0000000888
B1205585615295N01005772EA0000000866
B1206055615260N01005589EA0000000856
B1206145615188N01005363EA0000000835
B1206195615133N01005247EA0000000835
B1206255615059N01005129EA0000000837
B1206305614990N01005043EA0000000841
B1206365614909N01004954EA0000000856
B1206415614856N01004866EA0000000862
B1206465614826N01004754EA0000000858
B1206545614811N01004545EA0000000857
B1206595614805N01004412EA0000000848
B1207065614789N01004197EA0000000831
B1207125614771N01004005EA0000000833
B1207185614754N01003817EA0000000837
B1207235614740N01003664EA0000000835
B1207285614713N01003520EA0000000833
B1207345614673N01003353EA0000000830
B1207425614621N01003137EA0000000822
B1207505614577N01002917EA0000000807
B1207565614547N01002744EA0000000809
B1208025614526N01002573EA0000000808
B1208075614515N01002429EA0000000810
B1208165614486N01002184EA0000000824
B1208215614446N01002081EA0000000849
B1208265614389N01002177EA0000000854
B1208325614455N01002335EA0000000838
B1208385614552N01002280EA0000000849
B1208435614607N01002190EA0000000866
B1208485614584N01002111EA0000000872
B1208535614525N01002197EA0000000872
B1208585614548N01002360EA0000000863
B1209045614643N01002363EA0000000868
B1209095614646N01002265EA0000000873
B1209155614590N01002185EA0000000863
B1209225614509N01002064EA0000000840
B1209275614442N01001969EA0000000830
B1209365614310N01001819EA0000000826
B1209425614216N01001739EA0000000825
B1209495614103N01001660EA0000000829
B1209545614027N01001603EA0000000842
B1209595613975N01001529EA0000000861
B1210045613969N01001427EA0000000867
B1210095613924N01001361EA0000000876
B1210145613865N01001474EA0000000871
B1210205613912N01001653EA0000000879
B1210255613978N01001627EA0000000892
B1210305613954N01001540EA0000000900
B1210365613883N01001651EA0000000890
B1210415613938N01001788EA0000000889
B1210465614024N01001782EA0000000906
B1210515614044N01001689EA0000000920
B1210565613980N01001678EA0000000918
B1211015613960N01001832EA0000000906
B1211065614031N01001877EA0000000913
B1211125614060N01001768EA0000000919
B1211185614029N01001624EA0000000881
B1211255613992N01001420EA0000000863
B1211305613976N01001263EA0000000858
B1211365613971N01001071EA0000000867
B1211415613961N01000929EA0000000902
B1211465613908N01000873EA0000000924
B1211535613893N01001076EA0000000928
B1211585613967N01001064EA0000000937
B1212035613948N01000963EA0000000950
B1212085613881N01001037EA0000000968
B1212135613917N01001184EA0000000967
B1212185613980N01001141EA0000000979
B1212235613933N01001077EA0000000993
B1212295613907N01001245EA0000001004
B1212345613981N01001265EA0000001011
B1212395613963N01001174EA0000001028
B1212465613925N01001338EA0000001037
B1212515614000N01001353EA0000001040
B1212565613992N01001251EA0000001059
B1213015613933N01001297EA0000001071
B1213065613958N01001455EA0000001065
B1213115614025N01001410EA0000001078
B1213165613992N01001306EA0000001075
B1213255613877N01001134EA0000001070
B1213325613803N01000960EA0000001079
B1213425613708N01000691EA0000001098
B1213495613622N01000501EA0000001105
B1213555613544N01000339EA0000001103
B1214015613469N01000177EA0000001103
B1214085613382N00959993EA0000001103
B1214165613285N00959783EA0000001106
B1214225613212N00959633EA0000001105
B1214285613138N00959483EA0000001101
B1214355613048N00959320EA0000001111
B1214405612979N00959210EA0000001113
B1214485612856N00959072EA0000001120
B1214535612793N00958962EA0000001119
B1215005612712N00958785EA0000001105
B1215075612616N00958620EA0000001091
B1215125612544N00958504EA0000001085
B1215185612460N00958364EA0000001081
B1215235612391N00958241EA0000001071
B1215295612309N00958099EA0000001086
B1215365612223N00957948EA0000001078
B1215455612119N00957707EA0000001044
B1215545612024N00957449EA0000001027
B1216015611951N00957251EA0000001025
B1216105611852N00957006EA0000001014
B1216155611793N00956869EA0000001004
B1216215611723N00956705EA0000001001
B1216265611668N00956581EA0000001014
B1216335611600N00956413EA0000000992
B1216405611540N00956217EA0000001002
B1216465611493N00956063EA0000000992
B1216525611457N00955896EA0000000992
B1216575611425N00955753EA0000000981
B1217045611371N00955547EA0000000983
B1217095611331N00955416EA0000000996
B1217145611296N00955305EA0000000989
B1217215611242N00955126EA0000000963
B1217275611196N00954964EA0000000954
B1217345611135N00954780EA0000000947
B1217425611054N00954574EA0000000944
B1217495610981N00954402EA0000000943
B1217565610912N00954226EA0000000932
B1218055610823N00953981EA0000000909
B1218105610764N00953857EA0000000899
B1218165610692N00953723EA0000000900
B1218245610599N00953545EA0000000888
B1218335610497N00953344EA0000000875
B1218385610435N00953231EA0000000877
B1218455610349N00953084EA0000000879
B1218515610265N00952980EA0000000866
B1218565610185N00952895EA0000000852
B1219025610082N00952800EA0000000846
B1219095609952N00952716EA0000000837
B1219165609819N00952641EA0000000832
B1219245609667N00952557EA0000000833
B1219295609579N00952508EA0000000869
B1219345609547N00952423EA0000000893
B1219395609620N00952406EA0000000890
B1219485609597N00952638EA0000000913
B1219555609573N00952531EA0000000922
B1220015609660N00952585EA0000000925
B1220115609581N00952682EA0000000943
B1220165609632N00952613EA0000000943
B1220215609688N00952730EA0000000946
B1220275609625N00952857EA0000000960
B1220335609573N00952780EA0000000965
B1220385609626N00952710EA0000000964
B1220435609698N00952800EA0000000969
B1220525609630N00952958EA0000000977
B1220575609635N00952859EA0000000976
B1221025609720N00952883EA0000000971
B1221075609764N00953029EA0000000981
B1221125609729N00953177EA0000000989
B1221185609654N00953173EA0000000994
B1221235609664N00953058EA0000000989
B1221285609705N00952939EA0000000977
B1221335609695N00952787EA0000000968
B1221405609655N00952568EA0000000946
B1221505609594N00952258EA0000000939
B1221565609561N00952087EA0000000929
B1222025609528N00951918EA0000000921
B1222095609491N00951705EA0000000904
B1222195609442N00951390EA0000000897
B1222245609417N00951241EA0000000903
B1222305609390N00951070EA0000000894
B1222385609356N00950844EA0000000898
B1222455609330N00950649EA0000000903
B1222525609307N00950457EA0000000902
B1222575609294N00950319EA0000000897
B1223035609288N00950156EA0000000912
B1223085609267N00950046EA0000000919
B1223135609283N00949933EA0000000929
B1223185609360N00949913EA0000000946
B1223235609406N00950057EA0000000940
B1223285609356N00950165EA0000000935
B1223335609295N00950159EA0000000939
B1223385609289N00950062EA0000000939
B1223445609330N00949946EA0000000950
B1223495609276N00949946EA0000000958
B1223545609273N00950111EA0000000963
B1224005609366N00950128EA0000000967
B1224065609325N00950070EA0000000972
B1224115609302N00950221EA0000000982
B1224165609382N00950296EA0000000988
B1224215609408N00950206EA0000000995
B1224265609353N00950222EA0000000993
B1224325609372N00950424EA0000000997
B1224415609496N00950449EA0000001009
B1224465609456N00950393EA0000001009
B1224525609421N00950549EA0000001011
B1224585609513N00950665EA0000001016
B1225045609563N00950561EA0000001011
B1225125609591N00950343EA0000000969
B1225205609619N00950102EA0000000953
B1225255609624N00949950EA0000000955
B1225335609620N00949705EA0000000944
B1225395609616N00949515EA0000000947
B1225445609610N00949356EA0000000945
B1225505609603N00949170EA0000000952
B1225585609591N00948931EA0000000946
B1226085609566N00948622EA0000000935
B1226155609529N00948411EA0000000919
B1226205609501N00948262EA0000000910
B1226255609477N00948112EA0000000906
B1226315609460N00947928EA0000000899
B1226495609482N00947369EA0000000896
B1226565609490N00947166EA0000000889
B1227035609437N00947014EA0000000909
B1227085609420N00946893EA0000000907
B1227135609406N00946758EA0000000895
B1227325609347N00946220EA0000000919
B1227375609424N00946250EA0000000923
B1227455609389N00946451EA0000000927
B1227545609331N00946322EA0000000923
B1228265609508N00945381EA0000000855
B1228395609569N00945014EA0000000847
B1228515609628N00944672EA0000000839
B1229015609662N00944374EA0000000835
B1229215609681N00943796EA0000000848
B1229315609687N00943551EA0000000867
B1229365609760N00943552EA0000000874
B1229465609711N00943755EA0000000854
B1229565609661N00943560EA0000000871
B1230015609608N00943534EA0000000873
B1230065609587N00943687EA0000000875
B1230165609704N00943676EA0000000890
B1230215609662N00943619EA0000000887
B1230275609626N00943768EA0000000891
B1230325609704N00943866EA0000000889
B1230455609811N00943646EA0000000885
B1231075609898N00943045EA0000000858
B1231175609908N00942787EA0000000887
B1231225609864N00942704EA0000000880
B1231305609766N00942590EA0000000896
B1231365609688N00942552EA0000000901
B1231445609604N00942449EA0000000908
B1231505609547N00942355EA0000000919
B1231555609503N00942272EA0000000925
B1232015609453N00942167EA0000000935
B1232065609424N00942071EA0000000942
B1232145609409N00941887EA0000000946
B1232195609394N00941767EA0000000942
B1232245609375N00941640EA0000000927
B1232365609319N00941338EA0000000940
B1232435609277N00941166EA0000000931
B1232495609236N00941017EA0000000924
B1232545609204N00940890EA0000000925
B1233015609154N00940720EA0000000931
B1233105609066N00940527EA0000000913
B1233165609007N00940388EA0000000915
B1233215608963N00940281EA0000000935
B1233265608912N00940214EA0000000948
B1233315608893N00940121EA0000000948
B1233385608892N00939948EA0000000926
B1233475608880N00939681EA0000000913
B1233555608873N00939442EA0000000902
B1234015608872N00939265EA0000000892
B1234065608860N00939123EA0000000888
B1234115608825N00938998EA0000000885
B1234165608780N00938882EA0000000877
B1234215608734N00938763EA0000000869
B1234285608656N00938611EA0000000858
B1234365608552N00938459EA0000000852
B1234415608488N00938364EA0000000847
B1234475608415N00938250EA0000000839
B1234545608330N00938115EA0000000826
B1235015608241N00937988EA0000000817
B1235075608166N00937885EA0000000809
B1235125608101N00937796EA0000000805
B1235185608047N00937660EA0000000811
B1235255608027N00937462EA0000000795
B1235325608016N00937247EA0000000790
B1235405608002N00937014EA0000000788
B1235475607987N00936806EA0000000780
B1235525607977N00936657EA0000000773
B1235585607967N00936479EA0000000768
B1236055607946N00936271EA0000000777
B1236135607912N00936048EA0000000784
B1236195607874N00935904EA0000000789
B1236245607842N00935783EA0000000774
B1236345607791N00935509EA0000000759
B1236395607767N00935372EA0000000751
B1236455607740N00935207EA0000000754
B1236535607705N00934984EA0000000740
B1237065607649N00934610EA0000000723
B1237175607602N00934289EA0000000714
B1237315607535N00933879EA0000000705
B1237405607481N00933634EA0000000712
B1237455607441N00933516EA0000000712
B1237515607389N00933378EA0000000713
B1237575607333N00933249EA0000000715
B1238025607286N00933142EA0000000719
B1238075607240N00933036EA0000000714
B1238125607190N00932928EA0000000712
B1238175607137N00932819EA0000000714
B1238225607076N00932721EA0000000720
B1238295607035N00932597EA0000000743
B1238355607121N00932649EA0000000743
B1238405607102N00932800EA0000000740
B1238465607018N00932819EA0000000737
B1238535606998N00932680EA0000000741
B1238585607063N00932632EA0000000747
B1239055607121N00932820EA0000000753
B1239105607057N00932879EA0000000748
B1239155607032N00932785EA0000000752
B1239205607088N00932715EA0000000753
B1239255607168N00932808EA0000000755
B1239305607152N00932963EA0000000757
B1239355607085N00932973EA0000000756
B1239405607049N00932895EA0000000762
B1239455607094N00932829EA0000000757
B1239505607164N00932940EA0000000753
B1239555607150N00933100EA0000000757
B1240005607085N00933157EA0000000747
B1240065607028N00933072EA0000000747
B1240115606986N00932978EA0000000723
B1240165606927N00932887EA0000000716
B1240225606850N00932779EA0000000705
B1240275606788N00932679EA0000000699
B1240325606731N00932574EA0000000699
B1240385606670N00932437EA0000000694
B1240435606627N00932310EA0000000690
B1240485606588N00932184EA0000000689
B1240545606545N00932036EA0000000681
B1241015606495N00931859EA0000000668
B1241065606460N00931731EA0000000659
B1241135606409N00931550EA0000000646
B1241295606299N00931139EA0000000628
B1241345606260N00931013EA0000000619
B1241405606215N00930859EA0000000614
B1241485606157N00930652EA0000000605
B1241535606116N00930526EA0000000600
B1242015606047N00930334EA0000000589
B1242115605963N00930089EA0000000568
B1242165605916N00929969EA0000000558
B1242215605865N00929849EA0000000538
B1242315605771N00929589EA0000000534
B1242365605737N00929458EA0000000538
B1242415605701N00929339EA0000000538
B1242475605654N00929211EA0000000542
B1242545605620N00929052EA0000000539
B1243005605637N00928911EA0000000538
B1243095605712N00928702EA0000000533
B1243205605838N00928450EA0000000516
B1243255605893N00928346EA0000000519
B1243305605972N00928285EA0000000510
B1243395606130N00928205EA0000000499
B1243455606166N00928068EA0000000488
B1243505606168N00927938EA0000000468
B1245185606305N00925518EA0000000364
B1245325606406N00925142EA0000000347
B1246475606663N00924554EA0000000364
B1248255606574N00924198EA0000000364
B1248495606566N00924297EA0000000364
B1249015606530N00924590EA0000000368
B1249175606591N00924434EA0000000376
B1249535606577N00924588EA0000000390
B1250195606632N00924698EA0000000404
B1250515606641N00924782EA0000000427
B1251035606680N00924692EA0000000439
B1251165606670N00925039EA0000000428
B1251215606737N00924998EA0000000419
B1251375606677N00924976EA0000000427
B1251495606761N00924885EA0000000433
B1251545606701N00924928EA0000000433
B1252015606740N00925107EA0000000433
B1252105606785N00924989EA0000000437
B1252225606756N00925211EA0000000431
B1252375606873N00925129EA0000000439
B1252495606879N00925363EA0000000443
B1253115606919N00925465EA0000000447
B1253195606970N00925352EA0000000446
B1253345606866N00925041EA0000000425
B1254095606781N00924761EA0000000451
B1254145606717N00924757EA0000000459
B1254215606696N00924630EA0000000468
B1254325606773N00924834EA0000000466
B1254435606711N00924798EA0000000480
B1254515606796N00924928EA0000000478
B1254565606753N00925054EA0000000484
B1255045606714N00924974EA0000000473
B1255185606856N00925079EA0000000480
B1255285606808N00925019EA0000000489
B1255345606894N00925090EA0000000490
B1255395606877N00925242EA0000000490
B1255465606827N00925190EA0000000493
B1255535606929N00925170EA0000000502
B1255595606950N00925352EA0000000496
B1256045606888N00925408EA0000000501
B1256165606934N00925257EA0000000515
B1256235606988N00925438EA0000000511
B1256315606909N00925414EA0000000509
B1256365606949N00925325EA0000000521
B1256425607017N00925446EA0000000524
B1256475606973N00925555EA0000000525
B1256545606933N00925457EA0000000525
B1257065607050N00925575EA0000000534
B1257185607018N00925482EA0000000531
B1257295607107N00925689EA0000000536
B1257385607050N00925634EA0000000540
B1257435607130N00925644EA0000000540
B1257485607158N00925792EA0000000543
B1257535607103N00925871EA0000000545
B1257595607057N00925789EA0000000538
B1258045607033N00925669EA0000000522
B1258095607003N00925541EA0000000520
B1258165606957N00925363EA0000000512
B1258215606927N00925245EA0000000536
B1258265606931N00925134EA0000000538
B1258335606895N00924988EA0000000528
B1258385606860N00924879EA0000000519
B1258435606821N00924769EA0000000513
B1258495606757N00924660EA0000000516
B1258565606668N00924553EA0000000502
B1259015606601N00924481EA0000000509
B1259065606551N00924392EA0000000520
B1259125606532N00924262EA0000000520
B1259185606515N00924109EA0000000502
B1259235606498N00923971EA0000000501
B1259295606478N00923803EA0000000492
B1259365606456N00923609EA0000000497
B1259435606429N00923421EA0000000499
B1259495606405N00923269EA0000000514
B1259545606371N00923177EA0000000524
B1300015606381N00923025EA0000000531
B1300145606333N00923119EA0000000550
B1300205606423N00923132EA0000000557
B1300265606402N00923048EA0000000559
B1300335606394N00923215EA0000000566
B1300385606472N00923204EA0000000569
B1300445606451N00923107EA0000000574
B1300495606401N00923194EA0000000574
B1300545606428N00923345EA0000000581
B1301025606491N00923265EA0000000590
B1301075606441N00923310EA0000000592
B1301125606481N00923444EA0000000587
B1301175606548N00923387EA0000000595
B1301235606527N00923281EA0000000601
B1301285606484N00923356EA0000000607
B1301335606531N00923489EA0000000601
B1301385606614N00923465EA0000000606
B1301435606626N00923366EA0000000603
B1301495606586N00923267EA0000000610
B1301545606543N00923212EA0000000618
B1302015606523N00923376EA0000000614
B1302065606605N00923403EA0000000612
B1302115606639N00923296EA0000000619
B1302165606612N00923221EA0000000624
B1302215606559N00923287EA0000000622
B1302265606582N00923434EA0000000623
B1302315606663N00923455EA0000000620
B1302365606680N00923361EA0000000623
B1302425606625N00923272EA0000000602
B1302475606572N00923177EA0000000603
B1302535606515N00923042EA0000000605
B1302585606464N00922960EA0000000624
B1303035606414N00923046EA0000000615
B1303085606469N00923172EA0000000622
B1303135606527N00923100EA0000000622
B1303185606509N00922998EA0000000610
B1303235606471N00922899EA0000000588
B1303295606413N00922767EA0000000573
B1303345606362N00922664EA0000000579
B1303405606305N00922549EA0000000568
B1303455606255N00922448EA0000000550
B1303525606182N00922299EA0000000547
B1303585606123N00922171EA0000000561
B1304055606072N00922033EA0000000567
B1304105606038N00921935EA0000000560
B1304155605996N00921833EA0000000556
B1304225605934N00921700EA0000000568
B1304275605890N00921613EA0000000564
B1304325605842N00921527EA0000000565
B1304385605780N00921423EA0000000555
B1304445605709N00921324EA0000000540
B1304495605643N00921248EA0000000538
B1304555605560N00921155EA0000000530
B1305025605461N00921055EA0000000530
B1305075605400N00920974EA0000000545
B1305125605372N00920876EA0000000550
B1305195605318N00920740EA0000000549
B1305265605333N00920625EA0000000562
B1305315605403N00920714EA0000000546
B1305365605367N00920828EA0000000535
B1305425605293N00920805EA0000000532
B1305475605232N00920759EA0000000538
B1305535605160N00920734EA0000000549
B1305595605087N00920702EA0000000532
B1306075604978N00920634EA0000000530
B1306125604913N00920581EA0000000524
B1306185604837N00920502EA0000000512
B1306265604730N00920406EA0000000492
B1306315604662N00920343EA0000000484
B1306365604596N00920272EA0000000479
B1306425604515N00920193EA0000000476
B1306485604430N00920135EA0000000476
B1306535604356N00920098EA0000000480
B1306585604286N00920070EA0000000487
B1307045604196N00920038EA0000000473
B1307095604119N00920015EA0000000469
B1307165604010N00919987EA0000000456
B1307215603934N00919962EA0000000448
B1307275603841N00919927EA0000000437
B1307355603715N00919877EA0000000427
B1307425603606N00919848EA0000000420
B1307515603463N00919843EA0000000420
B1307575603369N00919867EA0000000421
B1308025603295N00919876EA0000000436
B1308175603367N00919843EA0000000434
B1308225603334N00919961EA0000000430
B1308275603274N00920021EA0000000430
B1308325603225N00919989EA0000000430
B1308375603195N00919900EA0000000413
B1308425603188N00919777EA0000000406
B1308485603195N00919611EA0000000387
B1308545603161N00919457EA0000000378
B1308595603115N00919345EA0000000372
B1309045603068N00919229EA0000000368
B1309105603010N00919093EA0000000366
B1309165602952N00918962EA0000000374
B1309215602926N00918869EA0000000393
B1309295603018N00918941EA0000000392
B1309345602974N00919041EA0000000390
B1309395602920N00919027EA0000000401
B1309505603019N00919009EA0000000387
B1309555602994N00919133EA0000000390
B1310005602937N00919129EA0000000386
B1310085602975N00919013EA0000000373
B1310145603053N00919146EA0000000368
B1310195603126N00919248EA0000000372
B1310245603204N00919217EA0000000383
B1310385603147N00919290EA0000000387
B1310435603214N00919374EA0000000392
B1310485603249N00919288EA0000000395
B1310565603202N00919390EA0000000399
B1311015603274N00919414EA0000000404
B1311125603233N00919481EA0000000407
B1311175603302N00919550EA0000000406
B1311265603289N00919458EA0000000413
B1311325603278N00919615EA0000000422
B1311375603351N00919659EA0000000416
B1311425603365N00919561EA0000000416
B1311495603298N00919607EA0000000424
B1311545603337N00919734EA0000000418
B1311595603412N00919709EA0000000424
B1312125603375N00919706EA0000000429
B1312185603460N00919775EA0000000435
B1312245603492N00919671EA0000000434
B1312295603444N00919655EA0000000437
B1312345603436N00919784EA0000000437
B1312395603512N00919829EA0000000437
B1312445603536N00919732EA0000000434
B1312495603494N00919681EA0000000436
B1312565603464N00919841EA0000000425
B1313015603526N00919968EA0000000434
B1313065603602N00919963EA0000000437
B1313115603599N00919879EA0000000433
B1313165603550N00919941EA0000000430
B1313225603547N00920121EA0000000437
B1313275603610N00920222EA0000000444
B1313325603664N00920159EA0000000443
B1313405603600N00920165EA0000000443
B1313455603599N00920315EA0000000444
B1313505603657N00920425EA0000000451
B1313555603717N00920378EA0000000450
B1314015603681N00920316EA0000000451
B1314065603663N00920440EA0000000444
B1314115603729N00920546EA0000000450
B1314165603810N00920612EA0000000448
B1314215603880N00920580EA0000000448
B1314275603865N00920485EA0000000452
B1314365603794N00920654EA0000000453
B1314415603848N00920768EA0000000444
B1314465603938N00920803EA0000000438
B1314515604019N00920767EA0000000434
B1314565604039N00920674EA0000000439
B1315015603995N00920625EA0000000432
B1315065603939N00920590EA0000000421
B1315115603888N00920516EA0000000413
B1315165603847N00920417EA0000000402
B1315225603799N00920295EA0000000389
B1315285603744N00920174EA0000000378
B1315345603681N00920075EA0000000390
B1315405603620N00919978EA0000000382
B1315505603518N00919811EA0000000372
B1315555603469N00919725EA0000000372
B1316015603412N00919617EA0000000365
B1316065603365N00919533EA0000000372
B1316125603309N00919447EA0000000377
B1316195603265N00919329EA0000000363
B1316335603163N00919306EA0000000384
B1316385603222N00919428EA0000000372
B1316435603281N00919367EA0000000369
B1316505603250N00919232EA0000000366
B1316555603215N00919136EA0000000368
B1317005603189N00919051EA0000000382
B1317055603214N00918966EA0000000384
B1317105603198N00918896EA0000000368
B1317165603153N00918804EA0000000352
B1317215603127N00918706EA0000000344
B1317265603104N00918595EA0000000338
B1317315603091N00918476EA0000000338
B1317375603068N00918349EA0000000350
B1317425603049N00918254EA0000000355
B1317475603033N00918161EA0000000363
B1317525603010N00918080EA0000000368
B1317585602983N00917979EA0000000374
B1318075602948N00918132EA0000000364
B1318125603031N00918176EA0000000364
B1318175603082N00918093EA0000000373
B1318235603065N00918005EA0000000377
B1318305602994N00918062EA0000000374
B1318355602942N00918070EA0000000376
B1318405602926N00917989EA0000000375
B1318545603080N00917971EA0000000375
B1318595603050N00918086EA0000000378
B1319045603022N00918029EA0000000385
B1319115603118N00918056EA0000000383
B1319165603100N00918189EA0000000380
B1319315603162N00918198EA0000000387
B1319365603117N00918278EA0000000389
B1319505603204N00918327EA0000000390
B1319555603150N00918363EA0000000394
B1320065603244N00918334EA0000000403
B1320115603218N00918459EA0000000397
B1320265603299N00918502EA0000000401
B1320315603244N00918550EA0000000401
B1320435603353N00918538EA0000000412
B1320485603318N00918649EA0000000405
B1320545603268N00918564EA0000000412
B1321035603372N00918579EA0000000417
B1321085603331N00918665EA0000000413
B1321135603299N00918581EA0000000422
B1321215603404N00918619EA0000000423
B1321265603367N00918732EA0000000424
B1321395603453N00918698EA0000000436
B1321445603429N00918829EA0000000438
B1321585603508N00918791EA0000000444
B1322035603484N00918922EA0000000442
B1322085603430N00918890EA0000000450
B1322145603490N00918812EA0000000453
B1322205603571N00918945EA0000000456
B1322255603532N00919048EA0000000453
B1322365603604N00918950EA0000000466
B1322415603630N00919098EA0000000461
B1322465603570N00919141EA0000000463
B1322515603532N00919082EA0000000470
B1322595603640N00919092EA0000000469
B1323045603626N00919228EA0000000467
B1323095603569N00919213EA0000000469
B1323215603686N00919209EA0000000476
B1323265603665N00919340EA0000000478
B1323315603610N00919347EA0000000480
B1323385603607N00919236EA0000000482
B1323435603688N00919240EA0000000479
B1323505603784N00919396EA0000000480
B1323555603755N00919510EA0000000484
B1324025603702N00919438EA0000000482
B1324075603663N00919360EA0000000481
B1324135603603N00919281EA0000000480
B1324185603549N00919220EA0000000490
B1324265603580N00919102EA0000000502
B1324315603643N00919223EA0000000498
B1324365603599N00919321EA0000000496
B1324415603542N00919302EA0000000502
B1324465603544N00919209EA0000000502
B1324515603622N00919182EA0000000501
B1324565603680N00919310EA0000000501
B1325015603638N00919406EA0000000504
B1325065603598N00919342EA0000000504
B1325125603550N00919247EA0000000510
B1325175603506N00919334EA0000000516
B1325225603567N00919440EA0000000512
B1325275603610N00919362EA0000000518
B1325325603563N00919334EA0000000521
B1325375603548N00919470EA0000000522
B1325435603635N00919501EA0000000521
B1325495603626N00919392EA0000000528
B1325545603575N00919463EA0000000528
B1325595603625N00919588EA0000000526
B1326045603685N00919522EA0000000534
B1326115603633N00919472EA0000000537
B1326165603634N00919616EA0000000542
B1326215603714N00919642EA0000000542
B1326265603729N00919545EA0000000548
B1326345603665N00919633EA0000000551
B1326395603728N00919741EA0000000558
B1326445603773N00919662EA0000000561
B1326495603728N00919634EA0000000563
B1326545603723N00919783EA0000000565
B1326595603797N00919878EA0000000578
B1327055603833N00919793EA0000000577
B1327105603784N00919837EA0000000580
B1327155603818N00919978EA0000000580
B1327205603889N00919961EA0000000588
B1327255603871N00919888EA0000000584
B1327305603814N00919927EA0000000588
B1327355603809N00920073EA0000000590
B1327405603887N00920160EA0000000588
B1327455603964N00920139EA0000000602
B1327505603981N00920052EA0000000603
B1327565603954N00919945EA0000000591
B1328035603917N00919802EA0000000562
B1328105603871N00919628EA0000000555
B1328175603832N00919458EA0000000553
B1328225603806N00919340EA0000000545
B1328275603771N00919223EA0000000534
B1328335603723N00919082EA0000000537
B1328385603684N00918977EA0000000539
B1328435603641N00918871EA0000000529
B1328505603582N00918735EA0000000529
B1328555603540N00918637EA0000000522
B1329005603497N00918542EA0000000525
B1329085603428N00918398EA0000000525
B1329155603351N00918310EA0000000532
B1329225603279N00918224EA0000000550
B1329275603239N00918305EA0000000559
B1329325603304N00918421EA0000000554
B1329375603361N00918336EA0000000564
B1329475603304N00918413EA0000000581
B1329525603381N00918504EA0000000572
B1329575603458N00918440EA0000000588
B1330025603452N00918347EA0000000590
B1330075603405N00918408EA0000000584
B1330125603419N00918562EA0000000594
B1330175603502N00918616EA0000000598
B1330225603540N00918526EA0000000603
B1330285603486N00918506EA0000000604
B1330335603463N00918636EA0000000603
B1330385603456N00918776EA0000000612
B1330435603407N00918783EA0000000591
B1330485603374N00918686EA0000000586
B1330535603340N00918580EA0000000572
B1330585603296N00918470EA0000000563
B1331065603223N00918293EA0000000555
B1331115603183N00918182EA0000000556
B1331175603153N00918036EA0000000560
B1331235603126N00917888EA0000000563
B1331285603076N00917802EA0000000571
B1331335603019N00917746EA0000000584
B1331385602962N00917713EA0000000600
B1331435602952N00917624EA0000000599
B1331495603054N00917613EA0000000575
B1331545603085N00917777EA0000000568
B1331595603025N00917876EA0000000574
B1332045602974N00917828EA0000000583
B1332095602951N00917718EA0000000575
B1332145602930N00917586EA0000000569
B1332195602916N00917445EA0000000564
B1332275602878N00917213EA0000000555
B1332335602838N00917055EA0000000553
B1332395602798N00916901EA0000000543
B1332455602753N00916755EA0000000537
B1332515602700N00916627EA0000000530
B1332575602642N00916494EA0000000530
B1333035602584N00916375EA0000000525
B1333095602520N00916265EA0000000522
B1333145602467N00916176EA0000000517
B1333245602369N00915970EA0000000502
B1333295602329N00915858EA0000000504
B1333355602286N00915720EA0000000498
B1333405602247N00915603EA0000000491
B1333465602178N00915490EA0000000490
B1333525602103N00915393EA0000000492
B1333595602016N00915273EA0000000492
B1334065601937N00915160EA0000000496
B1334115601881N00915065EA0000000475
B1334165601824N00914971EA0000000471
B1334215601773N00914873EA0000000456
B1334265601726N00914756EA0000000441
B1334315601681N00914638EA0000000438
B1334375601630N00914500EA0000000436
B1334425601591N00914394EA0000000440
B1334475601556N00914281EA0000000431
B1334525601524N00914168EA0000000427
B1334595601485N00914014EA0000000417
B1335045601458N00913894EA0000000402
B1335125601419N00913699EA0000000401
B1335175601400N00913569EA0000000401
B1335225601396N00913436EA0000000398
B1335285601365N00913294EA0000000398
B1335345601343N00913141EA0000000393
B1335405601317N00912983EA0000000388
B1335475601279N00912797EA0000000384
B1335535601245N00912640EA0000000379
B1336005601201N00912467EA0000000367
B1336055601160N00912350EA0000000361
B1336135601109N00912153EA0000000359
B1336215601068N00911939EA0000000342
B1336265601040N00911801EA0000000339
B1336335600997N00911611EA0000000331
B1336385600965N00911472EA0000000321
B1336485600895N00911194EA0000000315
B1336545600860N00911039EA0000000299
B1337015600821N00910844EA0000000290
B1337065600789N00910708EA0000000283
B1337115600756N00910572EA0000000279
B1337175600728N00910408EA0000000276
B1337245600704N00910206EA0000000253
B1337305600679N00910025EA0000000244
B1337355600664N00909877EA0000000237
B1337425600642N00909675EA0000000221
B1337475600623N00909534EA0000000213
B1337535600603N00909363EA0000000204
B1337585600587N00909223EA0000000189
B1338045600570N00909048EA0000000173
B1338095600559N00908894EA0000000161
B1338165600549N00908675EA0000000138
B1338245600534N00908414EA0000000120
B1338305600525N00908216EA0000000111
B1338375600533N00907990EA0000000104
B1338435600512N00907813EA0000000092
