AOGNOGN
HFDTE040825
HFFXA050
HFPLTPILOTINCHARGE:
HFGTYGLIDERTYPE:ASW-20
HFGIDGLIDERID:D-0745
HFDTM100GPSDATUM:WGS-1984
HFRFWFIRMWAREVERSION:
HFRHWHARDWAREVERSION:
HFFTYFRTYPE:OGN-FLIGHTBOOK
HFGPSGENERIC
HFPRSPRESSALTSENSOR:
HFCIDCOMPETITIONID:XD
B1023275600701N00901365EA0000000042
B1023305600697N00901319EA0000000041
B1023365600687N00901194EA0000000041
B1023435600670N00901011EA0000000051
B1023485600659N00900877EA0000000065
B1023545600641N00900714EA0000000082
B1024005600633N00900545EA0000000099
B1024065600653N00900379EA0000000119
B1024125600707N00900229EA0000000144
B1024175600775N00900143EA0000000164
B1024225600858N00900097EA0000000178
B1024275600948N00900074EA0000000183
B1024345601083N00900110EA0000000201
B1024405601201N00900120EA0000000216
B1024455601299N00900120EA0000000235
B1024545601474N00900100EA0000000273
B1025025601620N00900094EA0000000314
B1025105601768N00900092EA0000000319
B1025155601867N00900108EA0000000331
B1025215601986N00900146EA0000000346
B1025275602104N00900204EA0000000374
B1025335602220N00900264EA0000000391
B1025395602336N00900319EA0000000405
B1025445602436N00900355EA0000000409
B1025505602555N00900391EA0000000433
B1026005602748N00900515EA0000000455
B1026055602834N00900644EA0000000459
B1026125602937N00900859EA0000000487
B1026225603044N00901209EA0000000514
B1026285603106N00901422EA0000000525
B1026355603185N00901656EA0000000543
B1026405603247N00901813EA0000000553
B1027025603563N00902056EA0000000586
B1027105603550N00901894EA0000000592
B1027165603468N00901814EA0000000587
B1027245603370N00901668EA0000000601
B1027295603409N00901569EA0000000617
B1027345603490N00901595EA0000000637
B1027395603534N00901740EA0000000654
B1027465603466N00901900EA0000000669
B1027515603417N00901841EA0000000667
B1027565603453N00901751EA0000000674
B1028035603553N00901854EA0000000698
B1028085603530N00902004EA0000000713
B1028145603451N00902008EA0000000716
B1028195603457N00901911EA0000000724
B1028255603548N00901936EA0000000740
B1028315603565N00902121EA0000000753
B1028405603452N00902155EA0000000764
B1028455603451N00902049EA0000000772
B1028515603530N00902006EA0000000784
B1028565603589N00902131EA0000000790
B1029025603546N00902296EA0000000798
B1029095603465N00902259EA0000000805
B1029145603486N00902157EA0000000815
B1029195603564N00902168EA0000000824
B1029245603604N00902319EA0000000825
B1029295603555N00902449EA0000000830
B1029355603476N00902424EA0000000840
B1029425603477N00902262EA0000000853
B1029475603542N00902177EA0000000850
B1029525603637N00902182EA0000000835
B1029585603731N00902343EA0000000817
B1030035603770N00902544EA0000000803
B1030085603788N00902762EA0000000789
B1030215603783N00903358EA0000000757
B1030275603768N00903653EA0000000748
B1030365603729N00904111EA0000000720
B1030415603703N00904369EA0000000724
B1030495603660N00904775EA0000000722
B1030565603619N00905109EA0000000737
B1031045603581N00905443EA0000000748
B1031135603546N00905770EA0000000779
B1031195603522N00905975EA0000000776
B1031285603485N00906299EA0000000785
B1031415603389N00906740EA0000000762
B1031505603240N00906689EA0000000750
B1032015603255N00906398EA0000000723
B1032105603374N00906200EA0000000701
B1032275603646N00905864EA0000000689
B1032335603740N00905761EA0000000703
B1032385603812N00905680EA0000000702
B1032435603853N00905562EA0000000696
B1032505603846N00905374EA0000000683
B1032575603820N00905173EA0000000674
B1033025603796N00905028EA0000000669
B1033095603762N00904817EA0000000672
B1033145603735N00904684EA0000000687
B1033225603676N00904480EA0000000681
B1033275603632N00904359EA0000000697
B1033335603596N00904219EA0000000700
B1033405603551N00904061EA0000000703
B1033455603520N00903937EA0000000699
B1033505603494N00903808EA0000000707
B1033555603535N00903692EA0000000716
B1034025603659N00903754EA0000000739
B1034085603701N00903962EA0000000746
B1034145603673N00904164EA0000000751
B1034215603583N00904272EA0000000761
B1034265603526N00904235EA0000000762
B1034315603514N00904142EA0000000772
B1034425603636N00904147EA0000000790
B1034525603557N00904310EA0000000805
B1034575603572N00904220EA0000000806
B1035035603653N00904304EA0000000817
B1035085603639N00904461EA0000000825
B1035135603573N00904484EA0000000829
B1035185603565N00904388EA0000000837
B1035255603657N00904420EA0000000851
B1035325603637N00904633EA0000000851
B1035375603568N00904638EA0000000860
B1035435603559N00904521EA0000000864
B1035505603652N00904457EA0000000868
B1035575603781N00904455EA0000000852
B1037035605121N00905084EA0000000827
B1037085605119N00905256EA0000000823
B1037135605090N00905422EA0000000819
B1037235605019N00905713EA0000000859
B1037325604918N00905713EA0000000859
B1037395604904N00905564EA0000000860
B1037475604921N00905363EA0000000840
B1037535604931N00905176EA0000000827
B1037585604937N00905011EA0000000831
B1038055604936N00904794EA0000000843
B1038105604927N00904637EA0000000841
B1038235604900N00904215EA0000000830
B1038285604882N00904056EA0000000826
B1038355604847N00903853EA0000000825
B1038465604764N00903558EA0000000791
B1038515604708N00903418EA0000000778
B1038585604628N00903224EA0000000771
B1039035604586N00903072EA0000000769
B1039085604544N00902924EA0000000767
B1039135604492N00902783EA0000000768
B1039185604444N00902655EA0000000798
B1039245604392N00902524EA0000000813
B1039295604344N00902415EA0000000800
B1039345604300N00902287EA0000000808
B1039405604307N00902140EA0000000837
B1039465604403N00902151EA0000000854
B1039525604434N00902340EA0000000860
B1040065604292N00902344EA0000000877
B1040115604267N00902256EA0000000885
B1040195604242N00902099EA0000000891
B1040255604228N00901977EA0000000883
B1040315604204N00901837EA0000000868
B1040365604175N00901712EA0000000864
B1040425604120N00901573EA0000000857
B1040475604077N00901452EA0000000865
B1040535604036N00901310EA0000000862
B1040585604011N00901182EA0000000860
B1041045604022N00901019EA0000000861
B1041185604254N00901125EA0000000872
B1041265604328N00901425EA0000000854
B1041365604402N00901848EA0000000827
B1041445604461N00902194EA0000000811
B1041505604509N00902452EA0000000804
B1041555604553N00902665EA0000000790
B1042045604634N00903039EA0000000803
B1042095604630N00903235EA0000000813
B1042145604572N00903365EA0000000815
B1042195604500N00903347EA0000000826
B1042325604620N00903253EA0000000859
B1042435604594N00903537EA0000000872
B1042485604539N00903486EA0000000868
B1043025604689N00903469EA0000000901
B1043075604696N00903632EA0000000899
B1043195604567N00903646EA0000000896
B1043255604593N00903510EA0000000909
B1043355604753N00903565EA0000000920
B1043415604773N00903766EA0000000917
B1043485604697N00903923EA0000000915
B1043535604627N00903909EA0000000912
B1044015604542N00903783EA0000000913
B1044075604526N00903631EA0000000911
B1044165604662N00903601EA0000000927
B1044245604660N00903844EA0000000931
B1044315604569N00903807EA0000000933
B1044385604601N00903634EA0000000930
B1044435604648N00903509EA0000000908
B1044545604732N00903201EA0000000889
B1045015604785N00903007EA0000000882
B1045145604828N00902623EA0000000861
B1045215604809N00902414EA0000000846
B1045295604704N00902256EA0000000831
B1045375604561N00902214EA0000000815
B1045445604442N00902358EA0000000803
B1045505604398N00902594EA0000000796
B1045565604408N00902849EA0000000799
B1046035604429N00903143EA0000000802
B1046085604424N00903350EA0000000804
B1046145604373N00903570EA0000000802
B1046215604378N00903832EA0000000817
B1046335604581N00903887EA0000000824
B1046395604598N00903725EA0000000830
B1046495604506N00903506EA0000000812
B1046585604400N00903313EA0000000810
B1047055604324N00903168EA0000000821
B1047125604264N00903011EA0000000828
B1047205604221N00902794EA0000000832
B1047275604201N00902603EA0000000850
B1047335604165N00902454EA0000000860
B1047405604051N00902430EA0000000881
B1047455604002N00902574EA0000000893
B1047505604016N00902746EA0000000895
B1047565604090N00902936EA0000000865
B1048015604164N00903102EA0000000859
B1048115604304N00903437EA0000000879
B1048235604439N00903881EA0000000872
B1048325604528N00904225EA0000000881
B1048415604616N00904556EA0000000877
B1048495604693N00904850EA0000000871
B1048565604749N00905088EA0000000902
B1049085604832N00905478EA0000000904
B1049145604866N00905675EA0000000899
B1049195604839N00905831EA0000000880
B1049245604758N00905876EA0000000873
B1049295604706N00905784EA0000000882
B1049365604696N00905618EA0000000889
B1049435604691N00905443EA0000000865
B1049545604680N00905126EA0000000857
B1050015604674N00904912EA0000000847
B1050085604670N00904704EA0000000838
B1050205604619N00904377EA0000000821
B1050265604582N00904216EA0000000809
B1050345604519N00904009EA0000000803
B1050395604477N00903892EA0000000814
B1050495604361N00903732EA0000000835
B1050545604284N00903731EA0000000840
B1050595604215N00903831EA0000000849
B1051055604197N00904036EA0000000854
B1051195604346N00904408EA0000000871
B1051245604390N00904548EA0000000870
B1051325604433N00904804EA0000000872
B1051375604450N00904968EA0000000876
B1051455604476N00905238EA0000000877
B1051535604508N00905514EA0000000874
B1052125604747N00905755EA0000000900
B1052175604766N00905645EA0000000889
B1052235604726N00905526EA0000000882
B1052325604665N00905359EA0000000881
B1052395604625N00905221EA0000000877
B1052445604595N00905117EA0000000869
B1052505604558N00904997EA0000000868
B1052575604508N00904862EA0000000865
B1053025604461N00904787EA0000000868
B1053075604393N00904770EA0000000865
B1053135604310N00904876EA0000000860
B1053185604287N00905046EA0000000858
B1053395604516N00905580EA0000000871
B1053445604547N00905737EA0000000881
B1053515604573N00905958EA0000000881
B1053595604561N00906208EA0000000892
B1054095604610N00906554EA0000000855
B1054165604710N00906764EA0000000855
B1054235604833N00906794EA0000000870
B1054295604853N00906673EA0000000874
B1054355604781N00906644EA0000000865
B1054495604792N00907037EA0000000882
B1054545604868N00907051EA0000000885
B1055005604899N00906942EA0000000879
B1055055604876N00906848EA0000000877
B1055135604832N00906704EA0000000867
B1055185604818N00906604EA0000000868
B1055275604814N00906420EA0000000860
B1055325604813N00906315EA0000000848
B1055425604811N00906106EA0000000840
B1055475604814N00906003EA0000000825
B1055525604843N00905904EA0000000822
B1055575604870N00905812EA0000000813
B1056025604862N00905712EA0000000803
B1056085604815N00905618EA0000000791
B1056135604757N00905565EA0000000788
B1056185604688N00905556EA0000000784
B1056255604603N00905687EA0000000797
B1056325604639N00905891EA0000000809
B1056395604739N00905877EA0000000814
B1056465604738N00905755EA0000000825
B1056585604643N00905965EA0000000838
B1057055604731N00906110EA0000000846
B1057105604804N00906088EA0000000853
B1057175604806N00905963EA0000000860
B1057275604697N00906071EA0000000861
B1057335604734N00906246EA0000000875
B1057395604827N00906282EA0000000881
B1057475604847N00906150EA0000000890
B1057525604787N00906140EA0000000885
B1057585604735N00906289EA0000000894
B1058145604924N00906430EA0000000907
B1058195604914N00906336EA0000000904
B1058255604839N00906326EA0000000901
B1058445604968N00906673EA0000000905
B1058515604981N00906531EA0000000900
B1058565604918N00906492EA0000000901
B1059025604840N00906574EA0000000897
B1059115604897N00906825EA0000000895
B1059185604988N00906761EA0000000907
B1059245604947N00906671EA0000000904
B1059305604871N00906779EA0000000902
B1059415604992N00906991EA0000000910
B1059475605032N00906881EA0000000912
B1059535604978N00906809EA0000000915
B1100025604854N00906823EA0000000907
B1100075604784N00906794EA0000000898
B1100345604498N00906406EA0000000879
B1100405604435N00906307EA0000000870
B1100485604360N00906161EA0000000864
B1100565604321N00905978EA0000000837
B1101035604353N00905788EA0000000827
B1101115604437N00905594EA0000000813
B1101245604599N00905302EA0000000800
B1101355604737N00905060EA0000000786
B1101435604834N00904883EA0000000769
B1101535604947N00904668EA0000000783
B1102025605034N00904532EA0000000808
B1102095605104N00904432EA0000000818
B1102145605152N00904363EA0000000822
B1102205605210N00904266EA0000000820
B1102255605244N00904167EA0000000827
B1102325605192N00904104EA0000000831
B1102375605149N00904220EA0000000831
B1102505605306N00904367EA0000000837
B1102595605357N00904199EA0000000847
B1103055605365N00904085EA0000000856
B1103115605374N00903967EA0000000861
B1103215605383N00903752EA0000000877
B1103265605335N00903692EA0000000893
B1103315605279N00903771EA0000000899
B1103365605293N00903914EA0000000898
B1103445605412N00903933EA0000000902
B1103505605398N00903828EA0000000921
B1103575605332N00903954EA0000000932
B1104075605460N00904051EA0000000945
B1104135605452N00903930EA0000000942
B1104195605371N00903984EA0000000963
B1104245605362N00904146EA0000000958
B1104365605520N00904203EA0000000958
B1104445605443N00904130EA0000000967
B1104505605399N00904294EA0000000956
B1105015605548N00904393EA0000000944
B1105105605476N00904300EA0000000965
B1105165605454N00904482EA0000000970
B1105265605611N00904546EA0000000956
B1105315605608N00904429EA0000000969
B1105395605503N00904513EA0000000960
B1105445605527N00904687EA0000000954
B1105535605665N00904662EA0000000950
B1105585605626N00904570EA0000000951
B1106035605555N00904642EA0000000961
B1106105605580N00904868EA0000000970
B1106185605714N00904846EA0000000947
B1106255605662N00904731EA0000000958
B1106325605601N00904912EA0000000964
B1106375605659N00905058EA0000000946
B1106435605772N00905023EA0000000946
B1106555605686N00904898EA0000000963
B1107025605679N00905130EA0000000963
B1107115605817N00905154EA0000000959
B1107185605778N00905031EA0000000961
B1107245605709N00905126EA0000000962
B1107365605851N00905316EA0000000950
B1107425605847N00905189EA0000000954
B1107485605769N00905225EA0000000954
B1107565605785N00905478EA0000000952
B1108025605892N00905509EA0000000949
B1108075605931N00905406EA0000000945
B1108125605898N00905318EA0000000942
B1108245605737N00905270EA0000000949
B1108305605659N00905275EA0000000952
B1108355605587N00905315EA0000000944
B1108435605462N00905358EA0000000935
B1108505605359N00905368EA0000000937
B1109015605201N00905369EA0000000937
B1109105605066N00905365EA0000000929
B1109155605016N00905304EA0000000928
B1109205605021N00905202EA0000000922
B1109265605071N00905095EA0000000914
B1109335605146N00904991EA0000000909
B1109405605218N00904889EA0000000903
B1109455605274N00904820EA0000000894
B1109505605334N00904748EA0000000888
B1109555605394N00904674EA0000000881
B1110005605460N00904606EA0000000878
B1110055605526N00904544EA0000000881
B1110155605655N00904419EA0000000882
B1110425606051N00904127EA0000000872
B1110475606080N00904307EA0000000886
B1110525606019N00904383EA0000000898
B1110575606000N00904298EA0000000908
B1111045606099N00904289EA0000000910
B1111095606124N00904444EA0000000908
B1111185606028N00904582EA0000000922
B1111245606001N00904479EA0000000925
B1111355606143N00904558EA0000000923
B1111415606115N00904739EA0000000930
B1111475606041N00904740EA0000000935
B1111525606038N00904625EA0000000926
B1111595606154N00904616EA0000000924
B1112045606198N00904786EA0000000918
B1112095606190N00904974EA0000000924
B1112175606144N00905228EA0000000937
B1112225606114N00905381EA0000000935
B1112275606094N00905545EA0000000933
B1112345606089N00905782EA0000000935
B1112425606112N00906047EA0000000926
B1112475606163N00906187EA0000000920
B1112565606289N00906140EA0000000903
B1113025606322N00906009EA0000000897
B1113105606361N00905831EA0000000884
B1113165606387N00905702EA0000000879
B1113215606379N00905604EA0000000872
B1113285606288N00905571EA0000000842
B1113355606162N00905559EA0000000833
B1113405606086N00905474EA0000000837
B1113475606096N00905267EA0000000851
B1113585606267N00905402EA0000000875
B1114045606283N00905603EA0000000881
B1114095606233N00905717EA0000000873
B1114155606138N00905755EA0000000867
B1114245605991N00905764EA0000000877
B1114335605836N00905780EA0000000866
B1114395605727N00905799EA0000000856
B1114445605634N00905817EA0000000854
B1114505605524N00905839EA0000000851
B1114575605396N00905864EA0000000842
B1115115605142N00905915EA0000000830
B1115195604996N00905945EA0000000817
B1115275604844N00905983EA0000000808
B1115385604635N00906031EA0000000788
B1115485604442N00906073EA0000000781
B1115535604350N00906093EA0000000780
B1115595604241N00906121EA0000000766
B1116075604091N00906158EA0000000751
B1116155603942N00906185EA0000000738
B1116225603808N00906205EA0000000726
B1116275603714N00906223EA0000000725
B1116325603623N00906241EA0000000723
B1116425603447N00906295EA0000000716
B1116475603359N00906337EA0000000716
B1116565603204N00906404EA0000000712
B1117015603122N00906424EA0000000723
B1117085603020N00906441EA0000000738
B1117175602897N00906434EA0000000732
B1117265602779N00906413EA0000000721
B1117325602704N00906383EA0000000714
B1117395602616N00906346EA0000000708
B1117445602544N00906370EA0000000705
B1122165604349N00915593EA0000000535
B1122325604485N00915856EA0000000555
B1122385604411N00915918EA0000000548
B1123065604467N00916156EA0000000572
B1123565604748N00917285EA0000000602
B1124025604677N00917334EA0000000610
B1124225604769N00917484EA0000000636
B1124275604710N00917504EA0000000636
B1124515604770N00917669EA0000000663
B1124575604729N00917592EA0000000663
B1125145604871N00917802EA0000000692
B1125195604812N00917852EA0000000694
B1125385604919N00917912EA0000000731
B1125445604855N00918007EA0000000736
B1126085604942N00918152EA0000000779
B1126345605009N00918294EA0000000821
B1126415604926N00918361EA0000000831
B1127025605041N00918512EA0000000857
B1127125604943N00918503EA0000000875
B1133105606490N00932068EA0000000650
B1133425606777N00932551EA0000000716
B1134085606808N00932733EA0000000809
B1134335606828N00932880EA0000000881
B1134485606905N00933186EA0000000923
B1135025606848N00933105EA0000000963
B1135285607177N00933883EA0000000978
B1137065608805N00936779EA0000000949
B1137115608862N00936964EA0000000944
B1137305609086N00937664EA0000000951
B1137385609184N00937961EA0000000962
B1138045609486N00938863EA0000001003
B1138335609847N00939870EA0000000943
B1138445609970N00940289EA0000000918
B1138495610023N00940492EA0000000905
B1138545610076N00940699EA0000000898
B1139025610164N00941021EA0000000896
B1139095610240N00941304EA0000000881
B1139505610817N00942740EA0000000862
B1140225611258N00943755EA0000000836
B1140325611394N00944079EA0000000837
B1140515611633N00944732EA0000000842
B1140585611710N00944988EA0000000824
B1141155611896N00945666EA0000000802
B1141205611937N00945870EA0000000796
B1143205611832N00951047EA0000000692
B1145175611499N00956056EA0000000584
B1145235611524N00956266EA0000000597
B1145315611584N00956553EA0000000587
B1145365611653N00956695EA0000000606
B1145465611746N00956618EA0000000622
B1145525611669N00956572EA0000000623
B1145575611596N00956660EA0000000638
B1146025611579N00956832EA0000000644
B1146095611672N00956975EA0000000647
B1146185611691N00956846EA0000000655
B1146245611606N00956899EA0000000677
B1146295611598N00957068EA0000000683
B1146345611663N00957187EA0000000688
B1146465611734N00957045EA0000000701
B1146525611649N00957070EA0000000715
B1146585611613N00957252EA0000000731
B1147035611673N00957373EA0000000740
B1147165611699N00957214EA0000000763
B1147215611636N00957265EA0000000771
B1147265611628N00957433EA0000000777
B1147315611676N00957588EA0000000791
B1147425611782N00957516EA0000000811
B1147475611717N00957495EA0000000814
B1147525611666N00957621EA0000000830
B1147575611700N00957783EA0000000840
B1148085611805N00957712EA0000000861
B1148135611745N00957681EA0000000865
B1148185611691N00957792EA0000000882
B1148235611709N00957956EA0000000887
B1148285611784N00958017EA0000000898
B1148335611820N00957936EA0000000901
B1148385611766N00957886EA0000000912
B1148455611715N00958073EA0000000931
B1148505611771N00958206EA0000000952
B1148555611844N00958200EA0000000955
B1149025611812N00958097EA0000000964
B1149095611736N00958257EA0000000980
B1149165611786N00958476EA0000001011
B1149285611865N00958370EA0000001029
B1149335611796N00958407EA0000001034
B1149385611775N00958578EA0000001054
B1149435611827N00958728EA0000001066
B1149485611920N00958786EA0000001039
B1149535612023N00958745EA0000001030
B1149595612149N00958669EA0000001023
B1150045612256N00958595EA0000001020
B1150115612402N00958494EA0000001050
B1150205612584N00958372EA0000001039
B1150275612733N00958305EA0000001030
B1150335612867N00958265EA0000001014
B1150405613031N00958234EA0000001006
B1150455613149N00958222EA0000001000
B1150505613266N00958215EA0000001001
B1150585613450N00958206EA0000000992
B1151035613567N00958205EA0000000989
B1151105613728N00958206EA0000000983
B1151195613929N00958217EA0000000976
B1151305614171N00958218EA0000000976
B1151355614282N00958213EA0000000969
B1151485614574N00958194EA0000000954
B1151545614707N00958176EA0000000947
B1157015619803N00957014EA0000000819
B1157285619842N00957172EA0000000889
B1157335619785N00957259EA0000000898
B1157475619854N00957192EA0000000940
B1157525619862N00957351EA0000000952
B1158115619875N00957313EA0000000986
B1158165619897N00957472EA0000000996
B1158355619912N00957475EA0000001029
B1158405619950N00957631EA0000001030
B1159035620020N00957746EA0000001066
B1159175620187N00958194EA0000001042
B1202185622959N01002879EA0000000917
B1202245623043N01003010EA0000000910
B1224415621297N01010941EA0000000879
B1227405619692N01010646EA0000001005
B1228025619709N01010821EA0000001071
B1228255619735N01011018EA0000001132
B1228385619629N01011071EA0000001158
B1228495619754N01011230EA0000001182
B1229165619766N01011402EA0000001213
B1229225619747N01011234EA0000001192
B1229275619679N01011097EA0000001197
B1229335619594N01010952EA0000001215
B1229445619442N01010725EA0000001209
B1230285618804N01009947EA0000001143
B1230365618711N01009772EA0000001121
B1230465618595N01009545EA0000001102
B1230535618511N01009388EA0000001082
B1231015618417N01009201EA0000001058
B1231105618307N01008986EA0000001038
B1231165618234N01008837EA0000001024
B1231245618144N01008630EA0000001018
B1231315618075N01008444EA0000001009
B1231365618032N01008307EA0000000999
B1231475617952N01007991EA0000000968
B1232065617845N01007412EA0000000928
B1232115617824N01007266EA0000000923
B1232165617810N01007122EA0000000910
B1232215617791N01006977EA0000000895
B1232325617728N01006654EA0000000880
B1232375617694N01006515EA0000000870
B1232425617655N01006373EA0000000859
B1232505617587N01006142EA0000000844
B1232585617520N01005914EA0000000834
B1233045617467N01005747EA0000000833
B1233115617403N01005562EA0000000826
B1233185617344N01005374EA0000000835
B1233255617289N01005185EA0000000814
B1233325617238N01004991EA0000000834
B1233375617206N01004866EA0000000840
B1233435617168N01004709EA0000000828
B1233505617122N01004514EA0000000829
B1233585617074N01004282EA0000000826
B1234055617034N01004078EA0000000813
B1234105617007N01003930EA0000000811
B1234175616974N01003718EA0000000796
B1234265616929N01003442EA0000000790
B1234335616897N01003221EA0000000796
B1235265616678N01001752EA0000000836
B1236195616265N01000375EA0000000842
B1236275616182N01000175EA0000000822
B1236445615996N00959710EA0000000810
B1236555615866N00959434EA0000000806
B1237045615743N00959215EA0000000796
B1237125615776N00959006EA0000000835
B1237175615854N00959106EA0000000864
B1237225615829N00959254EA0000000866
B1237275615771N00959231EA0000000871
B1237335615806N00959137EA0000000881
B1237385615878N00959224EA0000000880
B1237445615851N00959398EA0000000888
B1237495615790N00959397EA0000000896
B1237565615823N00959304EA0000000902
B1238015615892N00959400EA0000000893
B1238065615899N00959575EA0000000902
B1238115615842N00959669EA0000000909
B1238165615796N00959617EA0000000912
B1238245615867N00959540EA0000000913
B1238305615928N00959701EA0000000917
B1238355615889N00959828EA0000000923
B1238405615838N00959796EA0000000919
B1238485615907N00959677EA0000000916
B1238535615980N00959776EA0000000926
B1238585615981N00959936EA0000000935
B1239035615917N00959987EA0000000937
B1239085615880N00959909EA0000000935
B1239165615967N00959828EA0000000932
B1239215616032N00959956EA0000000934
B1239265615999N01000097EA0000000946
B1239395615883N00959918EA0000000919
B1242175614727N00955249EA0000000779
B1242225614808N00955334EA0000000785
B1242325614746N00955555EA0000000798
B1242385614757N00955462EA0000000806
B1242445614850N00955535EA0000000811
B1242495614845N00955692EA0000000815
B1242565614773N00955730EA0000000825
B1243025614812N00955638EA0000000830
B1243075614894N00955711EA0000000832
B1243125614908N00955872EA0000000843
B1243185614846N00955918EA0000000855
B1243255614885N00955811EA0000000853
B1243315614982N00955921EA0000000859
B1243385614953N00956112EA0000000870
B1243515614986N00955999EA0000000887
B1243575615052N00956162EA0000000885
B1244025615011N00956287EA0000000891
B1244075614951N00956272EA0000000892
B1244165614995N00956144EA0000000904
B1244215615069N00956254EA0000000895
B1244275615035N00956420EA0000000897
B1244335614957N00956398EA0000000906
B1244425614998N00956255EA0000000917
B1244495615090N00956417EA0000000900
B1244545615065N00956581EA0000000908
B1244595615000N00956631EA0000000915
B1245125615040N00956455EA0000000917
B1245175615097N00956597EA0000000909
B1245235615049N00956750EA0000000919
B1246225614673N00955141EA0000000820
B1246505614503N00954379EA0000000860
B1246565614424N00954391EA0000000878
B1247025614395N00954574EA0000000880
B1247095614484N00954764EA0000000871
B1247285614654N00954586EA0000000894
B1247335614597N00954571EA0000000903
B1247425614566N00954824EA0000000914
B1247525614698N00954830EA0000000937
B1247575614671N00954753EA0000000951
B1248025614615N00954826EA0000000960
B1248075614622N00954982EA0000000968
B1248225614744N00954921EA0000000997
B1248275614689N00954963EA0000001003
B1248335614691N00955142EA0000001008
B1248425614815N00955161EA0000001024
B1248485614788N00955075EA0000001036
B1248565614722N00955229EA0000001050
B1249015614767N00955367EA0000001053
B1249125614870N00955273EA0000001074
B1249175614815N00955263EA0000001085
B1249235614784N00955426EA0000001088
B1249405614911N00955401EA0000001114
B1249455614852N00955451EA0000001122
B1249525614860N00955673EA0000001119
B1250065614979N00955587EA0000001145
B1250115614926N00955595EA0000001152
B1250165614896N00955730EA0000001144
B1250215614943N00955877EA0000001151
B1250345615048N00955764EA0000001168
B1250405614980N00955787EA0000001167
B1250455614962N00955938EA0000001164
B1250505615019N00956073EA0000001164
B1251035615117N00955915EA0000001176
B1251185615005N00955616EA0000001140
B1251425614807N00954986EA0000001103
B1258095612444N00944448EA0000000627
B1258165612565N00944487EA0000000638
B1258215612626N00944612EA0000000647
B1258405612578N00944657EA0000000669
B1258455612658N00944699EA0000000681
B1258545612633N00944925EA0000000695
B1259025612626N00944797EA0000000701
B1259085612723N00944856EA0000000718
B1259135612734N00945016EA0000000723
B1259255612686N00944937EA0000000745
B1259305612768N00944982EA0000000747
B1259365612782N00945175EA0000000758
B1259465612715N00945106EA0000000768
B1259515612796N00945091EA0000000781
B1259565612842N00945236EA0000000785
B1300105612764N00945220EA0000000805
B1300175612871N00945265EA0000000811
B1300235612873N00945455EA0000000820
B1300365612801N00945363EA0000000831
B1300425612897N00945374EA0000000833
B1300505612905N00945618EA0000000837
B1301025612842N00945523EA0000000842
B1301085612940N00945567EA0000000842
B1301185612933N00945843EA0000000855
B1301315612924N00945695EA0000000857
B1301365613004N00945757EA0000000858
B1302015613017N00945776EA0000000869
B1302065613100N00945842EA0000000868
B1302145613108N00946069EA0000000868
B1302305613089N00945909EA0000000870
B1302365613182N00945986EA0000000858
B1302415613182N00946136EA0000000852
B1306155612294N00940770EA0000000643
B1306205612369N00940836EA0000000639
B1306445612267N00940894EA0000000653
B1306495612347N00940956EA0000000653
B1313315612588N00933391EA0000000387
B1314355612752N00933606EA0000000404
B1315095612853N00933753EA0000000409
B1317045613184N00934434EA0000000441
B1317365613251N00934600EA0000000438
B1319175613505N00935084EA0000000436
B1319475613598N00935291EA0000000415
