AOGNOGN
HFDTE290625
HFFXA050
HFPLTPILOTINCHARGE:
HFGTYGLIDERTYPE:Duo Discus t
HFGIDGLIDERID:OY-RRX
HFDTM100GPSDATUM:WGS-1984
HFRFWFIRMWAREVERSION:
HFRHWHARDWAREVERSION:
HFFTYFRTYPE:OGN-FLIGHTBOOK
HFGPSGENERIC
HFPRSPRESSALTSENSOR:
HFCIDCOMPETITIONID:RR
B1101045515095N01204148EA0000000045
B1101095515093N01204038EA0000000112
B1101145515086N01203950EA0000000176
B1101195515078N01203866EA0000000228
B1101265515066N01203736EA0000000273
B1101325515062N01203606EA0000000290
B1101375515064N01203493EA0000000293
B1101425515060N01203388EA0000000304
B1101475515001N01203329EA0000000295
B1101525514907N01203399EA0000000270
B1101575514852N01203579EA0000000271
B1102025514879N01203739EA0000000278
B1102075514936N01203804EA0000000281
B1102125514993N01203809EA0000000262
B1102175515014N01203731EA0000000250
B1102235514952N01203650EA0000000235
B1102295514891N01203544EA0000000205
B1102345514865N01203430EA0000000198
B1102395514917N01203391EA0000000198
B1102445514982N01203506EA0000000193
B1102495515008N01203688EA0000000195
B1102585515007N01204023EA0000000194
B1103045514984N01204258EA0000000187
B1103115514983N01204547EA0000000180
B1103165515043N01204689EA0000000192
B1103235515150N01204764EA0000000182
B1103285515229N01204767EA0000000173
B1103375515237N01204573EA0000000129
B1103435515217N01204428EA0000000089
B1103495515194N01204273EA0000000059
B1103545515172N01204143EA0000000042
B1103595515155N01204028EA0000000038
