AOGNOGN
HFDTE190725
HFFXA050
HFPLTPILOTINCHARGE:
HFGTYGLIDERTYPE:ASK-23
HFGIDGLIDERID:OY-CXL
HFDTM100GPSDATUM:WGS-1984
HFRFWFIRMWAREVERSION:
HFRHWHARDWAREVERSION:
HFFTYFRTYPE:OGN-FLIGHTBOOK
HFGPSGENERIC
HFPRSPRESSALTSENSOR:
HFCIDCOMPETITIONID:CL
B0913245553139N01213406EA0000000014
B0913245553139N01213406EA0000000014
B0913305553125N01213545EA0000000014
B0913355553108N01213688EA0000000018
B0913415553090N01213874EA0000000034
B0913475553074N01214066EA0000000053
B0913545553072N01214292EA0000000076
B0913595553098N01214452EA0000000088
B0914045553151N01214587EA0000000111
B0914105553241N01214688EA0000000139
B0914175553357N01214742EA0000000171
B0914235553461N01214752EA0000000200
B0914295553566N01214769EA0000000226
B0914355553669N01214789EA0000000255
B0914415553769N01214815EA0000000276
B0914485553887N01214841EA0000000291
B0914565554022N01214876EA0000000313
B0915125554294N01214960EA0000000353
B0915175554380N01214986EA0000000371
B0915245554495N01215036EA0000000392
B0915325554629N01215091EA0000000419
B0915375554714N01215122EA0000000442
B0915425554802N01215155EA0000000461
B0915485554908N01215174EA0000000487
B0915595555083N01215018EA0000000522
B0916065555157N01214834EA0000000551
B0916135555198N01214620EA0000000585
B0916195555238N01214435EA0000000603
B0916365555319N01213864EA0000000651
B0916455555344N01213552EA0000000693
B0916545555356N01213246EA0000000728
B0917045555266N01212949EA0000000749
B0917105555160N01212844EA0000000760
B0917175555023N01212772EA0000000783
B0917275554836N01212735EA0000000826
B0917365554699N01212760EA0000000823
B0917445554599N01212838EA0000000814
B0918045554402N01213168EA0000000789
B0918105554352N01213272EA0000000786
B0918155554312N01213360EA0000000782
B0918245554240N01213523EA0000000771
B0918305554191N01213634EA0000000761
B0918365554143N01213751EA0000000756
B0918425554095N01213864EA0000000759
B0918475554056N01213957EA0000000757
B0918545554001N01214093EA0000000754
B0919025553939N01214253EA0000000769
B0919095553847N01214277EA0000000782
B0919145553798N01214190EA0000000783
B0919195553792N01214071EA0000000780
B0919275553857N01213931EA0000000794
B0919325553917N01213924EA0000000797
B0919385553978N01214002EA0000000795
B0919445554003N01214131EA0000000793
B0919495553984N01214246EA0000000802
B0919545553932N01214324EA0000000808
B0920005553846N01214322EA0000000816
B0920055553790N01214247EA0000000830
B0920135553775N01214031EA0000000829
B0920205553774N01213814EA0000000833
B0920265553764N01213626EA0000000835
B0920345553749N01213385EA0000000826
B0920425553727N01213139EA0000000811
B0920525553696N01212834EA0000000801
B0920575553713N01212693EA0000000800
B0921025553771N01212617EA0000000796
B0921085553851N01212634EA0000000788
B0921135553897N01212724EA0000000781
B0921185553912N01212847EA0000000773
B0921265553918N01213045EA0000000768
B0921325553916N01213184EA0000000762
B0921425553906N01213423EA0000000741
B0921495553899N01213594EA0000000730
B0922015553879N01213893EA0000000715
B0922075553841N01214029EA0000000708
B0922135553781N01214150EA0000000709
B0922195553714N01214260EA0000000716
B0922245553639N01214268EA0000000723
B0922325553593N01214100EA0000000739
B0922375553638N01214025EA0000000753
B0922425553693N01214053EA0000000761
B0922505553695N01214222EA0000000765
B0922555553629N01214274EA0000000768
B0923015553555N01214198EA0000000781
B0923075553533N01214051EA0000000795
B0923125553530N01213927EA0000000808
B0923235553548N01213647EA0000000826
B0923315553566N01213437EA0000000813
B0923445553639N01213116EA0000000794
B0923525553697N01212932EA0000000787
B0924055553843N01212770EA0000000778
B0924105553907N01212780EA0000000775
B0924265554072N01212991EA0000000762
B0924315554121N01213062EA0000000759
B0924425554222N01213209EA0000000748
B0924485554278N01213288EA0000000734
B0924545554336N01213373EA0000000726
B0924595554385N01213447EA0000000726
B0925065554451N01213553EA0000000729
B0925125554438N01213684EA0000000729
B0925185554356N01213721EA0000000726
B0925255554295N01213591EA0000000725
B0925355554367N01213407EA0000000732
B0925425554446N01213359EA0000000733
B0925495554493N01213474EA0000000729
B0925565554444N01213609EA0000000727
B0926015554372N01213633EA0000000724
B0926095554290N01213504EA0000000730
B0926205554324N01213264EA0000000727
B0926325554450N01213213EA0000000723
B0926515554549N01212990EA0000000691
B0926565554487N01212918EA0000000697
B0927015554414N01212912EA0000000699
B0927115554270N01212983EA0000000684
B0927175554186N01213035EA0000000687
B0927255554079N01213101EA0000000674
B0927305554012N01213148EA0000000666
B0927425553856N01213274EA0000000647
B0927495553767N01213349EA0000000635
B0927565553678N01213423EA0000000628
B0928035553591N01213499EA0000000620
B0928095553520N01213571EA0000000612
B0928165553433N01213654EA0000000601
B0928215553369N01213710EA0000000593
B0928295553260N01213775EA0000000582
B0928385553132N01213832EA0000000573
B0928435553059N01213811EA0000000583
B0928495552995N01213708EA0000000586
B0928555552944N01213588EA0000000601
B0929005552875N01213574EA0000000610
B0929055552832N01213660EA0000000603
B0929115552860N01213769EA0000000597
B0929165552917N01213759EA0000000599
B0929215552941N01213658EA0000000609
B0929265552892N01213579EA0000000621
B0929315552830N01213624EA0000000619
B0929375552831N01213752EA0000000608
B0929425552887N01213788EA0000000613
B0929495552957N01213704EA0000000624
B0929545552963N01213587EA0000000626
B0929595552913N01213496EA0000000629
B0930045552842N01213504EA0000000635
B0930105552813N01213625EA0000000645
B0930155552859N01213688EA0000000645
B0930205552909N01213630EA0000000663
B0930285552859N01213476EA0000000671
B0930335552792N01213504EA0000000676
B0930385552774N01213605EA0000000681
B0930445552830N01213670EA0000000684
B0930495552867N01213592EA0000000699
B0930555552823N01213476EA0000000705
B0931015552747N01213510EA0000000715
B0931065552736N01213613EA0000000714
B0931125552795N01213667EA0000000716
B0931185552839N01213567EA0000000727
B0931245552797N01213444EA0000000730
B0931295552728N01213445EA0000000737
B0931355552698N01213561EA0000000739
B0931415552750N01213632EA0000000742
B0931465552801N01213579EA0000000752
B0931575552739N01213373EA0000000750
B0932025552675N01213412EA0000000758
B0932095552668N01213550EA0000000756
B0932145552723N01213579EA0000000757
B0932195552766N01213503EA0000000767
B0932285552697N01213338EA0000000761
B0932335552630N01213376EA0000000771
B0932395552610N01213502EA0000000765
B0932455552667N01213569EA0000000766
B0932505552721N01213517EA0000000774
B0932555552727N01213403EA0000000777
B0933005552677N01213315EA0000000779
B0933055552606N01213307EA0000000781
B0933105552551N01213379EA0000000781
B0933175552553N01213520EA0000000778
B0933225552609N01213546EA0000000774
B0933275552659N01213478EA0000000777
B0933345552676N01213320EA0000000786
B0933415552669N01213157EA0000000781
B0933475552658N01213009EA0000000773
B0933525552643N01212886EA0000000771
B0934005552617N01212692EA0000000761
B0934105552530N01212517EA0000000745
B0934165552451N01212551EA0000000736
B0934225552400N01212657EA0000000733
B0934315552355N01212851EA0000000721
B0934425552318N01213089EA0000000706
B0934495552338N01213232EA0000000700
B0934555552377N01213333EA0000000693
B0935015552424N01213426EA0000000684
B0935105552470N01213611EA0000000676
B0935165552501N01213740EA0000000682
B0935215552528N01213842EA0000000689
B0935275552596N01213881EA0000000690
B0935325552639N01213797EA0000000695
B0935375552626N01213682EA0000000694
B0935425552566N01213616EA0000000689
B0935495552487N01213696EA0000000686
B0935545552498N01213807EA0000000689
B0935595552551N01213852EA0000000693
B0936065552621N01213765EA0000000693
B0936115552619N01213647EA0000000690
B0936165552567N01213550EA0000000682
B0936245552451N01213563EA0000000676
B0936295552419N01213672EA0000000674
B0936375552439N01213857EA0000000679
B0936435552490N01213951EA0000000680
B0936495552566N01213945EA0000000682
B0936545552616N01214005EA0000000686
B0937005552597N01214128EA0000000693
B0937055552531N01214154EA0000000696
B0937105552487N01214066EA0000000702
B0937185552551N01213969EA0000000703
B0937235552586N01214052EA0000000708
B0937285552553N01214150EA0000000714
B0937335552483N01214159EA0000000718
B0937385552438N01214058EA0000000727
B0937435552457N01213949EA0000000731
B0937485552516N01213937EA0000000731
B0937535552538N01214032EA0000000741
B0937585552492N01214101EA0000000748
B0938055552418N01214011EA0000000761
B0938105552438N01213915EA0000000765
B0938155552492N01213915EA0000000763
B0938225552498N01214046EA0000000772
B0938285552425N01214082EA0000000780
B0938345552364N01213981EA0000000786
B0938445552431N01213847EA0000000791
B0938505552468N01213941EA0000000791
B0938565552416N01214034EA0000000802
B0939015552349N01214047EA0000000808
B0939145552162N01214035EA0000000817
B0939225552045N01214020EA0000000822
B0939305551929N01213999EA0000000804
B0940345551010N01214192EA0000000760
B0940435550950N01214004EA0000000744
B0940505550945N01213830EA0000000747
B0941025550948N01213555EA0000000748
B0941225550950N01213083EA0000000724
B0941295550944N01212930EA0000000725
B0941385550935N01212738EA0000000728
B0941505550934N01212481EA0000000736
B0941555550987N01212461EA0000000741
B0942095550948N01212696EA0000000749
B0942155550892N01212608EA0000000763
B0942205550910N01212514EA0000000767
B0942425550866N01212674EA0000000789
B0942475550846N01212570EA0000000791
B0942555550859N01212400EA0000000797
B0943065550900N01212168EA0000000794
B0943275551008N01211698EA0000000797
B0944205550865N01212376EA0000000744
B0944255550856N01212490EA0000000737
B0944305550843N01212604EA0000000741
B0944395550752N01212696EA0000000759
B0944485550732N01212513EA0000000767
B0944535550793N01212503EA0000000774
B0945125550677N01212668EA0000000784
B0945185550680N01212506EA0000000798
B0945235550703N01212391EA0000000801
B0945305550739N01212234EA0000000798
B0945365550772N01212099EA0000000807
B0946115550949N01211335EA0000000760
B0946235551015N01211076EA0000000745
B0946355551085N01210822EA0000000733
B0946435551130N01210640EA0000000716
B0946515551166N01210444EA0000000699
B0946575551187N01210300EA0000000694
B0947035551203N01210159EA0000000686
B0947095551220N01210020EA0000000681
B0947285551298N01209649EA0000000700
B0947335551343N01209697EA0000000707
B0947465551223N01209770EA0000000739
B0947535551251N01209644EA0000000744
B0948095551190N01209775EA0000000786
B0948205551216N01209586EA0000000801
B0948375551149N01209850EA0000000832
B0948445551118N01210011EA0000000837
B0949065551055N01210493EA0000000795
B0949115551073N01210596EA0000000787
B0949245551199N01210764EA0000000768
B0949475551454N01210966EA0000000765
B0949545551532N01211005EA0000000761
B0950065551667N01211057EA0000000749
B0950155551767N01211081EA0000000744
B0950225551846N01211064EA0000000737
B0950275551904N01211042EA0000000734
B0950325551962N01211018EA0000000732
B0950395552040N01210986EA0000000728
B0950525552187N01210939EA0000000713
B0950585552258N01210919EA0000000703
B0951055552338N01210892EA0000000695
B0951115552405N01210873EA0000000692
B0951175552469N01210848EA0000000688
B0951225552523N01210824EA0000000684
B0951325552634N01210791EA0000000674
B0951395552705N01210829EA0000000664
B0951505552694N01211055EA0000000654
B0951585552646N01211212EA0000000646
B0952055552595N01211339EA0000000635
B0952155552479N01211460EA0000000640
B0952235552382N01211543EA0000000656
B0952315552404N01211697EA0000000676
B0952385552476N01211635EA0000000690
B0952435552464N01211514EA0000000707
B0952515552365N01211508EA0000000733
B0952565552354N01211614EA0000000745
B0953015552401N01211664EA0000000753
B0953065552455N01211607EA0000000762
B0953115552453N01211484EA0000000776
B0953175552384N01211404EA0000000789
B0953225552322N01211451EA0000000798
B0953285552289N01211580EA0000000810
B0953355552274N01211743EA0000000821
B0953445552284N01211959EA0000000808
B0953515552297N01212128EA0000000806
B0953575552309N01212261EA0000000804
B0954035552321N01212392EA0000000799
B0954085552330N01212500EA0000000790
B0954145552341N01212633EA0000000779
B0954195552348N01212743EA0000000766
B0954295552365N01212961EA0000000757
B0954375552382N01213135EA0000000758
B0954475552410N01213359EA0000000749
B0954575552450N01213585EA0000000733
B0955025552473N01213699EA0000000727
B0955105552436N01213877EA0000000729
B0955155552367N01213921EA0000000737
B0955205552303N01213867EA0000000740
B0955255552281N01213749EA0000000738
B0955305552316N01213650EA0000000743
B0955365552383N01213667EA0000000733
B0955425552392N01213796EA0000000734
B0955495552310N01213860EA0000000741
B0955555552247N01213765EA0000000742
B0956005552256N01213648EA0000000743
B0956055552311N01213612EA0000000742
B0956145552344N01213774EA0000000737
B0956195552288N01213837EA0000000743
B0956245552225N01213801EA0000000743
B0956295552197N01213692EA0000000739
B0956365552249N01213580EA0000000741
B0956455552308N01213701EA0000000731
B0956525552237N01213799EA0000000736
B0956575552173N01213756EA0000000734
B0957045552112N01213610EA0000000729
B0957105552026N01213571EA0000000725
B0957185551913N01213639EA0000000713
B0957555551441N01214076EA0000000714
B0958025551350N01214006EA0000000716
B0958105551373N01213843EA0000000734
B0958285551343N01214044EA0000000756
B0958375551295N01213859EA0000000775
B0959085551231N01214277EA0000000795
B0959365551003N01214764EA0000000812
B1000155550709N01215509EA0000000828
B1000255550660N01215739EA0000000815
B1000315550647N01215879EA0000000809
B1000365550639N01215997EA0000000804
B1000425550646N01216136EA0000000795
B1000475550684N01216226EA0000000789
B1000525550743N01216270EA0000000783
B1001265551133N01216565EA0000000755
B1001355551226N01216649EA0000000752
B1001515551387N01216809EA0000000731
B1001565551438N01216859EA0000000727
B1002065551548N01216884EA0000000717
B1002115551605N01216861EA0000000714
B1002175551671N01216819EA0000000711
B1002245551748N01216761EA0000000710
B1002495552042N01216639EA0000000679
B1003085552257N01216604EA0000000682
B1003225552410N01216594EA0000000663
B1003305552488N01216504EA0000000655
B1003445552613N01216307EA0000000646
B1003505552666N01216228EA0000000640
B1004005552760N01216103EA0000000626
B1004065552820N01216034EA0000000611
B1004115552871N01215976EA0000000600
B1004165552914N01215899EA0000000585
B1004215552928N01215777EA0000000576
B1004315552928N01215544EA0000000557
B1004385552923N01215376EA0000000545
B1004465552913N01215186EA0000000538
B1004525552908N01215045EA0000000532
B1004585552902N01214904EA0000000526
B1005045552898N01214763EA0000000524
B1005125552889N01214576EA0000000515
B1005235552875N01214315EA0000000505
B1005315552864N01214118EA0000000505
B1005365552859N01213991EA0000000511
B1005415552816N01213891EA0000000516
B1005465552748N01213891EA0000000513
B1005515552712N01213983EA0000000512
B1005565552742N01214066EA0000000517
B1006025552801N01214011EA0000000515
B1006075552794N01213894EA0000000520
B1006135552721N01213841EA0000000521
B1006195552681N01213946EA0000000518
B1006245552724N01214018EA0000000523
B1006295552776N01213977EA0000000525
B1006365552772N01213826EA0000000532
B1006415552710N01213791EA0000000535
B1006465552666N01213871EA0000000534
B1006535552708N01213977EA0000000540
B1006585552760N01213930EA0000000540
B1007035552758N01213814EA0000000544
B1007115552670N01213719EA0000000551
B1007165552620N01213789EA0000000547
B1007225552639N01213906EA0000000551
B1007275552694N01213903EA0000000551
B1007335552717N01213780EA0000000554
B1007385552672N01213693EA0000000555
B1007445552594N01213719EA0000000557
B1007515552583N01213861EA0000000555
B1007575552648N01213895EA0000000560
B1008035552694N01213798EA0000000561
B1008085552671N01213690EA0000000564
B1008135552606N01213647EA0000000567
B1008195552540N01213719EA0000000567
B1008245552537N01213829EA0000000564
B1008295552581N01213898EA0000000565
B1008355552649N01213863EA0000000564
B1008415552679N01213735EA0000000567
B1008475552644N01213608EA0000000569
B1008525552576N01213589EA0000000567
B1008575552521N01213657EA0000000569
B1009035552516N01213787EA0000000566
B1009095552572N01213852EA0000000563
B1009145552626N01213807EA0000000562
B1009205552649N01213673EA0000000562
B1009265552644N01213524EA0000000562
B1009315552633N01213398EA0000000561
B1009375552616N01213251EA0000000560
B1009435552601N01213107EA0000000554
B1009525552592N01212896EA0000000543
B1010005552591N01212712EA0000000532
B1010095552582N01212508EA0000000518
B1010145552530N01212427EA0000000512
B1010195552459N01212426EA0000000502
B1010275552380N01212565EA0000000489
B1010345552334N01212711EA0000000477
B1010455552280N01212961EA0000000454
B1010515552257N01213100EA0000000448
B1010575552235N01213234EA0000000441
B1011035552208N01213368EA0000000434
B1011095552181N01213509EA0000000418
B1011175552143N01213699EA0000000411
B1011295552089N01213973EA0000000404
B1011355552066N01214114EA0000000408
B1011425552050N01214282EA0000000419
B1011475551996N01214341EA0000000441
B1011525551950N01214278EA0000000448
B1011595551997N01214183EA0000000450
B1012085552004N01214332EA0000000468
B1012165551940N01214224EA0000000477
B1012215551994N01214176EA0000000482
B1012265552029N01214267EA0000000489
B1012325551969N01214358EA0000000507
B1012385551917N01214251EA0000000516
B1012435551955N01214163EA0000000520
B1012495552006N01214251EA0000000520
B1012545551954N01214340EA0000000535
B1013015551900N01214211EA0000000537
B1013065551949N01214129EA0000000550
B1013145552008N01214248EA0000000560
B1013205551939N01214327EA0000000573
B1013255551891N01214235EA0000000580
B1013305551923N01214126EA0000000590
B1013375551993N01214201EA0000000599
B1013425551960N01214313EA0000000607
B1013475551891N01214311EA0000000624
B1013525551869N01214207EA0000000634
B1013575551917N01214142EA0000000644
B1014025551959N01214208EA0000000651
B1014075551934N01214308EA0000000655
B1014155551853N01214235EA0000000675
B1014215551894N01214126EA0000000682
B1014335551921N01214298EA0000000702
B1014385551859N01214278EA0000000711
B1014435551837N01214175EA0000000725
B1014485551876N01214096EA0000000727
B1014565551949N01214189EA0000000736
B1015075551853N01214295EA0000000750
B1015145551829N01214147EA0000000763
B1015195551882N01214088EA0000000765
B1015265551936N01214189EA0000000775
B1015315551913N01214291EA0000000783
B1015405551802N01214273EA0000000805
B1015505551704N01214095EA0000000827
B1015595551619N01213926EA0000000812
B1016065551527N01213758EA0000000821
B1016195551442N01213456EA0000000820
B1016245551452N01213329EA0000000825
B1016315551470N01213159EA0000000821
B1016385551482N01212993EA0000000820
B1016475551485N01212777EA0000000807
B1016565551488N01212567EA0000000789
B1017275551492N01211838EA0000000755
B1017325551494N01211716EA0000000757
B1018065551284N01211239EA0000000787
B1018155551184N01211381EA0000000786
B1018225551107N01211485EA0000000787
B1018465550830N01211821EA0000000797
B1018585550679N01211803EA0000000801
B1019075550668N01211606EA0000000803
B1019195550747N01211386EA0000000803
B1019245550792N01211303EA0000000801
B1019365550910N01211123EA0000000799
B1019435550983N01211033EA0000000800
B1019495551046N01210976EA0000000800
B1019585551146N01210997EA0000000793
B1020175551331N01211131EA0000000793
B1020275551440N01211220EA0000000785
B1020465551644N01211390EA0000000778
B1020515551702N01211391EA0000000775
B1021125551626N01211058EA0000000757
B1021525551023N01211159EA0000000749
B1021595550921N01211188EA0000000750
B1022155550733N01211371EA0000000739
B1022275550818N01211529EA0000000740
B1022345550875N01211423EA0000000732
B1022445550967N01211285EA0000000730
B1024105551363N01212903EA0000000700
B1024155551368N01213007EA0000000692
B1024205551372N01213115EA0000000679
B1024265551375N01213250EA0000000667
B1024425551417N01213602EA0000000629
B1024475551458N01213689EA0000000622
B1024545551518N01213798EA0000000624
B1024595551564N01213871EA0000000628
B1025045551620N01213911EA0000000635
B1025095551671N01213848EA0000000634
B1025235551580N01213583EA0000000629
B1025285551518N01213652EA0000000639
B1025345551506N01213797EA0000000640
B1025395551547N01213883EA0000000645
B1025445551608N01213884EA0000000645
B1025495551651N01213793EA0000000644
B1025545551635N01213665EA0000000642
B1026025551522N01213620EA0000000641
B1026105551489N01213787EA0000000654
B1026155551537N01213848EA0000000653
B1026205551593N01213799EA0000000650
B1026355551480N01213570EA0000000653
B1026425551436N01213708EA0000000659
B1026475551469N01213800EA0000000660
B1026575551576N01213716EA0000000655
B1027035551570N01213563EA0000000656
B1027145551426N01213462EA0000000658
B1027215551372N01213590EA0000000663
B1027265551393N01213698EA0000000660
B1027315551446N01213758EA0000000659
B1027385551533N01213749EA0000000655
B1027455551617N01213698EA0000000655
B1027505551662N01213616EA0000000663
B1027575551666N01213451EA0000000665
B1028055551578N01213310EA0000000660
B1028165551447N01213415EA0000000655
B1028235551458N01213555EA0000000657
B1028285551505N01213608EA0000000655
B1028335551564N01213594EA0000000656
B1028395551609N01213490EA0000000657
B1028475551553N01213318EA0000000655
B1029025551421N01213494EA0000000654
B1029075551453N01213580EA0000000653
B1029175551565N01213580EA0000000658
B1029245551635N01213500EA0000000666
B1029335551626N01213292EA0000000657
B1029525551421N01213432EA0000000630
B1029575551450N01213531EA0000000628
B1030055551541N01213584EA0000000635
B1030105551599N01213555EA0000000641
B1030155551641N01213469EA0000000646
B1030215551621N01213327EA0000000642
B1030285551519N01213282EA0000000629
B1030345551460N01213390EA0000000626
B1030395551484N01213483EA0000000625
B1030445551542N01213506EA0000000623
B1030505551615N01213507EA0000000625
B1030555551667N01213454EA0000000621
B1031055551764N01213321EA0000000615
B1031125551819N01213206EA0000000607
B1031195551797N01213049EA0000000605
B1031325551621N01213052EA0000000586
B1031375551591N01213165EA0000000577
B1031475551611N01213399EA0000000561
B1031565551662N01213582EA0000000556
B1032025551703N01213687EA0000000549
B1032215551850N01214013EA0000000533
B1032335551939N01214230EA0000000539
B1032415551884N01214373EA0000000551
B1032485551802N01214325EA0000000544
B1032555551800N01214166EA0000000544
B1033005551848N01214093EA0000000556
B1033065551911N01214146EA0000000559
B1033135551874N01214270EA0000000562
B1033195551801N01214221EA0000000564
B1033245551801N01214101EA0000000575
B1033305551867N01214055EA0000000591
B1033355551899N01214141EA0000000592
B1033405551868N01214233EA0000000596
B1033465551796N01214197EA0000000597
B1033515551795N01214075EA0000000605
B1033565551852N01214032EA0000000618
B1034025551900N01214123EA0000000624
B1034095551847N01214244EA0000000628
B1034145551779N01214221EA0000000633
B1034205551762N01214083EA0000000638
B1034255551813N01214016EA0000000652
B1034365551841N01214182EA0000000663
B1034415551775N01214168EA0000000667
B1034465551754N01214054EA0000000675
B1034585551840N01214090EA0000000691
B1035035551799N01214173EA0000000693
B1035125551693N01214104EA0000000696
B1035175551692N01213981EA0000000711
B1035225551736N01213901EA0000000724
B1035275551791N01213919EA0000000731
B1035335551817N01214032EA0000000742
B1035395551767N01214116EA0000000744
B1035455551693N01214051EA0000000743
B1035515551676N01213902EA0000000757
B1035565551717N01213812EA0000000764
B1036015551778N01213798EA0000000768
B1036065551831N01213850EA0000000772
B1036125551856N01213971EA0000000774
B1036175551833N01214078EA0000000780
B1036245551749N01214151EA0000000784
B1036315551668N01214071EA0000000786
B1036395551675N01213879EA0000000799
B1036445551703N01213769EA0000000806
B1036525551747N01213585EA0000000813
B1036575551771N01213469EA0000000820
B1037045551811N01213309EA0000000825
B1037145551869N01213084EA0000000824
B1037265551950N01212837EA0000000828
B1037325551991N01212720EA0000000818
B1037425552063N01212524EA0000000810
B1037495552073N01212358EA0000000809
B1039405551081N01210219EA0000000810
B1039595551035N01209749EA0000000798
B1040055551031N01209604EA0000000795
B1041425550696N01207755EA0000000762
B1042165550922N01208355EA0000000736
B1042215550959N01208440EA0000000733
B1042305551024N01208582EA0000000735
B1042365551073N01208662EA0000000730
B1042425551132N01208711EA0000000728
B1042495551202N01208760EA0000000723
B1042575551280N01208828EA0000000724
B1043085551386N01208920EA0000000718
B1043185551481N01209005EA0000000723
B1043245551541N01209011EA0000000731
B1043335551534N01208836EA0000000736
B1043395551455N01208846EA0000000734
B1043455551435N01208966EA0000000731
B1043505551472N01209041EA0000000740
B1043555551527N01209041EA0000000746
B1044055551525N01208839EA0000000758
B1044125551428N01208848EA0000000760
B1044175551414N01208952EA0000000763
B1044225551457N01209005EA0000000770
B1044295551516N01208905EA0000000774
B1044345551489N01208791EA0000000782
B1044405551404N01208767EA0000000786
B1044465551363N01208880EA0000000787
B1044515551399N01208943EA0000000794
B1044565551454N01208916EA0000000799
B1045115551625N01208823EA0000000801
B1045245551779N01208750EA0000000798
B1045475551984N01208467EA0000000774
B1046055551752N01208403EA0000000757
B1046335551514N01208842EA0000000757
B1046405551478N01208981EA0000000754
B1046455551454N01209087EA0000000752
B1047555551154N01210664EA0000000737
B1048125551163N01211046EA0000000733
B1048315551202N01211460EA0000000751
B1049105551255N01212345EA0000000727
B1049185551258N01212528EA0000000727
B1049275551267N01212739EA0000000719
B1049345551282N01212895EA0000000713
B1049585551200N01213304EA0000000730
B1050055551131N01213179EA0000000739
B1050105551144N01213061EA0000000743
B1050305551148N01213192EA0000000760
B1050425551084N01212960EA0000000772
B1050495551163N01212957EA0000000774
B1051065551037N01213106EA0000000798
B1051135550979N01212965EA0000000798
B1051305550794N01212829EA0000000788
B1051355550740N01212902EA0000000778
B1051425550669N01213013EA0000000767
B1051535550619N01213227EA0000000747
B1052015550694N01213327EA0000000745
B1052075550758N01213382EA0000000736
B1052145550838N01213453EA0000000727
B1052235550945N01213536EA0000000730
B1052285551010N01213504EA0000000728
B1052335551046N01213393EA0000000729
B1052445550953N01213226EA0000000720
B1052585550918N01213488EA0000000704
B1053035550978N01213532EA0000000706
B1053105551071N01213484EA0000000705
B1053275551262N01213263EA0000000729
B1053345551337N01213189EA0000000736
B1053405551406N01213126EA0000000729
B1053505551522N01213038EA0000000720
B1053585551564N01213151EA0000000719
B1054275551222N01213397EA0000000714
B1054335551156N01213304EA0000000709
B1054395551168N01213170EA0000000710
B1054565551201N01213301EA0000000746
B1055025551132N01213218EA0000000755
B1055075551144N01213104EA0000000755
B1055445550962N01213030EA0000000794
B1055545550877N01212823EA0000000779
B1056055550792N01212564EA0000000766
B1056125550816N01212398EA0000000767
B1056175550875N01212356EA0000000758
B1056225550913N01212442EA0000000754
B1056285550920N01212569EA0000000759
B1056335550924N01212673EA0000000756
B1056395550929N01212798EA0000000748
B1056445550932N01212908EA0000000745
B1056575550936N01213196EA0000000744
B1057055550943N01213381EA0000000741
B1057145550948N01213591EA0000000747
B1057235550966N01213785EA0000000752
B1057295551020N01213872EA0000000755
B1057345551085N01213865EA0000000748
B1057495551240N01213640EA0000000744
B1057545551284N01213552EA0000000738
B1058005551296N01213408EA0000000734
B1058095551218N01213224EA0000000725
B1058265551017N01212949EA0000000715
B1058365550942N01213104EA0000000722
B1058425550995N01213183EA0000000727
B1058475551047N01213131EA0000000726
B1058585550998N01212887EA0000000718
B1059055550908N01212928EA0000000724
B1059105550895N01213037EA0000000725
B1059185550966N01213159EA0000000730
B1059245551033N01213197EA0000000728
B1059325551132N01213203EA0000000715
B1059385551209N01213199EA0000000706
B1059445551287N01213189EA0000000703
B1059545551415N01213156EA0000000720
B1100055551439N01212911EA0000000730
B1100155551310N01212858EA0000000717
B1100215551269N01212967EA0000000712
B1100265551289N01213063EA0000000720
B1100325551359N01213100EA0000000732
B1100385551416N01213010EA0000000740
B1100445551414N01212856EA0000000741
B1100595551233N01212809EA0000000721
B1101055551216N01212935EA0000000731
B1101105551254N01213014EA0000000738
B1101155551314N01213022EA0000000746
B1101205551365N01212947EA0000000749
B1101265551382N01212791EA0000000753
B1101405551223N01212654EA0000000741
B1101455551194N01212746EA0000000737
B1101505551222N01212826EA0000000741
B1102015551349N01212819EA0000000749
B1102065551396N01212739EA0000000747
B1102205551341N01212430EA0000000729
B1102345551159N01212525EA0000000710
B1102435551084N01212663EA0000000711
B1102485551097N01212753EA0000000703
B1102575551174N01212884EA0000000709
B1103125551282N01213082EA0000000730
B1103225551349N01213231EA0000000732
B1103295551397N01213338EA0000000722
B1103395551469N01213503EA0000000714
B1103475551529N01213638EA0000000716
B1104005551621N01213881EA0000000726
B1104055551676N01213927EA0000000727
B1104105551734N01213884EA0000000737
B1104165551752N01213745EA0000000741
B1104255551655N01213626EA0000000749
B1104345551598N01213791EA0000000758
B1104395551641N01213868EA0000000762
B1104455551710N01213834EA0000000769
B1104505551729N01213719EA0000000771
B1104575551664N01213586EA0000000776
B1105035551581N01213604EA0000000781
B1105085551547N01213704EA0000000790
B1105145551575N01213825EA0000000793
B1105195551640N01213860EA0000000802
B1105245551703N01213815EA0000000808
B1105305551764N01213703EA0000000811
B1105405551845N01213511EA0000000808
B1105475551907N01213395EA0000000801
B1105545551971N01213284EA0000000794
B1106005552026N01213193EA0000000784
B1106105552122N01213030EA0000000768
B1106215552221N01212831EA0000000757
B1106285552281N01212709EA0000000747
B1106345552332N01212604EA0000000742
B1106405552384N01212496EA0000000745
B1106455552424N01212406EA0000000762
B1106515552474N01212301EA0000000773
B1106595552551N01212165EA0000000773
B1107055552613N01212064EA0000000766
B1107105552663N01211981EA0000000767
B1107155552713N01211905EA0000000760
B1107255552800N01211719EA0000000748
B1107315552844N01211594EA0000000742
B1107365552879N01211489EA0000000737
B1107445552918N01211302EA0000000722
B1108005552757N01211158EA0000000706
B1108065552718N01211280EA0000000699
B1108185552667N01211527EA0000000693
B1108255552643N01211677EA0000000698
B1108305552623N01211787EA0000000696
B1108355552610N01211901EA0000000691
B1108405552628N01212006EA0000000690
B1108475552703N01212078EA0000000681
B1108535552782N01212080EA0000000672
B1109005552872N01212081EA0000000664
B1109075552958N01212082EA0000000658
B1109165553064N01212086EA0000000645
B1109225553138N01212105EA0000000640
B1109275553200N01212129EA0000000642
B1109355553298N01212168EA0000000652
B1109405553359N01212188EA0000000655
B1109485553426N01212075EA0000000651
B1109555553382N01211938EA0000000645
B1110005553312N01211943EA0000000637
B1110055553276N01212040EA0000000637
B1110125553308N01212183EA0000000642
B1110175553345N01212274EA0000000645
B1110225553383N01212369EA0000000643
B1110295553431N01212515EA0000000648
B1110345553469N01212614EA0000000660
B1110395553532N01212615EA0000000675
B1110465553557N01212466EA0000000685
B1110515553503N01212392EA0000000686
B1110565553442N01212434EA0000000694
B1111025553447N01212566EA0000000709
B1111075553506N01212587EA0000000723
B1111125553541N01212492EA0000000730
B1111195553482N01212369EA0000000734
B1111245553426N01212421EA0000000739
B1111295553437N01212531EA0000000747
B1111415553549N01212428EA0000000766
B1111465553515N01212317EA0000000769
B1111535553426N01212329EA0000000776
B1111585553417N01212439EA0000000777
B1112035553465N01212517EA0000000785
B1112105553554N01212494EA0000000805
B1112165553626N01212457EA0000000813
B1112225553701N01212432EA0000000818
B1112365553872N01212401EA0000000813
B1112465553991N01212393EA0000000793
B1112515554049N01212419EA0000000788
B1113065554227N01212519EA0000000776
B1113135554316N01212578EA0000000783
B1113205554403N01212637EA0000000782
B1113265554476N01212692EA0000000778
B1113325554546N01212748EA0000000777
B1114315555272N01212853EA0000000747
B1114475555395N01213104EA0000000745
B1114555555451N01213233EA0000000760
B1115005555447N01213339EA0000000766
B1115215555408N01213165EA0000000796
B1115565555443N01213923EA0000000834
B1116185555456N01214415EA0000000819
B1116275555468N01214612EA0000000803
B1116355555479N01214785EA0000000799
B1116475555488N01215046EA0000000812
B1116525555491N01215151EA0000000821
B1116595555492N01215298EA0000000819
B1117055555491N01215429EA0000000815
B1117135555489N01215605EA0000000815
B1117215555486N01215778EA0000000812
B1117365555448N01216082EA0000000806
B1118145555176N01216684EA0000000783
B1118235555065N01216612EA0000000770
B1118325554955N01216523EA0000000755
B1118415554840N01216435EA0000000754
B1118495554739N01216379EA0000000741
B1118595554614N01216299EA0000000719
B1119055554538N01216255EA0000000714
B1119105554474N01216220EA0000000703
B1119165554396N01216165EA0000000691
B1119245554294N01216097EA0000000690
B1119375554119N01216005EA0000000678
B1119425554052N01215980EA0000000678
B1119485553971N01215953EA0000000668
B1119535553904N01215936EA0000000670
B1120055553747N01215951EA0000000675
B1120135553640N01215963EA0000000682
B1120195553564N01215971EA0000000686
B1120255553484N01215977EA0000000689
B1120305553415N01215981EA0000000687
B1120595553011N01215966EA0000000647
B1121095552880N01215854EA0000000645
B1121195552760N01215714EA0000000642
B1121305552630N01215552EA0000000638
B1121395552526N01215420EA0000000628
B1121485552426N01215271EA0000000612
B1121565552343N01215128EA0000000606
B1122045552268N01214984EA0000000601
B1122095552220N01214894EA0000000598
B1122165552150N01214767EA0000000602
B1122225552089N01214649EA0000000600
B1122295552028N01214511EA0000000597
B1122345551983N01214412EA0000000590
B1122395551941N01214314EA0000000588
B1122455551917N01214173EA0000000580
B1122555551908N01213930EA0000000576
B1123095551912N01213592EA0000000570
B1123145551921N01213465EA0000000570
B1123215551938N01213287EA0000000562
B1123265551953N01213165EA0000000559
B1123325551972N01213019EA0000000550
B1123385551989N01212878EA0000000542
B1123465552009N01212692EA0000000535
B1123565552020N01212455EA0000000526
B1124025552002N01212311EA0000000523
B1124125551979N01212075EA0000000523
B1124195551977N01211895EA0000000516
B1124305551974N01211612EA0000000505
B1124385551985N01211413EA0000000494
B1124435552021N01211311EA0000000488
B1124495552077N01211215EA0000000484
B1124575552159N01211120EA0000000466
B1125065552259N01211047EA0000000453
B1125145552349N01210994EA0000000438
B1125225552449N01210988EA0000000428
B1125315552557N01210985EA0000000415
B1125385552643N01210991EA0000000408
B1125445552714N01211010EA0000000418
B1125505552783N01211027EA0000000424
B1126025552920N01211059EA0000000407
B1126085552986N01211013EA0000000398
B1126135552999N01210899EA0000000388
B1126185552957N01210798EA0000000379
B1126235552886N01210788EA0000000371
B1126285552835N01210878EA0000000370
B1126355552799N01211036EA0000000367
B1126415552776N01211173EA0000000356
B1126525552737N01211420EA0000000341
B1127015552714N01211628EA0000000328
B1127065552700N01211748EA0000000319
B1127115552690N01211876EA0000000306
B1127165552684N01212005EA0000000301
B1127265552674N01212257EA0000000289
B1127315552696N01212363EA0000000285
B1127365552749N01212385EA0000000281
B1127435552772N01212262EA0000000272
B1127485552714N01212187EA0000000269
B1127535552640N01212219EA0000000263
B1128005552620N01212383EA0000000252
B1128065552650N01212520EA0000000245
B1128125552673N01212664EA0000000238
B1128175552677N01212797EA0000000234
B1128245552657N01212993EA0000000225
B1128315552623N01213174EA0000000231
B1128395552590N01213366EA0000000222
B1128465552564N01213541EA0000000211
B1128525552546N01213691EA0000000203
B1128585552538N01213845EA0000000197
B1129085552529N01214096EA0000000189
B1129155552535N01214264EA0000000195
B1129215552561N01214401EA0000000199
B1129265552588N01214507EA0000000201
B1129315552636N01214581EA0000000194
B1129425552766N01214656EA0000000172
B1129485552843N01214668EA0000000159
B1129545552919N01214644EA0000000152
B1129595552966N01214558EA0000000138
B1130075553005N01214364EA0000000113
B1130165553037N01214150EA0000000068
B1130235553059N01213974EA0000000033
B1130295553070N01213828EA0000000016
B1130345553078N01213727EA0000000015
