AOGNOGN
HFDTE190725
HFFXA050
HFPLTPILOTINCHARGE:
HFGTYGLIDERTYPE:Arcus T
HFGIDGLIDERID:OY-NXN
HFDTM100GPSDATUM:WGS-1984
HFRFWFIRMWAREVERSION:
HFRHWHARDWAREVERSION:
HFFTYFRTYPE:OGN-FLIGHTBOOK
HFGPSGENERIC
HFPRSPRESSALTSENSOR:
HFCIDCOMPETITIONID:N1
B0926365553142N01213360EA0000000011
B0926395553135N01213405EA0000000012
B0926475553110N01213573EA0000000011
B0926535553087N01213736EA0000000014
B0926585553064N01213890EA0000000019
B0927055553028N01214113EA0000000034
B0927115552993N01214303EA0000000056
B0927175552957N01214490EA0000000072
B0927245552912N01214714EA0000000087
B0927345552837N01215024EA0000000116
B0927415552780N01215242EA0000000128
B0927485552713N01215452EA0000000151
B0927555552639N01215654EA0000000172
B0928045552537N01215911EA0000000189
B0928125552444N01216143EA0000000210
B0928185552376N01216317EA0000000224
B0928245552307N01216492EA0000000237
B0928325552211N01216726EA0000000254
B0928385552137N01216900EA0000000272
B0928435552076N01217037EA0000000285
B0928495552000N01217208EA0000000297
B0928565551917N01217404EA0000000320
B0929025551845N01217575EA0000000332
B0929075551780N01217708EA0000000342
B0929135551692N01217853EA0000000357
B0929195551587N01217962EA0000000391
B0929255551474N01218030EA0000000420
B0929305551376N01218037EA0000000444
B0929365551261N01217991EA0000000461
B0929415551170N01217927EA0000000480
B0929485551055N01217797EA0000000510
B0929535550976N01217682EA0000000518
B0930015550850N01217502EA0000000546
B0930105550712N01217321EA0000000571
B0930165550621N01217215EA0000000591
B0930215550544N01217131EA0000000597
B0930275550455N01217001EA0000000603
B0930335550406N01216829EA0000000620
B0930415550432N01216581EA0000000631
B0930465550438N01216436EA0000000632
B0930515550383N01216334EA0000000631
B0930565550302N01216342EA0000000623
B0931015550243N01216443EA0000000621
B0931065550228N01216581EA0000000619
B0931125550270N01216729EA0000000627
B0931185550340N01216836EA0000000641
B0931235550413N01216826EA0000000631
B0931285550453N01216708EA0000000616
B0931355550393N01216548EA0000000599
B0931405550314N01216587EA0000000592
B0931455550303N01216726EA0000000592
B0931525550394N01216832EA0000000593
B0931585550483N01216875EA0000000585
B0932045550574N01216902EA0000000575
B0932115550682N01216928EA0000000560
B0932175550776N01216961EA0000000544
B0932265550937N01217039EA0000000494
B0932325551043N01217088EA0000000522
B0932375551119N01217121EA0000000529
B0932455551245N01217156EA0000000536
B0932515551336N01217169EA0000000536
B0933005551467N01217197EA0000000524
B0933065551557N01217222EA0000000514
B0933145551681N01217248EA0000000506
B0933235551830N01217246EA0000000480
B0933305551955N01217193EA0000000471
B0933375552081N01217122EA0000000462
B0933425552175N01217065EA0000000453
B0933545552405N01216917EA0000000445
B0934035552570N01216799EA0000000435
B0934095552677N01216704EA0000000428
B0934145552756N01216589EA0000000416
B0934195552834N01216466EA0000000404
B0934265552960N01216349EA0000000395
B0934315553059N01216363EA0000000386
B0934375553164N01216458EA0000000374
B0934425553246N01216564EA0000000360
B0934475553314N01216702EA0000000352
B0934535553362N01216910EA0000000345
B0934595553388N01217134EA0000000341
B0935045553418N01217312EA0000000339
B0935095553505N01217364EA0000000363
B0935165553532N01217178EA0000000370
B0935215553447N01217146EA0000000373
B0935265553392N01217264EA0000000379
B0935325553413N01217417EA0000000381
B0935375553482N01217401EA0000000383
B0935425553489N01217254EA0000000374
B0935495553378N01217163EA0000000388
B0935545553300N01217216EA0000000391
B0935595553281N01217355EA0000000386
B0936075553378N01217414EA0000000384
B0936125553384N01217267EA0000000392
B0936175553308N01217190EA0000000395
B0936235553225N01217290EA0000000399
B0936285553245N01217420EA0000000398
B0936335553321N01217414EA0000000394
B0936405553305N01217216EA0000000398
B0936455553212N01217231EA0000000407
B0936505553189N01217370EA0000000413
B0936575553281N01217379EA0000000400
B0937025553239N01217244EA0000000403
B0937075553161N01217311EA0000000420
B0937145553213N01217450EA0000000425
B0937195553266N01217371EA0000000431
B0937245553233N01217242EA0000000435
B0937325553118N01217316EA0000000435
B0937375553146N01217439EA0000000435
B0937425553220N01217453EA0000000440
B0937485553254N01217305EA0000000451
B0937535553186N01217201EA0000000444
B0937585553109N01217275EA0000000443
B0938055553157N01217427EA0000000447
B0938105553225N01217354EA0000000460
B0938155553205N01217207EA0000000462
B0938225553096N01217258EA0000000449
B0938275553139N01217371EA0000000446
B0938325553219N01217301EA0000000449
B0938395553188N01217112EA0000000457
B0938445553118N01217197EA0000000446
B0938495553166N01217286EA0000000451
B0938565553208N01217118EA0000000455
B0939015553138N01217030EA0000000460
B0939065553065N01217102EA0000000463
B0939135553107N01217230EA0000000459
B0939185553158N01217136EA0000000453
B0939235553117N01217013EA0000000457
B0939305553006N01217096EA0000000458
B0939375552980N01217266EA0000000466
B0939425553045N01217325EA0000000456
B0939475553089N01217212EA0000000471
B0939525553038N01217090EA0000000468
B0939575552943N01217084EA0000000461
B0940055552794N01217046EA0000000468
B0940115552689N01216983EA0000000470
B0940185552573N01216914EA0000000483
B0940235552490N01216892EA0000000481
B0940285552443N01217002EA0000000471
B0940335552498N01217088EA0000000470
B0940385552551N01216991EA0000000473
B0940435552531N01216854EA0000000485
B0940485552459N01216797EA0000000481
B0940555552347N01216898EA0000000472
B0941005552265N01216947EA0000000476
B0941065552171N01216975EA0000000477
B0941135552053N01217011EA0000000459
B0941195551946N01217056EA0000000454
B0941245551855N01217094EA0000000452
B0941295551761N01217134EA0000000448
B0941345551668N01217178EA0000000449
B0941395551582N01217220EA0000000456
B0941465551470N01217269EA0000000450
B0941525551371N01217306EA0000000442
B0942025551198N01217372EA0000000416
B0942085551089N01217411EA0000000408
B0942135551001N01217445EA0000000408
B0942195550938N01217584EA0000000399
B0942245550987N01217703EA0000000381
B0942295551070N01217724EA0000000383
B0942375551189N01217612EA0000000367
B0942435551267N01217488EA0000000363
B0942485551335N01217388EA0000000352
B0942535551403N01217279EA0000000345
B0943045551555N01217044EA0000000335
B0943105551639N01216935EA0000000335
B0943215551801N01216776EA0000000323
B0943275551893N01216703EA0000000315
B0943325551969N01216641EA0000000312
B0943395552069N01216557EA0000000311
B0943445552136N01216501EA0000000306
B0943515552222N01216424EA0000000304
B0943565552282N01216375EA0000000292
B0944025552358N01216314EA0000000276
B0944075552417N01216253EA0000000291
B0944125552440N01216137EA0000000284
B0944195552420N01215946EA0000000293
B0944245552400N01215819EA0000000296
B0944325552365N01215625EA0000000302
B0944375552344N01215499EA0000000300
B0944445552318N01215318EA0000000305
B0944565552278N01215003EA0000000312
B0945045552254N01214795EA0000000313
B0945095552241N01214665EA0000000315
B0945155552233N01214508EA0000000319
B0945285552230N01214169EA0000000342
B0945335552185N01214056EA0000000337
B0945385552100N01214074EA0000000346
B0945435552094N01214206EA0000000350
B0945485552158N01214202EA0000000364
B0945535552155N01214079EA0000000386
B0946015552035N01214094EA0000000387
B0946065552037N01214224EA0000000400
B0946115552098N01214261EA0000000416
B0946175552139N01214146EA0000000433
B0946225552102N01214030EA0000000431
B0946275552020N01214002EA0000000433
B0946355551945N01214165EA0000000426
B0946405551986N01214266EA0000000424
B0946455552056N01214244EA0000000423
B0946515552094N01214102EA0000000447
B0946565552048N01213995EA0000000440
B0947015551961N01214023EA0000000439
B0947085551972N01214193EA0000000438
B0947135552040N01214181EA0000000452
B0947185552082N01214086EA0000000460
B0947255552021N01213925EA0000000444
B0947305551943N01213984EA0000000449
B0947355551954N01214119EA0000000437
B0947425552052N01214088EA0000000445
B0947475552080N01213967EA0000000451
B0947525552040N01213843EA0000000444
B0947595551933N01213914EA0000000435
B0948045551948N01214046EA0000000440
B0948095552012N01214068EA0000000438
B0948165552076N01213933EA0000000434
B0948225552089N01213758EA0000000434
B0948295552077N01213556EA0000000434
B0948345552062N01213410EA0000000425
B0948395552047N01213258EA0000000416
B0948495552004N01212952EA0000000403
B0948595551951N01212645EA0000000388
B0949065551908N01212431EA0000000381
B0949155551863N01212157EA0000000389
B0949205551912N01212046EA0000000372
B0949255551987N01212090EA0000000368
B0949305551985N01212234EA0000000369
B0949355551917N01212338EA0000000364
B0949405551820N01212342EA0000000359
B0949465551711N01212259EA0000000367
B0949525551632N01212122EA0000000373
B0949575551635N01211976EA0000000372
B0950025551697N01211899EA0000000371
B0950115551826N01211893EA0000000357
B0950165551900N01211837EA0000000356
B0950255552025N01211704EA0000000348
B0950355552163N01211545EA0000000339
B0950445552285N01211408EA0000000358
B0950495552283N01211284EA0000000344
B0950545552201N01211287EA0000000339
B0950595552190N01211421EA0000000332
B0951055552264N01211535EA0000000329
B0951105552330N01211585EA0000000337
B0951155552396N01211604EA0000000325
B0951225552476N01211495EA0000000345
B0951275552464N01211378EA0000000343
B0951325552382N01211401EA0000000346
B0951395552429N01211533EA0000000347
B0951465552459N01211390EA0000000356
B0951515552373N01211378EA0000000357
B0951565552351N01211513EA0000000369
B0952015552413N01211542EA0000000375
B0952065552431N01211432EA0000000378
B0952135552315N01211387EA0000000366
B0952185552303N01211532EA0000000383
B0952245552381N01211524EA0000000389
B0952315552329N01211371EA0000000400
B0952365552262N01211459EA0000000401
B0952415552296N01211591EA0000000403
B0952475552383N01211604EA0000000426
B0952535552407N01211469EA0000000429
B0952585552330N01211412EA0000000442
B0953045552285N01211567EA0000000439
B0953095552347N01211636EA0000000458
B0953145552390N01211541EA0000000464
B0953215552299N01211450EA0000000481
B0953265552269N01211592EA0000000469
B0953315552339N01211633EA0000000492
B0953385552344N01211453EA0000000523
B0953435552267N01211435EA0000000525
B0953485552230N01211570EA0000000522
B0953555552320N01211624EA0000000543
B0954015552365N01211504EA0000000565
B0954065552321N01211398EA0000000572
B0954125552233N01211468EA0000000574
B0954175552256N01211594EA0000000577
B0954225552324N01211571EA0000000598
B0954295552323N01211404EA0000000610
B0954345552235N01211394EA0000000610
B0954395552215N01211534EA0000000624
B0954465552309N01211554EA0000000636
B0954515552304N01211418EA0000000646
B0954565552215N01211402EA0000000655
B0955025552195N01211567EA0000000665
B0955075552267N01211595EA0000000683
B0955125552297N01211476EA0000000693
B0955195552194N01211393EA0000000701
B0955245552160N01211527EA0000000714
B0955295552221N01211599EA0000000714
B0955365552265N01211440EA0000000734
B0955415552186N01211380EA0000000738
B0955465552143N01211509EA0000000742
B0955535552231N01211567EA0000000755
B0955585552238N01211427EA0000000767
B0956035552152N01211412EA0000000767
B0956105552163N01211602EA0000000784
B0956155552237N01211573EA0000000787
B0956205552237N01211421EA0000000794
B0956275552119N01211410EA0000000808
B0956325552097N01211554EA0000000816
B0956375552156N01211648EA0000000811
B0956445552238N01211524EA0000000820
B0956495552192N01211389EA0000000822
B0956545552106N01211419EA0000000834
B0957015552119N01211610EA0000000840
B0957065552196N01211604EA0000000853
B0957115552223N01211474EA0000000853
B0957185552131N01211359EA0000000864
B0957235552074N01211460EA0000000866
B0957285552099N01211590EA0000000871
B0957355552201N01211576EA0000000870
B0957405552236N01211443EA0000000878
B0957465552198N01211276EA0000000875
B0957525552097N01211236EA0000000887
B0957575552042N01211334EA0000000881
B0958025552068N01211463EA0000000884
B0958095552170N01211469EA0000000893
B0958145552238N01211402EA0000000897
B0958195552275N01211271EA0000000896
B0958265552274N01211047EA0000000878
B0958325552250N01210831EA0000000846
B0958455552168N01210320EA0000000825
B0958515552127N01210092EA0000000820
B0959015552078N01209716EA0000000823
B0959125552032N01209327EA0000000824
B0959205551957N01209144EA0000000850
B0959255551884N01209193EA0000000857
B0959315551863N01209351EA0000000857
B0959365551921N01209451EA0000000860
B0959425552006N01209405EA0000000864
B0959515551983N01209149EA0000000839
B0959565551934N01208991EA0000000841
B1000015551886N01208830EA0000000847
B1000085551823N01208597EA0000000841
B1000155551757N01208357EA0000000840
B1000215551699N01208153EA0000000833
B1000265551646N01207985EA0000000824
B1000425551412N01207758EA0000000827
B1000505551400N01207964EA0000000810
B1000565551481N01208079EA0000000796
B1001025551570N01208207EA0000000763
B1001085551671N01208345EA0000000752
B1001165551806N01208509EA0000000747
B1001235551922N01208663EA0000000737
B1001325552075N01208868EA0000000738
B1001415552230N01209063EA0000000740
B1001505552390N01209270EA0000000718
B1001585552543N01209457EA0000000705
B1002065552696N01209645EA0000000697
B1002115552788N01209767EA0000000688
B1002165552879N01209890EA0000000679
B1002225552988N01210037EA0000000674
B1002285553096N01210178EA0000000669
B1002365553237N01210352EA0000000660
B1002415553319N01210447EA0000000668
B1002475553410N01210563EA0000000648
B1002535553496N01210704EA0000000640
B1003005553566N01210884EA0000000641
B1003055553590N01211033EA0000000633
B1003135553563N01211280EA0000000620
B1003205553518N01211500EA0000000601
B1003255553487N01211661EA0000000598
B1003305553455N01211817EA0000000600
B1003355553422N01211973EA0000000598
B1003445553364N01212252EA0000000601
B1003495553325N01212391EA0000000600
B1003565553252N01212563EA0000000588
B1004045553170N01212782EA0000000582
B1004115553114N01212975EA0000000582
B1004175553072N01213143EA0000000569
B1004225553012N01213256EA0000000571
B1004285552913N01213322EA0000000575
B1004345552813N01213369EA0000000579
B1004395552738N01213431EA0000000583
B1004465552625N01213498EA0000000570
B1004555552466N01213525EA0000000562
B1005015552357N01213540EA0000000560
B1005065552277N01213595EA0000000561
B1005125552188N01213681EA0000000563
B1005185552097N01213751EA0000000569
B1005235552013N01213757EA0000000569
B1005295551912N01213760EA0000000564
B1005365551794N01213741EA0000000556
B1005425551688N01213744EA0000000544
B1005495551567N01213773EA0000000544
B1005565551443N01213819EA0000000534
B1006025551334N01213867EA0000000521
B1006085551219N01213931EA0000000520
B1006145551109N01213998EA0000000521
B1006215550984N01214082EA0000000518
B1006315550819N01214239EA0000000516
B1006365550743N01214328EA0000000523
B1006415550674N01214431EA0000000537
B1006465550667N01214559EA0000000546
B1006535550752N01214566EA0000000548
B1006585550781N01214439EA0000000552
B1007035550755N01214294EA0000000556
B1007105550649N01214202EA0000000569
B1007155550573N01214250EA0000000574
B1007205550533N01214368EA0000000575
B1007275550590N01214495EA0000000582
B1007325550643N01214428EA0000000595
B1007375550623N01214288EA0000000599
B1007445550513N01214267EA0000000620
B1007495550479N01214381EA0000000618
B1007555550527N01214525EA0000000623
B1008015550600N01214546EA0000000643
B1008065550625N01214420EA0000000637
B1008115550572N01214301EA0000000649
B1008185550463N01214334EA0000000662
B1008235550442N01214456EA0000000672
B1008285550480N01214546EA0000000677
B1008355550567N01214516EA0000000678
B1008425550592N01214334EA0000000675
B1008475550532N01214230EA0000000685
B1008525550455N01214260EA0000000694
B1008575550428N01214391EA0000000694
B1009025550441N01214514EA0000000711
B1009105550522N01214635EA0000000722
B1009155550585N01214597EA0000000714
B1009205550587N01214446EA0000000705
B1009265550501N01214364EA0000000726
B1009315550434N01214433EA0000000722
B1009365550410N01214560EA0000000739
B1009435550477N01214673EA0000000735
B1009485550543N01214611EA0000000745
B1009535550545N01214473EA0000000738
B1010005550429N01214456EA0000000739
B1010055550412N01214589EA0000000735
B1010105550461N01214711EA0000000749
B1010175550541N01214803EA0000000774
B1010225550604N01214733EA0000000768
B1010275550580N01214601EA0000000786
B1010345550486N01214652EA0000000788
B1010395550509N01214764EA0000000795
B1010455550592N01214739EA0000000808
B1010515550590N01214587EA0000000810
B1010565550512N01214553EA0000000810
B1011015550468N01214648EA0000000824
B1011095550539N01214786EA0000000828
B1011145550616N01214813EA0000000839
B1011205550705N01214815EA0000000846
B1011255550759N01214731EA0000000831
B1011315550738N01214549EA0000000835
B1011395550618N01214513EA0000000837
B1011445550564N01214614EA0000000841
B1011495550558N01214738EA0000000840
B1011545550588N01214863EA0000000827
B1011595550631N01215002EA0000000818
B1012055550688N01215166EA0000000812
B1012115550746N01215337EA0000000795
B1012165550790N01215490EA0000000789
B1012215550808N01215655EA0000000782
B1012265550824N01215827EA0000000764
B1012325550842N01216053EA0000000743
B1012455550877N01216557EA0000000719
B1012515550895N01216792EA0000000715
B1012565550914N01216980EA0000000728
B1013015550961N01217096EA0000000761
B1013065551035N01217070EA0000000758
B1013115551050N01216934EA0000000766
B1013165550983N01216838EA0000000767
B1013235550868N01216844EA0000000773
B1013285550865N01216975EA0000000756
B1013335550930N01217057EA0000000766
B1013405551032N01217037EA0000000766
B1013455551085N01216925EA0000000776
B1013505551083N01216787EA0000000792
B1013575550978N01216788EA0000000780
B1014025550970N01216926EA0000000783
B1014075551021N01217030EA0000000786
B1014145551126N01217025EA0000000799
B1014195551188N01216977EA0000000819
B1014245551230N01216882EA0000000802
B1014315551181N01216701EA0000000790
B1014395551047N01216695EA0000000778
B1014485550914N01216803EA0000000783
B1014535550851N01216887EA0000000786
B1014585550814N01216994EA0000000785
B1015065550850N01217203EA0000000769
B1015125550894N01217356EA0000000779
B1015175550932N01217467EA0000000790
B1015225550972N01217564EA0000000797
B1015285551051N01217591EA0000000784
B1015335551109N01217499EA0000000795
B1015395551104N01217329EA0000000779
B1015465551027N01217155EA0000000793
B1015515550954N01217125EA0000000794
B1015575550892N01217246EA0000000778
B1016025550914N01217366EA0000000789
B1016075550983N01217383EA0000000784
B1016135551061N01217294EA0000000791
B1016185551071N01217156EA0000000779
B1016245551013N01216995EA0000000790
B1016315550932N01216854EA0000000792
B1016395550906N01216626EA0000000792
B1016445550960N01216537EA0000000792
B1016495551030N01216541EA0000000790
B1016565551077N01216688EA0000000787
B1017015551058N01216815EA0000000785
B1017075550988N01216917EA0000000789
B1017125550912N01216932EA0000000788
B1017215550792N01216803EA0000000781
B1017265550767N01216671EA0000000771
B1017315550791N01216530EA0000000765
B1017385550843N01216319EA0000000723
B1017435550892N01216128EA0000000685
B1017515550980N01215801EA0000000661
B1017565551033N01215597EA0000000658
B1018025551092N01215354EA0000000655
B1018125551191N01214971EA0000000669
B1018205551248N01214724EA0000000694
B1018295551310N01214470EA0000000691
B1018375551360N01214247EA0000000700
B1018435551391N01214078EA0000000706
B1018505551435N01213885EA0000000719
B1018555551494N01213823EA0000000717
B1019025551564N01213950EA0000000701
B1019075551540N01214098EA0000000702
B1019135551465N01214229EA0000000721
B1019195551368N01214240EA0000000729
B1019245551313N01214122EA0000000732
B1019295551337N01213987EA0000000743
B1019375551441N01213996EA0000000740
B1019425551449N01214127EA0000000738
B1019475551386N01214225EA0000000746
B1019535551282N01214213EA0000000750
B1019595551238N01214050EA0000000755
B1020045551285N01213932EA0000000763
B1020105551366N01213973EA0000000766
B1020155551363N01214100EA0000000759
B1020215551272N01214179EA0000000760
B1020275551171N01214098EA0000000762
B1020335551113N01213916EA0000000776
B1020385551104N01213751EA0000000787
B1020445551172N01213652EA0000000793
B1020495551242N01213702EA0000000779
B1020545551288N01213822EA0000000773
B1021015551385N01213866EA0000000780
B1021075551455N01213738EA0000000774
B1021125551502N01213615EA0000000772
B1021195551572N01213457EA0000000760
B1021245551620N01213341EA0000000753
B1021295551664N01213219EA0000000741
B1021365551712N01213015EA0000000708
B1021425551715N01212793EA0000000692
B1021535551650N01212399EA0000000680
B1021595551605N01212192EA0000000673
B1022095551502N01211817EA0000000639
B1022165551420N01211571EA0000000646
B1022235551330N01211363EA0000000684
B1022285551245N01211314EA0000000692
B1022335551180N01211401EA0000000695
B1022385551191N01211530EA0000000696
B1022435551257N01211573EA0000000697
B1022485551317N01211483EA0000000697
B1022535551341N01211341EA0000000710
B1023005551282N01211189EA0000000700
B1023055551206N01211256EA0000000691
B1023105551208N01211384EA0000000702
B1023175551293N01211464EA0000000707
B1023225551360N01211429EA0000000721
B1023275551404N01211332EA0000000731
B1023345551372N01211164EA0000000715
B1023395551294N01211121EA0000000712
B1023465551182N01211136EA0000000703
B1023525551094N01211031EA0000000691
B1023575551057N01210887EA0000000685
B1024025551057N01210734EA0000000686
B1024085551094N01210577EA0000000674
B1024145551167N01210470EA0000000674
B1024215551252N01210351EA0000000666
B1024285551348N01210270EA0000000654
B1024335551412N01210196EA0000000641
B1024395551424N01210008EA0000000615
B1024455551417N01209779EA0000000597
B1024505551403N01209593EA0000000628
B1024555551381N01209442EA0000000652
B1025015551337N01209286EA0000000648
B1025065551262N01209251EA0000000639
B1025115551199N01209328EA0000000639
B1025165551193N01209458EA0000000629
B1025225551274N01209488EA0000000616
B1025285551328N01209322EA0000000597
B1025335551351N01209170EA0000000605
B1025395551373N01208983EA0000000591
B1025445551390N01208819EA0000000598
B1025495551405N01208670EA0000000622
B1025555551482N01208584EA0000000628
B1026005551536N01208680EA0000000637
B1026075551465N01208825EA0000000654
B1026125551391N01208759EA0000000655
B1026185551391N01208577EA0000000668
B1026235551456N01208499EA0000000682
B1026285551524N01208550EA0000000690
B1026335551544N01208680EA0000000696
B1026405551465N01208785EA0000000710
B1026455551392N01208714EA0000000705
B1026505551384N01208567EA0000000716
B1026585551487N01208497EA0000000736
B1027035551509N01208620EA0000000743
B1027095551445N01208718EA0000000755
B1027145551376N01208646EA0000000751
B1027195551373N01208501EA0000000755
B1027245551436N01208436EA0000000773
B1027315551501N01208557EA0000000773
B1027365551457N01208664EA0000000784
B1027415551379N01208654EA0000000777
B1027485551351N01208456EA0000000774
B1027535551417N01208363EA0000000794
B1027585551486N01208379EA0000000802
B1028115551396N01208568EA0000000811
B1028165551320N01208498EA0000000821
B1028225551310N01208345EA0000000831
B1028275551368N01208286EA0000000838
B1028325551421N01208346EA0000000849
B1028405551373N01208521EA0000000849
B1028455551298N01208502EA0000000863
B1028525551274N01208320EA0000000857
B1028585551345N01208234EA0000000872
B1029035551407N01208247EA0000000872
B1029105551452N01208408EA0000000874
B1029185551395N01208571EA0000000871
B1029245551301N01208527EA0000000871
B1029305551308N01208349EA0000000868
B1029365551399N01208314EA0000000878
B1029415551439N01208425EA0000000872
B1029475551391N01208567EA0000000868
B1029575551211N01208543EA0000000886
B1030045551097N01208496EA0000000896
B1030115550984N01208451EA0000000900
B1030225550807N01208398EA0000000902
B1030315550663N01208379EA0000000892
B1030395550522N01208387EA0000000884
B1030475550384N01208400EA0000000891
B1030525550303N01208419EA0000000898
B1030585550207N01208450EA0000000892
B1031065550090N01208515EA0000000884
B1031155549973N01208653EA0000000883
B1031215549914N01208769EA0000000871
B1031295549847N01208949EA0000000865
B1031345549777N01209008EA0000000857
B1031425549654N01209065EA0000000852
B1031495549532N01209136EA0000000827
B1031585549368N01209257EA0000000819
B1032045549262N01209330EA0000000810
B1032105549150N01209413EA0000000779
B1032165549035N01209533EA0000000760
B1032215548940N01209642EA0000000752
B1032265548845N01209760EA0000000749
B1032315548753N01209880EA0000000754
B1032365548670N01210002EA0000000758
B1032425548603N01210187EA0000000747
B1032475548519N01210304EA0000000740
B1032535548403N01210400EA0000000728
B1033025548217N01210560EA0000000691
B1033115548028N01210730EA0000000684
B1033185547880N01210863EA0000000664
B1033275547694N01211042EA0000000653
B1033335547570N01211171EA0000000635
B1033385547466N01211280EA0000000627
B1033445547344N01211421EA0000000612
B1033555547121N01211688EA0000000601
B1034015547011N01211838EA0000000622
B1034075546926N01211951EA0000000669
B1034125546886N01212048EA0000000673
B1034195546923N01212207EA0000000673
B1034245546984N01212218EA0000000677
B1034325547048N01212048EA0000000681
B1034385547060N01211887EA0000000694
B1034435547007N01211782EA0000000691
B1034485546927N01211782EA0000000700
B1034545546869N01211899EA0000000707
B1035005546854N01212046EA0000000718
B1035055546860N01212163EA0000000726
B1035115546922N01212241EA0000000719
B1035165546982N01212186EA0000000725
B1035215546997N01212052EA0000000727
B1035275546932N01211931EA0000000738
B1035325546854N01211960EA0000000740
B1035375546833N01212085EA0000000739
B1035445546912N01212149EA0000000752
B1035495546959N01212051EA0000000750
B1035565547004N01211874EA0000000771
B1036025547031N01211730EA0000000769
B1036095546985N01211564EA0000000749
B1036175546883N01211659EA0000000725
B1036235546891N01211845EA0000000732
B1036295546912N01212006EA0000000757
B1036355546964N01212110EA0000000772
B1036405547033N01212077EA0000000771
B1036455547069N01211963EA0000000780
B1036525546986N01211844EA0000000747
B1036575546906N01211904EA0000000751
B1037035546868N01212056EA0000000761
B1037115546876N01212257EA0000000777
B1037175546939N01212340EA0000000763
B1037225547014N01212292EA0000000752
B1037325547126N01212096EA0000000760
B1037375547152N01211965EA0000000758
B1037425547142N01211822EA0000000759
B1037485547101N01211656EA0000000753
B1037565547031N01211443EA0000000734
B1038015546987N01211312EA0000000737
B1038075546931N01211157EA0000000727
B1038125546879N01211031EA0000000719
B1038185546814N01210893EA0000000717
B1038265546725N01210734EA0000000716
B1038325546663N01210609EA0000000717
B1038385546610N01210487EA0000000736
B1038455546515N01210443EA0000000729
B1038505546460N01210550EA0000000743
B1038565546499N01210678EA0000000751
B1039015546562N01210622EA0000000755
B1039065546557N01210493EA0000000767
B1039115546485N01210454EA0000000766
B1039165546428N01210566EA0000000771
B1039235546474N01210719EA0000000791
B1039295546543N01210636EA0000000789
B1039345546534N01210504EA0000000808
B1039405546451N01210450EA0000000809
B1039455546380N01210527EA0000000815
B1039505546370N01210667EA0000000827
B1039575546459N01210713EA0000000832
B1040025546500N01210595EA0000000839
B1040095546502N01210418EA0000000863
B1040145546434N01210365EA0000000851
B1040195546364N01210445EA0000000855
B1040255546347N01210606EA0000000871
B1040315546404N01210702EA0000000882
B1040385546499N01210659EA0000000879
B1040495546619N01210489EA0000000886
B1041095546435N01210254EA0000000921
B1041165546433N01210447EA0000000928
B1041225546515N01210486EA0000000932
B1041285546580N01210374EA0000000941
B1041345546612N01210228EA0000000958
B1041395546585N01210115EA0000000961
B1041445546511N01210107EA0000000954
B1041505546477N01210274EA0000000960
B1041565546554N01210376EA0000000974
B1042015546621N01210297EA0000000981
B1042065546616N01210168EA0000000996
B1042135546516N01210160EA0000001002
B1042185546488N01210290EA0000001006
B1042235546539N01210402EA0000001012
B1042315546654N01210327EA0000001018
B1042365546677N01210195EA0000001018
B1042425546627N01210051EA0000001030
B1042475546552N01209991EA0000001037
B1042525546485N01210071EA0000001051
B1042575546502N01210198EA0000001060
B1043045546606N01210224EA0000001073
B1043095546651N01210115EA0000001069
B1043155546618N01209967EA0000001092
B1043215546524N01209990EA0000001094
B1043275546497N01210140EA0000001123
B1043325546551N01210242EA0000001115
B1043385546656N01210204EA0000001116
B1043435546722N01210077EA0000001111
B1043515546815N01209824EA0000001088
B1043575546875N01209597EA0000001079
B1044045546945N01209319EA0000001061
B1044095546993N01209110EA0000001054
B1044185547076N01208727EA0000001046
B1044235547116N01208512EA0000001044
B1044295547166N01208253EA0000001044
B1044355547221N01207995EA0000001049
B1044415547278N01207740EA0000001046
B1044495547358N01207398EA0000001031
B1044545547418N01207195EA0000001023
B1045025547506N01206869EA0000001013
B1045115547590N01206496EA0000001002
B1045195547654N01206183EA0000000996
B1045255547699N01205951EA0000000977
B1045325547741N01205663EA0000000963
B1045375547759N01205450EA0000000955
B1045465547789N01205069EA0000000946
B1045545547813N01204738EA0000000937
B1046055547836N01204295EA0000000921
B1046105547847N01204089EA0000000915
B1046175547856N01203806EA0000000920
B1046445547865N01202663EA0000000897
B1046535547885N01202307EA0000000887
B1047035547893N01201910EA0000000871
B1047095547905N01201674EA0000000864
B1047145547916N01201472EA0000000857
B1047215547940N01201185EA0000000844
B1047275547983N01200942EA0000000837
B1047385548067N01200512EA0000000833
B1047445548111N01200289EA0000000831
B1047525548162N01159994EA0000000825
B1047595548201N01159731EA0000000823
B1048045548225N01159565EA0000000848
B1048095548251N01159426EA0000000848
B1048175548340N01159260EA0000000827
B1048225548420N01159249EA0000000816
B1048275548475N01159344EA0000000810
B1048345548481N01159554EA0000000795
B1048405548450N01159718EA0000000823
B1048455548476N01159823EA0000000811
B1048515548557N01159848EA0000000810
B1049035548554N01159618EA0000000796
B1049085548475N01159663EA0000000793
B1049135548420N01159778EA0000000788
B1049185548379N01159900EA0000000789
B1049245548340N01200049EA0000000802
B1049295548289N01200149EA0000000812
B1049375548165N01200141EA0000000821
B1049435548136N01159980EA0000000827
B1049485548192N01159909EA0000000820
B1049535548247N01159999EA0000000813
B1049595548225N01200163EA0000000834
B1050055548135N01200235EA0000000845
B1050115548037N01200214EA0000000849
B1050165547989N01200095EA0000000841
B1050215548010N01159950EA0000000815
B1050265548083N01159915EA0000000812
B1050315548114N01200051EA0000000793
B1050365548101N01200213EA0000000810
B1050425548087N01200380EA0000000827
B1050495548098N01200560EA0000000832
B1050565548143N01200736EA0000000822
B1051025548159N01200905EA0000000819
B1051085548168N01201091EA0000000786
B1051135548176N01201284EA0000000757
B1051225548182N01201665EA0000000732
B1051275548184N01201884EA0000000718
B1051355548193N01202233EA0000000711
B1051405548198N01202448EA0000000707
B1051495548215N01202825EA0000000699
B1051555548222N01203068EA0000000693
B1052005548229N01203277EA0000000675
B1052065548237N01203532EA0000000677
B1052125548247N01203775EA0000000673
B1052185548250N01204016EA0000000669
B1052235548257N01204218EA0000000660
B1052285548261N01204421EA0000000655
B1052335548232N01204619EA0000000646
B1052405548190N01204898EA0000000633
B1052455548165N01205098EA0000000627
B1052505548142N01205298EA0000000617
B1052575548107N01205582EA0000000600
B1053035548076N01205825EA0000000593
B1053095548045N01206069EA0000000600
B1053145548026N01206250EA0000000638
B1053195548012N01206395EA0000000655
B1053245548004N01206533EA0000000647
B1053315547984N01206754EA0000000616
B1053365547965N01206926EA0000000609
B1053415547946N01207099EA0000000606
B1053495547917N01207377EA0000000598
B1053545547895N01207563EA0000000589
B1054015547857N01207819EA0000000581
B1054085547806N01208075EA0000000564
B1054155547725N01208305EA0000000564
B1054225547641N01208535EA0000000561
B1054285547577N01208730EA0000000571
B1054345547528N01208901EA0000000598
B1054395547524N01209045EA0000000592
B1054445547577N01209158EA0000000590
B1054495547648N01209171EA0000000604
B1054565547723N01209056EA0000000590
B1055015547780N01208953EA0000000577
B1055075547874N01208938EA0000000584
B1055155547970N01209060EA0000000588
B1055205547992N01209200EA0000000587
B1055265547956N01209360EA0000000601
B1055335547852N01209446EA0000000612
B1055385547772N01209412EA0000000624
B1055435547716N01209309EA0000000630
B1055485547708N01209171EA0000000637
B1055535547752N01209080EA0000000637
B1055595547832N01209104EA0000000637
B1056045547864N01209212EA0000000641
B1056105547834N01209367EA0000000644
B1056155547763N01209441EA0000000657
B1056215547665N01209423EA0000000666
B1056265547601N01209327EA0000000672
B1056335547584N01209138EA0000000682
B1056385547631N01209044EA0000000673
B1056445547715N01209079EA0000000669
B1056495547740N01209210EA0000000667
B1056555547703N01209379EA0000000680
B1057035547582N01209468EA0000000692
B1057085547522N01209351EA0000000694
B1057135547550N01209220EA0000000704
B1057225547647N01209332EA0000000716
B1057315547529N01209447EA0000000735
B1057365547478N01209325EA0000000745
B1057415547511N01209215EA0000000754
B1057465547578N01209224EA0000000758
B1057525547606N01209363EA0000000772
B1057585547539N01209474EA0000000780
B1058035547458N01209435EA0000000793
B1058085547430N01209299EA0000000793
B1058135547479N01209200EA0000000795
B1058195547555N01209269EA0000000802
B1058245547539N01209404EA0000000816
B1058295547458N01209436EA0000000826
B1058365547400N01209269EA0000000832
B1058415547453N01209186EA0000000834
B1058465547519N01209243EA0000000837
B1058535547511N01209425EA0000000852
B1058585547432N01209470EA0000000866
B1059035547364N01209391EA0000000882
B1059105547384N01209218EA0000000877
B1059155547456N01209218EA0000000881
B1059205547489N01209337EA0000000891
B1059285547392N01209463EA0000000905
B1059335547332N01209359EA0000000915
B1059385547357N01209231EA0000000915
B1059445547444N01209253EA0000000917
B1059515547428N01209441EA0000000931
B1059565547343N01209458EA0000000943
B1100015547292N01209340EA0000000948
B1100065547321N01209205EA0000000941
B1100125547417N01209218EA0000000941
B1100185547439N01209384EA0000000966
B1100315547265N01209377EA0000000975
B1100365547270N01209235EA0000000974
B1100415547338N01209167EA0000000973
B1100465547409N01209227EA0000000977
B1100525547431N01209389EA0000000987
B1100575547388N01209512EA0000000994
B1101025547307N01209552EA0000000999
B1101115547223N01209345EA0000000997
B1101165547274N01209224EA0000000996
B1101215547357N01209231EA0000000999
B1101265547403N01209351EA0000001006
B1101325547389N01209538EA0000000995
B1101375547348N01209691EA0000001013
B1101435547305N01209832EA0000001047
B1101485547313N01209967EA0000001030
B1101535547390N01210017EA0000001035
B1102035547448N01209767EA0000001014
B1102085547387N01209659EA0000001004
B1102145547280N01209706EA0000001015
B1102205547203N01209796EA0000001037
B1102255547156N01209909EA0000001033
B1102315547137N01210086EA0000001033
B1102365547133N01210234EA0000001033
B1102415547126N01210378EA0000001033
B1102515547114N01210682EA0000001018
B1102575547104N01210890EA0000000987
B1103025547094N01211080EA0000000974
B1103085547082N01211314EA0000000970
B1103135547071N01211500EA0000000995
B1103205547050N01211712EA0000000981
B1103255547035N01211899EA0000000959
B1103345547014N01212254EA0000000947
B1103425547030N01212574EA0000000939
B1103475547058N01212767EA0000000936
B1103535547097N01212995EA0000000926
B1103595547128N01213225EA0000000919
B1104045547151N01213416EA0000000911
B1104105547172N01213645EA0000000903
B1104165547185N01213875EA0000000896
B1104215547192N01214070EA0000000895
B1104285547198N01214349EA0000000885
B1104365547207N01214672EA0000000871
B1104445547221N01214995EA0000000870
B1104495547232N01215188EA0000000868
B1104575547249N01215494EA0000000862
B1105065547266N01215841EA0000000854
B1105115547273N01216034EA0000000851
B1105165547277N01216225EA0000000848
B1105295547280N01216721EA0000000818
B1105405547271N01217135EA0000000809
B1105455547254N01217313EA0000000801
B1105535547206N01217591EA0000000797
B1105595547154N01217788EA0000000798
B1106045547105N01217940EA0000000807
B1106095547028N01218036EA0000000813
B1106155546918N01218107EA0000000801
B1106205546882N01218267EA0000000794
B1106255546931N01218420EA0000000791
B1106315547045N01218485EA0000000797
B1106365547140N01218441EA0000000797
B1106415547221N01218338EA0000000797
B1106485547317N01218166EA0000000802
B1106535547378N01218028EA0000000803
B1106585547434N01217881EA0000000812
B1107055547383N01217690EA0000000809
B1107105547308N01217759EA0000000810
B1107155547335N01217893EA0000000816
B1107225547448N01217875EA0000000827
B1107285547518N01217745EA0000000849
B1107335547543N01217605EA0000000848
B1107415547438N01217500EA0000000838
B1107475547412N01217644EA0000000835
B1107525547472N01217719EA0000000827
B1107575547552N01217679EA0000000839
B1108055547645N01217519EA0000000856
B1108105547675N01217392EA0000000849
B1108165547621N01217245EA0000000829
B1108215547541N01217269EA0000000827
B1108265547530N01217397EA0000000817
B1108315547596N01217468EA0000000815
B1108365547682N01217434EA0000000810
B1108425547774N01217349EA0000000808
B1108485547872N01217266EA0000000786
B1108555548000N01217185EA0000000769
B1109015548114N01217116EA0000000764
B1109065548207N01217062EA0000000768
B1109115548299N01217012EA0000000759
B1109165548397N01216962EA0000000751
B1109235548536N01216896EA0000000746
B1109285548632N01216850EA0000000751
B1109345548745N01216795EA0000000753
B1109445548940N01216702EA0000000737
B1109505549061N01216656EA0000000729
B1109595549247N01216604EA0000000711
B1110045549348N01216575EA0000000702
B1110125549510N01216533EA0000000687
B1110245549758N01216479EA0000000666
B1110295549863N01216455EA0000000663
B1110345549967N01216426EA0000000664
B1110405550089N01216379EA0000000658
B1110465550209N01216312EA0000000647
B1110535550348N01216219EA0000000635
B1111045550568N01216067EA0000000619
B1111095550669N01216000EA0000000607
B1111195550876N01215881EA0000000602
B1111245550970N01215840EA0000000640
B1111305551063N01215799EA0000000646
B1111365551113N01215642EA0000000636
B1111415551056N01215525EA0000000637
B1111465550973N01215573EA0000000636
B1111535550977N01215772EA0000000636
B1111585551055N01215845EA0000000649
B1112035551128N01215798EA0000000663
B1112105551104N01215607EA0000000659
B1112155551031N01215666EA0000000662
B1112205551054N01215805EA0000000666
B1112275551165N01215846EA0000000678
B1112325551221N01215752EA0000000672
B1112375551193N01215609EA0000000670
B1112445551085N01215688EA0000000679
B1112495551123N01215800EA0000000704
B1112545551188N01215731EA0000000681
B1113025551095N01215592EA0000000703
B1113075551063N01215723EA0000000708
B1113135551144N01215784EA0000000713
B1113195551183N01215620EA0000000714
B1113275551067N01215576EA0000000730
B1113325551063N01215720EA0000000736
B1113385551149N01215760EA0000000743
B1113445551183N01215606EA0000000736
B1113495551111N01215519EA0000000748
B1113555551033N01215620EA0000000749
B1114015551068N01215783EA0000000759
B1114065551146N01215800EA0000000757
B1114125551195N01215643EA0000000743
B1114175551147N01215497EA0000000755
B1114235551051N01215444EA0000000770
B1114285550997N01215547EA0000000774
B1114335551022N01215673EA0000000778
B1114385551103N01215686EA0000000777
B1114435551147N01215560EA0000000776
B1114485551104N01215423EA0000000786
B1114535551021N01215424EA0000000793
B1115005551001N01215608EA0000000793
B1115055551075N01215659EA0000000803
B1115105551135N01215570EA0000000796
B1115175551095N01215365EA0000000799
B1115225551008N01215356EA0000000807
B1115275550963N01215476EA0000000810
B1115345551034N01215611EA0000000818
B1115395551104N01215548EA0000000815
B1115445551126N01215387EA0000000810
B1115515551135N01215191EA0000000849
B1115565551144N01215062EA0000000855
B1116015551158N01214937EA0000000864
B1116095551192N01214733EA0000000866
B1116145551217N01214600EA0000000864
B1116205551261N01214446EA0000000860
B1116255551313N01214337EA0000000857
B1116345551438N01214223EA0000000849
B1116425551558N01214239EA0000000838
B1116475551634N01214300EA0000000807
B1116535551743N01214393EA0000000775
B1116595551880N01214494EA0000000680
B1117065552090N01214646EA0000000610
B1117125552279N01214779EA0000000606
B1117195552499N01214927EA0000000581
B1117255552696N01215047EA0000000571
B1117305552857N01215142EA0000000548
B1117355553001N01215219EA0000000614
B1117405553117N01215177EA0000000636
B1117455553143N01214964EA0000000616
B1117505553055N01214770EA0000000575
B1117575552888N01214568EA0000000569
B1118035552742N01214400EA0000000550
B1118085552620N01214259EA0000000536
B1118135552499N01214109EA0000000532
B1118195552349N01213924EA0000000518
B1118285552124N01213658EA0000000520
B1118335552003N01213526EA0000000518
B1118405551894N01213261EA0000000497
B1118485551928N01212856EA0000000476
B1118545551956N01212557EA0000000467
B1118595552026N01212354EA0000000459
B1119045552136N01212222EA0000000442
B1119095552263N01212139EA0000000442
B1119145552393N01212081EA0000000430
B1119245552669N01211982EA0000000403
B1119315552857N01211952EA0000000411
B1119375553011N01211942EA0000000412
B1119425553135N01211974EA0000000399
B1119485553273N01212096EA0000000383
B1119565553436N01212317EA0000000374
B1120015553526N01212473EA0000000370
B1120065553590N01212664EA0000000369
B1120115553607N01212879EA0000000372
B1120165553547N01213066EA0000000377
B1120225553408N01213084EA0000000398
B1120275553371N01212910EA0000000418
B1120325553464N01212859EA0000000412
B1120395553463N01213084EA0000000419
B1120445553374N01213019EA0000000406
B1120515553324N01212738EA0000000403
B1120565553285N01212527EA0000000387
B1121015553240N01212311EA0000000374
B1121065553192N01212097EA0000000367
B1121145553113N01211770EA0000000354
B1121195553064N01211579EA0000000354
B1121255553005N01211382EA0000000321
B1121305552955N01211232EA0000000288
B1121355552899N01211091EA0000000281
B1121425552792N01210974EA0000000291
B1121475552707N01210963EA0000000282
B1121525552628N01211009EA0000000271
B1121575552603N01211146EA0000000259
B1122045552670N01211310EA0000000243
B1122125552751N01211517EA0000000238
B1122215552784N01211785EA0000000229
B1122275552773N01211974EA0000000218
B1122345552751N01212194EA0000000209
B1122415552727N01212414EA0000000208
B1122495552701N01212658EA0000000208
B1122565552679N01212868EA0000000201
B1123075552649N01213192EA0000000191
B1123125552632N01213332EA0000000187
B1123175552614N01213469EA0000000180
B1123235552589N01213638EA0000000171
B1123295552566N01213801EA0000000177
B1123385552538N01214043EA0000000162
B1123435552530N01214184EA0000000156
B1123495552560N01214344EA0000000157
B1123565552613N01214510EA0000000144
B1124055552728N01214648EA0000000128
B1124125552833N01214717EA0000000133
B1124195552937N01214726EA0000000132
B1124265552986N01214559EA0000000105
B1124325553005N01214389EA0000000071
B1124385553025N01214215EA0000000037
B1124455553049N01214021EA0000000016
B1124505553061N01213913EA0000000017
