AOGNOGN
HFDTE190725
HFFXA050
HFPLTPILOTINCHARGE:
HFGTYGLIDERTYPE:Duo Discus
HFGIDGLIDERID:OY-XVF
HFDTM100GPSDATUM:WGS-1984
HFRFWFIRMWAREVERSION:
HFRHWHARDWAREVERSION:
HFFTYFRTYPE:OGN-FLIGHTBOOK
HFGPSGENERIC
HFPRSPRESSALTSENSOR:
HFCIDCOMPETITIONID:VF
B1013435553141N01213375EA0000000014
B1013465553136N01213427EA0000000013
B1013535553114N01213591EA0000000014
B1014005553085N01213800EA0000000018
B1014055553060N01213962EA0000000033
B1014115553025N01214153EA0000000054
B1014165552981N01214308EA0000000072
B1014225552904N01214463EA0000000098
B1014315552754N01214614EA0000000127
B1014365552659N01214663EA0000000139
B1014415552560N01214701EA0000000152
B1014485552419N01214756EA0000000174
B1014535552320N01214790EA0000000194
B1015005552183N01214837EA0000000222
B1015055552087N01214871EA0000000238
B1015105551991N01214902EA0000000258
B1015175551856N01214950EA0000000278
B1015225551758N01214979EA0000000290
B1015305551598N01215017EA0000000302
B1015395551415N01215055EA0000000334
B1015465551271N01215089EA0000000355
B1015525551153N01215053EA0000000376
B1015575551071N01214952EA0000000392
B1016025551015N01214803EA0000000411
B1016075550992N01214630EA0000000421
B1016135551010N01214431EA0000000435
B1016185551053N01214290EA0000000449
B1016245551120N01214142EA0000000473
B1016305551186N01213983EA0000000500
B1016375551263N01213802EA0000000535
B1016425551319N01213672EA0000000559
B1016485551390N01213525EA0000000581
B1016545551471N01213396EA0000000597
B1017045551625N01213243EA0000000628
B1017095551706N01213199EA0000000636
B1017145551749N01213096EA0000000639
B1017215551724N01212911EA0000000630
B1017325551568N01212774EA0000000618
B1017405551449N01212844EA0000000600
B1017565551522N01213169EA0000000583
B1018025551594N01213245EA0000000579
B1018125551667N01213449EA0000000564
B1018185551706N01213571EA0000000553
B1018235551755N01213649EA0000000543
B1018305551845N01213653EA0000000539
B1018375551924N01213548EA0000000523
B1018465552015N01213371EA0000000510
B1018515552079N01213302EA0000000501
B1018565552154N01213327EA0000000496
B1019075552270N01213546EA0000000493
B1019145552327N01213685EA0000000492
B1019195552353N01213806EA0000000490
B1019245552331N01213925EA0000000505
B1019295552264N01213901EA0000000503
B1019365552303N01213776EA0000000502
B1019435552330N01213918EA0000000516
B1019485552260N01213939EA0000000515
B1019535552230N01213826EA0000000518
B1019585552283N01213758EA0000000517
B1020045552315N01213879EA0000000523
B1020105552233N01213937EA0000000525
B1020155552190N01213829EA0000000528
B1020205552235N01213737EA0000000530
B1020295552278N01213883EA0000000549
B1020345552211N01213927EA0000000545
B1020395552157N01213841EA0000000546
B1020445552186N01213732EA0000000541
B1020505552259N01213789EA0000000539
B1020555552259N01213922EA0000000553
B1021015552178N01213959EA0000000562
B1021065552135N01213848EA0000000560
B1021115552173N01213746EA0000000563
B1021205552218N01213907EA0000000576
B1021265552135N01213951EA0000000584
B1021315552088N01213845EA0000000579
B1021375552134N01213721EA0000000583
B1021425552192N01213777EA0000000585
B1021475552166N01213895EA0000000596
B1021525552093N01213890EA0000000607
B1021575552068N01213766EA0000000608
B1022025552116N01213685EA0000000621
B1022105552169N01213807EA0000000622
B1022155552109N01213881EA0000000637
B1022205552044N01213817EA0000000645
B1022265552057N01213671EA0000000646
B1022315552122N01213672EA0000000656
B1022375552121N01213801EA0000000658
B1022435552031N01213817EA0000000668
B1022485552008N01213693EA0000000671
B1022535552066N01213627EA0000000672
B1023005552096N01213765EA0000000680
B1023055552029N01213816EA0000000691
B1023105551974N01213720EA0000000682
B1023175552031N01213568EA0000000683
B1023225552093N01213638EA0000000684
B1023275552072N01213767EA0000000698
B1023345551976N01213752EA0000000711
B1023395551974N01213622EA0000000708
B1023445552034N01213589EA0000000710
B1023515552066N01213737EA0000000707
B1023565552007N01213821EA0000000715
B1024015551946N01213746EA0000000726
B1024095552009N01213614EA0000000723
B1024145552047N01213714EA0000000725
B1024195552004N01213824EA0000000727
B1024255551911N01213787EA0000000742
B1024305551893N01213664EA0000000754
B1024355551944N01213592EA0000000754
B1024445552001N01213746EA0000000754
B1024505551935N01213847EA0000000761
B1024555551860N01213801EA0000000759
B1025015551835N01213636EA0000000766
B1025075551902N01213582EA0000000776
B1025175551885N01213783EA0000000791
B1025225551810N01213753EA0000000794
B1025275551796N01213615EA0000000795
B1025325551859N01213565EA0000000806
B1025385551902N01213682EA0000000805
B1025435551859N01213797EA0000000820
B1025495551764N01213801EA0000000812
B1025545551722N01213667EA0000000803
B1025595551762N01213542EA0000000803
B1026065551850N01213588EA0000000806
B1026135551812N01213754EA0000000823
B1026185551732N01213768EA0000000829
B1026235551672N01213664EA0000000824
B1026285551692N01213526EA0000000816
B1026345551772N01213435EA0000000824
B1026445551890N01213319EA0000000829
B1026525551981N01213249EA0000000840
B1026575552036N01213207EA0000000841
B1027075552150N01213140EA0000000845
B1027145552239N01213097EA0000000844
B1027205552322N01213065EA0000000845
B1027285552433N01213011EA0000000856
B1027375552543N01212965EA0000000859
B1027425552606N01212951EA0000000853
B1027485552685N01212928EA0000000852
B1027535552750N01212898EA0000000856
B1027585552815N01212867EA0000000858
B1028055552906N01212826EA0000000871
B1028115552983N01212795EA0000000887
B1028165553028N01212854EA0000000891
B1028225552985N01212966EA0000000896
B1028275552925N01212912EA0000000899
B1028325552931N01212785EA0000000900
B1028375552990N01212746EA0000000913
B1028425553028N01212829EA0000000910
B1028525552927N01212924EA0000000927
B1028575552889N01212823EA0000000929
B1029025552921N01212715EA0000000930
B1029075552982N01212724EA0000000943
B1029165552966N01212901EA0000000946
B1029215552893N01212877EA0000000950
B1029265552874N01212753EA0000000953
B1029315552930N01212677EA0000000959
B1029385552978N01212802EA0000000968
B1029565552738N01213015EA0000000968
B1030015552660N01213034EA0000000960
B1030135552468N01212980EA0000000974
B1030185552390N01212928EA0000000980
B1030235552318N01212875EA0000000985
B1030295552236N01212803EA0000000980
B1030385552108N01212693EA0000000975
B1030445552021N01212623EA0000000975
B1031065551677N01212579EA0000000922
B1031245551404N01212863EA0000000909
B1031295551335N01212950EA0000000900
B1031345551271N01213043EA0000000897
B1031395551214N01213132EA0000000893
B1031525551075N01213395EA0000000868
B1032155550811N01213787EA0000000845
B1032225550706N01213724EA0000000836
B1032285550629N01213647EA0000000829
B1032375550520N01213499EA0000000821
B1032425550464N01213406EA0000000814
B1032475550406N01213312EA0000000808
B1032535550336N01213203EA0000000799
B1033375549726N01213607EA0000000798
B1033445549617N01213571EA0000000790
B1034045549336N01213759EA0000000764
B1034095549306N01213883EA0000000759
B1034155549327N01214035EA0000000760
B1034215549405N01214072EA0000000762
B1034265549446N01213965EA0000000760
B1034315549410N01213835EA0000000754
B1034385549288N01213798EA0000000738
B1034435549233N01213918EA0000000743
B1034485549252N01214050EA0000000745
B1034535549314N01214113EA0000000749
B1034585549371N01214047EA0000000756
B1035035549364N01213913EA0000000749
B1035095549281N01213811EA0000000745
B1035225549072N01213889EA0000000745
B1035285549023N01214034EA0000000739
B1035335549013N01214168EA0000000740
B1035405549026N01214356EA0000000742
B1035475549063N01214518EA0000000743
B1035525549116N01214600EA0000000740
B1036005549207N01214708EA0000000743
B1036095549254N01214877EA0000000757
B1036145549179N01214885EA0000000757
B1036195549164N01214762EA0000000770
B1036315549230N01214869EA0000000782
B1036365549154N01214863EA0000000785
B1036415549131N01214735EA0000000795
B1036515549231N01214742EA0000000805
B1036575549179N01214858EA0000000812
B1037025549106N01214811EA0000000820
B1037085549110N01214657EA0000000821
B1037155549197N01214587EA0000000832
B1037255549161N01214757EA0000000843
B1037305549105N01214671EA0000000848
B1037365549145N01214551EA0000000851
B1037425549200N01214632EA0000000856
B1037475549153N01214722EA0000000861
B1037525549081N01214673EA0000000868
B1038015549131N01214543EA0000000867
B1038085549129N01214688EA0000000870
B1038135549051N01214704EA0000000867
B1038185549004N01214596EA0000000874
B1038235549028N01214478EA0000000867
B1038285549097N01214466EA0000000869
B1038335549125N01214571EA0000000870
B1038395549064N01214677EA0000000875
B1038445548988N01214624EA0000000872
B1038495548983N01214495EA0000000874
B1038575549083N01214493EA0000000868
B1039085549008N01214694EA0000000882
B1039195548842N01214687EA0000000886
B1039245548768N01214663EA0000000882
B1039305548678N01214645EA0000000893
B1039355548605N01214632EA0000000903
B1039405548535N01214620EA0000000911
B1039485548422N01214598EA0000000917
B1039535548352N01214558EA0000000919
B1040005548253N01214497EA0000000910
B1040055548180N01214456EA0000000898
B1040105548104N01214416EA0000000889
B1040205547948N01214336EA0000000886
B1040315547775N01214252EA0000000884
B1040365547701N01214217EA0000000885
B1040425547610N01214172EA0000000874
B1040485547520N01214120EA0000000876
B1040535547448N01214072EA0000000878
B1040595547369N01214009EA0000000870
B1041055547300N01213889EA0000000847
B1041135547212N01213715EA0000000835
B1041225547111N01213548EA0000000825
B1041275547055N01213459EA0000000819
B1041325547006N01213355EA0000000809
B1041415546935N01213136EA0000000797
B1041515546892N01212842EA0000000780
B1041565546876N01212695EA0000000787
B1042025546856N01212536EA0000000797
B1042075546838N01212407EA0000000801
B1042135546821N01212246EA0000000798
B1042205546818N01212057EA0000000794
B1042265546810N01211893EA0000000795
B1042335546799N01211701EA0000000803
B1042415546776N01211473EA0000000806
B1042475546757N01211309EA0000000805
B1042535546734N01211142EA0000000795
B1043045546692N01210830EA0000000774
B1043095546672N01210694EA0000000766
B1043175546649N01210475EA0000000749
B1043235546647N01210314EA0000000748
B1043305546654N01210129EA0000000748
B1043385546674N01209924EA0000000759
B1043465546575N01209815EA0000000759
B1043515546519N01209920EA0000000770
B1043565546547N01210043EA0000000773
B1044015546616N01210028EA0000000786
B1044065546630N01209905EA0000000786
B1044165546485N01209819EA0000000795
B1044215546434N01209934EA0000000811
B1044265546446N01210068EA0000000813
B1044325546531N01210109EA0000000823
B1044375546594N01210026EA0000000823
B1044425546608N01209889EA0000000840
B1044475546574N01209767EA0000000842
B1044555546436N01209675EA0000000845
B1045065546245N01209690EA0000000889
B1045165546213N01209910EA0000000904
B1045275546315N01209763EA0000000931
B1045365546187N01209639EA0000000958
B1045465546200N01209847EA0000000973
B1045535546267N01209725EA0000000991
B1045585546228N01209591EA0000001015
B1046075546086N01209566EA0000001039
B1046175546072N01209803EA0000001045
B1046225546140N01209835EA0000001051
B1046275546185N01209734EA0000001061
B1046325546158N01209589EA0000001073
B1047225545357N01209746EA0000001126
B1047295545259N01209610EA0000001118
B1047365545181N01209434EA0000001117
B1047495545109N01209093EA0000001116
B1047545545181N01209023EA0000001098
B1048375545655N01209884EA0000001114
B1048505545499N01210055EA0000001122
B1048555545411N01209961EA0000001130
B1049005545336N01209844EA0000001137
B1049055545264N01209720EA0000001140
B1049115545180N01209591EA0000001151
B1049175545093N01209473EA0000001141
B1050155544092N01208799EA0000001078
B1050205544016N01208707EA0000001075
B1050265544005N01208535EA0000001066
B1050335544100N01208461EA0000001048
B1050395544191N01208517EA0000001046
B1050455544277N01208568EA0000001048
B1051015544493N01208721EA0000001025
B1051125544645N01208822EA0000001013
B1051225544775N01208932EA0000001004
B1051325544903N01209061EA0000000989
B1051385544981N01209136EA0000000986
B1051495545119N01209261EA0000000990
B1051545545182N01209317EA0000000992
B1052155545436N01209575EA0000001015
B1052205545500N01209587EA0000001015
B1052315545561N01209369EA0000001012
B1052445545390N01209288EA0000001013
B1053345545799N01210136EA0000001056
B1054185546401N01210450EA0000001029
B1054245546488N01210511EA0000001024
B1054295546557N01210569EA0000001021
B1055575547374N01212050EA0000000967
B1056045547360N01211865EA0000000964
B1056215547351N01212018EA0000000976
B1056265547329N01211885EA0000000968
B1056335547405N01211716EA0000000966
B1056415547514N01211566EA0000000956
B1056475547597N01211468EA0000000949
B1056555547711N01211334EA0000000933
B1057005547785N01211254EA0000000930
B1057095547914N01211127EA0000000935
B1057165548007N01211050EA0000000946
B1057225548082N01211001EA0000000949
B1057295548166N01210948EA0000000967
B1057345548231N01210925EA0000000968
B1057395548290N01210970EA0000000976
B1057495548225N01211124EA0000000975
B1057545548168N01211028EA0000000974
B1057595548168N01210881EA0000000985
B1058075548257N01210850EA0000000995
B1058165548191N01210988EA0000001003
B1058215548151N01210872EA0000001010
B1058365548173N01210968EA0000001018
B1058415548112N01210866EA0000001022
B1058465548143N01210749EA0000001037
B1059005548113N01210919EA0000001053
B1059055548079N01210792EA0000001055
B1059105548139N01210691EA0000001048
B1059285548432N01210907EA0000001037
B1059385548584N01211047EA0000001052
B1059465548692N01211171EA0000001060
B1100285549089N01212032EA0000001075
B1101025549454N01212699EA0000001050
B1101125549500N01212944EA0000001032
B1101175549524N01213071EA0000001027
B1101225549544N01213198EA0000001023
B1101335549589N01213481EA0000001011
B1101485549657N01213881EA0000001000
B1101575549694N01214093EA0000001004
B1102055549734N01214283EA0000001014
B1102175549666N01214439EA0000001016
B1102225549657N01214310EA0000001015
B1102345549692N01214456EA0000001024
B1102395549636N01214382EA0000001026
B1102565549698N01214476EA0000001036
B1103015549636N01214409EA0000001033
B1103215549724N01214447EA0000001061
B1103265549670N01214357EA0000001064
B1103445549719N01214401EA0000001094
B1103495549660N01214324EA0000001100
B1103545549666N01214194EA0000001111
B1105155550584N01215494EA0000001068
B1105205550643N01215606EA0000001076
B1105265550709N01215733EA0000001071
B1105315550764N01215839EA0000001066
B1105405550867N01216018EA0000001059
B1105465550931N01216130EA0000001048
B1105545551035N01216305EA0000001022
B1106025551132N01216483EA0000001047
B1106145551182N01216738EA0000001090
B1106195551110N01216717EA0000001098
B1106245551126N01216600EA0000001115
B1106335551167N01216730EA0000001136
B1106385551093N01216720EA0000001153
B1106585551145N01216730EA0000001202
B1107055551038N01216666EA0000001214
B1107105551031N01216516EA0000001228
B1107225551201N01216480EA0000001248
B1107325551347N01216710EA0000001247
B1107395551458N01216909EA0000001224
B1107455551563N01217057EA0000001230
B1107505551649N01217164EA0000001235
B1107585551784N01217352EA0000001217
B1108055551908N01217531EA0000001191
B1108135552051N01217737EA0000001188
B1108205552181N01217876EA0000001180
B1108315552408N01218075EA0000001147
B1108425552618N01218265EA0000001183
B1108505552766N01218355EA0000001186
B1108555552849N01218410EA0000001180
B1109015552950N01218469EA0000001169
B1109065553036N01218516EA0000001165
B1109125553142N01218572EA0000001156
B1109255553367N01218678EA0000001153
B1109335553500N01218739EA0000001154
B1109385553579N01218775EA0000001153
B1109435553657N01218815EA0000001152
B1109485553733N01218853EA0000001152
B1111235554844N01220356EA0000001076
B1111295554942N01220324EA0000001070
B1111375555060N01220239EA0000001060
B1111445555163N01220156EA0000001052
B1111495555236N01220106EA0000001048
B1111555555325N01220038EA0000001052
B1112045555443N01220010EA0000001086
B1112105555413N01220113EA0000001083
B1112155555354N01220044EA0000001100
B1112275555467N01219914EA0000001129
B1112325555461N01220018EA0000001126
B1112375555391N01220017EA0000001125
B1112545555486N01219757EA0000001166
B1113015555454N01219886EA0000001159
B1113385555707N01220055EA0000001160
B1114145556022N01220923EA0000001170
B1114225556080N01221122EA0000001166
B1114295556136N01221279EA0000001167
B1114345556201N01221358EA0000001162
B1115005556548N01221680EA0000001156
B1115335556537N01221617EA0000001126
B1115415556614N01221753EA0000001130
B1115465556576N01221852EA0000001126
B1116455557132N01222000EA0000001061
B1117295557747N01222565EA0000001031
B1117515558056N01222887EA0000000997
B1118165558420N01223245EA0000000980
B1118225558497N01223324EA0000000974
B1118295558585N01223422EA0000000965
B1118355558662N01223510EA0000000960
B1118465558804N01223669EA0000000965
B1118535558885N01223773EA0000000962
B1118595558932N01223892EA0000000964
B1119065558987N01224024EA0000000960
B1119145559062N01224169EA0000000958
B1119225559143N01224312EA0000000960
B1119275559197N01224404EA0000000952
B1119355559288N01224547EA0000000945
B1119425559375N01224652EA0000000951
B1119485559452N01224729EA0000000946
B1119565559555N01224821EA0000000939
B1120015559618N01224878EA0000000934
B1120065559679N01224954EA0000000922
B1120115559715N01225065EA0000000932
B1120165559683N01225169EA0000000940
B1120225559603N01225137EA0000000953
B1120325559580N01224870EA0000000938
B1120395559544N01224680EA0000000926
B1120445559482N01224585EA0000000918
B1120565559312N01224424EA0000000917
B1121015559248N01224468EA0000000913
B1121065559232N01224597EA0000000907
B1121135559296N01224759EA0000000914
B1121185559363N01224845EA0000000924
B1121255559452N01224936EA0000000934
B1121335559554N01225045EA0000000920
B1121395559632N01225139EA0000000924
B1121455559708N01225229EA0000000940
B1121515559734N01225355EA0000000954
B1121565559678N01225421EA0000000955
B1122055559631N01225221EA0000000964
B1122105559702N01225207EA0000000965
B1122155559703N01225329EA0000000972
B1122215559621N01225281EA0000000988
B1122265559640N01225152EA0000000994
B1122315559712N01225147EA0000000994
B1122385559688N01225288EA0000001012
B1122465559614N01225150EA0000001017
B1122515559671N01225044EA0000001013
B1122565559743N01225074EA0000001032
B1123015559749N01225193EA0000001046
B1123125559634N01225099EA0000001069
B1123175559679N01224987EA0000001069
B1123225559751N01225010EA0000001082
B1123285559753N01225148EA0000001104
B1123395559644N01225026EA0000001121
B1123445559689N01224919EA0000001125
B1123495559767N01224926EA0000001128
B1123545559840N01224999EA0000001142
B1124025559941N01225155EA0000001164
B1124095600021N01225294EA0000001194
B1124165600092N01225416EA0000001201
B1124215600143N01225508EA0000001199
B1124295600227N01225659EA0000001214
B1124355600287N01225757EA0000001212
B1124415600349N01225850EA0000001209
B1124475600415N01225944EA0000001206
B1124525600476N01226031EA0000001201
B1124575600538N01226122EA0000001208
B1125065600642N01226274EA0000001223
B1125145600732N01226432EA0000001230
B1125205600781N01226584EA0000001226
B1125265600834N01226712EA0000001229
B1125335600913N01226859EA0000001205
B1125405600996N01227029EA0000001220
B1125485601079N01227186EA0000001234
B1125555601151N01227315EA0000001227
B1126015601214N01227424EA0000001225
B1126065601266N01227514EA0000001220
B1126115601328N01227592EA0000001217
B1126185601416N01227692EA0000001224
B1126235601473N01227775EA0000001227
B1126295601544N01227873EA0000001230
B1126355601581N01228000EA0000001228
B1126405601536N01228080EA0000001218
B1126485601466N01227920EA0000001224
B1126535601526N01227806EA0000001220
B1126585601616N01227803EA0000001223
B1127045601692N01227903EA0000001226
B1127095601742N01228013EA0000001223
B1127145601783N01228137EA0000001219
B1127205601811N01228297EA0000001209
B1127265601836N01228455EA0000001207
B1127345601869N01228673EA0000001196
B1127415601902N01228876EA0000001197
B1127465601922N01229004EA0000001217
B1127515601940N01229119EA0000001223
B1127585601964N01229276EA0000001231
B1128035601985N01229397EA0000001229
B1128085602008N01229518EA0000001217
B1128135602023N01229656EA0000001209
B1128185602039N01229795EA0000001202
B1128245602062N01229965EA0000001187
B1128315602082N01230167EA0000001197
B1128365602092N01230300EA0000001212
B1128435602117N01230475EA0000001211
B1128485602151N01230594EA0000001205
B1128545602204N01230730EA0000001209
B1129055602348N01230897EA0000001238
B1129135602457N01230974EA0000001237
B1129195602540N01231042EA0000001226
B1129265602638N01231131EA0000001218
B1129335602719N01231255EA0000001204
B1129385602742N01231371EA0000001200
B1129435602713N01231486EA0000001180
B1129485602646N01231533EA0000001179
B1130095602553N01231045EA0000001152
B1130165602652N01230946EA0000001154
B1130215602714N01230997EA0000001142
B1130265602719N01231111EA0000001131
B1130335602640N01231198EA0000001125
B1131375602404N01229261EA0000001124
B1131425602477N01229260EA0000001123
B1131525602431N01229461EA0000001123
B1132065602275N01229149EA0000001147
B1132135602216N01228971EA0000001143
B1132215602148N01228774EA0000001150
B1133225601752N01227172EA0000001181
B1133285601699N01227030EA0000001176
B1133345601632N01226911EA0000001179
B1133395601575N01226817EA0000001182
B1133485601471N01226648EA0000001183
B1133555601390N01226523EA0000001178
B1134025601303N01226393EA0000001164
B1134085601220N01226269EA0000001167
B1134135601154N01226166EA0000001174
B1134215601059N01226006EA0000001185
B1134285600978N01225868EA0000001186
B1134335600921N01225769EA0000001187
B1134425600817N01225598EA0000001191
B1134485600749N01225480EA0000001188
B1134545600685N01225359EA0000001181
B1135025600594N01225215EA0000001174
B1135105600506N01225063EA0000001176
B1135195600407N01224894EA0000001179
B1135275600322N01224748EA0000001189
B1135365600220N01224585EA0000001180
B1135415600162N01224494EA0000001189
B1135505600053N01224323EA0000001192
B1135555559978N01224241EA0000001183
B1136005559897N01224178EA0000001199
B1136075559787N01224143EA0000001208
B1136125559710N01224133EA0000001213
B1136175559636N01224135EA0000001217
B1136235559546N01224147EA0000001211
B1136295559451N01224162EA0000001210
B1136355559361N01224186EA0000001205
B1136465559197N01224245EA0000001197
B1136555559065N01224290EA0000001196
B1137025558964N01224313EA0000001180
B1137075558886N01224321EA0000001177
B1137125558812N01224332EA0000001192
B1137215558729N01224186EA0000001185
B1137275558805N01224107EA0000001180
B1137325558857N01224197EA0000001162
B1137375558850N01224349EA0000001166
B1137445558763N01224486EA0000001176
B1137495558694N01224547EA0000001194
B1137545558646N01224640EA0000001194
B1137595558663N01224764EA0000001191
B1138045558735N01224802EA0000001191
B1138095558801N01224722EA0000001183
B1138165558806N01224522EA0000001178
B1138215558744N01224419EA0000001175
B1138275558643N01224402EA0000001180
B1138335558548N01224459EA0000001175
B1138395558452N01224512EA0000001180
B1138445558377N01224550EA0000001189
B1138505558312N01224460EA0000001187
B1138555558351N01224338EA0000001185
B1139005558420N01224365EA0000001191
B1139055558433N01224496EA0000001179
B1139105558363N01224567EA0000001181
B1139185558303N01224384EA0000001166
B1139235558378N01224313EA0000001184
B1139285558437N01224396EA0000001185
B1139355558406N01224595EA0000001169
B1139415558301N01224637EA0000001173
B1139465558217N01224575EA0000001176
B1139535558102N01224481EA0000001173
B1139595558008N01224392EA0000001172
B1140055557925N01224273EA0000001165
B1140125557842N01224101EA0000001164
B1140175557785N01223985EA0000001158
B1140225557733N01223859EA0000001150
B1140275557675N01223737EA0000001150
B1140395557505N01223555EA0000001158
B1140555557254N01223355EA0000001135
B1141015557157N01223271EA0000001129
B1141085557039N01223178EA0000001117
B1141145556940N01223095EA0000001107
B1141235556793N01222960EA0000001087
B1141295556696N01222869EA0000001083
B1141345556615N01222797EA0000001075
B1141405556518N01222724EA0000001081
B1141525556345N01222574EA0000001069
B1141575556274N01222502EA0000001059
B1142045556166N01222404EA0000001045
B1142105556072N01222328EA0000001040
B1142175555966N01222245EA0000001034
B1142255555847N01222174EA0000001024
B1142315555755N01222128EA0000001012
B1142375555663N01222100EA0000001023
B1142425555595N01222077EA0000001025
B1142485555512N01222051EA0000001020
B1142535555439N01222028EA0000001016
B1142595555355N01221982EA0000001013
B1143055555276N01221889EA0000001004
B1143115555204N01221787EA0000001003
B1143355554886N01221787EA0000000978
B1143425554860N01221968EA0000000969
B1143505554847N01222182EA0000000963
B1143555554837N01222316EA0000000955
B1144035554798N01222515EA0000000947
B1144105554758N01222680EA0000000938
B1144165554719N01222827EA0000000921
B1144235554672N01223010EA0000000913
B1144285554637N01223130EA0000000916
B1144355554586N01223294EA0000000909
B1144415554544N01223439EA0000000907
B1144505554477N01223651EA0000000900
B1144585554419N01223828EA0000000894
B1145045554372N01223966EA0000000884
B1145095554336N01224082EA0000000880
B1145165554296N01224247EA0000000871
B1145215554270N01224371EA0000000866
B1145315554199N01224597EA0000000873
B1145375554154N01224738EA0000000863
B1145455554103N01224936EA0000000851
B1145555554042N01225178EA0000000836
B1146015554009N01225323EA0000000835
B1146085553963N01225484EA0000000844
B1146135553900N01225514EA0000000854
B1146195553883N01225378EA0000000847
B1146245553954N01225330EA0000000846
B1146295554005N01225420EA0000000851
B1146345553957N01225491EA0000000862
B1146395553913N01225401EA0000000859
B1146445553960N01225311EA0000000864
B1146505554019N01225400EA0000000867
B1146565553957N01225474EA0000000869
B1147015553917N01225366EA0000000860
B1147065553974N01225274EA0000000862
B1147135554044N01225397EA0000000873
B1147185554005N01225497EA0000000871
B1147235553939N01225481EA0000000865
B1147295553917N01225334EA0000000861
B1147345553979N01225265EA0000000852
B1147495554028N01225616EA0000000831
B1148045553892N01225916EA0000000826
B1148105553829N01226042EA0000000810
B1148155553776N01226158EA0000000804
B1148215553716N01226311EA0000000797
B1148295553644N01226522EA0000000805
B1148345553604N01226628EA0000000816
B1148445553530N01226833EA0000000807
B1148505553478N01226952EA0000000797
B1148565553423N01227074EA0000000785
B1149035553359N01227219EA0000000780
B1149085553305N01227311EA0000000776
B1149145553241N01227423EA0000000780
B1149195553194N01227503EA0000000786
B1149295553085N01227667EA0000000758
B1149365553000N01227787EA0000000756
B1149465552883N01227955EA0000000743
B1149565552813N01228182EA0000000729
B1150065552747N01228416EA0000000708
B1150145552681N01228581EA0000000699
B1150195552622N01228616EA0000000691
B1150245552561N01228538EA0000000681
B1150425552628N01228380EA0000000706
B1150495552542N01228437EA0000000701
B1151045552600N01228355EA0000000728
B1151105552530N01228392EA0000000738
B1151205552558N01228189EA0000000756
B1151275552614N01228289EA0000000749
B1151335552542N01228343EA0000000757
B1151445552589N01228163EA0000000773
B1151505552622N01228284EA0000000774
B1151555552582N01228376EA0000000780
B1152015552503N01228331EA0000000786
B1152115552562N01228148EA0000000809
B1152195552564N01228310EA0000000817
B1152245552496N01228296EA0000000832
B1152345552533N01228089EA0000000849
B1152415552595N01228186EA0000000849
B1152465552552N01228275EA0000000861
B1152525552478N01228215EA0000000871
B1152595552506N01228044EA0000000878
B1153095552583N01228182EA0000000887
B1153145552521N01228239EA0000000896
B1153255552501N01228012EA0000000920
B1153345552584N01228109EA0000000928
B1153395552554N01228207EA0000000935
B1153445552486N01228206EA0000000938
B1153535552492N01227990EA0000000956
B1154025552582N01228080EA0000000968
B1154075552553N01228178EA0000000974
B1154125552487N01228182EA0000000979
B1154235552494N01227951EA0000000997
B1154315552579N01228031EA0000001001
B1154365552543N01228125EA0000001008
B1154465552479N01227942EA0000001020
B1154535552568N01227903EA0000001033
B1154595552610N01228018EA0000001036
B1155045552578N01228116EA0000001039
B1155095552507N01228107EA0000001033
B1155165552501N01227924EA0000001047
B1155225552584N01227902EA0000001052
B1155275552611N01228011EA0000001057
B1155325552561N01228098EA0000001054
B1155375552489N01228059EA0000001060
B1155435552483N01227886EA0000001054
B1155485552555N01227826EA0000001070
B1155555552620N01227946EA0000001069
B1156005552587N01228055EA0000001073
B1156055552515N01228058EA0000001074
B1156185552527N01227757EA0000001084
B1156235552602N01227792EA0000001079
B1156285552621N01227914EA0000001091
B1156335552581N01228005EA0000001096
B1156385552513N01227997EA0000001094
B1156525552576N01227712EA0000001094
B1157015552652N01227870EA0000001097
B1157065552605N01227950EA0000001100
B1157115552537N01227893EA0000001081
B1157185552469N01227706EA0000001088
B1157245552426N01227542EA0000001092
B1157315552375N01227352EA0000001094
B1157365552341N01227221EA0000001093
B1157425552310N01227058EA0000001095
B1157505552331N01226826EA0000001088
B1157555552360N01226686EA0000001089
B1158025552396N01226488EA0000001073
B1158075552424N01226337EA0000001064
B1158125552456N01226188EA0000001063
B1158185552496N01226017EA0000001067
B1158235552531N01225884EA0000001076
B1158315552587N01225684EA0000001068
B1158395552645N01225489EA0000001055
B1158505552735N01225211EA0000001054
B1158565552777N01225047EA0000001050
B1159025552808N01224874EA0000001059
B1159095552844N01224682EA0000001064
B1159155552875N01224516EA0000001052
B1159205552900N01224365EA0000001048
B1159255552916N01224220EA0000001054
B1159315552931N01224055EA0000001058
B1159395552952N01223830EA0000001042
B1159475552972N01223601EA0000001035
B1159525552979N01223469EA0000001030
B1159575552989N01223338EA0000001026
B1200045553007N01223160EA0000001026
B1200105553022N01223009EA0000001025
B1200165553034N01222852EA0000001025
B1200225553048N01222691EA0000001018
B1200315553062N01222440EA0000001001
B1200385553065N01222242EA0000001017
B1200435553075N01222105EA0000001029
B1200485553086N01221968EA0000001039
B1201015553163N01221676EA0000001039
B1201075553197N01221799EA0000001024
B1201125553143N01221899EA0000001028
B1201175553065N01221896EA0000001038
B1201265553100N01221700EA0000001041
B1201315553156N01221765EA0000001044
B1201395553084N01221864EA0000001048
B1201455553061N01221733EA0000001057
B1201515553138N01221688EA0000001046
B1201565553155N01221802EA0000001042
B1202015553093N01221861EA0000001047
B1202065553030N01221789EA0000001049
B1202165553013N01221502EA0000001053
B1202215553025N01221369EA0000001049
B1202315553040N01221088EA0000001037
B1202375553056N01220927EA0000001033
B1202425553070N01220798EA0000001030
B1202505553087N01220581EA0000001019
B1202555553096N01220441EA0000001012
B1203025553106N01220247EA0000001002
B1203085553104N01220086EA0000000996
B1203135553102N01219958EA0000000994
B1203195553101N01219800EA0000000998
B1203255553102N01219639EA0000001004
B1203315553096N01219475EA0000000996
B1203365553087N01219339EA0000000993
B1203415553073N01219201EA0000000990
B1203465553057N01219061EA0000000998
B1203555553127N01218897EA0000001009
B1204005553161N01218990EA0000001001
B1204055553103N01219050EA0000000992
B1204105553033N01218989EA0000001009
B1204165553011N01218850EA0000001012
B1204225553089N01218799EA0000001007
B1204275553111N01218918EA0000001002
B1204325553050N01218957EA0000001018
B1204395553029N01218782EA0000001009
B1204455553115N01218752EA0000001022
B1204505553123N01218869EA0000001016
B1204555553063N01218903EA0000001034
B1205095553087N01218634EA0000001044
B1205205553068N01218777EA0000001052
B1205265553029N01218643EA0000001051
B1205335553101N01218527EA0000001064
B1205395553165N01218617EA0000001063
B1205445553135N01218719EA0000001060
B1205495553066N01218689EA0000001057
B1205555553011N01218526EA0000001055
B1206025552967N01218330EA0000001077
B1206105552914N01218111EA0000001066
B1206165552869N01217936EA0000001052
B1206225552825N01217756EA0000001048
B1206295552781N01217546EA0000001037
B1206345552753N01217397EA0000001034
B1206405552722N01217219EA0000001029
B1206465552693N01217044EA0000001020
B1206525552662N01216866EA0000001005
B1207005552630N01216635EA0000001007
B1207055552609N01216500EA0000000997
B1207135552575N01216267EA0000000981
B1207225552539N01216019EA0000000976
B1207305552501N01215789EA0000000960
B1207355552476N01215639EA0000000956
B1207445552435N01215352EA0000000956
B1207515552409N01215127EA0000000958
B1207565552390N01214973EA0000000960
B1208015552373N01214823EA0000000958
B1208085552353N01214614EA0000000951
B1208145552336N01214428EA0000000930
B1208215552313N01214199EA0000000924
B1208275552295N01214008EA0000000920
B1208335552278N01213819EA0000000915
B1208395552256N01213637EA0000000904
B1208465552235N01213412EA0000000889
B1208515552210N01213264EA0000000896
B1208565552167N01213147EA0000000900
B1209015552110N01213039EA0000000891
B1209075552039N01212913EA0000000881
B1209135551983N01212748EA0000000862
B1209215551947N01212501EA0000000876
B1209305551929N01212241EA0000000880
B1209365551928N01212074EA0000000881
B1209435551942N01211877EA0000000873
B1209495551963N01211714EA0000000873
B1209555551983N01211554EA0000000865
B1210005552002N01211414EA0000000854
B1210065552033N01211233EA0000000834
B1210145552087N01210960EA0000000811
B1210265552171N01210537EA0000000793
B1210315552202N01210368EA0000000790
B1210365552232N01210203EA0000000783
B1210425552266N01210010EA0000000777
B1210495552300N01209787EA0000000764
B1211105552233N01209170EA0000000752
B1211205552110N01208981EA0000000783
B1211255552124N01208862EA0000000783
B1211315552192N01208909EA0000000778
B1211405552098N01208931EA0000000794
B1211455552130N01208821EA0000000809
B1211515552191N01208873EA0000000807
B1212025552082N01208832EA0000000821
B1212075552128N01208736EA0000000821
B1212135552186N01208803EA0000000824
B1212265552072N01208787EA0000000845
B1212315552126N01208726EA0000000837
B1212465552054N01208737EA0000000852
B1212515552103N01208646EA0000000844
B1213085552069N01208740EA0000000875
B1213145552125N01208637EA0000000872
B1213315552075N01208675EA0000000909
B1213375552134N01208576EA0000000908
B1213545552063N01208718EA0000000935
B1213595552075N01208589EA0000000937
B1214045552147N01208560EA0000000939
B1214135552150N01208724EA0000000950
B1214215552055N01208629EA0000000970
B1214265552083N01208506EA0000000971
B1214315552158N01208493EA0000000967
B1214465552080N01208566EA0000000986
B1214515552114N01208443EA0000000989
B1216165551622N01206695EA0000000993
B1216545551369N01205648EA0000000946
B1217125551304N01205074EA0000000897
B1217195551282N01204839EA0000000890
B1217275551243N01204573EA0000000882
B1217325551241N01204414EA0000000884
B1217385551326N01204346EA0000000862
B1217455551417N01204459EA0000000865
B1217515551485N01204553EA0000000858
B1218015551605N01204730EA0000000850
B1218115551716N01204891EA0000000841
B1218185551790N01205013EA0000000816
B1218315551933N01205306EA0000000804
B1218405552023N01205511EA0000000798
B1218455552067N01205612EA0000000798
B1218545552142N01205793EA0000000770
B1219025552210N01205975EA0000000764
B1219105552271N01206157EA0000000768
B1219175552315N01206306EA0000000777
B1219235552352N01206434EA0000000777
B1219285552396N01206519EA0000000789
B1219335552454N01206498EA0000000791
B1219395552435N01206349EA0000000802
B1219465552343N01206397EA0000000816
B1219515552368N01206502EA0000000821
B1219565552416N01206453EA0000000830
B1220015552391N01206329EA0000000833
B1220095552284N01206369EA0000000847
B1220145552294N01206473EA0000000855
B1220195552347N01206496EA0000000858
B1220245552382N01206406EA0000000863
B1220295552346N01206292EA0000000866
B1220375552224N01206328EA0000000874
B1220425552219N01206449EA0000000878
B1220475552273N01206486EA0000000877
B1220555552287N01206300EA0000000881
B1221085552156N01206433EA0000000901
B1221325552128N01206362EA0000000910
B1221475552259N01206455EA0000000911
B1221595552208N01206187EA0000000922
B1222355551839N01206778EA0000000938
B1222405551858N01206659EA0000000940
B1222565551795N01206708EA0000000944
B1223015551831N01206599EA0000000944
B1223065551895N01206605EA0000000953
B1223455551717N01207431EA0000000948
B1223585551742N01207745EA0000000929
B1224055551841N01207826EA0000000950
B1224105551903N01207857EA0000000954
B1224175552001N01207886EA0000000941
B1224255552110N01207941EA0000000966
B1224345552225N01208018EA0000000968
B1224425552336N01208099EA0000000962
B1224485552416N01208155EA0000000960
B1224535552479N01208208EA0000000954
B1224585552544N01208275EA0000000958
B1225055552625N01208354EA0000000961
B1225105552681N01208408EA0000000959
B1225175552758N01208489EA0000000966
B1225235552841N01208531EA0000000965
B1225285552913N01208555EA0000000976
B1225345552997N01208589EA0000000976
B1225405553078N01208620EA0000000980
B1225475553171N01208669EA0000000977
B1225535553248N01208722EA0000000979
B1225595553318N01208796EA0000000974
B1226085553429N01208927EA0000000949
B1226305553753N01209146EA0000000946
B1226395553880N01209230EA0000000935
B1226495554010N01209326EA0000000940
B1226545554073N01209382EA0000000929
B1226595554139N01209447EA0000000929
B1227045554197N01209511EA0000000928
B1227105554261N01209586EA0000000921
B1227185554346N01209709EA0000000917
B1227265554433N01209839EA0000000917
B1227385554559N01210036EA0000000927
B1227445554621N01210138EA0000000919
B1227495554680N01210225EA0000000916
B1227555554746N01210325EA0000000936
B1228015554807N01210416EA0000000937
B1228145554945N01210605EA0000000934
B1228205555021N01210704EA0000000917
B1228325555182N01210907EA0000000926
B1228395555253N01210999EA0000000940
B1228505555362N01211147EA0000000945
B1228575555418N01211260EA0000000947
B1229195555370N01211004EA0000000945
B1229245555430N01211057EA0000000936
B1229315555484N01211200EA0000000945
B1229375555537N01211313EA0000000936
B1229425555585N01211401EA0000000938
B1229485555644N01211508EA0000000927
B1229555555712N01211632EA0000000916
B1230015555764N01211740EA0000000903
B1230195555823N01212213EA0000000882
B1230285555839N01212432EA0000000907
B1230445555784N01212308EA0000000901
B1230495555838N01212375EA0000000916
B1231015555721N01212354EA0000000925
B1231065555770N01212274EA0000000916
B1231115555826N01212334EA0000000928
B1231185555803N01212503EA0000000935
B1231275555738N01212373EA0000000956
B1231325555790N01212384EA0000000957
B1231395555766N01212542EA0000000970
B1231495555669N01212426EA0000000990
B1231555555730N01212374EA0000000990
B1232005555751N01212493EA0000000983
B1232215555699N01212401EA0000001030
B1232265555707N01212509EA0000001030
B1232355555601N01212453EA0000001043
B1232405555618N01212342EA0000001050
B1232455555672N01212321EA0000001047
B1232505555698N01212419EA0000001049
B1232575555617N01212494EA0000001054
B1233105555607N01212229EA0000001059
B1233165555674N01212254EA0000001055
B1233225555659N01212389EA0000001062
B1233385555634N01212170EA0000001058
B1233435555689N01212209EA0000001074
B1233485555681N01212317EA0000001069
B1234035555625N01212107EA0000001073
B1234085555677N01212160EA0000001083
B1234255555613N01212083EA0000001091
B1234305555660N01212139EA0000001091
B1235265555986N01211435EA0000001055
B1235335556099N01211378EA0000001066
B1235395556188N01211343EA0000001076
B1235445556259N01211316EA0000001075
B1235535556397N01211272EA0000001066
B1235595556487N01211237EA0000001062
B1236065556595N01211198EA0000001051
B1236155556741N01211142EA0000001048
B1236235556864N01211077EA0000001033
B1236285556943N01211035EA0000001028
B1236415557161N01210907EA0000001005
B1236515557327N01210803EA0000000999
B1237015557490N01210694EA0000000997
B1237195557779N01210532EA0000000976
B1237255557872N01210494EA0000000982
B1237315557955N01210461EA0000000993
B1237385558049N01210436EA0000000992
B1237485558191N01210424EA0000000984
B1237545558277N01210429EA0000000973
B1238055558443N01210456EA0000000969
B1238105558516N01210475EA0000000968
B1238155558587N01210492EA0000000969
B1238245558717N01210543EA0000000967
B1238295558791N01210573EA0000000972
B1238355558878N01210607EA0000000978
B1238435559007N01210650EA0000000968
B1238495559113N01210668EA0000000971
B1238565559248N01210689EA0000000964
B1239055559435N01210709EA0000000960
B1239155559658N01210724EA0000000937
B1239235559854N01210748EA0000000912
B1239305600020N01210818EA0000000903
B1239375600171N01210885EA0000000914
B1239425600272N01210936EA0000000904
B1239485600398N01211003EA0000000881
B1239535600512N01211065EA0000000863
B1239585600625N01211126EA0000000867
B1240045600737N01211221EA0000000879
B1240125600872N01211383EA0000000875
B1240215601016N01211552EA0000000872
B1240275601110N01211654EA0000000867
B1240335601201N01211750EA0000000863
B1240405601307N01211850EA0000000854
B1240455601384N01211913EA0000000855
B1240505601423N01212020EA0000000858
B1240565601355N01212117EA0000000841
B1241065601184N01212024EA0000000834
B1241135601076N01211929EA0000000823
B1241215600944N01211825EA0000000806
B1241405600604N01211541EA0000000786
B1241485600463N01211452EA0000000784
B1241555600345N01211431EA0000000791
B1242025600235N01211426EA0000000785
B1242135600064N01211408EA0000000788
B1242205559962N01211379EA0000000785
B1242505559505N01211301EA0000000780
B1243015559371N01211532EA0000000768
B1243185559229N01211513EA0000000778
B1243235559304N01211506EA0000000770
B1243285559322N01211633EA0000000768
B1243335559288N01211761EA0000000777
B1243455559195N01212005EA0000000795
B1243505559150N01212095EA0000000802
B1243565559095N01212196EA0000000809
B1244015559048N01212278EA0000000816
B1244065558997N01212355EA0000000822
B1244125558937N01212457EA0000000837
B1244185558868N01212487EA0000000843
B1244235558850N01212366EA0000000827
B1244285558922N01212284EA0000000824
B1244355558969N01212421EA0000000842
B1244465558902N01212282EA0000000850
B1244515558975N01212283EA0000000858
B1244565558980N01212403EA0000000868
B1245105558944N01212225EA0000000877
B1245155559001N01212313EA0000000876
B1245315558936N01212199EA0000000907
B1245365559007N01212217EA0000000910
B1245515558933N01212194EA0000000926
B1245565559006N01212150EA0000000935
B1246025559037N01212274EA0000000950
B1246085558967N01212324EA0000000955
B1246185558981N01212100EA0000000968
B1246245559056N01212159EA0000000974
B1246405559016N01212067EA0000000993
B1246455559071N01212126EA0000001001
B1246555558982N01212170EA0000001003
B1247025559023N01212014EA0000001016
B1247085559089N01212096EA0000001013
B1247155559027N01212184EA0000001026
B1247225558996N01212014EA0000001029
B1247275559060N01211947EA0000001038
B1247325559106N01212035EA0000001039
B1247385559051N01212114EA0000001043
B1247465559016N01211918EA0000001041
B1247525559091N01211923EA0000001065
B1248015559029N01212021EA0000001065
B1248105559033N01211813EA0000001063
B1248165559094N01211888EA0000001079
B1248245559033N01212002EA0000001087
B1248335558972N01211808EA0000001086
B1248395559055N01211746EA0000001093
B1248445559094N01211842EA0000001097
B1248575558977N01211827EA0000001097
B1249025559021N01211711EA0000001106
B1249075559086N01211740EA0000001105
B1249125559094N01211866EA0000001092
B1249175559043N01211969EA0000001105
B1249235558975N01212063EA0000001117
B1249325558883N01212198EA0000001129
B1250025558451N01212355EA0000001075
B1250075558370N01212375EA0000001077
B1250165558232N01212410EA0000001090
B1250245558111N01212422EA0000001111
B1250315558006N01212406EA0000001126
B1250405558033N01212207EA0000001142
B1250455558091N01212277EA0000001155
B1251125558076N01212339EA0000001214
B1251275557988N01212217EA0000001257
B1251335558056N01212281EA0000001278
B1251395558043N01212427EA0000001292
B1251465558002N01212598EA0000001311
B1251515557967N01212721EA0000001326
B1252145557954N01212509EA0000001333
B1252195557969N01212632EA0000001343
B1252325557911N01212921EA0000001373
B1252425557852N01213136EA0000001374
B1252485557813N01213259EA0000001368
B1252535557785N01213366EA0000001368
B1253055557715N01213620EA0000001369
B1253115557678N01213758EA0000001374
B1253215557622N01214005EA0000001390
B1253275557592N01214157EA0000001396
B1253355557547N01214340EA0000001393
B1253405557514N01214449EA0000001384
B1253565557468N01214844EA0000001367
B1254015557483N01214973EA0000001355
B1254075557499N01215131EA0000001349
B1254125557514N01215251EA0000001354
B1254245557551N01215534EA0000001354
B1254335557584N01215729EA0000001354
B1254485557655N01216084EA0000001339
B1254535557669N01216195EA0000001332
B1254585557679N01216314EA0000001321
B1255035557683N01216435EA0000001310
B1255095557669N01216583EA0000001299
B1255145557646N01216702EA0000001309
B1255225557605N01216873EA0000001318
B1255325557547N01217078EA0000001319
B1255415557473N01217249EA0000001314
B1256315557078N01218185EA0000001326
B1256365557026N01218277EA0000001317
B1256415556989N01218393EA0000001308
B1256485556982N01218586EA0000001296
B1256535556988N01218720EA0000001298
B1257015557000N01218912EA0000001291
B1257065557012N01219038EA0000001283
B1257135557027N01219206EA0000001279
B1257185557037N01219327EA0000001273
B1257235557050N01219445EA0000001269
B1257355557079N01219721EA0000001253
B1257425557093N01219878EA0000001255
B1257485557107N01220004EA0000001255
B1257535557112N01220124EA0000001260
B1257585557069N01220197EA0000001267
B1258145557123N01219956EA0000001249
B1258215557224N01220041EA0000001268
B1258315557350N01220170EA0000001283
B1258365557366N01220271EA0000001277
B1258445557265N01220224EA0000001269
B1258495557269N01220059EA0000001266
B1258545557327N01219944EA0000001293
B1259005557401N01219968EA0000001291
B1259055557362N01220043EA0000001285
B1259105557316N01219948EA0000001292
B1259165557372N01219819EA0000001296
B1259215557428N01219885EA0000001298
B1259265557394N01219975EA0000001290
B1259385557321N01219763EA0000001308
B1259445557407N01219681EA0000001306
B1259515557460N01219793EA0000001307
B1259565557419N01219867EA0000001314
B1300105557407N01219626EA0000001321
B1300165557487N01219669EA0000001323
B1300215557544N01219737EA0000001322
B1300275557609N01219821EA0000001318
B1300325557664N01219887EA0000001313
B1300385557727N01219978EA0000001301
B1300475557836N01220136EA0000001296
B1300535557911N01220230EA0000001301
B1300595557980N01220330EA0000001302
B1301055558047N01220433EA0000001301
B1301105558105N01220521EA0000001298
B1301195558206N01220673EA0000001294
B1301245558259N01220756EA0000001292
B1301295558307N01220836EA0000001292
B1301365558379N01220952EA0000001281
B1301425558443N01221048EA0000001294
B1301515558526N01221174EA0000001287
B1301575558589N01221277EA0000001277
B1302045558659N01221413EA0000001285
B1302095558710N01221499EA0000001293
B1302145558761N01221580EA0000001300
B1302245558857N01221740EA0000001304
B1302315558923N01221870EA0000001298
B1302365558968N01221963EA0000001302
B1302425559024N01222073EA0000001309
B1302505559089N01222215EA0000001309
B1302575559142N01222347EA0000001301
B1303025559179N01222443EA0000001288
B1303085559224N01222569EA0000001270
B1303155559286N01222741EA0000001255
B1303245559340N01222983EA0000001272
B1303295559354N01223098EA0000001281
B1303355559367N01223227EA0000001268
B1303415559381N01223371EA0000001260
B1303465559390N01223489EA0000001254
B1303515559396N01223611EA0000001242
B1303565559404N01223739EA0000001233
B1304035559417N01223927EA0000001211
B1304095559430N01224102EA0000001201
B1304145559443N01224240EA0000001209
B1304195559453N01224367EA0000001227
B1304245559462N01224480EA0000001253
B1304295559420N01224547EA0000001256
B1304355559372N01224419EA0000001253
B1304405559433N01224342EA0000001257
B1304455559481N01224428EA0000001278
B1304505559436N01224502EA0000001287
B1304565559375N01224385EA0000001294
B1305025559426N01224261EA0000001303
B1305075559492N01224301EA0000001316
B1305145559464N01224439EA0000001333
B1305225559382N01224315EA0000001341
B1305275559426N01224207EA0000001351
B1305325559489N01224239EA0000001360
B1305375559483N01224349EA0000001376
B1305475559382N01224245EA0000001385
B1305525559436N01224149EA0000001388
B1305575559495N01224187EA0000001413
B1306075559446N01224345EA0000001426
B1306155559386N01224181EA0000001428
B1306205559435N01224080EA0000001437
B1306255559499N01224104EA0000001446
B1306305559506N01224221EA0000001447
B1306355559435N01224259EA0000001452
B1306425559388N01224085EA0000001456
B1306475559442N01223984EA0000001465
B1306525559509N01224006EA0000001477
B1306585559520N01224142EA0000001478
B1307035559449N01224172EA0000001484
B1307165559490N01223930EA0000001487
B1307215559549N01224008EA0000001505
B1307275559603N01224100EA0000001519
B1307335559664N01224196EA0000001517
B1307455559788N01224391EA0000001511
B1307525559852N01224511EA0000001510
B1307585559906N01224624EA0000001499
B1308145600048N01224901EA0000001499
B1308255600141N01225095EA0000001492
B1308315600187N01225203EA0000001505
B1308435600294N01225389EA0000001527
B1308545600454N01225453EA0000001550
B1309025600572N01225416EA0000001556
B1310065559634N01223528EA0000001497
B1310215559466N01223071EA0000001491
B1310265559389N01222960EA0000001488
B1310315559302N01222938EA0000001486
B1310375559214N01223012EA0000001484
B1310425559159N01223112EA0000001482
B1310475559110N01223217EA0000001478
B1310525559058N01223315EA0000001477
B1311005558972N01223465EA0000001471
B1311095558874N01223628EA0000001460
B1311155558858N01223770EA0000001463
B1311225558924N01223896EA0000001446
B1311335559098N01223990EA0000001441
B1311435559242N01224107EA0000001432
B1311515559347N01224224EA0000001426
B1311595559466N01224314EA0000001418
B1312045559541N01224369EA0000001417
B1312095559614N01224431EA0000001401
B1312145559671N01224542EA0000001391
B1312195559727N01224669EA0000001382
B1312245559803N01224756EA0000001381
B1312295559860N01224858EA0000001396
B1312345559842N01224973EA0000001404
B1312395559765N01224996EA0000001394
B1312535559587N01224743EA0000001406
B1312595559508N01224680EA0000001406
B1313045559439N01224630EA0000001401
B1313115559338N01224553EA0000001395
B1313165559266N01224485EA0000001394
B1313215559196N01224417EA0000001391
B1313345559013N01224258EA0000001384
B1313395558940N01224202EA0000001376
B1313445558869N01224141EA0000001373
B1313495558797N01224073EA0000001370
B1313595558654N01223932EA0000001364
B1314065558554N01223888EA0000001372
B1314135558462N01223820EA0000001370
B1314195558383N01223751EA0000001368
B1314245558320N01223662EA0000001363
B1314425558312N01223211EA0000001384
B1314495558350N01223360EA0000001400
B1314545558285N01223399EA0000001405
B1315015558244N01223228EA0000001411
B1315065558318N01223166EA0000001412
B1315115558357N01223269EA0000001425
B1315165558308N01223345EA0000001432
B1315265558260N01223136EA0000001449
B1315315558331N01223092EA0000001460
B1315365558374N01223167EA0000001462
B1315415558357N01223277EA0000001460
B1315525558258N01223120EA0000001481
B1315585558338N01223049EA0000001480
B1316215558245N01222980EA0000001513
B1316325558363N01223004EA0000001523
B1316385558298N01223074EA0000001534
B1316485558246N01222820EA0000001549
B1316575558368N01222762EA0000001557
B1317025558386N01222867EA0000001558
B1317075558326N01222940EA0000001556
B1317155558224N01222779EA0000001560
B1317205558237N01222617EA0000001563
B1317275558336N01222453EA0000001565
B1317475558776N01222152EA0000001490
B1318025559152N01221993EA0000001473
B1318085559298N01221929EA0000001465
B1318145559450N01221874EA0000001448
B1318225559657N01221810EA0000001428
B1318295559823N01221803EA0000001455
B1318365559956N01221864EA0000001464
B1318415600045N01221917EA0000001476
B1318465600121N01221969EA0000001492
B1318515600187N01222017EA0000001489
B1318585600282N01222090EA0000001477
B1319035600354N01222147EA0000001469
B1319105600459N01222231EA0000001470
B1319215600619N01222371EA0000001470
B1319265600692N01222444EA0000001471
B1319355600802N01222600EA0000001480
B1319425600897N01222709EA0000001480
B1319495600975N01222851EA0000001477
B1319555601020N01222993EA0000001477
B1320035601063N01223193EA0000001465
B1320115601112N01223386EA0000001460
B1320175601140N01223535EA0000001458
B1320235601166N01223684EA0000001458
B1320305601196N01223851EA0000001466
B1320375601223N01224006EA0000001468
B1320425601211N01224116EA0000001468
B1320475601154N01224176EA0000001475
B1320545601074N01224084EA0000001466
B1320595601081N01223939EA0000001468
B1321055601151N01223799EA0000001466
B1321115601223N01223659EA0000001470
B1321185601293N01223484EA0000001466
B1321385601268N01222900EA0000001458
B1321435601205N01222830EA0000001459
B1321485601140N01222845EA0000001454
B1321535601107N01222951EA0000001434
B1321585601115N01223101EA0000001425
B1322035601086N01223224EA0000001429
B1322095600995N01223240EA0000001407
B1322145600911N01223191EA0000001412
B1322205600819N01223150EA0000001423
B1322275600719N01223090EA0000001429
B1322385600573N01222983EA0000001428
B1322455600468N01222921EA0000001427
B1323355600217N01221490EA0000001430
B1323425600211N01221277EA0000001433
B1323505600201N01221035EA0000001430
B1324415600116N01219448EA0000001379
B1324475600111N01219254EA0000001380
B1325035600062N01218768EA0000001381
B1325135600030N01218487EA0000001410
B1325185600075N01218378EA0000001402
B1325235600149N01218410EA0000001396
B1325285600147N01218538EA0000001400
B1325365600048N01218459EA0000001404
B1325415600108N01218366EA0000001415
B1325465600164N01218455EA0000001415
B1325515600120N01218549EA0000001434
B1326005600058N01218359EA0000001446
B1326065600146N01218307EA0000001440
B1326125600171N01218446EA0000001456
B1326245600065N01218319EA0000001476
B1326295600129N01218232EA0000001470
B1326345600193N01218307EA0000001475
B1326395600166N01218422EA0000001484
B1326475600080N01218295EA0000001493
B1326545600176N01218206EA0000001493
B1327045600157N01218393EA0000001520
B1327125600087N01218237EA0000001524
B1327175600140N01218127EA0000001528
B1327225600213N01218157EA0000001534
B1327285600225N01218300EA0000001542
B1327405600104N01218193EA0000001553
B1327455600156N01218075EA0000001560
B1327505600234N01218098EA0000001562
B1327555600248N01218222EA0000001566
B1328075600105N01218118EA0000001574
B1328155600062N01217842EA0000001565
B1328205600090N01217676EA0000001568
B1328265600191N01217615EA0000001559
B1328315600247N01217728EA0000001555
B1328365600219N01217851EA0000001565
B1328415600142N01217865EA0000001560
B1328485600042N01217710EA0000001551
B1328585559918N01217455EA0000001548
B1329075559828N01217184EA0000001518
B1329145559822N01216917EA0000001502
B1329195559860N01216734EA0000001495
B1329255559922N01216534EA0000001499
B1329305559988N01216392EA0000001502
B1329365600084N01216256EA0000001506
B1329425600175N01216129EA0000001496
B1329505600293N01215939EA0000001488
B1330015600461N01215706EA0000001485
B1330085600569N01215572EA0000001485
B1330155600686N01215446EA0000001474
B1330205600770N01215336EA0000001484
B1330265600854N01215184EA0000001484
B1330315600923N01215051EA0000001473
B1330385601036N01214899EA0000001466
B1330435601128N01214899EA0000001452
B1330485601149N01215030EA0000001440
B1330535601071N01215048EA0000001432
B1330585601047N01214880EA0000001429
B1331035601115N01214751EA0000001432
B1331085601202N01214738EA0000001431
B1331135601269N01214810EA0000001426
B1331185601303N01214919EA0000001428
B1331235601296N01215028EA0000001423
B1331305601211N01215111EA0000001405
B1331355601140N01215142EA0000001411
B1331445601027N01215167EA0000001414
B1331505600952N01215178EA0000001408
B1331565600876N01215195EA0000001400
B1332015600813N01215217EA0000001397
B1332085600727N01215261EA0000001389
B1332135600667N01215283EA0000001388
B1332185600609N01215303EA0000001384
B1332265600516N01215336EA0000001376
B1332315600456N01215366EA0000001364
B1332395600349N01215412EA0000001353
B1332465600251N01215430EA0000001354
B1332515600179N01215439EA0000001353
B1332575600086N01215446EA0000001356
B1333045559983N01215438EA0000001365
B1333125559867N01215476EA0000001373
B1333185559825N01215580EA0000001388
B1333235559869N01215669EA0000001387
B1333285559939N01215602EA0000001387
B1333355559906N01215435EA0000001395
B1333405559837N01215448EA0000001402
B1333455559827N01215557EA0000001415
B1333515559904N01215634EA0000001410
B1333565559981N01215566EA0000001411
B1334025559986N01215394EA0000001419
B1334075559916N01215329EA0000001409
B1334125559845N01215375EA0000001431
B1334195559770N01215463EA0000001450
B1334245559716N01215515EA0000001456
B1334335559676N01215346EA0000001473
B1334385559755N01215336EA0000001477
B1334445559763N01215463EA0000001498
B1334505559682N01215470EA0000001496
B1334565559665N01215309EA0000001531
B1335015559738N01215245EA0000001534
B1335065559800N01215336EA0000001548
B1335115559771N01215436EA0000001558
B1335225559707N01215210EA0000001592
B1335275559789N01215111EA0000001568
B1335335559940N01215128EA0000001536
B1335395600103N01215157EA0000001520
B1335455600273N01215152EA0000001521
B1335515600434N01215080EA0000001524
B1335565600555N01214976EA0000001530
B1336035600720N01214827EA0000001523
B1336085600833N01214741EA0000001537
B1336165601011N01214635EA0000001512
B1336215601132N01214625EA0000001504
B1336315601371N01214624EA0000001490
B1336405601591N01214643EA0000001464
B1336465601746N01214658EA0000001448
B1336525601891N01214684EA0000001477
B1336585602008N01214698EA0000001484
B1337045602118N01214706EA0000001478
B1337095602208N01214724EA0000001467
B1337145602294N01214758EA0000001462
B1337205602390N01214813EA0000001452
B1337255602458N01214894EA0000001436
B1337315602487N01215048EA0000001417
B1337365602436N01215142EA0000001405
B1337485602342N01214862EA0000001397
B1337535602419N01214743EA0000001393
B1338005602553N01214754EA0000001375
B1338075602682N01214807EA0000001371
B1338125602772N01214843EA0000001367
B1338175602859N01214897EA0000001363
B1338235602958N01214990EA0000001357
B1338295603049N01215091EA0000001363
B1338345603115N01215169EA0000001371
B1338395603171N01215257EA0000001364
B1338455603188N01215403EA0000001358
B1338525603105N01215463EA0000001350
B1339015602979N01215357EA0000001364
B1339085602892N01215263EA0000001351
B1340025602239N01214420EA0000001289
B1340075602171N01214357EA0000001286
B1340125602107N01214305EA0000001287
B1340215601995N01214200EA0000001279
B1340295601894N01214121EA0000001273
B1340455601689N01213939EA0000001262
B1340515601612N01213890EA0000001259
B1340585601520N01213840EA0000001244
B1341035601453N01213800EA0000001239
B1341095601370N01213749EA0000001225
B1341155601272N01213714EA0000001213
B1341485600747N01213588EA0000001199
B1341575600603N01213541EA0000001192
B1342265600181N01213083EA0000001158
B1342345600052N01212972EA0000001147
B1342395559973N01212949EA0000001144
B1342455559882N01212980EA0000001124
B1342515559777N01213007EA0000001111
B1342575559662N01213035EA0000001095
B1343055559499N01213067EA0000001089
B1343125559363N01213097EA0000001083
B1343185559259N01213167EA0000001087
B1343255559148N01213276EA0000001098
B1343315559081N01213376EA0000001117
B1343395559044N01213541EA0000001120
B1343445559039N01213663EA0000001122
B1343495559045N01213780EA0000001129
B1343565559078N01213948EA0000001127
B1344015559099N01214065EA0000001126
B1344065559119N01214187EA0000001124
B1344135559152N01214353EA0000001125
B1344185559178N01214471EA0000001121
B1344235559204N01214588EA0000001134
B1344425559177N01214448EA0000001131
B1344475559245N01214500EA0000001133
B1344555559261N01214685EA0000001140
B1345005559255N01214797EA0000001145
B1345055559239N01214912EA0000001146
B1345115559214N01215043EA0000001152
B1345175559200N01215167EA0000001162
B1345245559280N01215212EA0000001173
B1345315559280N01215030EA0000001185
B1345385559204N01215084EA0000001192
B1345465559290N01215154EA0000001198
B1345555559284N01214926EA0000001222
B1346015559216N01214984EA0000001227
B1346125559340N01215015EA0000001239
B1346225559310N01214760EA0000001260
B1346305559250N01214867EA0000001250
B1346485559357N01214607EA0000001276
B1346535559296N01214654EA0000001264
B1346585559335N01214753EA0000001278
B1347045559427N01214676EA0000001283
B1347095559438N01214507EA0000001295
B1347145559375N01214422EA0000001304
B1347195559318N01214478EA0000001298
B1347245559334N01214600EA0000001302
B1347335559463N01214544EA0000001315
B1347385559470N01214372EA0000001320
B1347435559407N01214273EA0000001329
B1347485559340N01214317EA0000001324
B1347535559332N01214450EA0000001320
B1347585559393N01214531EA0000001345
B1348045559485N01214470EA0000001349
B1348115559504N01214243EA0000001357
B1348165559446N01214151EA0000001365
B1348215559380N01214178EA0000001359
B1348275559370N01214321EA0000001356
B1348345559468N01214330EA0000001381
B1348445559464N01214059EA0000001374
B1348495559394N01214064EA0000001375
B1348545559371N01214177EA0000001370
B1349015559453N01214270EA0000001392
B1349065559528N01214176EA0000001388
B1349125559533N01213972EA0000001399
B1349185559462N01213871EA0000001395
B1349235559394N01213919EA0000001391
B1349295559381N01214054EA0000001410
B1349345559421N01214146EA0000001417
B1349395559480N01214220EA0000001427
B1349445559539N01214286EA0000001438
B1349515559626N01214379EA0000001446
B1350015559783N01214455EA0000001450
B1350065559862N01214492EA0000001464
B1350125559952N01214533EA0000001477
B1350175600033N01214570EA0000001483
B1350235600129N01214610EA0000001492
B1350285600210N01214640EA0000001490
B1350355600323N01214700EA0000001485
B1350405600404N01214747EA0000001478
B1350465600513N01214761EA0000001476
B1351035600806N01214720EA0000001457
B1351115600955N01214714EA0000001436
B1351205601135N01214699EA0000001426
B1351255601237N01214688EA0000001425
B1351305601319N01214757EA0000001423
B1351355601351N01214896EA0000001415
B1351425601321N01215088EA0000001419
B1351515601273N01215321EA0000001409
B1351565601239N01215443EA0000001419
B1352055601184N01215658EA0000001423
B1352125601146N01215817EA0000001428
B1352195601109N01215977EA0000001430
B1352245601085N01216089EA0000001433
B1352305601054N01216219EA0000001436
B1352375601020N01216367EA0000001435
B1352425600994N01216478EA0000001432
B1352475600976N01216593EA0000001431
B1352525600964N01216717EA0000001422
B1352585600956N01216865EA0000001422
B1353035600955N01216986EA0000001414
B1353085600956N01217115EA0000001400
B1353145600964N01217267EA0000001396
B1353195600976N01217392EA0000001388
B1353245600974N01217516EA0000001386
B1353295600935N01217609EA0000001379
B1353355600852N01217673EA0000001376
B1353425600754N01217725EA0000001376
B1353515600625N01217781EA0000001368
B1353575600540N01217813EA0000001364
B1354035600455N01217839EA0000001360
B1354095600371N01217864EA0000001356
B1354155600288N01217891EA0000001356
B1354205600221N01217917EA0000001353
B1354315600084N01217989EA0000001348
B1354365600024N01218021EA0000001344
B1354445559918N01218062EA0000001330
B1354525559809N01218114EA0000001326
B1354575559745N01218143EA0000001327
B1355025559681N01218163EA0000001320
B1355145559520N01218209EA0000001317
B1355195559464N01218263EA0000001309
B1355255559430N01218394EA0000001303
B1355315559419N01218535EA0000001307
B1355395559412N01218718EA0000001299
B1355445559410N01218841EA0000001295
B1355515559407N01219007EA0000001295
B1355585559405N01219172EA0000001280
B1356055559407N01219363EA0000001268
B1356185559407N01219686EA0000001272
B1356275559408N01219909EA0000001270
B1356335559410N01220056EA0000001268
B1356415559412N01220260EA0000001268
B1356505559402N01220489EA0000001273
B1356565559345N01220584EA0000001275
B1357065559276N01220403EA0000001286
B1357115559347N01220357EA0000001287
B1357165559366N01220455EA0000001278
B1357245559277N01220413EA0000001283
B1357325559290N01220164EA0000001295
B1357375559333N01220034EA0000001295
B1357425559412N01219973EA0000001297
B1357475559471N01220039EA0000001306
B1357525559453N01220139EA0000001301
B1358015559386N01219997EA0000001303
B1358065559454N01219903EA0000001310
B1358115559511N01219976EA0000001317
B1358165559484N01220071EA0000001311
B1358215559423N01220021EA0000001318
B1358265559432N01219876EA0000001315
B1358315559509N01219824EA0000001319
B1358385559546N01219953EA0000001327
B1358485559460N01219852EA0000001330
B1358545559517N01219712EA0000001334
B1358595559591N01219713EA0000001333
B1359085559709N01219828EA0000001331
B1359145559781N01219912EA0000001332
B1359205559808N01220031EA0000001322
B1359255559755N01220082EA0000001316
B1359385559666N01219737EA0000001313
B1359475559639N01219476EA0000001312
B1359555559613N01219243EA0000001313
B1400025559592N01219042EA0000001310
B1400235559463N01218447EA0000001299
B1400285559423N01218317EA0000001295
B1401295558778N01216791EA0000001277
B1401345558813N01216677EA0000001281
B1401395558876N01216718EA0000001292
B1401445558852N01216800EA0000001308
B1401515558798N01216672EA0000001319
B1401565558860N01216585EA0000001325
B1402015558912N01216656EA0000001344
B1402065558879N01216735EA0000001352
B1402135558827N01216596EA0000001369
B1402185558889N01216506EA0000001379
B1402235558956N01216551EA0000001393
B1402285558959N01216656EA0000001402
B1402405558873N01216500EA0000001431
B1402455558946N01216432EA0000001443
B1402535558968N01216575EA0000001463
B1403025558882N01216437EA0000001491
B1403085558938N01216274EA0000001497
B1403145559042N01216256EA0000001498
B1403225559071N01216441EA0000001503
B1403335558967N01216247EA0000001519
B1403385559033N01216112EA0000001531
B1403435559122N01216105EA0000001538
B1403495559176N01216241EA0000001532
B1403545559123N01216345EA0000001518
B1404045558943N01216248EA0000001541
B1404125558805N01216065EA0000001518
B1407245556802N01211062EA0000001484
B1408145556254N01210035EA0000001560
B1408255556251N01209732EA0000001546
B1408405556476N01209846EA0000001545
B1408505556594N01209987EA0000001550
B1408555556648N01210061EA0000001552
B1409025556720N01210164EA0000001561
B1409085556785N01210256EA0000001565
B1409175556887N01210414EA0000001567
B1409225556952N01210510EA0000001563
B1409285557044N01210634EA0000001540
B1409405557253N01210935EA0000001500
B1409515557451N01211236EA0000001470
B1409565557542N01211376EA0000001467
B1410015557624N01211498EA0000001487
B1410085557723N01211660EA0000001496
B1410135557784N01211764EA0000001505
B1410195557852N01211880EA0000001504
B1410315557987N01212107EA0000001505
B1410385558062N01212230EA0000001507
B1410455558138N01212368EA0000001513
B1410505558190N01212468EA0000001522
B1410555558239N01212567EA0000001533
B1411025558300N01212700EA0000001548
B1411085558346N01212824EA0000001546
B1411145558392N01212964EA0000001540
B1411235558470N01213187EA0000001539
B1411315558541N01213397EA0000001544
B1411435558652N01213712EA0000001557
B1411505558727N01213899EA0000001550
B1411565558799N01214073EA0000001543
B1412085558938N01214464EA0000001530
B1412145558999N01214667EA0000001529
B1412205559057N01214877EA0000001531
B1412265559112N01215094EA0000001539
B1412315559154N01215282EA0000001525
B1412365559191N01215474EA0000001530
B1412435559245N01215747EA0000001513
B1412485559281N01215942EA0000001509
B1412535559314N01216130EA0000001507
B1412585559348N01216308EA0000001511
B1413055559393N01216529EA0000001515
B1413135559445N01216781EA0000001493
B1413185559478N01216944EA0000001480
B1413245559517N01217149EA0000001460
B1413345559586N01217497EA0000001447
B1413485559693N01217975EA0000001420
B1413535559749N01218136EA0000001423
B1413585559803N01218273EA0000001442
B1414105559921N01218558EA0000001449
B1414205600008N01218786EA0000001450
B1414255600051N01218901EA0000001443
B1414305600093N01219022EA0000001440
B1414355600133N01219142EA0000001438
B1414465600250N01219371EA0000001439
B1414535600329N01219502EA0000001447
B1415025600408N01219660EA0000001459
B1415105600477N01219822EA0000001453
B1415165600519N01219961EA0000001466
B1415215600547N01220070EA0000001474
B1415265600572N01220181EA0000001473
B1415325600598N01220325EA0000001469
B1415395600630N01220483EA0000001483
B1415445600664N01220588EA0000001482
B1415525600717N01220760EA0000001475
B1415585600763N01220894EA0000001467
B1416095600854N01221139EA0000001478
B1416145600888N01221246EA0000001473
B1416205600929N01221384EA0000001463
B1416285600978N01221571EA0000001454
B1416335601018N01221693EA0000001446
B1416405601100N01221856EA0000001446
B1416475601180N01222003EA0000001449
B1416525601239N01222103EA0000001446
B1416575601298N01222199EA0000001450
B1417025601353N01222292EA0000001449
B1417075601406N01222388EA0000001444
B1417125601458N01222492EA0000001438
B1417175601509N01222606EA0000001436
B1417225601558N01222719EA0000001444
B1417275601592N01222835EA0000001441
B1417365601591N01223075EA0000001429
B1417445601535N01223267EA0000001425
B1417515601492N01223435EA0000001425
B1418005601448N01223656EA0000001420
B1418075601406N01223826EA0000001426
B1418175601394N01224096EA0000001417
B1418235601415N01224260EA0000001415
B1418285601433N01224394EA0000001407
B1418345601455N01224559EA0000001397
B1418435601490N01224819EA0000001387
B1418495601517N01224996EA0000001387
B1418545601540N01225129EA0000001391
B1418595601564N01225258EA0000001386
B1419045601562N01225392EA0000001391
B1419095601497N01225438EA0000001403
B1419165601456N01225258EA0000001406
B1419215601530N01225172EA0000001398
B1419265601570N01225279EA0000001406
B1419325601495N01225340EA0000001412
B1419395601451N01225164EA0000001413
B1419445601523N01225049EA0000001406
B1419495601614N01225053EA0000001408
B1419545601701N01225103EA0000001409
B1420005601796N01225169EA0000001417
B1420065601890N01225253EA0000001394
B1420125601993N01225344EA0000001386
B1420205602118N01225476EA0000001387
B1420305602273N01225621EA0000001376
B1420395602408N01225754EA0000001364
B1420495602565N01225888EA0000001351
B1420545602634N01225968EA0000001347
B1421005602640N01226109EA0000001339
B1421055602569N01226147EA0000001312
B1421155602393N01225964EA0000001296
B1421205602321N01225850EA0000001288
B1421285602206N01225664EA0000001278
B1421345602117N01225528EA0000001268
B1421415602004N01225375EA0000001252
B1421485601880N01225233EA0000001243
B1421565601740N01225079EA0000001236
B1422015601654N01224984EA0000001230
B1422065601566N01224891EA0000001224
B1422115601481N01224807EA0000001236
B1422195601366N01224688EA0000001246
B1422265601263N01224582EA0000001254
B1422315601189N01224508EA0000001256
B1422425601072N01224264EA0000001258
B1422475601134N01224171EA0000001247
B1422525601200N01224249EA0000001231
B1422585601155N01224401EA0000001225
B1423055601026N01224378EA0000001232
B1423105600953N01224279EA0000001231
B1423195600827N01224047EA0000001200
B1423245600754N01223898EA0000001195
B1423295600687N01223756EA0000001216
B1423365600608N01223567EA0000001236
B1423435600539N01223387EA0000001252
B1423535600437N01223127EA0000001228
B1423595600366N01222968EA0000001224
B1424045600311N01222839EA0000001220
B1424145600197N01222576EA0000001210
B1424215600125N01222391EA0000001208
B1424295600045N01222179EA0000001198
B1424385559943N01221960EA0000001188
B1424435559884N01221832EA0000001181
B1424515559791N01221631EA0000001181
B1425035559652N01221336EA0000001170
B1425085559597N01221208EA0000001176
B1426375558975N01218661EA0000001108
B1426425558897N01218606EA0000001114
B1426475558828N01218536EA0000001125
B1426565558871N01218334EA0000001113
B1427015558922N01218420EA0000001103
B1427065558877N01218511EA0000001106
B1427135558766N01218510EA0000001117
B1427185558690N01218502EA0000001114
B1427235558611N01218492EA0000001105
B1427285558533N01218493EA0000001103
B1427385558390N01218573EA0000001086
B1427445558306N01218635EA0000001083
B1427495558235N01218686EA0000001076
B1427575558118N01218752EA0000001070
B1428025558039N01218762EA0000001063
B1428075557960N01218770EA0000001059
B1428125557881N01218767EA0000001052
B1428185557786N01218752EA0000001050
B1428235557712N01218735EA0000001049
B1428305557607N01218713EA0000001051
B1428355557533N01218697EA0000001050
B1428445557395N01218664EA0000001059
B1428565557387N01218465EA0000001082
B1429015557422N01218558EA0000001090
B1429095557334N01218562EA0000001100
B1429165557379N01218389EA0000001114
B1429215557448N01218426EA0000001123
B1429265557437N01218535EA0000001126
B1429315557375N01218500EA0000001138
B1429395557431N01218312EA0000001142
B1429445557497N01218353EA0000001151
B1429495557481N01218458EA0000001152
B1429555557408N01218405EA0000001163
B1430015557421N01218241EA0000001161
B1430075557507N01218179EA0000001169
B1430125557558N01218261EA0000001168
B1430175557523N01218350EA0000001175
B1430265557452N01218172EA0000001187
B1430345557553N01218049EA0000001190
B1430395557602N01218132EA0000001194
B1430445557570N01218228EA0000001192
B1431015557589N01217970EA0000001215
B1431085557627N01218104EA0000001213
B1431135557576N01218157EA0000001223
B1431295557612N01217877EA0000001223
B1431345557657N01217971EA0000001224
B1431395557621N01218059EA0000001223
B1431565557645N01217779EA0000001232
B1432015557683N01217877EA0000001226
B1432065557634N01217959EA0000001228
B1432185557537N01217691EA0000001234
B1432275557653N01217561EA0000001235
B1432335557687N01217685EA0000001223
B1432525557676N01217461EA0000001230
B1432575557721N01217547EA0000001224
B1433035557708N01217699EA0000001217
B1433085557684N01217818EA0000001216
B1433135557622N01217876EA0000001214
B1433355557744N01217596EA0000001212
B1433405557790N01217703EA0000001205
B1433465557829N01217855EA0000001199
B1433535557867N01218025EA0000001197
B1434015557909N01218233EA0000001171
B1434065557939N01218366EA0000001168
B1434145557986N01218568EA0000001165
B1434205558023N01218710EA0000001161
B1434275558066N01218878EA0000001151
B1434365558112N01219096EA0000001146
B1434415558138N01219211EA0000001140
B1434485558185N01219380EA0000001126
B1434535558223N01219503EA0000001123
B1434595558269N01219642EA0000001135
B1435055558309N01219772EA0000001136
B1435105558342N01219885EA0000001129
B1435175558386N01220040EA0000001129
B1435235558426N01220173EA0000001117
B1435295558471N01220303EA0000001113
B1435345558508N01220410EA0000001105
B1435445558588N01220640EA0000001101
B1435505558631N01220761EA0000001100
B1435555558670N01220863EA0000001092
B1436045558750N01221052EA0000001097
B1436115558811N01221183EA0000001102
B1436165558859N01221281EA0000001098
B1436215558907N01221389EA0000001109
B1436265558890N01221500EA0000001124
B1436335558819N01221391EA0000001138
B1436385558876N01221293EA0000001156
B1436495558879N01221461EA0000001172
B1436555558826N01221326EA0000001184
B1437005558885N01221232EA0000001204
B1437065558942N01221320EA0000001214
B1437115558897N01221398EA0000001219
B1437175558838N01221269EA0000001228
B1437225558890N01221156EA0000001244
B1437275558949N01221223EA0000001245
B1437325558906N01221315EA0000001254
B1437385558843N01221190EA0000001265
B1437435558884N01221060EA0000001278
B1437485558959N01221063EA0000001289
B1437555558967N01221213EA0000001297
B1438015558888N01221198EA0000001310
B1438065558876N01221049EA0000001311
B1438115558946N01220970EA0000001330
B1438165558997N01221042EA0000001335
B1438215558968N01221140EA0000001347
B1438305558879N01221001EA0000001352
B1438365558941N01220873EA0000001366
B1438415559008N01220918EA0000001370
B1438465559001N01221031EA0000001382
B1438565558897N01220904EA0000001395
B1439015558943N01220788EA0000001404
B1439065559015N01220795EA0000001409
B1439115559044N01220898EA0000001414
B1439165559010N01220994EA0000001425
B1439285558882N01220820EA0000001434
B1439335558925N01220691EA0000001440
B1439385559005N01220685EA0000001439
B1439475559010N01220874EA0000001456
B1439595558872N01220655EA0000001436
B1440045558930N01220521EA0000001464
B1440115559050N01220482EA0000001465
B1440255559285N01220488EA0000001473
B1440355559456N01220504EA0000001453
B1440415559560N01220470EA0000001450
B1440495559702N01220422EA0000001435
B1440545559795N01220387EA0000001427
B1441035559965N01220334EA0000001420
B1441125600131N01220268EA0000001417
B1441195600255N01220218EA0000001414
B1441245600345N01220181EA0000001411
B1441305600452N01220131EA0000001407
B1441375600573N01220064EA0000001406
B1441435600674N01220003EA0000001407
B1441485600755N01219958EA0000001408
B1441545600852N01219917EA0000001403
B1442025600981N01219872EA0000001405
B1442075601062N01219845EA0000001403
B1442165601209N01219794EA0000001399
B1442215601291N01219773EA0000001400
B1442285601400N01219743EA0000001406
B1442335601476N01219721EA0000001404
B1442395601568N01219708EA0000001395
B1442445601636N01219760EA0000001384
B1442495601661N01219878EA0000001375
B1442545601623N01219971EA0000001367
B1443005601537N01220012EA0000001357
B1443055601466N01220026EA0000001357
B1443115601378N01220014EA0000001348
B1443175601285N01219987EA0000001344
B1443235601193N01219950EA0000001346
B1443285601118N01219914EA0000001348
B1443335601044N01219883EA0000001352
B1443385600968N01219855EA0000001354
B1443495600802N01219756EA0000001350
B1443575600680N01219685EA0000001343
B1444035600586N01219647EA0000001338
B1444085600508N01219639EA0000001339
B1444145600418N01219635EA0000001337
B1444205600323N01219628EA0000001328
B1444255600242N01219623EA0000001329
B1444315600150N01219618EA0000001331
B1444385600050N01219607EA0000001335
B1444455559954N01219604EA0000001332
B1444505559883N01219602EA0000001329
B1445005559739N01219590EA0000001330
B1445065559657N01219578EA0000001326
B1445125559575N01219582EA0000001322
B1445215559454N01219583EA0000001315
B1445295559346N01219567EA0000001301
B1445345559273N01219560EA0000001289
B1445395559196N01219559EA0000001288
B1445495559060N01219447EA0000001282
B1445575558958N01219323EA0000001281
B1446355558787N01218449EA0000001243
B1446455558854N01218186EA0000001238
B1447115559002N01217504EA0000001221
B1447235559066N01217144EA0000001204
B1447315559122N01216907EA0000001196
B1447365559161N01216751EA0000001193
B1447435559257N01216635EA0000001197
B1447485559290N01216734EA0000001197
B1447535559231N01216796EA0000001197
B1448055559246N01216591EA0000001191
B1448105559277N01216699EA0000001194
B1448155559221N01216764EA0000001197
B1448225559113N01216721EA0000001188
B1449035558733N01215661EA0000001190
B1449095558684N01215513EA0000001189
B1449205558603N01215234EA0000001184
B1449255558564N01215100EA0000001179
B1449315558519N01214944EA0000001181
B1449405558458N01214711EA0000001178
B1449495558401N01214487EA0000001182
B1449585558406N01214261EA0000001193
B1450045558474N01214320EA0000001198
B1450115558408N01214363EA0000001202
B1450215558469N01214179EA0000001211
B1450265558496N01214282EA0000001210
B1450315558433N01214311EA0000001218
B1450425558438N01214068EA0000001229
B1450475558496N01214126EA0000001234
B1451035558480N01214005EA0000001253
B1451085558523N01214084EA0000001258
B1451265558523N01213921EA0000001274
B1451315558578N01213992EA0000001273
B1451365558559N01214091EA0000001276
B1451505558558N01213856EA0000001283
B1451555558610N01213929EA0000001292
B1452215558647N01213806EA0000001297
B1452265558630N01213911EA0000001305
B1452475558647N01213618EA0000001314
B1452555558675N01213774EA0000001310
B1453215558687N01213636EA0000001331
B1453405558665N01213458EA0000001339
B1453485558710N01213600EA0000001337
B1454045558699N01213368EA0000001341
B1454375558778N01213239EA0000001348
B1454425558823N01213321EA0000001336
B1454475558806N01213421EA0000001334
B1455145558621N01213121EA0000001350
B1455195558670N01213195EA0000001352
B1455365558622N01213003EA0000001365
B1455435558705N01213074EA0000001375
B1455485558695N01213180EA0000001377
B1456065558651N01212940EA0000001388
B1456115558714N01212990EA0000001392
B1456175558711N01213125EA0000001387
B1456235558634N01213180EA0000001400
B1456295558587N01213049EA0000001393
B1456365558660N01212898EA0000001402
B1456415558732N01212927EA0000001403
B1456465558760N01213037EA0000001409
B1456515558731N01213132EA0000001418
B1457015558637N01212998EA0000001412
B1457095558722N01212830EA0000001412
B1457145558794N01212866EA0000001419
B1457195558804N01212981EA0000001420
B1457295558685N01212960EA0000001426
B1457425558792N01212703EA0000001421
B1457475558866N01212741EA0000001427
B1457545558899N01212901EA0000001430
B1457595558878N01213006EA0000001428
B1458115558769N01212829EA0000001427
B1458195558870N01212662EA0000001427
B1458355559174N01212682EA0000001394
B1458425559325N01212709EA0000001375
B1458495559475N01212752EA0000001377
B1458545559572N01212774EA0000001387
B1459035559731N01212786EA0000001398
B1459085559820N01212799EA0000001406
B1459135559892N01212864EA0000001417
B1459185559902N01212980EA0000001417
B1459305559825N01212810EA0000001417
B1459355559909N01212781EA0000001427
B1459405559957N01212885EA0000001433
B1459455559952N01213011EA0000001435
B1459525559881N01213083EA0000001435
B1459575559839N01212965EA0000001416
B1500045559862N01212741EA0000001433
B1500095559934N01212706EA0000001446
B1500155559981N01212830EA0000001437
B1500225559904N01212878EA0000001442
B1500275559868N01212752EA0000001445
B1500335559928N01212631EA0000001458
B1500385559991N01212683EA0000001455
B1500435559985N01212799EA0000001459
B1500495559910N01212808EA0000001457
B1500595559927N01212566EA0000001467
B1501045559999N01212591EA0000001471
B1501095559992N01212703EA0000001468
B1501165559908N01212631EA0000001474
B1501225559944N01212476EA0000001480
B1501275600012N01212531EA0000001470
B1501405559886N01212537EA0000001498
B1501465559887N01212360EA0000001504
B1501565559955N01212073EA0000001507
B1502025600012N01211904EA0000001515
B1502075600061N01211768EA0000001514
B1502155600161N01211572EA0000001501
B1502205600254N01211582EA0000001495
B1502255600319N01211672EA0000001501
B1502305600346N01211790EA0000001490
B1502355600317N01211910EA0000001469
B1502415600225N01211904EA0000001462
B1502485600203N01211673EA0000001454
B1503215600492N01210638EA0000001462
B1503265600552N01210503EA0000001459
B1503325600627N01210339EA0000001453
B1503375600703N01210220EA0000001450
B1503465600843N01210029EA0000001453
B1503525600932N01209903EA0000001452
B1504065601149N01209617EA0000001440
B1504135601266N01209490EA0000001442
B1504275601493N01209247EA0000001447
B1504325601584N01209183EA0000001446
B1504375601663N01209229EA0000001445
B1504425601678N01209353EA0000001441
B1504495601656N01209485EA0000001457
B1504565601626N01209609EA0000001457
B1505045601590N01209737EA0000001456
B1505095601548N01209793EA0000001453
B1505195601440N01209826EA0000001440
B1505265601387N01209636EA0000001436
B1505325601364N01209450EA0000001436
B1505385601342N01209273EA0000001436
B1505435601323N01209126EA0000001430
B1505555601272N01208770EA0000001428
B1506005601255N01208615EA0000001424
B1506075601241N01208388EA0000001417
B1506125601227N01208228EA0000001416
B1506185601211N01208034EA0000001412
B1506245601203N01207840EA0000001410
B1507235601139N01205987EA0000001355
B1507285601068N01205976EA0000001340
B1507355600997N01206108EA0000001324
B1507425600947N01206253EA0000001328
B1507535600864N01206456EA0000001316
B1507595600809N01206558EA0000001303
B1508065600736N01206681EA0000001295
B1508115600687N01206761EA0000001288
B1508165600645N01206852EA0000001280
B1508215600604N01206943EA0000001276
B1508265600566N01207037EA0000001266
B1508325600540N01207176EA0000001258
B1508385600537N01207315EA0000001263
B1508445600549N01207443EA0000001268
B1508565600564N01207679EA0000001274
B1510015600636N01209094EA0000001257
B1510145600612N01208929EA0000001237
B1511015600819N01208765EA0000001259
B1511235600879N01208712EA0000001252
B1511335600965N01208854EA0000001258
B1512165600434N01209203EA0000001231
B1512235600339N01209222EA0000001237
B1512305600247N01209233EA0000001243
B1512355600183N01209232EA0000001242
B1512435600076N01209256EA0000001235
B1512485600011N01209276EA0000001235
B1512545559933N01209301EA0000001233
B1513005559858N01209369EA0000001224
B1513055559797N01209437EA0000001228
B1513105559737N01209498EA0000001235
B1513165559668N01209573EA0000001249
B1513235559588N01209667EA0000001253
B1513315559498N01209779EA0000001252
B1513375559431N01209871EA0000001247
B1513425559371N01209943EA0000001244
B1513495559287N01210042EA0000001241
B1514135558996N01210321EA0000001242
B1514225558889N01210413EA0000001233
B1514275558825N01210467EA0000001229
B1514325558763N01210515EA0000001228
B1514395558672N01210604EA0000001198
B1514485558539N01210738EA0000001194
B1514535558470N01210819EA0000001198
B1515015558357N01210937EA0000001200
B1515075558275N01211024EA0000001199
B1515135558194N01211104EA0000001198
B1515205558105N01211189EA0000001198
B1515315557970N01211346EA0000001190
B1515445557821N01211529EA0000001193
B1515525557732N01211638EA0000001190
B1515585557661N01211701EA0000001188
B1516045557576N01211756EA0000001180
B1516125557461N01211819EA0000001194
B1516185557375N01211865EA0000001190
B1516235557305N01211912EA0000001197
B1516295557231N01211946EA0000001206
B1516395557091N01211989EA0000001205
B1516595556796N01212026EA0000001185
B1517075556685N01212043EA0000001176
B1517145556589N01212054EA0000001169
B1517235556462N01212063EA0000001171
B1518315555479N01212378EA0000001111
B1518365555415N01212432EA0000001105
B1518415555382N01212534EA0000001106
B1518475555391N01212681EA0000001088
B1518535555414N01212835EA0000001088
B1518595555430N01212976EA0000001084
B1519065555445N01213133EA0000001076
B1519125555456N01213267EA0000001065
B1519185555460N01213406EA0000001052
B1519245555449N01213541EA0000001046
B1519295555433N01213649EA0000001041
B1519415555379N01213901EA0000001028
B1519475555346N01214027EA0000001018
B1519535555309N01214149EA0000001010
B1520075555225N01214443EA0000000991
B1520125555201N01214549EA0000000988
B1520185555173N01214668EA0000000984
B1520235555149N01214767EA0000000977
B1520295555121N01214895EA0000000971
B1520355555097N01215020EA0000000968
B1520415555074N01215149EA0000000963
B1520535555023N01215398EA0000000959
B1521015554979N01215568EA0000000950
B1521095554933N01215745EA0000000944
B1521165554892N01215893EA0000000938
B1521235554855N01216041EA0000000933
B1521295554823N01216156EA0000000933
B1521345554787N01216241EA0000000925
B1521435554695N01216352EA0000000922
B1521495554623N01216375EA0000000924
B1521545554562N01216348EA0000000921
B1522005554484N01216282EA0000000907
B1522115554336N01216188EA0000000898
B1522205554215N01216209EA0000000896
B1522295554098N01216268EA0000000891
B1522345554034N01216299EA0000000889
B1522425553931N01216358EA0000000877
B1522485553854N01216402EA0000000876
B1522595553713N01216479EA0000000870
B1523055553641N01216508EA0000000874
B1523135553537N01216540EA0000000866
B1523185553466N01216545EA0000000861
B1523255553373N01216515EA0000000862
B1523325553294N01216421EA0000000857
B1523385553245N01216279EA0000000843
B1523455553253N01216076EA0000000831
B1523505553309N01215962EA0000000825
B1523565553394N01215885EA0000000825
B1524045553489N01215746EA0000000815
B1524125553561N01215542EA0000000810
B1524175553600N01215409EA0000000812
B1524235553648N01215246EA0000000816
B1524305553707N01215048EA0000000806
B1524365553760N01214888EA0000000806
B1524435553822N01214709EA0000000797
B1524495553875N01214560EA0000000790
B1524595553954N01214313EA0000000783
B1525085554017N01214085EA0000000766
B1525155554063N01213892EA0000000754
B1525255554123N01213607EA0000000737
B1525355554176N01213320EA0000000726
B1525405554202N01213180EA0000000720
B1525465554230N01212998EA0000000721
B1525515554253N01212849EA0000000728
B1525575554273N01212665EA0000000725
B1526095554328N01212321EA0000000733
B1526145554390N01212228EA0000000723
B1526225554510N01212200EA0000000714
B1526285554593N01212267EA0000000699
B1526335554635N01212370EA0000000696
B1526405554634N01212532EA0000000685
B1526485554574N01212676EA0000000671
B1526555554498N01212787EA0000000672
B1527015554443N01212882EA0000000671
B1527125554356N01213086EA0000000657
B1527225554282N01213287EA0000000638
B1527295554224N01213427EA0000000633
B1527355554175N01213539EA0000000627
B1527435554099N01213691EA0000000611
B1527495554039N01213792EA0000000611
B1527575553965N01213921EA0000000595
B1528025553921N01214008EA0000000584
B1528075553874N01214089EA0000000575
B1528135553816N01214171EA0000000570
B1528195553755N01214247EA0000000557
B1528265553682N01214372EA0000000557
B1528335553614N01214496EA0000000562
B1528385553580N01214597EA0000000552
B1528475553652N01214767EA0000000535
B1528525553728N01214728EA0000000535
B1528575553776N01214595EA0000000532
B1529045553760N01214379EA0000000544
B1529095553688N01214317EA0000000541
B1529145553619N01214382EA0000000528
B1529215553570N01214548EA0000000526
B1529265553541N01214654EA0000000524
B1529385553485N01214916EA0000000499
B1529485553433N01215128EA0000000481
B1529585553347N01215308EA0000000472
B1530035553287N01215354EA0000000470
B1530095553202N01215354EA0000000462
B1530175553085N01215348EA0000000458
B1530295552922N01215380EA0000000456
B1530355552839N01215392EA0000000453
B1530405552771N01215397EA0000000464
B1530475552677N01215423EA0000000457
B1530545552580N01215458EA0000000445
B1531005552499N01215423EA0000000431
B1531085552404N01215275EA0000000412
B1531145552336N01215151EA0000000414
B1531195552273N01215084EA0000000428
B1531245552206N01215075EA0000000437
B1531315552137N01215147EA0000000457
B1531365552134N01215247EA0000000466
B1531415552161N01215344EA0000000473
B1531475552221N01215438EA0000000457
B1531535552287N01215544EA0000000444
B1532005552287N01215690EA0000000435
B1532055552228N01215718EA0000000420
B1532105552173N01215623EA0000000407
B1532165552198N01215454EA0000000391
B1532215552278N01215422EA0000000380
B1532285552305N01215561EA0000000369
B1532335552238N01215584EA0000000358
B1532385552200N01215469EA0000000352
B1532445552255N01215326EA0000000333
B1532495552331N01215327EA0000000335
B1532545552375N01215410EA0000000322
B1533015552361N01215558EA0000000321
B1533065552304N01215592EA0000000310
B1533115552246N01215529EA0000000304
B1533185552232N01215352EA0000000290
B1533235552281N01215251EA0000000281
B1533285552354N01215238EA0000000263
B1533365552409N01215384EA0000000258
B1533415552352N01215436EA0000000247
B1533465552304N01215339EA0000000243
B1533525552331N01215175EA0000000233
B1533595552385N01214978EA0000000214
B1534055552422N01214793EA0000000207
B1534135552448N01214536EA0000000203
B1534185552459N01214372EA0000000201
B1534265552478N01214113EA0000000207
B1534315552486N01213952EA0000000203
B1534385552490N01213733EA0000000202
B1534455552497N01213514EA0000000189
B1534515552500N01213323EA0000000183
B1534565552498N01213164EA0000000180
B1535015552519N01213014EA0000000180
B1535075552594N01212885EA0000000165
B1535125552663N01212782EA0000000150
B1535275552864N01212448EA0000000149
B1535345552973N01212410EA0000000153
B1535415553087N01212414EA0000000135
B1535465553171N01212448EA0000000131
B1535515553208N01212548EA0000000136
B1535565553202N01212661EA0000000116
B1536045553180N01212868EA0000000078
B1536125553158N01213082EA0000000043
B1536185553141N01213242EA0000000019
B1536255553122N01213403EA0000000013
B1536325553110N01213506EA0000000012
