AOGNOGN
HFDTE190725
HFFXA050
HFPLTPILOTINCHARGE:
HFGTYGLIDERTYPE:H36 Dimona
HFGIDGLIDERID:OY-NFX
HFDTM100GPSDATUM:WGS-1984
HFRFWFIRMWAREVERSION:
HFRHWHARDWAREVERSION:
HFFTYFRTYPE:OGN-FLIGHTBOOK
HFGPSGENERIC
HFPRSPRESSALTSENSOR:
HFCIDCOMPETITIONID:FX
B0752005553115N01213950EA0000000017
B0752035553117N01213903EA0000000018
B0752095553122N01213778EA0000000018
B0752155553130N01213618EA0000000021
B0752205553142N01213468EA0000000030
B0752265553166N01213284EA0000000049
B0752355553208N01213019EA0000000086
B0752415553235N01212853EA0000000115
B0752465553268N01212724EA0000000132
B0752515553329N01212641EA0000000146
B0752575553424N01212626EA0000000156
B0753075553582N01212744EA0000000179
B0753155553685N01212920EA0000000203
B0753225553774N01213094EA0000000223
B0753285553859N01213235EA0000000233
B0753345553945N01213372EA0000000244
B0753415554038N01213547EA0000000255
B0753485554126N01213730EA0000000268
B0753585554242N01214008EA0000000284
B0754085554342N01214323EA0000000310
B0754145554387N01214523EA0000000323
B0754195554410N01214698EA0000000332
B0754265554402N01214956EA0000000349
B0754315554349N01215126EA0000000364
B0754365554262N01215250EA0000000375
B0754415554163N01215355EA0000000379
B0754465554057N01215447EA0000000382
B0754525553912N01215475EA0000000386
B0754575553805N01215392EA0000000401
B0755025553716N01215267EA0000000411
B0755075553615N01215161EA0000000410
B0755135553480N01215048EA0000000404
B0755185553361N01214943EA0000000405
B0755275553160N01214695EA0000000413
B0755345553017N01214466EA0000000422
B0755435552844N01214148EA0000000425
B0755505552697N01213913EA0000000431
B0755595552496N01213642EA0000000433
B0756065552345N01213437EA0000000434
B0756135552223N01213203EA0000000444
B0756215552104N01212927EA0000000447
B0756295551983N01212658EA0000000445
B0756405551814N01212258EA0000000434
B0756525551633N01211792EA0000000422
B0756575551560N01211602EA0000000426
B0757085551413N01211201EA0000000434
B0757165551309N01210913EA0000000430
B0757365551042N01210187EA0000000421
B0757435550945N01209938EA0000000413
B0757485550873N01209754EA0000000408
B0757545550787N01209531EA0000000409
B0758095550567N01208976EA0000000400
B0758165550470N01208713EA0000000389
B0758235550372N01208451EA0000000382
B0758305550279N01208191EA0000000382
B0758385550179N01207893EA0000000387
B0758475550051N01207563EA0000000376
B0759275549407N01206240EA0000000370
B0759375549240N01205918EA0000000370
B0759445549116N01205714EA0000000371
B0759555548899N01205447EA0000000383
B0800015548773N01205324EA0000000381
B0800065548666N01205228EA0000000381
B0800145548503N01205050EA0000000381
B0800205548399N01204871EA0000000385
B0800285548277N01204615EA0000000393
B0800395548083N01204319EA0000000390
B0800445547990N01204197EA0000000393
B0800545547797N01203976EA0000000399
B0801015547662N01203833EA0000000403
B0801115547466N01203637EA0000000404
B0801175547342N01203535EA0000000406
B0801285547115N01203373EA0000000410
B0801375546920N01203236EA0000000401
B0801435546789N01203129EA0000000402
B0801505546642N01202998EA0000000408
B0801565546513N01202898EA0000000407
B0802035546360N01202793EA0000000409
B0802175546082N01202527EA0000000426
B0812575534849N01145548EA0000000471
B0813205534454N01144774EA0000000452
B0813265534353N01144566EA0000000449
B0813325534255N01144348EA0000000454
B0813425534078N01144009EA0000000458
B0813495533945N01143795EA0000000459
B0813585533781N01143542EA0000000470
B0814055533655N01143355EA0000000468
B0814105533562N01143221EA0000000459
B0814165533444N01143064EA0000000461
B0814215533343N01142936EA0000000467
B0814275533224N01142780EA0000000471
B0814325533120N01142651EA0000000468
B0814395532969N01142474EA0000000469
B0814455532838N01142324EA0000000471
B0814505532726N01142204EA0000000473
B0814575532571N01142025EA0000000474
B0815085532339N01141740EA0000000474
B0815145532214N01141583EA0000000467
B0815245532006N01141311EA0000000462
B0815305531885N01141150EA0000000468
B0815385531728N01140924EA0000000478
B0816325530743N01139362EA0000000470
B0816435530513N01139117EA0000000469
B0816525530330N01138915EA0000000468
B0817015530147N01138699EA0000000466
B0817095529980N01138505EA0000000455
B0817165529826N01138341EA0000000449
B0817215529719N01138224EA0000000451
B0817265529614N01138109EA0000000455
B0817315529512N01137997EA0000000457
B0817385529371N01137849EA0000000462
B0817445529245N01137725EA0000000453
B0817565528993N01137462EA0000000447
B0818065528790N01137228EA0000000442
B0818125528673N01137085EA0000000438
B0818185528553N01136949EA0000000425
B0818245528430N01136804EA0000000404
B0818295528324N01136678EA0000000396
B0818345528220N01136556EA0000000397
B0818435528026N01136366EA0000000406
B0818495527898N01136245EA0000000420
B0818545527796N01136146EA0000000434
B0818595527692N01136053EA0000000437
B0819075527526N01135895EA0000000433
B0819155527360N01135730EA0000000424
B0819235527196N01135564EA0000000422
B0819315527028N01135406EA0000000410
B0819365526920N01135315EA0000000406
B0819435526760N01135230EA0000000408
B0819485526645N01135192EA0000000417
B0819565526463N01135135EA0000000416
B0820055526256N01135078EA0000000426
B0820105526139N01135053EA0000000435
B0820185525951N01135014EA0000000439
B0820275525742N01134984EA0000000432
B0820355525555N01134966EA0000000426
B0820415525418N01134949EA0000000430
B0820485525259N01134920EA0000000430
B0821035524915N01134869EA0000000428
B0821105524755N01134843EA0000000424
B0821185524573N01134822EA0000000428
B0821235524457N01134808EA0000000419
B0821365524134N01134773EA0000000413
B0821445523937N01134728EA0000000403
B0821575523614N01134641EA0000000389
B0822035523465N01134597EA0000000388
B0822105523295N01134533EA0000000387
B0822155523173N01134482EA0000000388
B0822215523024N01134416EA0000000383
B0822265522902N01134350EA0000000385
B0822345522716N01134253EA0000000393
B0822395522601N01134214EA0000000391
B0822455522462N01134176EA0000000389
B0823345521293N01134046EA0000000373
B0823415521125N01134044EA0000000362
B0823525520862N01134054EA0000000378
B0823575520743N01134057EA0000000390
B0824065520533N01134037EA0000000400
B0824165520304N01134032EA0000000413
B0824265520072N01134043EA0000000421
B0824315519954N01134039EA0000000432
B0824365519840N01134032EA0000000449
B0824505519537N01134009EA0000000483
B0825025519274N01133985EA0000000511
B0827265516326N01132163EA0000000822
B0830065513051N01129544EA0000001068
B0832395510078N01127005EA0000001246
B1238215459893N01127255EA0000000658
B1238285459849N01127428EA0000000670
B1238425459766N01127801EA0000000687
B1238475459746N01127945EA0000000696
B1238575459707N01128234EA0000000709
B1239085459665N01128547EA0000000732
B1239205459598N01128884EA0000000747
B1239365459510N01129362EA0000000758
B1239455459467N01129668EA0000000756
B1239525459431N01129920EA0000000775
B1240025459386N01130287EA0000000802
B1240155459387N01130802EA0000000805
B1240215459402N01131045EA0000000804
B1240345459450N01131569EA0000000803
B1240395459471N01131765EA0000000805
B1240445459493N01131956EA0000000807
B1240495459516N01132146EA0000000810
B1241125459615N01132986EA0000000814
B1241175459639N01133168EA0000000817
B1241245459675N01133417EA0000000825
B1241315459715N01133658EA0000000829
B1241365459744N01133831EA0000000829
B1241455459778N01134153EA0000000830
B1241545459801N01134477EA0000000833
B1241595459817N01134658EA0000000835
B1242045459833N01134843EA0000000834
B1242155459860N01135248EA0000000847
B1242215459872N01135471EA0000000842
B1242325459903N01135913EA0000000820
B1242395459918N01136208EA0000000815
B1325535515817N01206374EA0000000449
B1325585515929N01206368EA0000000453
B1326055516092N01206371EA0000000458
B1326185516394N01206419EA0000000472
B1326285516622N01206471EA0000000474
B1326355516782N01206516EA0000000478
B1326465517036N01206589EA0000000465
B1327085517599N01206693EA0000000461
B1327135517722N01206717EA0000000464
B1327215517920N01206765EA0000000464
B1327325518195N01206838EA0000000465
B1327415518427N01206904EA0000000457
B1327485518606N01206959EA0000000459
B1327535518735N01206990EA0000000457
B1327585518864N01207018EA0000000454
B1328045519017N01207056EA0000000456
B1328095519146N01207087EA0000000454
B1328145519280N01207116EA0000000439
B1328195519421N01207149EA0000000423
B1328245519563N01207194EA0000000407
B1328385519978N01207289EA0000000367
B1328575520521N01207384EA0000000333
B1329315521437N01207569EA0000000276
B1329415521688N01207588EA0000000270
B1329465521814N01207597EA0000000266
B1329565522071N01207619EA0000000261
B1330025522227N01207619EA0000000264
B1348275547880N01210057EA0000000228
B1348415548198N01210130EA0000000224
B1348515548415N01210250EA0000000229
B1348585548570N01210358EA0000000231
B1349075548760N01210518EA0000000243
B1349125548857N01210623EA0000000245
B1349205549008N01210796EA0000000249
B1349265549119N01210938EA0000000253
B1349425549426N01211283EA0000000257
B1349525549621N01211496EA0000000266
B1349575549726N01211577EA0000000269
B1350065549926N01211708EA0000000276
B1350115550041N01211774EA0000000283
B1350175550181N01211849EA0000000291
B1350225550295N01211911EA0000000300
B1350285550430N01211981EA0000000308
B1350335550540N01212035EA0000000312
B1350395550669N01212107EA0000000316
B1350495550870N01212243EA0000000327
B1350555550987N01212319EA0000000319
B1351025551130N01212399EA0000000311
B1351115551316N01212525EA0000000311
B1351205551484N01212688EA0000000316
B1351295551650N01212846EA0000000309
B1351345551743N01212932EA0000000299
B1351435551924N01213085EA0000000283
B1351515552086N01213225EA0000000279
B1351595552225N01213387EA0000000273
B1352085552400N01213522EA0000000272
B1352135552500N01213504EA0000000277
B1352185552579N01213388EA0000000276
B1352255552627N01213140EA0000000258
B1352305552598N01212956EA0000000256
B1352355552516N01212843EA0000000260
B1352425552381N01212895EA0000000251
B1352475552333N01213051EA0000000253
B1352525552359N01213210EA0000000260
B1352595552475N01213326EA0000000240
B1353045552576N01213271EA0000000235
B1353095552622N01213091EA0000000223
B1353165552654N01212813EA0000000207
B1353235552718N01212560EA0000000201
B1353285552784N01212434EA0000000189
B1353335552872N01212400EA0000000155
B1353415553014N01212487EA0000000112
B1353465553091N01212579EA0000000090
B1353515553144N01212714EA0000000073
B1353575553161N01212911EA0000000046
B1354035553155N01213112EA0000000023
B1354105553132N01213314EA0000000016
B1354175553112N01213475EA0000000014
B1354235553099N01213581EA0000000014
