AOGNOGN
HFDTE170725
HFFXA050
HFPLTPILOTINCHARGE:
HFGTYGLIDERTYPE:Stemme S-10
HFGIDGLIDERID:D-KGCY
HFDTM100GPSDATUM:WGS-1984
HFRFWFIRMWAREVERSION:
HFRHWHARDWAREVERSION:
HFFTYFRTYPE:OGN-FLIGHTBOOK
HFGPSGENERIC
HFPRSPRESSALTSENSOR:
HFCIDCOMPETITIONID:Q4
B1803535650892N00927079EA0000000034
B1803565650882N00927136EA0000000033
B1804035650855N00927306EA0000000033
B1804095650826N00927479EA0000000037
B1804145650782N00927614EA0000000049
B1804215650676N00927721EA0000000070
B1804265650589N00927753EA0000000084
B1804345650446N00927759EA0000000106
B1804405650335N00927748EA0000000122
B1804475650204N00927714EA0000000147
B1804525650121N00927636EA0000000165
B1804575650052N00927512EA0000000173
B1805045649965N00927297EA0000000179
B1805095649905N00927135EA0000000194
B1805155649837N00926944EA0000000210
B1805235649752N00926688EA0000000225
B1805295649688N00926496EA0000000229
B1805355649615N00926306EA0000000237
B1805415649538N00926129EA0000000251
B1805505649419N00925892EA0000000269
B1805555649348N00925770EA0000000277
B1806005649301N00925619EA0000000286
B1806055649339N00925457EA0000000290
B1806145649499N00925299EA0000000301
B1806195649590N00925210EA0000000303
B1806245649684N00925124EA0000000307
B1806295649779N00925042EA0000000319
B1806385649942N00924894EA0000000334
B1806465650086N00924758EA0000000343
B1806515650178N00924667EA0000000347
B1806585650305N00924528EA0000000356
B1807075650460N00924349EA0000000377
B1807145650577N00924239EA0000000397
B1807195650660N00924172EA0000000404
B1807265650780N00924082EA0000000410
B1807325650887N00924001EA0000000418
B1807405651021N00923887EA0000000440
B1807505651184N00923754EA0000000460
B1807575651299N00923668EA0000000472
B1808075651462N00923533EA0000000490
B1808155651592N00923429EA0000000508
B1808235651722N00923319EA0000000520
B1808285651804N00923247EA0000000531
B1808365651934N00923129EA0000000544
B1808475652132N00922944EA0000000538
B1808545652280N00922806EA0000000515
B1816175654767N00921249EA0000000560
B1817085653694N00923304EA0000000573
B1817245653390N00923965EA0000000580
B1817395653050N00924493EA0000000574
B1817545652721N00925016EA0000000540
B1818045652552N00925387EA0000000541
B1818145652415N00925718EA0000000542
B1818225652306N00925985EA0000000510
B1818275652235N00926171EA0000000491
B1818335652150N00926411EA0000000476
B1818385652084N00926618EA0000000468
B1818445652022N00926873EA0000000463
B1818555651931N00927331EA0000000451
B1819045651864N00927700EA0000000441
B1819095651806N00927883EA0000000443
B1819145651700N00927961EA0000000438
B1819195651608N00927840EA0000000449
B1819245651601N00927642EA0000000448
B1819295651633N00927461EA0000000452
B1819345651659N00927317EA0000000470
B1819465651725N00926987EA0000000440
B1819525651766N00926814EA0000000431
B1819575651799N00926665EA0000000416
B1820195651942N00925910EA0000000367
B1820245651917N00925735EA0000000353
B1820295651845N00925615EA0000000337
B1820365651710N00925546EA0000000321
B1820465651521N00925445EA0000000310
B1820575651323N00925319EA0000000287
B1821025651230N00925331EA0000000271
B1821075651166N00925453EA0000000246
B1821135651132N00925654EA0000000216
B1821185651106N00925818EA0000000195
B1821235651080N00925974EA0000000172
B1821365651016N00926373EA0000000114
B1821465650962N00926680EA0000000068
B1821545650921N00926918EA0000000038
B1822015650891N00927101EA0000000031
B1822095650864N00927260EA0000000030
B1822185650843N00927381EA0000000029
