AOGNOGN
HFDTE250625
HFFXA050
HFPLTPILOTINCHARGE:
HFGTYGLIDERTYPE:EC 135
HFGIDGLIDERID:LN-OUK
HFDTM100GPSDATUM:WGS-1984
HFRFWFIRMWAREVERSION:
HFRHWHARDWAREVERSION:
HFFTYFRTYPE:OGN-FLIGHTBOOK
HFGPSGENERIC
HFPRSPRESSALTSENSOR:
HFCIDCOMPETITIONID:NLA
B0849275959339N01054411EA0000000614
B0849365959013N01054347EA0000000615
B0849435958754N01054293EA0000000617
B0849495958531N01054247EA0000000615
B0849585958196N01054178EA0000000614
B0850055957938N01054124EA0000000615
B0850145957613N01054051EA0000000611
B0850225957321N01053986EA0000000612
B0850325956965N01053843EA0000000615
B0850475956434N01053588EA0000000616
B0850585956036N01053392EA0000000616
B0851105955598N01053181EA0000000616
B0851165955380N01053077EA0000000615
B0851265955020N01052908EA0000000613
B0851315954841N01052818EA0000000615
B0851455954329N01052579EA0000000616
B0851535954038N01052448EA0000000616
B0851585953860N01052365EA0000000615
B0852055953613N01052247EA0000000614
B0852135953328N01052115EA0000000616
B0852205953077N01051999EA0000000617
B0852275952826N01051883EA0000000618
B0852335952610N01051784EA0000000616
B0852395952393N01051685EA0000000616
B0852465952139N01051568EA0000000616
B0852555951808N01051411EA0000000617
B0853015951581N01051308EA0000000613
B0853085951314N01051191EA0000000613
B0853135951123N01051105EA0000000616
B0853225950782N01050946EA0000000614
B0853275950596N01050855EA0000000618
B0853555949579N01050385EA0000000618
B0854055949235N01050225EA0000000613
B0915405902756N01029293EA0000001682
B0915505902414N01029141EA0000001735
B0915565902208N01029051EA0000001768
B0916155901555N01028766EA0000001871
B0916215901349N01028675EA0000001903
B0916265901177N01028600EA0000001929
B0916315901006N01028524EA0000001956
B0916375900799N01028432EA0000001981
B0916425900620N01028352EA0000001987
B0916505900322N01028225EA0000001991
B0916585900014N01028097EA0000001995
B0917065859695N01027961EA0000001996
B0917165859286N01027782EA0000001996
B0917285858786N01027565EA0000001997
B0917365858454N01027423EA0000001996
B0917495857913N01027180EA0000001997
B0917595857492N01026996EA0000001996
B0918085857114N01026829EA0000001996
B0918155856820N01026699EA0000001995
B0918205856611N01026607EA0000001997
B0918325856109N01026384EA0000001997
B0918465855520N01026125EA0000001998
B0919005854933N01025868EA0000001997
B0919105854515N01025684EA0000001998
B0919245853929N01025430EA0000001997
B0919445853090N01025065EA0000001997
B0919555852629N01024864EA0000001997
B0920025852337N01024740EA0000001995
B0920085852088N01024630EA0000001997
B0920275851296N01024283EA0000001998
B0920525850252N01023832EA0000001996
B0921055849709N01023594EA0000001997
B0921125849419N01023469EA0000001996
B0921175849213N01023380EA0000001994
B0921275848803N01023201EA0000001996
B0921355848475N01023056EA0000001997
B0921505847856N01022787EA0000001998
B0921575847568N01022663EA0000001999
B0922185846706N01022293EA0000001998
B0922275846338N01022133EA0000001999
B0922365845971N01021976EA0000001998
B0922465845563N01021798EA0000001998
B0922595845032N01021570EA0000001998
B0923105844584N01021376EA0000001997
B0923335843648N01020967EA0000001997
B1135545656120N00938042EA0000000358
B1136035655804N00937947EA0000000360
B1136165655351N00937811EA0000000347
B1136275654968N00937696EA0000000338
B1136415654477N00937544EA0000000329
B1136495654196N00937456EA0000000325
B1136595653850N00937348EA0000000342
B1137055653645N00937292EA0000000347
B1137155653308N00937196EA0000000360
B1137215653108N00937140EA0000000368
B1137265652942N00937090EA0000000377
B1137365652611N00936998EA0000000389
B1137475652250N00936895EA0000000395
B1137525652085N00936848EA0000000399
B1138015651786N00936757EA0000000411
B1138125651417N00936650EA0000000408
B1138225651081N00936554EA0000000416
B1138315650777N00936471EA0000000405
B1138365650606N00936424EA0000000396
B1138475650223N00936310EA0000000393
B1138545649975N00936236EA0000000381
B1139455648230N00935394EA0000000359
B1139575647834N00935123EA0000000358
B1140025647666N00935014EA0000000359
B1140075647497N00934909EA0000000362
B1140145647258N00934770EA0000000357
B1140215647020N00934636EA0000000361
B1140265646847N00934544EA0000000358
B1140345646569N00934402EA0000000364
B1140435646248N00934253EA0000000356
B1141015645608N00933969EA0000000356
B1141115645260N00933819EA0000000360
B1141175645053N00933725EA0000000360
B1141245644812N00933616EA0000000361
B1141315644568N00933503EA0000000358
B1141375644357N00933404EA0000000362
B1142015643527N00933029EA0000000362
B1142095643255N00932889EA0000000361
B1142285642583N00932539EA0000000358
B1142365642297N00932392EA0000000366
B1142415642123N00932307EA0000000362
B1142595641522N00931994EA0000000364
B1143075641253N00931851EA0000000363
B1143175640912N00931672EA0000000365
B1143245640667N00931550EA0000000360
B1143405640112N00931259EA0000000364
B1143475639868N00931137EA0000000359
B1144065639216N00930800EA0000000362
B1144135638974N00930677EA0000000365
B1144195638766N00930566EA0000000363
B1144295638416N00930393EA0000000364
B1144425637961N00930161EA0000000364
B1144535637577N00929964EA0000000362
B1144585637403N00929878EA0000000360
B1145065637129N00929737EA0000000361
B1145155636825N00929581EA0000000370
B1146055635120N00928705EA0000000361
B1146225634532N00928404EA0000000363
B1146485633650N00927962EA0000000365
B1148325630064N00926524EA0000000523
B1148505629494N00926322EA0000000609
B1148595629213N00926222EA0000000658
B1149275628356N00925911EA0000000800
B1149335628168N00925843EA0000000831
B1149425627887N00925742EA0000000877
B1149485627698N00925671EA0000000901
B1149555627467N00925586EA0000000909
B1150035627200N00925494EA0000000931
B1150085627032N00925460EA0000000953
B1150155626791N00925449EA0000000969
B1150215626581N00925445EA0000000977
B1150265626405N00925454EA0000000995
B1150315626232N00925473EA0000001017
B1150385625995N00925550EA0000001022
B1150445625795N00925660EA0000000998
B1150505625597N00925786EA0000000967
B1150585625352N00926001EA0000000930
B1151045625186N00926169EA0000000909
B1151095625061N00926308EA0000000879
B1151145624941N00926429EA0000000828
B1151195624821N00926508EA0000000780
B1151245624702N00926541EA0000000715
B1151295624587N00926529EA0000000649
B1151345624482N00926468EA0000000592
B1151405624383N00926327EA0000000548
B1151515624283N00925978EA0000000450
B1151595624268N00925722EA0000000378
B1152065624288N00925527EA0000000318
B1152115624327N00925417EA0000000269
B1152195624404N00925257EA0000000190
B1152255624460N00925131EA0000000132
B1152345624522N00924916EA0000000055
B1152415624547N00924802EA0000000041
