AOGNOGN
HFDTE190625
HFFXA050
HFPLTPILOTINCHARGE:
HFGTYGLIDERTYPE:ASK-21
HFGIDGLIDERID:OY-TRX
HFDTM100GPSDATUM:WGS-1984
HFRFWFIRMWAREVERSION:
HFRHWHARDWAREVERSION:
HFFTYFRTYPE:OGN-FLIGHTBOOK
HFGPSGENERIC
HFPRSPRESSALTSENSOR:
HFCIDCOMPETITIONID:TR
B1651395610643N01004976EA0000000075
B1651445610659N01004884EA0000000151
B1651495610672N01004803EA0000000235
B1651545610688N01004715EA0000000311
B1651595610708N01004624EA0000000384
B1652045610729N01004546EA0000000446
B1652095610747N01004456EA0000000483
B1652145610768N01004369EA0000000510
B1652215610784N01004268EA0000000517
B1652275610751N01004185EA0000000519
B1652325610702N01004126EA0000000501
B1652405610614N01003997EA0000000495
B1652465610545N01003914EA0000000495
B1652515610484N01003838EA0000000482
B1653005610362N01003705EA0000000475
B1653055610295N01003631EA0000000469
B1653125610209N01003520EA0000000467
B1653175610167N01003433EA0000000460
B1653225610123N01003353EA0000000457
B1653295610022N01003294EA0000000444
B1653345609948N01003244EA0000000438
B1653395609885N01003170EA0000000429
B1653455609825N01003058EA0000000423
B1653525609786N01002933EA0000000438
B1653575609780N01002864EA0000000440
B1654025609799N01002807EA0000000436
B1654085609829N01002746EA0000000440
B1654135609863N01002713EA0000000433
B1654185609902N01002679EA0000000430
B1654245609951N01002651EA0000000428
B1654305609994N01002610EA0000000423
B1654375610041N01002542EA0000000410
B1654445610095N01002483EA0000000414
B1654545610147N01002370EA0000000403
B1655005610184N01002303EA0000000397
B1655065610228N01002244EA0000000390
B1655125610262N01002170EA0000000396
B1655185610287N01002107EA0000000401
B1655245610309N01002047EA0000000396
B1655295610338N01002007EA0000000386
B1655365610396N01001962EA0000000379
B1655435610449N01001924EA0000000386
B1655485610488N01001901EA0000000381
B1655555610549N01001885EA0000000379
B1656005610588N01001876EA0000000387
B1656065610631N01001859EA0000000393
B1656135610678N01001845EA0000000395
B1656205610724N01001811EA0000000393
B1656255610760N01001789EA0000000390
B1656315610807N01001768EA0000000380
B1656385610867N01001731EA0000000374
B1656435610907N01001694EA0000000378
B1656495610951N01001657EA0000000381
B1656575611006N01001621EA0000000384
B1657025611049N01001614EA0000000374
B1657075611100N01001690EA0000000365
B1657125611119N01001854EA0000000358
B1657215611129N01002147EA0000000358
B1657285611137N01002371EA0000000344
B1657385611154N01002699EA0000000333
B1657445611170N01002892EA0000000324
B1657505611195N01003083EA0000000311
B1657555611217N01003253EA0000000299
B1658005611239N01003427EA0000000289
B1658055611260N01003610EA0000000281
B1658125611284N01003868EA0000000271
B1658185611300N01004099EA0000000263
B1658255611311N01004366EA0000000266
B1658335611322N01004661EA0000000256
B1658405611311N01004931EA0000000248
B1658485611283N01005234EA0000000247
B1658535611240N01005412EA0000000242
B1658595611142N01005569EA0000000232
B1659045611051N01005684EA0000000229
B1659095610960N01005773EA0000000228
B1659155610838N01005807EA0000000217
B1659205610749N01005776EA0000000207
B1659265610724N01005628EA0000000174
B1659325610726N01005461EA0000000166
B1659375610728N01005339EA0000000144
B1659435610733N01005173EA0000000099
B1659495610737N01004993EA0000000068
B1659565610741N01004835EA0000000067
B1700025610746N01004737EA0000000065
