AOGNOGN
HFDTE200825
HFFXA050
HFPLTPILOTINCHARGE:
HFGTYGLIDERTYPE:PA-25 Pawnee
HFGIDGLIDERID:OY-CYP
HFDTM100GPSDATUM:WGS-1984
HFRFWFIRMWAREVERSION:
HFRHWHARDWAREVERSION:
HFFTYFRTYPE:OGN-FLIGHTBOOK
HFGPSGENERIC
HFPRSPRESSALTSENSOR:
HFCIDCOMPETITIONID:YP
B1524155553094N01213917EA0000000017
B1524195553100N01213839EA0000000018
B1524275553115N01213620EA0000000023
B1524325553127N01213463EA0000000039
B1524375553126N01213311EA0000000064
B1524425553096N01213163EA0000000091
B1524505553005N01212957EA0000000124
B1524555552939N01212832EA0000000135
B1525005552874N01212704EA0000000152
B1525115552731N01212431EA0000000193
B1525175552659N01212269EA0000000219
B1525285552563N01211952EA0000000261
B1525335552528N01211801EA0000000281
B1525405552490N01211586EA0000000306
B1525465552477N01211405EA0000000333
B1525515552483N01211260EA0000000362
B1525565552501N01211120EA0000000398
B1526015552521N01210982EA0000000429
B1526065552543N01210845EA0000000459
B1526115552569N01210722EA0000000491
B1526185552617N01210577EA0000000526
B1526235552661N01210483EA0000000540
B1526295552737N01210452EA0000000557
B1526355552802N01210552EA0000000588
B1526405552805N01210708EA0000000603
B1526455552756N01210863EA0000000624
B1526555552609N01211138EA0000000608
B1527015552477N01211287EA0000000573
B1527065552388N01211452EA0000000550
B1527115552321N01211641EA0000000525
B1527165552271N01211843EA0000000500
B1527235552220N01212118EA0000000480
B1527315552196N01212395EA0000000461
B1527435552210N01212777EA0000000428
B1527485552230N01212929EA0000000411
B1527565552271N01213162EA0000000386
B1528035552320N01213349EA0000000362
B1528105552376N01213526EA0000000338
B1528195552445N01213761EA0000000316
B1528265552511N01213940EA0000000302
B1528315552558N01214063EA0000000291
B1528365552607N01214174EA0000000276
B1528415552661N01214271EA0000000259
B1528475552731N01214386EA0000000238
B1528565552836N01214547EA0000000211
B1529025552912N01214632EA0000000187
B1529085553001N01214701EA0000000172
B1529135553059N01214648EA0000000171
B1529185553070N01214517EA0000000136
B1529255553087N01214330EA0000000086
B1529315553101N01214160EA0000000058
B1529425553119N01213861EA0000000019
B1529485553129N01213727EA0000000017
B1529565553139N01213611EA0000000017
