AOGNOGN
HFDTE200825
HFFXA050
HFPLTPILOTINCHARGE:
HFGTYGLIDERTYPE:ASK-21
HFGIDGLIDERID:OY-XKI
HFDTM100GPSDATUM:WGS-1984
HFRFWFIRMWAREVERSION:
HFRHWHARDWAREVERSION:
HFFTYFRTYPE:OGN-FLIGHTBOOK
HFGPSGENERIC
HFPRSPRESSALTSENSOR:
HFCIDCOMPETITIONID:KI
B1532215553093N01213923EA0000000016
B1532215553093N01213923EA0000000016
B1532315553111N01213688EA0000000018
B1532385553132N01213508EA0000000045
B1532435553156N01213396EA0000000062
B1532485553202N01213305EA0000000070
B1532565553307N01213285EA0000000100
B1533015553378N01213313EA0000000115
B1533065553449N01213337EA0000000138
B1533135553545N01213369EA0000000166
B1533235553685N01213392EA0000000184
B1533285553755N01213387EA0000000197
B1533335553823N01213374EA0000000214
B1533395553896N01213333EA0000000233
B1533475553976N01213214EA0000000252
B1533565554025N01213017EA0000000273
B1534025554012N01212865EA0000000293
B1534085553960N01212726EA0000000317
B1534135553891N01212628EA0000000324
B1534185553808N01212556EA0000000338
B1534235553708N01212545EA0000000343
B1534305553589N01212683EA0000000361
B1534355553573N01212842EA0000000372
B1534415553595N01213004EA0000000390
B1534475553632N01213128EA0000000395
B1534535553686N01213101EA0000000387
B1534585553678N01212990EA0000000378
B1535045553617N01212866EA0000000369
B1535095553559N01212767EA0000000361
B1535145553496N01212669EA0000000350
B1535265553326N01212463EA0000000333
B1535385553141N01212287EA0000000308
B1535435553060N01212222EA0000000296
B1535505552942N01212136EA0000000292
B1535575552822N01212073EA0000000286
B1536025552736N01212110EA0000000283
B1536085552681N01212259EA0000000273
B1536185552648N01212548EA0000000264
B1536295552621N01212876EA0000000242
B1536345552609N01213032EA0000000234
B1536395552557N01213165EA0000000233
B1536465552440N01213146EA0000000216
B1536525552450N01213009EA0000000198
B1536575552514N01213028EA0000000191
B1537025552543N01213163EA0000000182
B1537075552541N01213333EA0000000171
B1537135552538N01213534EA0000000167
B1537235552544N01213869EA0000000155
B1537295552561N01214067EA0000000151
B1537365552627N01214238EA0000000147
B1537425552699N01214345EA0000000150
B1537485552767N01214439EA0000000147
B1537535552830N01214497EA0000000137
B1538005552922N01214498EA0000000133
B1538105552992N01214290EA0000000089
B1538155553019N01214174EA0000000063
B1538225553044N01214004EA0000000023
B1538275553061N01213884EA0000000015
B1538345553075N01213781EA0000000015
