AOGNOGN
HFDTE200825
HFFXA050
HFPLTPILOTINCHARGE:
HFGTYGLIDERTYPE:ASK-23
HFGIDGLIDERID:OY-XOD
HFDTM100GPSDATUM:WGS-1984
HFRFWFIRMWAREVERSION:
HFRHWHARDWAREVERSION:
HFFTYFRTYPE:OGN-FLIGHTBOOK
HFGPSGENERIC
HFPRSPRESSALTSENSOR:
HFCIDCOMPETITIONID:OD
B1632315553089N01213983EA0000000015
B1632355553094N01213910EA0000000015
B1632435553111N01213699EA0000000019
B1632495553125N01213524EA0000000047
B1632555553112N01213342EA0000000071
B1633015553050N01213186EA0000000101
B1633075552945N01213099EA0000000126
B1633175552742N01213036EA0000000165
B1633235552619N01213041EA0000000197
B1633285552518N01213066EA0000000225
B1633345552398N01213110EA0000000249
B1633445552190N01213199EA0000000280
B1633525552021N01213275EA0000000311
B1633595551874N01213324EA0000000347
