AOGNOGN
HFDTE200825
HFFXA050
HFPLTPILOTINCHARGE:
HFGTYGLIDERTYPE:Arcus T
HFGIDGLIDERID:OY-NXN
HFDTM100GPSDATUM:WGS-1984
HFRFWFIRMWAREVERSION:
HFRHWHARDWAREVERSION:
HFFTYFRTYPE:OGN-FLIGHTBOOK
HFGPSGENERIC
HFPRSPRESSALTSENSOR:
HFCIDCOMPETITIONID:N1
B1501135553093N01213942EA0000000015
B1501175553099N01213871EA0000000015
B1501235553109N01213731EA0000000015
B1501295553125N01213563EA0000000017
B1501375553151N01213335EA0000000046
B1501435553181N01213178EA0000000063
B1501505553238N01213021EA0000000080
B1501565553293N01212889EA0000000097
B1502015553338N01212783EA0000000119
B1502065553379N01212673EA0000000137
B1502115553419N01212557EA0000000151
B1502175553462N01212417EA0000000166
B1502285553530N01212148EA0000000189
B1502395553590N01211846EA0000000230
B1502485553641N01211606EA0000000256
B1502575553697N01211388EA0000000274
B1503025553722N01211268EA0000000290
B1503085553757N01211119EA0000000307
B1503135553788N01210997EA0000000332
B1503205553829N01210824EA0000000358
B1503275553877N01210652EA0000000370
B1503375553952N01210423EA0000000390
B1503425553989N01210306EA0000000402
B1503495554029N01210141EA0000000422
B1503595554032N01209854EA0000000446
B1504045554003N01209711EA0000000471
B1504095553951N01209577EA0000000485
B1504165553828N01209462EA0000000497
B1504215553725N01209455EA0000000514
B1504265553627N01209511EA0000000526
B1504325553536N01209660EA0000000535
B1504375553503N01209819EA0000000547
B1504445553513N01210036EA0000000565
B1504495553527N01210194EA0000000569
B1504545553549N01210344EA0000000580
B1505005553597N01210492EA0000000593
B1505095553679N01210693EA0000000615
B1505145553720N01210808EA0000000629
B1505235553796N01210996EA0000000640
B1505285553824N01211119EA0000000616
B1505355553800N01211373EA0000000588
B1505405553755N01211565EA0000000575
B1505455553699N01211754EA0000000575
B1505505553624N01211910EA0000000599
B1505575553500N01211968EA0000000628
B1506025553435N01211894EA0000000632
B1506075553421N01211781EA0000000631
B1506145553482N01211731EA0000000625
B1506215553520N01211883EA0000000632
B1506285553501N01212073EA0000000629
B1506335553445N01212193EA0000000630
B1506385553358N01212222EA0000000624
B1506435553293N01212136EA0000000620
B1506485553305N01212033EA0000000624
B1506535553359N01212044EA0000000621
B1506585553387N01212163EA0000000624
B1507055553322N01212319EA0000000625
B1507105553236N01212311EA0000000617
B1507155553196N01212206EA0000000613
B1507225553224N01212065EA0000000618
B1507285553257N01211959EA0000000614
B1507365553319N01211842EA0000000615
B1507435553385N01211780EA0000000615
B1507485553434N01211750EA0000000622
B1507535553476N01211702EA0000000616
B1507595553494N01211569EA0000000611
B1508045553522N01211493EA0000000610
B1508095553572N01211472EA0000000594
B1508165553662N01211481EA0000000579
B1508255553785N01211484EA0000000568
B1508315553863N01211500EA0000000569
B1508385553942N01211590EA0000000565
B1508435553988N01211683EA0000000558
B1508495554040N01211814EA0000000549
B1508555554092N01211945EA0000000546
B1509015554144N01212069EA0000000545
B1509115554230N01212294EA0000000538
B1509225554327N01212537EA0000000531
B1509275554365N01212654EA0000000527
B1509325554392N01212792EA0000000521
B1509385554431N01212959EA0000000519
B1509435554470N01213090EA0000000520
B1509485554529N01213163EA0000000512
B1509555554593N01213052EA0000000493
B1510005554556N01212912EA0000000485
B1510065554446N01212840EA0000000482
B1510125554323N01212815EA0000000481
B1510175554228N01212879EA0000000485
B1510225554174N01213028EA0000000482
B1510295554178N01213250EA0000000474
B1510365554258N01213340EA0000000468
B1510475554408N01213338EA0000000439
B1510555554525N01213296EA0000000431
B1511025554623N01213240EA0000000430
B1511105554742N01213259EA0000000427
B1511165554834N01213306EA0000000431
B1511215554906N01213277EA0000000432
B1511265554917N01213148EA0000000447
B1511315554842N01213065EA0000000454
B1511365554758N01213132EA0000000463
B1511415554743N01213278EA0000000468
B1511465554791N01213370EA0000000464
B1511535554867N01213304EA0000000466
B1511585554849N01213168EA0000000471
B1512035554774N01213081EA0000000480
B1512105554661N01213155EA0000000489
B1512155554664N01213294EA0000000500
B1512205554721N01213335EA0000000503
B1512275554749N01213201EA0000000510
B1512325554687N01213117EA0000000515
B1512375554599N01213144EA0000000517
B1512445554556N01213329EA0000000525
B1512495554598N01213424EA0000000529
B1512545554658N01213408EA0000000530
B1513015554663N01213258EA0000000544
B1513065554592N01213187EA0000000546
B1513115554505N01213227EA0000000546
B1513185554459N01213415EA0000000558
B1513235554489N01213519EA0000000559
B1513285554548N01213509EA0000000561
B1513365554541N01213337EA0000000567
B1513415554455N01213316EA0000000573
B1513465554400N01213431EA0000000584
B1513535554451N01213558EA0000000589
B1513585554497N01213500EA0000000592
B1514035554483N01213384EA0000000604
B1514095554396N01213320EA0000000608
B1514145554312N01213378EA0000000608
B1514195554271N01213509EA0000000613
B1514265554321N01213659EA0000000614
B1514315554381N01213655EA0000000620
B1514365554409N01213561EA0000000630
B1514435554355N01213422EA0000000639
B1514485554270N01213426EA0000000644
B1514535554206N01213526EA0000000650
B1515005554220N01213708EA0000000647
B1515055554281N01213771EA0000000648
B1515105554345N01213751EA0000000659
B1515175554355N01213599EA0000000649
B1515235554256N01213514EA0000000652
B1515285554178N01213589EA0000000668
B1515345554199N01213727EA0000000672
B1515395554256N01213696EA0000000679
B1515445554249N01213582EA0000000686
B1515515554139N01213528EA0000000694
B1515565554083N01213635EA0000000704
B1516015554094N01213759EA0000000710
B1516095554180N01213805EA0000000717
B1516155554205N01213695EA0000000721
B1516205554153N01213596EA0000000719
B1516255554066N01213593EA0000000730
B1516305554006N01213693EA0000000745
B1516355554000N01213822EA0000000747
B1516425554069N01213895EA0000000754
B1516475554110N01213829EA0000000754
B1516525554098N01213716EA0000000756
B1516595553997N01213636EA0000000752
B1517045553913N01213698EA0000000764
B1517095553880N01213832EA0000000772
B1517165553923N01213992EA0000000773
B1517215553984N01214003EA0000000775
B1517265554023N01213928EA0000000778
B1517325554008N01213785EA0000000772
B1517375553939N01213705EA0000000773
B1517435553832N01213726EA0000000780
B1517495553733N01213793EA0000000797
B1517585553577N01213890EA0000000797
B1518045553465N01213929EA0000000788
B1518105553352N01213993EA0000000781
B1518155553259N01214060EA0000000775
B1518235553111N01214185EA0000000773
B1518295553003N01214287EA0000000771
B1518365552873N01214403EA0000000764
B1518445552722N01214517EA0000000761
B1518505552607N01214590EA0000000753
B1518575552472N01214690EA0000000742
B1519025552378N01214762EA0000000741
B1519105552231N01214885EA0000000748
B1519185552081N01215001EA0000000748
B1519275551922N01215149EA0000000759
B1519385551758N01215393EA0000000760
B1519445551672N01215529EA0000000756
B1519495551596N01215635EA0000000752
B1519555551501N01215759EA0000000762
B1520025551391N01215887EA0000000777
B1520075551302N01215882EA0000000776
B1520125551239N01215795EA0000000776
B1520175551228N01215679EA0000000769
B1520225551270N01215611EA0000000770
B1520275551327N01215628EA0000000767
B1520335551370N01215743EA0000000760
B1520395551367N01215915EA0000000765
B1520445551346N01216059EA0000000773
B1520495551323N01216204EA0000000769
B1520565551298N01216408EA0000000783
B1521015551284N01216557EA0000000785
B1521065551262N01216704EA0000000791
B1521155551210N01216954EA0000000780
B1521225551164N01217164EA0000000766
B1521275551142N01217321EA0000000762
B1521375551123N01217645EA0000000745
B1521475551134N01217970EA0000000739
B1521525551145N01218136EA0000000732
B1521575551161N01218297EA0000000730
B1522055551193N01218548EA0000000723
B1522105551213N01218704EA0000000736
B1522155551244N01218833EA0000000750
B1522215551315N01218905EA0000000742
B1522265551367N01218988EA0000000741
B1522345551405N01219194EA0000000729
B1522395551412N01219345EA0000000724
B1522485551425N01219618EA0000000714
B1522585551434N01219939EA0000000700
B1523045551449N01220130EA0000000689
B1523125551476N01220406EA0000000667
B1523175551497N01220581EA0000000662
B1523225551517N01220751EA0000000655
B1523295551537N01220991EA0000000648
B1523405551567N01221354EA0000000646
B1523465551578N01221541EA0000000640
B1523525551587N01221729EA0000000634
B1523585551599N01221910EA0000000626
B1524055551616N01222120EA0000000618
B1524105551625N01222270EA0000000616
B1524195551646N01222550EA0000000615
B1524245551670N01222698EA0000000627
B1524295551736N01222745EA0000000619
B1524365551790N01222616EA0000000610
B1524415551729N01222500EA0000000604
B1524465551626N01222481EA0000000623
B1524535551538N01222640EA0000000626
B1524585551560N01222790EA0000000636
B1525035551621N01222801EA0000000638
B1525105551605N01222631EA0000000631
B1525155551509N01222597EA0000000643
B1525215551431N01222749EA0000000648
B1525275551463N01222913EA0000000659
B1525325551521N01222878EA0000000657
B1525375551510N01222747EA0000000657
B1525445551384N01222701EA0000000672
B1525495551313N01222816EA0000000675
B1525545551307N01222978EA0000000680
B1526015551391N01223060EA0000000686
B1526065551426N01222964EA0000000681
B1526115551381N01222845EA0000000686
B1526195551234N01222872EA0000000698
B1526255551204N01223050EA0000000706
B1526315551272N01223130EA0000000710
B1526385551351N01223056EA0000000704
B1526435551405N01222984EA0000000700
B1526525551502N01222825EA0000000692
B1526595551588N01222716EA0000000692
B1527045551655N01222641EA0000000686
B1527115551757N01222568EA0000000705
B1527165551825N01222526EA0000000718
B1527215551819N01222402EA0000000720
B1527265551741N01222332EA0000000715
B1527315551657N01222407EA0000000710
B1527375551626N01222597EA0000000716
B1527435551593N01222763EA0000000739
B1527485551513N01222822EA0000000732
B1527535551430N01222779EA0000000733
B1528005551377N01222606EA0000000723
B1528055551396N01222477EA0000000717
B1528105551448N01222405EA0000000710
B1528175551536N01222442EA0000000704
B1528225551584N01222552EA0000000690
B1528275551631N01222682EA0000000695
B1528345551677N01222876EA0000000716
B1528395551655N01223023EA0000000712
B1528445551587N01223134EA0000000700
B1528515551459N01223176EA0000000708
B1528565551384N01223113EA0000000705
B1529015551342N01222994EA0000000710
B1529085551363N01222830EA0000000718
B1529135551420N01222777EA0000000720
B1529195551499N01222763EA0000000733
B1529255551575N01222737EA0000000720
B1529325551670N01222694EA0000000719
B1529385551752N01222649EA0000000702
B1529445551844N01222602EA0000000688
B1529495551913N01222556EA0000000705
B1529555551989N01222510EA0000000693
B1530025552089N01222483EA0000000681
B1530085552185N01222473EA0000000668
B1530135552269N01222460EA0000000674
B1530205552378N01222455EA0000000685
B1530255552453N01222449EA0000000675
B1530325552561N01222447EA0000000683
B1530385552648N01222457EA0000000683
B1530435552720N01222470EA0000000692
B1530505552821N01222489EA0000000674
B1530565552916N01222499EA0000000663
B1531025553014N01222509EA0000000666
B1531105553140N01222513EA0000000674
B1531185553267N01222515EA0000000677
B1531235553343N01222513EA0000000670
B1531295553434N01222522EA0000000664
B1531365553535N01222591EA0000000661
B1531445553644N01222708EA0000000647
B1531515553735N01222821EA0000000648
B1531575553804N01222931EA0000000639
B1532035553875N01223052EA0000000625
B1532095553942N01223188EA0000000624
B1532145553974N01223321EA0000000623
B1532205554012N01223488EA0000000616
B1532265554056N01223653EA0000000627
B1532315554104N01223768EA0000000625
B1532375554185N01223849EA0000000616
B1532445554287N01223879EA0000000607
B1532515554387N01223938EA0000000599
B1532575554473N01223983EA0000000600
B1533035554554N01224041EA0000000598
B1533105554655N01224054EA0000000593
B1533185554772N01224016EA0000000589
B1533245554862N01224004EA0000000586
B1533315554965N01223987EA0000000570
B1533365555041N01223962EA0000000562
B1533415555111N01223917EA0000000561
B1533465555150N01223796EA0000000544
B1533515555160N01223631EA0000000536
B1533565555167N01223468EA0000000543
B1534035555181N01223246EA0000000538
B1534095555196N01223057EA0000000530
B1534165555209N01222831EA0000000520
B1534245555216N01222575EA0000000506
B1534305555197N01222380EA0000000497
B1534405555127N01222058EA0000000488
B1534475555073N01221836EA0000000486
B1534525555036N01221676EA0000000479
B1535015554968N01221394EA0000000474
B1535085554902N01221186EA0000000472
B1535145554833N01221020EA0000000478
B1535215554776N01220818EA0000000493
B1535265554784N01220687EA0000000508
B1535315554830N01220614EA0000000512
B1535385554915N01220635EA0000000518
B1535435554948N01220739EA0000000531
B1535495554929N01220900EA0000000538
B1535545554866N01220980EA0000000549
B1535595554789N01220974EA0000000554
B1536045554731N01220902EA0000000560
B1536095554717N01220797EA0000000560
B1536155554745N01220689EA0000000561
B1536225554808N01220637EA0000000571
B1536315554897N01220719EA0000000550
B1536375554916N01220867EA0000000547
B1536425554894N01221011EA0000000535
B1536485554824N01221155EA0000000528
B1536535554732N01221208EA0000000521
B1536585554646N01221170EA0000000537
B1537035554578N01221085EA0000000537
B1537105554519N01220919EA0000000540
B1537155554515N01220792EA0000000542
B1537215554552N01220667EA0000000541
B1537265554608N01220602EA0000000547
B1537325554681N01220626EA0000000556
B1537385554736N01220746EA0000000548
B1537435554754N01220896EA0000000535
B1537495554718N01221083EA0000000539
B1537545554647N01221182EA0000000538
B1537595554555N01221212EA0000000533
B1538065554437N01221145EA0000000546
B1538115554388N01221042EA0000000556
B1538165554392N01220933EA0000000557
B1538215554438N01220875EA0000000559
B1538265554495N01220905EA0000000556
B1538315554535N01221010EA0000000550
B1538365554535N01221158EA0000000547
B1538435554465N01221332EA0000000548
B1538485554382N01221375EA0000000552
B1538535554306N01221349EA0000000563
B1538585554244N01221279EA0000000565
B1539035554234N01221177EA0000000577
B1539085554274N01221115EA0000000580
B1539135554325N01221132EA0000000597
B1539185554359N01221221EA0000000596
B1539235554361N01221350EA0000000596
B1539285554324N01221477EA0000000599
B1539335554254N01221554EA0000000599
B1539385554172N01221559EA0000000606
B1539435554111N01221503EA0000000604
B1539485554070N01221406EA0000000602
B1539535554063N01221305EA0000000612
B1539595554101N01221217EA0000000607
B1540085554196N01221197EA0000000621
B1540135554246N01221256EA0000000616
B1540185554299N01221291EA0000000614
B1540265554404N01221238EA0000000579
B1540325554486N01221156EA0000000559
B1540395554574N01221028EA0000000553
B1540445554626N01220937EA0000000584
B1540495554667N01220863EA0000000575
B1540555554735N01220757EA0000000574
B1541005554796N01220666EA0000000571
B1541055554860N01220574EA0000000571
B1541115554934N01220472EA0000000577
B1541195555032N01220341EA0000000566
B1541295555145N01220144EA0000000549
B1541345555199N01220039EA0000000541
B1541455555322N01219811EA0000000528
B1541515555392N01219701EA0000000529
B1541585555472N01219570EA0000000520
B1542045555546N01219465EA0000000513
B1542155555679N01219260EA0000000503
B1542265555806N01219029EA0000000491
B1542335555894N01218900EA0000000491
B1542425556014N01218754EA0000000475
B1542505556115N01218605EA0000000463
B1543005556227N01218400EA0000000451
B1543065556310N01218302EA0000000449
B1543115556383N01218248EA0000000455
B1543165556437N01218149EA0000000442
B1543215556433N01217990EA0000000444
B1543285556350N01217798EA0000000440
B1543335556281N01217668EA0000000432
B1543385556200N01217566EA0000000433
B1543435556097N01217538EA0000000426
B1543495555978N01217637EA0000000410
B1543545555873N01217705EA0000000401
B1544015555720N01217688EA0000000396
B1544065555617N01217621EA0000000401
B1544145555469N01217460EA0000000400
B1544205555371N01217319EA0000000402
B1544265555303N01217149EA0000000397
B1544315555247N01217005EA0000000393
B1544405555109N01216788EA0000000377
B1544475554989N01216639EA0000000366
B1544535554885N01216520EA0000000358
B1544595554780N01216402EA0000000349
B1545055554681N01216279EA0000000353
B1545105554616N01216155EA0000000355
B1545175554536N01215963EA0000000362
B1545255554486N01215730EA0000000364
B1545315554430N01215564EA0000000368
B1545395554338N01215356EA0000000357
B1545445554274N01215235EA0000000349
B1545505554188N01215097EA0000000340
B1545555554112N01214989EA0000000334
B1546015554025N01214851EA0000000330
B1546065553947N01214748EA0000000329
B1546125553858N01214618EA0000000326
B1546185553787N01214466EA0000000321
B1546265553722N01214248EA0000000308
B1546315553702N01214106EA0000000303
B1546395553675N01213876EA0000000297
B1546445553642N01213730EA0000000297
B1546495553610N01213581EA0000000307
B1546565553627N01213388EA0000000309
B1547015553684N01213321EA0000000312
B1547065553751N01213341EA0000000309
B1547135553810N01213500EA0000000314
B1547185553799N01213649EA0000000322
B1547235553742N01213773EA0000000324
B1547315553592N01213836EA0000000321
B1547365553501N01213784EA0000000328
B1547415553441N01213673EA0000000339
B1547475553424N01213517EA0000000345
B1547525553446N01213415EA0000000340
B1547575553500N01213368EA0000000337
B1548045553581N01213429EA0000000335
B1548095553613N01213549EA0000000338
B1548145553610N01213696EA0000000341
B1548215553543N01213872EA0000000352
B1548265553451N01213932EA0000000349
B1548315553365N01213883EA0000000362
B1548385553326N01213714EA0000000376
B1548435553348N01213615EA0000000378
B1548485553401N01213585EA0000000370
B1548555553470N01213673EA0000000370
B1549015553498N01213829EA0000000373
B1549065553495N01213972EA0000000380
B1549125553426N01214118EA0000000381
B1549175553333N01214141EA0000000377
B1549225553256N01214060EA0000000378
B1549295553226N01213891EA0000000388
B1549345553256N01213788EA0000000390
B1549395553314N01213754EA0000000398
B1549465553382N01213850EA0000000413
B1549515553391N01213968EA0000000413
B1549565553362N01214099EA0000000409
B1550025553284N01214235EA0000000404
B1550095553169N01214358EA0000000398
B1550165553051N01214470EA0000000386
B1550235552926N01214544EA0000000377
B1550315552778N01214592EA0000000373
B1550365552683N01214612EA0000000367
B1550435552552N01214594EA0000000366
B1550485552460N01214573EA0000000363
B1550535552368N01214607EA0000000368
B1550595552264N01214677EA0000000374
B1551045552214N01214806EA0000000370
B1551105552252N01214946EA0000000366
B1551155552307N01214902EA0000000354
B1551215552313N01214734EA0000000338
B1551275552295N01214565EA0000000345
B1551325552236N01214446EA0000000356
B1551375552144N01214437EA0000000365
B1551445552093N01214616EA0000000367
B1551495552137N01214704EA0000000364
B1551545552193N01214678EA0000000371
B1552015552172N01214512EA0000000384
B1552065552084N01214506EA0000000390
B1552115552034N01214632EA0000000391
B1552185552086N01214769EA0000000393
B1552235552134N01214709EA0000000398
B1552285552103N01214585EA0000000405
B1552355551982N01214607EA0000000420
B1552405551951N01214745EA0000000423
B1552455551986N01214850EA0000000422
B1552525552053N01214793EA0000000429
B1552575552024N01214672EA0000000430
B1553025551935N01214626EA0000000441
B1553095551850N01214770EA0000000450
B1553145551865N01214894EA0000000449
B1553195551923N01214935EA0000000448
B1553265551952N01214805EA0000000448
B1553315551886N01214707EA0000000452
B1553365551795N01214727EA0000000462
B1553435551766N01214914EA0000000465
B1553485551820N01214975EA0000000474
B1553535551861N01214919EA0000000478
B1554005551821N01214760EA0000000472
B1554065551715N01214751EA0000000487
B1554115551654N01214865EA0000000486
B1554175551672N01215017EA0000000481
B1554225551749N01215063EA0000000439
B1554275551856N01215034EA0000000387
B1554345552024N01214937EA0000000355
B1554395552148N01214855EA0000000334
B1554455552301N01214749EA0000000305
B1554535552509N01214612EA0000000280
B1554595552669N01214514EA0000000256
B1555055552833N01214423EA0000000234
B1555115552999N01214341EA0000000214
B1555165553140N01214271EA0000000188
B1555215553254N01214113EA0000000186
B1555315553356N01213628EA0000000169
B1555375553390N01213325EA0000000164
B1555425553398N01213076EA0000000170
B1555475553341N01212853EA0000000169
B1555525553219N01212725EA0000000182
B1555595553050N01212793EA0000000226
B1556045552937N01212863EA0000000234
B1556095552835N01212927EA0000000243
B1556165552718N01213080EA0000000242
B1556215552637N01213190EA0000000237
B1556265552581N01213334EA0000000238
B1556325552580N01213525EA0000000236
B1556375552618N01213650EA0000000229
B1556425552681N01213717EA0000000231
B1556495552768N01213671EA0000000232
B1556555552817N01213549EA0000000235
B1557025552874N01213409EA0000000228
B1557075552916N01213311EA0000000220
B1557155552989N01213152EA0000000214
B1557205553021N01213035EA0000000212
B1557255553014N01212895EA0000000214
B1557305552944N01212800EA0000000216
B1557355552842N01212834EA0000000207
B1557405552776N01212983EA0000000201
B1557475552723N01213217EA0000000212
B1557535552686N01213397EA0000000212
B1558015552657N01213641EA0000000200
B1558095552641N01213903EA0000000194
B1558145552634N01214067EA0000000200
B1558315552641N01214577EA0000000189
B1558365552676N01214689EA0000000184
B1558435552760N01214759EA0000000165
B1558485552826N01214776EA0000000153
B1558555552915N01214775EA0000000131
B1559005552962N01214703EA0000000107
B1559055552982N01214570EA0000000084
B1559105552997N01214439EA0000000065
B1559195553025N01214211EA0000000028
B1559285553049N01213984EA0000000013
B1559355553061N01213868EA0000000012
