AOGNOGN
HFDTE200825
HFFXA050
HFPLTPILOTINCHARGE:
HFGTYGLIDERTYPE:ASK-21
HFGIDGLIDERID:OY-XVC
HFDTM100GPSDATUM:WGS-1984
HFRFWFIRMWAREVERSION:
HFRHWHARDWAREVERSION:
HFFTYFRTYPE:OGN-FLIGHTBOOK
HFGPSGENERIC
HFPRSPRESSALTSENSOR:
HFCIDCOMPETITIONID:VC
B1433355553098N01213915EA0000000015
B1433355553098N01213915EA0000000015
B1433415553107N01213782EA0000000017
B1433485553122N01213588EA0000000019
B1433535553132N01213443EA0000000038
B1434015553128N01213216EA0000000060
B1434075553093N01213042EA0000000076
B1434125553043N01212907EA0000000093
B1434185552962N01212769EA0000000107
B1434245552883N01212620EA0000000127
B1434295552816N01212498EA0000000151
B1434355552739N01212356EA0000000176
B1434405552671N01212244EA0000000189
B1434455552600N01212128EA0000000199
B1434525552504N01211962EA0000000235
B1435015552378N01211756EA0000000265
B1435095552264N01211576EA0000000297
B1435155552181N01211432EA0000000307
B1435285552023N01211097EA0000000334
B1435345551985N01210923EA0000000346
B1435435551972N01210659EA0000000365
B1435495551978N01210488EA0000000394
B1435575551990N01210259EA0000000418
B1436065552014N01210012EA0000000436
B1436185552053N01209693EA0000000456
B1436275552090N01209463EA0000000477
B1436345552126N01209290EA0000000500
B1436405552161N01209138EA0000000519
B1436465552201N01209001EA0000000544
B1436515552257N01208936EA0000000557
B1436565552323N01208924EA0000000571
B1437015552392N01208968EA0000000582
B1437535552362N01210548EA0000000738
B1438015552323N01210802EA0000000759
B1438065552301N01210964EA0000000765
B1438165552292N01211251EA0000000767
B1438235552297N01211440EA0000000757
B1438325552285N01211681EA0000000750
B1438395552275N01211863EA0000000744
B1438495552269N01212102EA0000000734
B1438565552270N01212257EA0000000723
B1439065552288N01212485EA0000000707
B1439115552303N01212598EA0000000707
B1439195552324N01212787EA0000000698
B1439245552339N01212919EA0000000677
B1439295552322N01213070EA0000000679
B1439345552253N01213173EA0000000681
B1439405552150N01213200EA0000000675
B1439475552039N01213137EA0000000667
B1439525551974N01213060EA0000000667
B1439575551942N01212952EA0000000660
B1440055551936N01212778EA0000000653
B1440145551937N01212575EA0000000639
B1440195551943N01212460EA0000000637
B1440245551957N01212351EA0000000624
B1440315552016N01212253EA0000000610
B1440375552084N01212199EA0000000579
B1440435552165N01212148EA0000000577
B1440485552237N01212111EA0000000540
B1440535552298N01212086EA0000000565
B1440585552364N01212060EA0000000522
B1441055552459N01212020EA0000000533
B1441115552538N01211987EA0000000511
B1441195552628N01212060EA0000000510
B1441245552551N01212078EA0000000510
B1441295552541N01211959EA0000000507
B1441345552543N01211838EA0000000513
B1441425552504N01211655EA0000000510
B1441485552413N01211599EA0000000495
B1441535552333N01211655EA0000000480
B1442005552269N01211831EA0000000479
B1442055552271N01211962EA0000000480
B1442135552347N01212073EA0000000491
B1442185552388N01212018EA0000000494
B1442255552334N01211880EA0000000500
B1442305552253N01211893EA0000000502
B1442365552220N01212035EA0000000506
B1442415552266N01212092EA0000000511
B1442475552297N01211997EA0000000515
B1442525552248N01211895EA0000000515
B1442585552148N01211914EA0000000518
B1443045552117N01212062EA0000000519
B1443105552171N01212131EA0000000525
B1443155552205N01212062EA0000000528
B1443225552149N01211917EA0000000531
B1443275552064N01211914EA0000000529
B1443355552017N01212097EA0000000527
B1443415552073N01212150EA0000000530
B1443525552033N01211950EA0000000523
B1443575551950N01211984EA0000000523
B1444035551927N01212132EA0000000518
B1444125552023N01212225EA0000000515
B1444205552116N01212234EA0000000528
B1444255552144N01212147EA0000000532
B1444345552035N01212023EA0000000536
B1444425551978N01212203EA0000000546
B1444485552035N01212237EA0000000553
B1445005551941N01212049EA0000000565
B1445075551889N01212203EA0000000575
B1445135551944N01212250EA0000000583
B1445225551912N01212074EA0000000595
B1445385551842N01212297EA0000000613
B1445445551907N01212298EA0000000628
B1445495551960N01212289EA0000000620
B1445565552038N01212274EA0000000611
B1446035552120N01212260EA0000000607
B1446105552198N01212240EA0000000602
B1446165552263N01212220EA0000000594
B1446215552316N01212202EA0000000589
B1446285552389N01212165EA0000000586
B1446355552462N01212115EA0000000582
B1446415552525N01212071EA0000000581
B1446495552606N01212017EA0000000582
B1446575552689N01211975EA0000000591
B1447085552806N01211931EA0000000600
B1447155552883N01211904EA0000000596
B1447225552959N01211870EA0000000600
B1447275553012N01211850EA0000000604
B1447355553097N01211814EA0000000609
B1447405553151N01211782EA0000000610
B1447455553181N01211688EA0000000613
B1447535553135N01211500EA0000000608
B1447585553057N01211449EA0000000611
B1448095552917N01211626EA0000000611
B1448155552945N01211779EA0000000604
B1448205552999N01211864EA0000000612
B1448265553063N01211940EA0000000622
B1448325553124N01212000EA0000000622
B1448435553240N01212091EA0000000610
B1448485553295N01212128EA0000000608
B1448535553351N01212167EA0000000606
B1449005553434N01212218EA0000000606
B1449075553518N01212263EA0000000596
B1449135553589N01212290EA0000000586
B1449195553656N01212257EA0000000580
B1449255553714N01212204EA0000000568
B1449305553717N01212094EA0000000554
B1449355553666N01211990EA0000000539
B1449425553570N01211865EA0000000528
B1449535553413N01211701EA0000000508
B1450035553267N01211563EA0000000486
B1450095553174N01211482EA0000000471
B1450155553082N01211400EA0000000461
B1450255552922N01211282EA0000000449
B1450335552793N01211203EA0000000436
B1450395552720N01211097EA0000000436
B1450445552708N01210981EA0000000436
B1450495552741N01210899EA0000000442
B1450545552795N01210900EA0000000450
B1451025552822N01211078EA0000000457
B1451075552766N01211194EA0000000455
B1451335552654N01210959EA0000000472
B1451405552707N01211092EA0000000480
B1451525552699N01211429EA0000000483
B1452015552665N01211686EA0000000468
B1452095552637N01211923EA0000000449
B1452155552610N01212096EA0000000440
B1452205552550N01212211EA0000000432
B1452255552469N01212276EA0000000429
B1452325552350N01212257EA0000000424
B1452405552238N01212133EA0000000418
B1452455552207N01212012EA0000000411
B1452515552215N01211864EA0000000399
B1452575552238N01211725EA0000000387
B1453035552269N01211593EA0000000380
B1453085552317N01211523EA0000000380
B1453145552392N01211506EA0000000378
B1453205552465N01211515EA0000000377
B1453325552607N01211537EA0000000363
B1453375552667N01211551EA0000000361
B1453455552758N01211567EA0000000364
B1453525552838N01211589EA0000000357
B1453585552912N01211600EA0000000355
B1454055553002N01211605EA0000000354
B1454105553043N01211528EA0000000363
B1454155553017N01211417EA0000000365
B1454225552899N01211365EA0000000348
B1454275552802N01211394EA0000000341
B1454335552707N01211513EA0000000333
B1454395552642N01211682EA0000000342
B1454455552595N01211847EA0000000348
B1454505552567N01211982EA0000000345
B1454565552530N01212144EA0000000329
B1455015552457N01212225EA0000000322
B1455065552376N01212204EA0000000314
B1455135552337N01212056EA0000000296
B1455185552381N01211995EA0000000286
B1455235552439N01212006EA0000000277
B1455325552542N01212058EA0000000274
B1455395552622N01212092EA0000000266
B1455445552679N01212105EA0000000262
B1455495552733N01212131EA0000000260
B1455595552777N01212358EA0000000247
B1456045552770N01212505EA0000000241
B1456105552753N01212679EA0000000240
B1456155552734N01212824EA0000000233
B1456235552700N01213063EA0000000217
B1456295552673N01213245EA0000000207
B1456345552649N01213398EA0000000198
B1456435552601N01213685EA0000000188
B1456525552564N01213979EA0000000178
B1456595552555N01214206EA0000000171
B1457055552589N01214379EA0000000166
B1457135552662N01214570EA0000000168
B1457185552715N01214653EA0000000159
B1457245552791N01214702EA0000000149
B1457315552881N01214715EA0000000134
B1457365552934N01214660EA0000000126
B1457415552969N01214555EA0000000108
B1457475552993N01214407EA0000000088
B1458005553035N01214103EA0000000031
B1458065553053N01213966EA0000000015
B1458115553062N01213893EA0000000015
