AOGNOGN
HFDTE180625
HFFXA050
HFPLTPILOTINCHARGE:
HFGTYGLIDERTYPE:Twin Astir II
HFGIDGLIDERID:OY-ZXN
HFDTM100GPSDATUM:WGS-1984
HFRFWFIRMWAREVERSION:
HFRHWHARDWAREVERSION:
HFFTYFRTYPE:OGN-FLIGHTBOOK
HFGPSGENERIC
HFPRSPRESSALTSENSOR:
HFCIDCOMPETITIONID:XN
B1109325624560N00924733EA0000000025
B1109325624560N00924733EA0000000025
B1109385624585N00924622EA0000000031
B1109455624616N00924487EA0000000048
B1109515624637N00924372EA0000000066
B1109575624658N00924252EA0000000081
B1110045624687N00924101EA0000000095
B1110125624725N00923931EA0000000117
B1110195624763N00923799EA0000000143
B1110245624795N00923719EA0000000156
B1110315624838N00923617EA0000000170
B1110365624868N00923538EA0000000182
B1110445624905N00923408EA0000000195
B1110545624944N00923250EA0000000214
B1111425625134N00922465EA0000000317
B1111485625203N00922435EA0000000337
B1111595625343N00922437EA0000000359
B1112055625422N00922451EA0000000366
B1112145625539N00922497EA0000000371
B1112195625605N00922534EA0000000382
B1112245625674N00922573EA0000000382
B1153535625507N00925664EA0000000339
B1154585625225N00924938EA0000000243
B1156595624332N00925681EA0000000120
B1157135624387N00925414EA0000000094
B1157235624433N00925215EA0000000070
B1157335624483N00924995EA0000000041
B1157445624530N00924784EA0000000028
B1157505624544N00924719EA0000000025
