AOGNOGN
HFDTE210625
HFFXA050
HFPLTPILOTINCHARGE:
HFGTYGLIDERTYPE:ASK-21
HFGIDGLIDERID:OY-XMF
HFDTM100GPSDATUM:WGS-1984
HFRFWFIRMWAREVERSION:
HFRHWHARDWAREVERSION:
HFFTYFRTYPE:OGN-FLIGHTBOOK
HFGPSGENERIC
HFPRSPRESSALTSENSOR:
HFCIDCOMPETITIONID:X1
B1204155650786N00927820EA0000000034
B1204205650797N00927730EA0000000112
B1204275650803N00927614EA0000000231
B1204325650809N00927518EA0000000307
B1204375650826N00927422EA0000000385
B1204445650842N00927278EA0000000462
B1204495650865N00927174EA0000000503
B1204565650902N00927046EA0000000525
B1205015650925N00926988EA0000000534
B1205075650950N00926926EA0000000530
B1205145650986N00926846EA0000000520
B1205215651037N00926766EA0000000521
B1205275651081N00926705EA0000000528
B1205355651130N00926641EA0000000528
B1205405651171N00926610EA0000000529
B1205455651232N00926669EA0000000531
B1205525651283N00926888EA0000000524
B1205575651311N00927058EA0000000520
B1206055651352N00927332EA0000000517
B1206135651382N00927601EA0000000510
B1206185651437N00927709EA0000000504
B1206235651480N00927676EA0000000496
B1206285651451N00927621EA0000000491
B1206335651390N00927673EA0000000498
B1206385651364N00927831EA0000000491
B1206435651320N00927967EA0000000490
B1206485651271N00927954EA0000000484
B1206535651293N00927890EA0000000484
B1207005651379N00927979EA0000000480
B1207055651378N00928141EA0000000485
B1207105651316N00928200EA0000000476
B1207175651307N00928116EA0000000475
B1207235651353N00928056EA0000000476
B1207285651344N00927998EA0000000449
B1207345651267N00928133EA0000000437
B1207395651316N00928283EA0000000438
B1207445651374N00928249EA0000000430
B1207515651304N00928216EA0000000429
B1207565651234N00928232EA0000000424
B1208015651214N00928168EA0000000428
B1208085651297N00928176EA0000000423
B1208135651316N00928334EA0000000420
B1208185651263N00928414EA0000000415
B1208255651262N00928335EA0000000403
B1208305651329N00928367EA0000000400
B1208355651354N00928518EA0000000394
B1208425651277N00928605EA0000000377
B1208475651279N00928532EA0000000366
B1208545651348N00928438EA0000000356
B1208595651393N00928372EA0000000353
B1209065651445N00928274EA0000000345
B1209165651513N00928135EA0000000337
B1209215651548N00928064EA0000000330
B1209275651591N00927981EA0000000330
B1209325651620N00927909EA0000000330
B1209385651661N00927838EA0000000327
B1209445651715N00927774EA0000000327
B1209495651774N00927752EA0000000332
B1209545651819N00927871EA0000000320
B1209595651786N00928002EA0000000315
B1210065651735N00927957EA0000000311
B1210135651778N00927866EA0000000317
B1210185651812N00927799EA0000000306
B1210235651847N00927739EA0000000304
B1210295651900N00927680EA0000000297
B1210405651954N00927526EA0000000299
B1210455651944N00927454EA0000000307
B1210505651944N00927381EA0000000306
B1210575652035N00927383EA0000000320
B1211025652072N00927528EA0000000310
B1211075652029N00927664EA0000000293
B1211165651899N00927671EA0000000297
B1211255651778N00927653EA0000000296
B1211315651708N00927651EA0000000289
B1211385651623N00927648EA0000000278
B1211455651541N00927621EA0000000269
B1211505651485N00927590EA0000000269
B1211565651423N00927551EA0000000276
B1212015651378N00927512EA0000000268
B1212065651342N00927470EA0000000264
B1212115651369N00927417EA0000000249
B1212165651432N00927502EA0000000250
B1212225651412N00927679EA0000000233
B1212295651325N00927838EA0000000213
B1212355651248N00927978EA0000000206
B1212415651171N00928125EA0000000208
B1212495651075N00928342EA0000000195
B1212565650994N00928524EA0000000202
B1213025650927N00928667EA0000000199
B1213075650863N00928751EA0000000192
B1213135650781N00928739EA0000000174
B1213205650684N00928699EA0000000164
B1213255650626N00928646EA0000000160
B1213305650634N00928543EA0000000150
B1213355650654N00928434EA0000000126
B1213415650670N00928300EA0000000101
B1213475650690N00928173EA0000000071
B1213525650708N00928074EA0000000055
B1213585650728N00927956EA0000000031
B1214045650742N00927866EA0000000031
