AOGNOGN
HFDTE210625
HFFXA050
HFPLTPILOTINCHARGE:
HFGTYGLIDERTYPE:ASK-21
HFGIDGLIDERID:OY-XMF
HFDTM100GPSDATUM:WGS-1984
HFRFWFIRMWAREVERSION:
HFRHWHARDWAREVERSION:
HFFTYFRTYPE:OGN-FLIGHTBOOK
HFGPSGENERIC
HFPRSPRESSALTSENSOR:
HFCIDCOMPETITIONID:X1
B1233125650784N00927827EA0000000034
B1233175650779N00927729EA0000000117
B1233235650772N00927631EA0000000226
B1233295650779N00927524EA0000000314
B1233345650783N00927433EA0000000380
B1233395650784N00927335EA0000000432
B1233445650799N00927235EA0000000475
B1233515650815N00927092EA0000000510
B1233585650827N00926966EA0000000509
B1234045650858N00926878EA0000000496
B1234105650931N00926837EA0000000506
B1234155651000N00926857EA0000000499
B1234215651091N00926906EA0000000494
B1234275651178N00927007EA0000000495
B1234335651264N00927129EA0000000482
B1234395651354N00927253EA0000000471
B1234455651439N00927369EA0000000463
B1234515651521N00927498EA0000000453
B1234565651585N00927609EA0000000459
B1235035651671N00927773EA0000000457
B1235085651733N00927903EA0000000454
B1235135651804N00927991EA0000000441
B1235185651872N00927989EA0000000436
B1235235651914N00927936EA0000000428
B1235285651905N00927859EA0000000410
B1235365651816N00927803EA0000000407
B1235435651733N00927784EA0000000396
B1235515651648N00927743EA0000000392
B1235585651573N00927710EA0000000385
B1236035651521N00927687EA0000000380
B1236095651465N00927649EA0000000353
B1236155651398N00927630EA0000000351
B1236235651328N00927570EA0000000345
B1236335651242N00927461EA0000000335
B1236405651149N00927483EA0000000323
B1236475651072N00927692EA0000000329
B1236525651057N00927878EA0000000310
B1236585651131N00928059EA0000000301
B1237035651216N00928072EA0000000289
B1237085651256N00927982EA0000000285
B1237145651255N00927855EA0000000279
B1237195651194N00927803EA0000000277
B1237245651112N00927856EA0000000271
B1237315651039N00928076EA0000000264
B1237365651053N00928270EA0000000253
B1237415651125N00928397EA0000000243
B1237485651217N00928351EA0000000229
B1237545651225N00928224EA0000000229
B1238005651226N00928109EA0000000227
B1238055651218N00928011EA0000000217
B1238105651164N00927956EA0000000211
B1238155651084N00928021EA0000000201
B1238225651020N00928271EA0000000202
B1238275650988N00928450EA0000000203
B1238325650942N00928612EA0000000193
B1238395650840N00928764EA0000000200
B1238485650704N00928902EA0000000177
B1238535650622N00928915EA0000000170
B1238585650569N00928827EA0000000150
B1239075650615N00928581EA0000000119
B1239135650643N00928423EA0000000103
B1239195650668N00928293EA0000000084
B1239255650688N00928176EA0000000056
B1239305650708N00928076EA0000000040
B1239355650723N00927978EA0000000031
B1239415650736N00927890EA0000000030
