AOGNOGN
HFDTE170725
HFFXA050
HFPLTPILOTINCHARGE:
HFGTYGLIDERTYPE:LS-1 d
HFGIDGLIDERID:OY-XJR
HFDTM100GPSDATUM:WGS-1984
HFRFWFIRMWAREVERSION:
HFRHWHARDWAREVERSION:
HFFTYFRTYPE:OGN-FLIGHTBOOK
HFGPSGENERIC
HFPRSPRESSALTSENSOR:
HFCIDCOMPETITIONID:K3
B1227515600597N00900625EA0000000045
B1227595600625N00900806EA0000000045
B1228055600646N00900966EA0000000066
B1228105600661N00901092EA0000000088
B1228175600688N00901260EA0000000111
B1228235600716N00901403EA0000000129
B1228295600735N00901559EA0000000145
B1228345600750N00901692EA0000000164
B1228395600761N00901827EA0000000182
B1228445600774N00901955EA0000000201
B1228505600787N00902108EA0000000216
B1228555600797N00902232EA0000000232
B1229015600813N00902387EA0000000251
B1229065600826N00902515EA0000000277
B1229115600853N00902621EA0000000305
B1229165600901N00902704EA0000000315
B1229215600967N00902748EA0000000331
B1229265601039N00902724EA0000000355
B1229325601118N00902608EA0000000371
B1229385601159N00902414EA0000000391
B1229435601153N00902230EA0000000411
B1229505601081N00901993EA0000000432
B1229565600992N00901812EA0000000446
B1230025600903N00901624EA0000000459
B1230075600833N00901466EA0000000471
B1230135600747N00901273EA0000000481
B1230195600659N00901083EA0000000499
B1230245600587N00900920EA0000000509
B1230295600519N00900750EA0000000536
B1230345600459N00900590EA0000000577
B1230395600390N00900512EA0000000595
B1230445600336N00900569EA0000000593
B1230505600384N00900612EA0000000593
B1230565600445N00900597EA0000000613
B1231015600452N00900677EA0000000612
B1231065600395N00900719EA0000000619
B1231115600314N00900678EA0000000627
B1231165600252N00900575EA0000000641
B1231225600235N00900420EA0000000647
B1231275600265N00900317EA0000000643
B1231325600316N00900275EA0000000654
B1231385600361N00900324EA0000000656
B1231435600356N00900413EA0000000654
B1231485600298N00900465EA0000000658
B1231535600219N00900430EA0000000670
B1231585600151N00900354EA0000000677
B1232035600148N00900223EA0000000689
B1232085600191N00900220EA0000000695
B1232135600155N00900298EA0000000705
B1232185600084N00900229EA0000000713
B1232235600093N00900102EA0000000727
B1232285600142N00900077EA0000000734
B1232335600160N00900149EA0000000738
B1232385600119N00900208EA0000000756
B1232435600047N00900186EA0000000753
B1232485559991N00900070EA0000000762
B1232535559998N00859946EA0000000772
B1232585600045N00859907EA0000000786
B1233035600078N00859941EA0000000790
B1233085600077N00900009EA0000000796
B1233145600030N00900083EA0000000803
B1233195559971N00900127EA0000000805
B1233245559896N00900100EA0000000798
B1233305559825N00859956EA0000000802
B1233405559813N00859681EA0000000824
B1233465559812N00859532EA0000000832
B1233525559868N00859490EA0000000844
B1233575559877N00859573EA0000000837
B1234025559817N00859647EA0000000845
B1234075559740N00859618EA0000000859
B1234125559685N00859502EA0000000855
B1234175559689N00859362EA0000000866
B1234235559724N00859234EA0000000882
B1234285559773N00859190EA0000000884
B1234345559811N00859248EA0000000886
B1234395559780N00859328EA0000000872
B1234445559704N00859322EA0000000882
B1234525559605N00859184EA0000000902
B1234585559523N00859086EA0000000907
B1235035559483N00858958EA0000000905
B1235085559502N00858831EA0000000910
B1235145559559N00858832EA0000000918
B1235195559557N00858919EA0000000921
B1235245559495N00858976EA0000000920
B1235295559418N00858907EA0000000917
B1235345559414N00858768EA0000000928
B1235395559455N00858687EA0000000938
B1235445559496N00858681EA0000000942
B1235495559508N00858749EA0000000944
B1235545559454N00858798EA0000000946
B1235595559383N00858713EA0000000943
B1236045559374N00858565EA0000000953
B1236105559422N00858472EA0000000961
B1236155559465N00858469EA0000000967
B1236205559461N00858547EA0000000960
B1236265559378N00858527EA0000000967
B1236315559356N00858382EA0000000974
B1236365559400N00858304EA0000000981
B1236425559425N00858377EA0000000976
B1236485559351N00858420EA0000000991
B1236535559286N00858419EA0000001000
B1236585559221N00858340EA0000000990
B1237035559207N00858196EA0000000995
B1237085559246N00858101EA0000001007
B1237135559293N00858095EA0000001010
B1237185559309N00858167EA0000001004
B1237235559273N00858239EA0000001014
B1237285559200N00858223EA0000001019
B1237335559151N00858096EA0000001019
B1237385559168N00857952EA0000001024
B1237445559212N00857815EA0000001033
B1237495559264N00857794EA0000001029
B1237545559290N00857868EA0000001023
B1238005559258N00857970EA0000001019
B1238065559177N00857995EA0000001023
B1238115559108N00857995EA0000001032
B1238165559037N00857984EA0000001031
B1238215558974N00857885EA0000001033
B1238265558962N00857744EA0000001040
B1238315558999N00857651EA0000001041
B1238365559051N00857641EA0000001040
B1238415559102N00857641EA0000001042
B1238465559151N00857648EA0000001038
B1238535559222N00857647EA0000001024
B1239015559296N00857632EA0000001020
B1239075559352N00857620EA0000001013
B1239135559413N00857609EA0000000991
B1239185559479N00857597EA0000000976
B1239265559590N00857572EA0000000960
B1239335559688N00857548EA0000000952
B1239385559757N00857537EA0000000945
B1239445559845N00857509EA0000000941
B1239495559914N00857476EA0000000942
B1239565600012N00857419EA0000000925
B1240035600116N00857359EA0000000907
B1240095600202N00857302EA0000000909
B1240165600301N00857243EA0000000901
B1240215600369N00857211EA0000000891
B1240265600439N00857178EA0000000883
B1240325600520N00857142EA0000000876
B1240375600587N00857105EA0000000858
B1240425600662N00857070EA0000000841
B1240475600739N00857040EA0000000835
B1240525600815N00857008EA0000000824
B1240585600907N00856971EA0000000817
B1241035600983N00856939EA0000000805
B1241085601061N00856903EA0000000797
B1241135601135N00856868EA0000000795
B1241195601228N00856834EA0000000770
B1241255601326N00856803EA0000000768
B1241305601408N00856779EA0000000766
B1241365601511N00856740EA0000000770
B1241455601646N00856681EA0000000796
B1241515601734N00856629EA0000000794
B1242015601888N00856548EA0000000773
B1242065601969N00856500EA0000000764
B1242125602066N00856438EA0000000761
B1242185602164N00856382EA0000000746
B1242255602279N00856328EA0000000731
B1242325602396N00856287EA0000000716
B1242385602496N00856245EA0000000711
B1242455602590N00856239EA0000000724
B1242505602642N00856279EA0000000710
B1242585602732N00856367EA0000000694
B1243035602792N00856433EA0000000693
B1243105602868N00856517EA0000000707
B1243155602918N00856573EA0000000713
B1243205602961N00856631EA0000000733
B1243255602996N00856672EA0000000741
B1243315603031N00856730EA0000000750
B1243365603048N00856802EA0000000755
B1243415603065N00856869EA0000000761
B1243475603102N00856921EA0000000761
B1243545603174N00856898EA0000000758
B1244005603238N00856819EA0000000750
B1244065603304N00856711EA0000000739
B1244115603360N00856604EA0000000735
B1244165603410N00856484EA0000000730
B1244225603465N00856328EA0000000716
B1244275603512N00856193EA0000000702
B1244325603563N00856055EA0000000698
B1244395603630N00855865EA0000000696
B1244475603707N00855651EA0000000691
B1244555603773N00855426EA0000000681
B1245015603817N00855246EA0000000672
B1245215603919N00854573EA0000000615
B1245275603943N00854365EA0000000614
B1245325603957N00854194EA0000000604
B1245375603969N00854025EA0000000613
B1245425603978N00853876EA0000000612
B1245495604015N00853693EA0000000605
B1245555604071N00853579EA0000000607
B1246005604113N00853493EA0000000627
B1246055604153N00853431EA0000000624
B1246105604202N00853395EA0000000615
B1246165604266N00853343EA0000000605
B1246225604333N00853288EA0000000600
B1246275604388N00853242EA0000000600
B1246325604438N00853189EA0000000604
B1246375604486N00853137EA0000000597
B1246445604561N00853059EA0000000577
B1246495604619N00853009EA0000000560
B1246565604705N00852940EA0000000542
B1247025604778N00852883EA0000000528
B1247115604894N00852801EA0000000512
B1247175604971N00852756EA0000000507
B1247225605031N00852725EA0000000513
B1247295605103N00852697EA0000000522
B1247365605171N00852697EA0000000540
B1247415605212N00852689EA0000000542
B1247495605285N00852728EA0000000538
B1247545605331N00852751EA0000000540
B1248015605392N00852782EA0000000539
B1248065605432N00852810EA0000000536
B1248125605482N00852844EA0000000535
B1248175605531N00852831EA0000000531
B1248245605606N00852778EA0000000532
B1248315605682N00852760EA0000000544
B1248405605778N00852746EA0000000560
B1248485605856N00852762EA0000000562
B1248565605843N00852856EA0000000568
B1249015605778N00852779EA0000000574
B1249075605801N00852633EA0000000579
B1249125605852N00852590EA0000000592
B1249185605878N00852648EA0000000583
B1249235605821N00852708EA0000000588
B1249285605746N00852655EA0000000608
B1249335605687N00852583EA0000000610
B1249385605678N00852444EA0000000609
B1249435605726N00852373EA0000000614
B1249485605769N00852355EA0000000627
B1249535605809N00852341EA0000000622
B1250025605888N00852328EA0000000599
B1250125605998N00852334EA0000000570
B1250205606099N00852342EA0000000557
B1250255606163N00852353EA0000000546
B1250325606252N00852354EA0000000555
B1250385606314N00852348EA0000000560
B1250445606378N00852336EA0000000552
B1250505606446N00852327EA0000000551
B1250555606493N00852315EA0000000581
B1251025606546N00852281EA0000000590
B1251115606618N00852220EA0000000584
B1251165606662N00852224EA0000000580
B1251225606715N00852241EA0000000576
B1251285606765N00852271EA0000000566
B1251355606825N00852321EA0000000552
B1251485606931N00852484EA0000000532
B1251555606985N00852585EA0000000531
B1252075607074N00852739EA0000000530
B1252125607106N00852798EA0000000520
B1252185607155N00852867EA0000000510
B1252235607200N00852930EA0000000505
B1252285607240N00852986EA0000000534
B1252345607279N00853027EA0000000537
B1252425607302N00853123EA0000000536
B1252475607223N00853124EA0000000536
B1252535607168N00852976EA0000000548
B1252595607181N00852814EA0000000562
B1253065607247N00852788EA0000000567
B1253155607166N00852872EA0000000571
B1253205607104N00852763EA0000000584
B1253255607069N00852632EA0000000594
B1253305607103N00852519EA0000000587
B1253365607156N00852542EA0000000606
B1253415607138N00852620EA0000000603
B1253465607064N00852619EA0000000618
B1253535607033N00852433EA0000000625
B1253585607077N00852368EA0000000637
B1254055607084N00852463EA0000000638
B1254125607006N00852529EA0000000664
B1254215606893N00852529EA0000000658
B1254265606860N00852389EA0000000681
B1254315606896N00852300EA0000000685
B1254385606928N00852375EA0000000682
B1254435606855N00852391EA0000000684
B1254485606806N00852263EA0000000700
B1254535606780N00852136EA0000000719
B1254595606767N00851981EA0000000714
B1255045606808N00851911EA0000000715
B1255105606829N00851978EA0000000724
B1255165606790N00852058EA0000000739
B1255225606722N00851967EA0000000737
B1255275606758N00851888EA0000000745
B1255325606763N00851940EA0000000748
B1255385606704N00851989EA0000000757
B1255435606655N00852028EA0000000759
B1255485606583N00851995EA0000000756
B1255545606570N00851837EA0000000777
B1256035606580N00851899EA0000000774
B1256085606518N00851806EA0000000786
B1256135606536N00851680EA0000000805
B1256185606552N00851568EA0000000802
B1256235606600N00851518EA0000000798
B1256305606642N00851555EA0000000820
B1256355606671N00851582EA0000000820
B1256435606732N00851643EA0000000798
B1256485606784N00851702EA0000000782
B1256535606838N00851779EA0000000768
B1256585606892N00851861EA0000000757
B1257045606957N00851960EA0000000746
B1257095607010N00852047EA0000000738
B1257145607061N00852134EA0000000729
B1257195607112N00852221EA0000000714
B1257265607188N00852348EA0000000701
B1257315607244N00852433EA0000000698
B1257385607329N00852540EA0000000684
B1257455607416N00852639EA0000000677
B1257505607473N00852704EA0000000676
B1257565607542N00852775EA0000000664
B1258025607621N00852845EA0000000641
B1258095607724N00852917EA0000000619
B1258185607859N00852992EA0000000611
B1258235607934N00853022EA0000000596
B1258305608045N00853063EA0000000590
B1258355608120N00853099EA0000000587
B1258445608244N00853185EA0000000569
B1258505608325N00853249EA0000000564
B1258555608394N00853303EA0000000559
B1259015608462N00853365EA0000000573
B1259065608511N00853410EA0000000563
B1259125608580N00853463EA0000000545
B1259175608644N00853494EA0000000537
B1259235608718N00853487EA0000000544
B1259295608784N00853466EA0000000536
B1259385608884N00853353EA0000000522
B1259435608938N00853265EA0000000520
B1259485608990N00853173EA0000000520
B1259575609080N00853000EA0000000514
B1300045609154N00852879EA0000000529
B1300105609210N00852836EA0000000535
B1300155609251N00852857EA0000000532
B1300225609321N00852780EA0000000520
B1300285609378N00852669EA0000000530
B1300335609422N00852648EA0000000543
B1300385609439N00852721EA0000000539
B1300435609394N00852797EA0000000549
B1300485609322N00852780EA0000000550
B1300555609263N00852611EA0000000545
B1301015609299N00852485EA0000000564
B1301075609339N00852518EA0000000564
B1301125609305N00852602EA0000000566
B1301175609237N00852594EA0000000577
B1301225609195N00852471EA0000000562
B1301275609211N00852343EA0000000579
B1301325609253N00852324EA0000000585
B1301385609258N00852415EA0000000588
B1301435609204N00852472EA0000000590
B1301485609128N00852437EA0000000591
B1301535609081N00852321EA0000000596
B1301595609084N00852164EA0000000607
B1302045609092N00852044EA0000000611
B1302095609127N00851951EA0000000602
B1302145609180N00851937EA0000000619
B1302205609208N00852004EA0000000627
B1302255609172N00852085EA0000000624
B1302305609094N00852071EA0000000627
B1302365609042N00851915EA0000000625
B1302415609073N00851813EA0000000636
B1302505609126N00851886EA0000000645
B1302555609088N00851964EA0000000657
B1303005609015N00851952EA0000000660
B1303065608966N00851801EA0000000661
B1303115608994N00851696EA0000000663
B1303165609043N00851689EA0000000667
B1303225609058N00851784EA0000000667
B1303285608991N00851846EA0000000670
B1303345608916N00851743EA0000000682
B1303395608928N00851623EA0000000682
B1303445608972N00851568EA0000000689
B1303515609034N00851516EA0000000685
B1303565609081N00851458EA0000000681
B1304045609165N00851337EA0000000657
B1304125609258N00851180EA0000000645
B1304315609483N00850787EA0000000604
B1304415609589N00850571EA0000000581
B1304585609782N00850153EA0000000555
B1305055609843N00849995EA0000000583
B1305125609891N00849861EA0000000589
B1305175609924N00849759EA0000000579
B1305485610031N00849506EA0000000651
B1306045610028N00849528EA0000000700
B1306095610001N00849399EA0000000717
B1306225610019N00849442EA0000000760
B1306315609988N00849248EA0000000793
B1306405610041N00849308EA0000000814
B1306465609966N00849312EA0000000837
B1306525609946N00849160EA0000000856
B1306575609999N00849114EA0000000870
B1307075609966N00849223EA0000000903
B1307165609953N00849031EA0000000938
B1307435609923N00849041EA0000001021
B1307485609851N00849019EA0000001027
B1307575609843N00848830EA0000001046
B1308105609770N00848867EA0000001092
B1308195609792N00848686EA0000001100
B1308385609704N00848577EA0000001164
B1308475609779N00848583EA0000001184
B1308555609704N00848648EA0000001205
B1309025609661N00848476EA0000001231
B1309075609697N00848390EA0000001244
B1309125609747N00848395EA0000001257
B1309175609789N00848404EA0000001273
B1310075610598N00847802EA0000001187
B1310195610810N00847689EA0000001174
B1310345611085N00847665EA0000001144
B1310415611214N00847671EA0000001133
B1310505611378N00847693EA0000001124
B1310555611467N00847703EA0000001118
B1311005611556N00847719EA0000001108
B1311085611700N00847740EA0000001100
B1311145611808N00847755EA0000001087
B1311225611954N00847788EA0000001073
B1311285612064N00847813EA0000001069
B1311385612252N00847863EA0000001053
B1311435612344N00847884EA0000001050
B1311505612468N00847915EA0000001039
B1311575612595N00847947EA0000001025
B1312075612773N00847991EA0000001020
B1312135612874N00848013EA0000001015
B1312215613016N00848055EA0000000985
B1312275613116N00848098EA0000001008
B1312345613213N00848146EA0000000997
B1312405613296N00848214EA0000001003
B1312475613339N00848324EA0000001044
B1312535613373N00848394EA0000001058
B1313085613501N00848465EA0000001040
B1315515615617N00844735EA0000000793
B1316165615844N00844180EA0000000792
B1316235615911N00844028EA0000000785
B1316285615956N00843931EA0000000789
B1316345616007N00843813EA0000000787
B1316515616054N00843329EA0000000777
B1318095615985N00840959EA0000000795
B1318325615844N00840393EA0000000832
B1318415615796N00840169EA0000000839
B1319275615607N00840407EA0000000893
B1320155615433N00839974EA0000000976
B1320205615455N00840032EA0000000974
B1320505615331N00840046EA0000001041
B1320575615352N00840122EA0000001041
B1321445615144N00839582EA0000001103
B1323465615408N00836986EA0000001193
B1324245615333N00836546EA0000001253
B1324335615423N00836547EA0000001260
B1324405615506N00836563EA0000001228
B1324595615769N00836611EA0000001206
B1325105615930N00836633EA0000001192
B1325305616211N00836669EA0000001173
B1325355616279N00836674EA0000001163
B1325525616513N00836701EA0000001148
B1326015616639N00836718EA0000001135
B1326065616708N00836726EA0000001131
B1326125616791N00836743EA0000001122
B1326205616903N00836763EA0000001126
B1326325617074N00836781EA0000001111
B1326375617146N00836786EA0000001107
B1326435617234N00836787EA0000001098
B1326485617309N00836786EA0000001095
B1326555617412N00836773EA0000001090
B1327045617551N00836751EA0000001087
B1327145617687N00836777EA0000001087
B1327225617790N00836799EA0000001094
B1327315617902N00836824EA0000001075
B1327375617985N00836823EA0000001072
B1327425618054N00836799EA0000001070
B1327485618141N00836770EA0000001061
B1327555618236N00836768EA0000001067
B1328015618311N00836784EA0000001060
B1328095618416N00836822EA0000001052
B1328245618618N00836902EA0000001046
B1328465618884N00836994EA0000001026
B1328525618959N00837039EA0000001017
B1329005619059N00837100EA0000001009
B1329095619169N00837175EA0000001010
B1329155619242N00837223EA0000000998
B1329275619392N00837313EA0000000984
B1331015620570N00837915EA0000000924
B1331355620601N00837737EA0000000968
B1332105620828N00838035EA0000000957
B1332165620891N00838085EA0000000952
B1332285621014N00838199EA0000000962
B1332345621074N00838232EA0000000971
B1332455621134N00838357EA0000000954
B1332535621091N00838496EA0000000981
B1332595621073N00838583EA0000000993
B1333095621151N00838474EA0000000999
B1333145621108N00838345EA0000001018
B1333255621065N00838454EA0000001041
B1333315621118N00838337EA0000001046
B1333435621009N00838295EA0000001074
B1333485621055N00838321EA0000001082
B1333535621088N00838203EA0000001085
B1334105621002N00838210EA0000001113
B1334165621054N00838093EA0000001113
B1334325620907N00838080EA0000001135
B1334425620842N00838230EA0000001153
B1334535620796N00838400EA0000001163
B1334585620772N00838477EA0000001176
B1335065620748N00838611EA0000001189
B1335155620744N00838768EA0000001203
B1335265620614N00838874EA0000001206
B1335485620304N00839226EA0000001164
B1335545620252N00839380EA0000001161
B1336015620200N00839561EA0000001152
B1336145620120N00839893EA0000001145
B1336195620094N00840016EA0000001139
B1336365620011N00840445EA0000001119
B1336425619978N00840595EA0000001108
B1336585619886N00841006EA0000001089
B1337075619820N00841229EA0000001079
B1337165619758N00841455EA0000001068
B1337245619702N00841658EA0000001061
B1337325619646N00841858EA0000001055
B1337375619614N00841984EA0000001052
B1337425619582N00842108EA0000001050
B1337505619528N00842303EA0000001045
B1338035619445N00842619EA0000001035
B1338125619390N00842837EA0000001031
B1338235619315N00843094EA0000001022
B1338295619279N00843235EA0000001018
B1338385619223N00843444EA0000001008
B1338465619175N00843630EA0000001001
B1338565619111N00843860EA0000000992
B1339025619072N00843996EA0000000991
B1339105619026N00844169EA0000000991
B1339165618995N00844297EA0000000987
B1339265618940N00844514EA0000000978
B1339345618895N00844686EA0000000972
B1339415618850N00844835EA0000000961
B1339525618780N00845074EA0000000945
B1339595618735N00845229EA0000000933
B1340055618695N00845364EA0000000927
B1340105618651N00845467EA0000000920
B1340285618475N00845824EA0000000900
B1340335618422N00845917EA0000000890
B1340425618329N00846097EA0000000883
B1340475618282N00846189EA0000000885
B1340555618205N00846330EA0000000876
B1341035618131N00846483EA0000000855
B1341095618065N00846595EA0000000847
B1341145617999N00846679EA0000000840
B1341235617881N00846835EA0000000835
B1341305617789N00846954EA0000000829
B1341375617701N00847076EA0000000826
B1341435617627N00847179EA0000000825
B1341535617498N00847325EA0000000818
B1342105617263N00847538EA0000000808
B1342275617013N00847748EA0000000791
B1342445616773N00847955EA0000000777
B1342505616689N00848033EA0000000770
B1342575616606N00848127EA0000000769
B1343075616485N00848261EA0000000752
B1343135616414N00848350EA0000000752
B1343185616361N00848421EA0000000750
B1343295616267N00848616EA0000000730
B1343355616231N00848726EA0000000723
B1343415616216N00848852EA0000000708
B1343515616211N00849072EA0000000701
B1344325616259N00849865EA0000000686
B1345125616217N00850781EA0000000641
B1345355616230N00851274EA0000000684
B1345515616150N00851432EA0000000724
B1346185616144N00851423EA0000000776
B1346385616223N00851288EA0000000812
B1346455616170N00851134EA0000000803
B1346525616108N00851211EA0000000826
B1347065615983N00851286EA0000000826
B1347115615920N00851187EA0000000831
B1347245615805N00850922EA0000000841
B1347295615859N00850895EA0000000855
B1347405615782N00850998EA0000000875
B1347455615705N00850983EA0000000889
B1347505615634N00850954EA0000000894
B1348005615663N00850775EA0000000911
B1348065615683N00850847EA0000000917
B1348135615595N00850893EA0000000931
B1348265615424N00850920EA0000000945
B1348365615426N00851087EA0000000960
B1349075615294N00851332EA0000000993
B1349145615235N00851173EA0000001003
B1349195615198N00851061EA0000001001
B1349475615286N00850563EA0000001016
B1350275615135N00851169EA0000001054
B1352115615267N00853697EA0000000984
B1352175615263N00853834EA0000000987
B1352265615245N00854036EA0000000975
B1352315615231N00854161EA0000000961
B1352365615223N00854297EA0000000949
B1352425615212N00854462EA0000000949
B1352475615202N00854588EA0000000949
B1352535615201N00854749EA0000000930
B1352585615203N00854897EA0000000920
B1353045615209N00855063EA0000000919
B1353155615262N00855318EA0000000916
B1353255615315N00855484EA0000000938
B1353315615322N00855583EA0000000939
B1353385615333N00855687EA0000000956
B1353435615360N00855744EA0000000948
B1353505615335N00855855EA0000000939
B1353555615264N00855832EA0000000959
B1354005615204N00855784EA0000000978
B1354065615140N00855704EA0000000975
B1354135615181N00855569EA0000000988
B1354185615217N00855634EA0000000982
B1354235615196N00855733EA0000000999
B1354285615184N00855818EA0000001015
B1354355615110N00855858EA0000001028
B1354455615144N00855687EA0000001045
B1354515615163N00855779EA0000001073
B1354575615087N00855775EA0000001084
B1355035615086N00855642EA0000001105
B1355115615136N00855724EA0000001125
B1355165615073N00855733EA0000001140
B1355235615076N00855583EA0000001164
B1355355615038N00855665EA0000001201
B1355435615058N00855514EA0000001223
B1355485615088N00855577EA0000001248
B1355545615025N00855616EA0000001262
B1356035614995N00855421EA0000001295
B1356085615050N00855408EA0000001302
B1356135615064N00855494EA0000001320
B1356215614973N00855500EA0000001349
B1356295614985N00855320EA0000001377
B1356345615039N00855327EA0000001388
B1356395615046N00855411EA0000001403
B1356465614962N00855427EA0000001414
B1356515614906N00855324EA0000001441
B1357095614960N00855216EA0000001476
B1357165614892N00855261EA0000001499
B1357215614825N00855197EA0000001514
B1357275614749N00855171EA0000001533
B1357465614463N00855402EA0000001486
B1357575614271N00855556EA0000001479
B1358025614180N00855628EA0000001474
B1358075614099N00855707EA0000001479
B1358145613995N00855828EA0000001456
B1358265613840N00856076EA0000001452
B1358315613779N00856187EA0000001463
B1358365613726N00856279EA0000001477
B1358425613661N00856396EA0000001480
B1358475613608N00856487EA0000001478
B1358535613542N00856627EA0000001470
B1358585613489N00856750EA0000001475
B1359035613436N00856879EA0000001466
B1359085613380N00857006EA0000001456
B1359135613320N00857136EA0000001442
B1359205613230N00857313EA0000001436
B1359295613119N00857541EA0000001422
B1359395613001N00857783EA0000001419
B1359465612921N00857941EA0000001404
B1359525612857N00858086EA0000001401
B1400005612773N00858279EA0000001389
B1400105612679N00858527EA0000001377
B1400155612638N00858653EA0000001375
B1400205612601N00858775EA0000001371
B1400275612552N00858945EA0000001361
B1400325612519N00859066EA0000001357
B1400395612471N00859236EA0000001349
B1400485612403N00859451EA0000001340
B1400545612362N00859594EA0000001331
B1400595612327N00859718EA0000001323
B1401045612293N00859843EA0000001319
B1401115612246N00900018EA0000001313
B1401215612189N00900276EA0000001299
B1401305612143N00900509EA0000001298
B1401385612097N00900709EA0000001297
B1401445612067N00900855EA0000001296
B1401535612027N00901077EA0000001290
B1401585612005N00901199EA0000001288
B1402055611977N00901365EA0000001281
B1402145611942N00901585EA0000001272
B1402215611912N00901752EA0000001271
B1402315611868N00901985EA0000001261
B1402365611848N00902101EA0000001259
B1402505611802N00902424EA0000001245
B1402555611784N00902541EA0000001242
B1403015611755N00902675EA0000001237
B1403065611731N00902788EA0000001230
B1403135611696N00902952EA0000001217
B1403195611657N00903093EA0000001213
B1403255611614N00903229EA0000001211
B1403325611566N00903391EA0000001215
B1403385611531N00903529EA0000001207
B1403435611503N00903647EA0000001202
B1403505611463N00903810EA0000001203
B1403565611428N00903948EA0000001202
B1404025611392N00904085EA0000001197
B1404155611322N00904404EA0000001173
B1404215611287N00904559EA0000001162
B1404265611257N00904687EA0000001159
B1404345611213N00904882EA0000001154
B1404405611184N00905030EA0000001141
B1404485611141N00905226EA0000001140
B1404555611107N00905387EA0000001139
B1405015611076N00905527EA0000001121
B1405065611023N00905637EA0000001108
B1405115610954N00905720EA0000001125
B1405165610892N00905773EA0000001156
B1405245610789N00905711EA0000001162
B1405335610829N00905539EA0000001196
B1405385610868N00905579EA0000001205
B1405435610853N00905656EA0000001217
B1405505610764N00905681EA0000001228
B1405595610649N00905554EA0000001244
B1406055610674N00905402EA0000001255
B1406115610727N00905391EA0000001269
B1406165610739N00905460EA0000001282
B1406225610704N00905540EA0000001284
B1406275610659N00905602EA0000001286
B1406365610604N00905765EA0000001239
B1406445610561N00905990EA0000001211
B1406525610523N00906223EA0000001195
B1406575610499N00906369EA0000001187
B1407025610477N00906514EA0000001184
B1407075610458N00906656EA0000001178
B1407135610439N00906825EA0000001175
B1407185610416N00906950EA0000001178
B1407245610386N00907099EA0000001166
B1407305610365N00907257EA0000001162
B1407355610344N00907397EA0000001153
B1407405610327N00907541EA0000001159
B1407495610301N00907761EA0000001182
B1407545610283N00907870EA0000001179
B1408015610247N00908028EA0000001175
B1408105610203N00908230EA0000001177
B1408185610173N00908421EA0000001169
B1408265610138N00908630EA0000001168
B1408315610116N00908761EA0000001165
B1408385610073N00908947EA0000001153
B1408435610039N00909087EA0000001132
B1408515609994N00909312EA0000001128
B1408565609965N00909445EA0000001120
B1409055609909N00909686EA0000001108
B1409105609865N00909814EA0000001105
B1409155609820N00909945EA0000001099
B1409235609743N00910148EA0000001091
B1409285609698N00910277EA0000001080
B1409335609653N00910400EA0000001098
B1409395609611N00910531EA0000001109
B1409445609581N00910640EA0000001116
B1409505609537N00910775EA0000001107
B1409555609498N00910895EA0000001101
B1410005609456N00911017EA0000001092
B1410055609415N00911142EA0000001084
B1410125609360N00911318EA0000001076
B1410185609317N00911468EA0000001071
B1410235609285N00911595EA0000001067
B1410285609261N00911725EA0000001058
B1410365609219N00911938EA0000001044
B1410435609177N00912129EA0000001042
B1410485609151N00912262EA0000001043
B1410545609121N00912422EA0000001031
B1410595609092N00912560EA0000001033
B1411065609054N00912736EA0000001045
B1411125609042N00912876EA0000001039
B1411195609006N00913040EA0000001033
B1411275608906N00913193EA0000001017
B1411355608799N00913361EA0000001006
B1411415608724N00913478EA0000001005
B1411475608648N00913604EA0000000999
B1411525608590N00913706EA0000001020
B1411575608543N00913791EA0000001022
B1412025608499N00913879EA0000001013
B1412085608457N00914001EA0000001005
B1412135608436N00914117EA0000000996
B1412185608430N00914242EA0000000990
B1412395608490N00914786EA0000000947
B1412445608508N00914917EA0000000938
B1412555608560N00915200EA0000000910
B1413025608602N00915369EA0000000903
B1413115608654N00915583EA0000000888
B1413375608788N00916133EA0000000861
B1413445608792N00916309EA0000000870
B1413525608688N00916309EA0000000846
B1414065608467N00915985EA0000000813
B1414165608303N00915747EA0000000797
B1414275608117N00915482EA0000000776
B1414395607908N00915180EA0000000749
B1414475607765N00914984EA0000000744
B1414535607658N00914843EA0000000743
B1415015607514N00914662EA0000000733
B1415095607366N00914475EA0000000723
B1415145607277N00914358EA0000000720
B1415195607188N00914237EA0000000707
B1415265607063N00914052EA0000000696
B1415335606944N00913868EA0000000687
B1415395606833N00913757EA0000000678
B1415445606731N00913682EA0000000657
B1415495606616N00913613EA0000000636
B1415545606506N00913529EA0000000638
B1416005606386N00913415EA0000000639
B1416055606285N00913326EA0000000641
B1416105606195N00913271EA0000000681
B1416155606125N00913242EA0000000705
B1416205606079N00913129EA0000000693
B1416275606142N00913006EA0000000691
B1416325606152N00913084EA0000000711
B1416385606118N00913178EA0000000731
B1416435606088N00913256EA0000000734
B1416505605994N00913185EA0000000744
B1416555606014N00913062EA0000000754
B1417005606062N00913058EA0000000763
B1417055606063N00913135EA0000000777
B1417105606026N00913204EA0000000796
B1417175605968N00913286EA0000000789
B1417225605896N00913258EA0000000782
B1417275605855N00913125EA0000000781
B1417325605857N00912993EA0000000790
B1417375605874N00912875EA0000000783
B1417435605844N00912710EA0000000798
B1417485605848N00912580EA0000000795
B1417535605900N00912530EA0000000791
B1417595605920N00912600EA0000000796
B1418045605885N00912678EA0000000807
B1418105605872N00912756EA0000000821
B1418165605851N00912838EA0000000825
B1418215605787N00912849EA0000000818
B1418275605716N00912712EA0000000824
B1418345605659N00912544EA0000000825
B1418405605600N00912407EA0000000821
B1418505605501N00912177EA0000000815
B1418565605426N00912044EA0000000801
B1419015605348N00911933EA0000000788
B1419075605250N00911829EA0000000793
B1419125605171N00911766EA0000000794
B1419205605049N00911695EA0000000786
B1419275604955N00911547EA0000000774
B1419335604890N00911383EA0000000767
B1419385604834N00911247EA0000000771
B1419445604770N00911096EA0000000801
B1419495604705N00911045EA0000000807
B1419555604670N00911135EA0000000814
B1420005604717N00911130EA0000000815
B1420055604724N00910995EA0000000826
B1420105604654N00910928EA0000000836
B1420155604617N00911002EA0000000842
B1420205604655N00911048EA0000000854
B1420255604693N00910969EA0000000861
B1420315604667N00910812EA0000000878
B1420365604600N00910764EA0000000875
B1420425604543N00910851EA0000000873
B1420495604573N00910950EA0000000889
B1420555604624N00910963EA0000000889
B1421005604676N00910926EA0000000897
B1421055604723N00910893EA0000000900
B1421105604752N00910790EA0000000889
B1421165604712N00910628EA0000000910
B1421215604664N00910524EA0000000923
B1421325604565N00910308EA0000000940
B1421385604507N00910174EA0000000929
B1421445604445N00910015EA0000000924
B1421505604375N00909867EA0000000922
B1421585604271N00909672EA0000000899
B1422055604188N00909485EA0000000893
B1422105604129N00909356EA0000000889
B1422165604061N00909197EA0000000881
B1422225603994N00909031EA0000000872
B1422315603892N00908785EA0000000863
B1422365603835N00908650EA0000000855
B1422435603755N00908453EA0000000842
B1422505603673N00908258EA0000000826
B1422575603585N00908048EA0000000807
B1423035603506N00907860EA0000000795
B1423105603418N00907639EA0000000787
B1423175603330N00907419EA0000000775
B1423225603266N00907262EA0000000768
B1423275603201N00907110EA0000000764
B1423325603139N00906958EA0000000759
B1423385603068N00906769EA0000000753
B1423465602970N00906520EA0000000751
B1423525602899N00906331EA0000000747
B1424005602796N00906082EA0000000741
B1424055602736N00905926EA0000000740
B1424105602676N00905771EA0000000733
B1424155602615N00905620EA0000000731
B1424205602554N00905472EA0000000722
B1424265602479N00905287EA0000000711
B1424325602406N00905108EA0000000710
B1424385602341N00904933EA0000000700
B1424435602282N00904788EA0000000690
B1424495602208N00904625EA0000000698
B1424585602123N00904406EA0000000703
B1425035602087N00904271EA0000000695
B1425085602051N00904125EA0000000684
B1425135602014N00903975EA0000000677
B1425195601964N00903808EA0000000685
B1425265601930N00903609EA0000000679
B1425315601918N00903457EA0000000677
B1425405601908N00903195EA0000000677
B1425475601894N00902998EA0000000671
B1425525601885N00902850EA0000000664
B1425575601872N00902699EA0000000658
B1426035601861N00902511EA0000000645
B1426085601851N00902348EA0000000636
B1426135601840N00902184EA0000000629
B1426185601819N00902018EA0000000618
B1426265601754N00901758EA0000000608
B1426335601692N00901539EA0000000597
B1426415601608N00901288EA0000000580
B1426485601535N00901058EA0000000571
B1426575601437N00900779EA0000000569
B1427025601381N00900634EA0000000561
B1427095601293N00900436EA0000000551
B1427155601219N00900267EA0000000543
B1427215601146N00900095EA0000000542
B1427265601083N00859973EA0000000541
B1427335600989N00859820EA0000000531
B1427385600939N00859684EA0000000518
B1427435600898N00859527EA0000000505
B1427505600848N00859306EA0000000497
B1427575600835N00859071EA0000000475
B1428055600844N00858809EA0000000488
B1428125600844N00858621EA0000000493
B1428215600841N00858367EA0000000501
B1428265600872N00858258EA0000000491
B1428315600926N00858233EA0000000480
B1428365600929N00858312EA0000000470
B1428415600865N00858329EA0000000468
B1428475600787N00858246EA0000000471
B1428535600717N00858135EA0000000475
B1428595600640N00858061EA0000000469
B1429045600580N00857967EA0000000468
B1429095600546N00857836EA0000000471
B1429145600513N00857707EA0000000457
B1429195600482N00857561EA0000000445
B1429245600452N00857411EA0000000442
B1429305600419N00857240EA0000000442
B1429355600389N00857112EA0000000447
B1429405600352N00856989EA0000000440
B1429465600315N00856828EA0000000439
B1429525600283N00856666EA0000000435
B1429575600251N00856531EA0000000431
B1430035600212N00856374EA0000000431
B1430095600176N00856227EA0000000435
B1430145600146N00856098EA0000000434
B1430225600097N00855905EA0000000437
B1430275600106N00855778EA0000000434
B1430325600162N00855729EA0000000440
B1430385600184N00855811EA0000000440
B1430435600140N00855869EA0000000435
B1430485600074N00855885EA0000000444
B1430535600011N00855877EA0000000446
B1430585559962N00855768EA0000000438
B1431035559968N00855632EA0000000434
B1431085600020N00855574EA0000000437
B1431145600044N00855650EA0000000449
B1431205559999N00855725EA0000000446
B1431255559951N00855771EA0000000451
B1431305559895N00855796EA0000000447
B1431355559829N00855754EA0000000442
B1431405559787N00855637EA0000000439
B1431455559748N00855521EA0000000433
B1431505559723N00855394EA0000000424
B1431555559761N00855293EA0000000412
B1432025559828N00855331EA0000000408
B1432115559885N00855438EA0000000405
B1432185559921N00855527EA0000000404
B1432235559957N00855577EA0000000398
B1432285559996N00855634EA0000000386
B1432335600039N00855694EA0000000379
B1432385600082N00855758EA0000000378
B1432435600127N00855814EA0000000385
B1432495600183N00855860EA0000000376
B1432545600239N00855900EA0000000367
B1432595600297N00855940EA0000000362
B1433085600403N00856004EA0000000354
B1433135600465N00856028EA0000000370
B1433195600520N00856039EA0000000383
B1433245600575N00856020EA0000000379
B1433305600609N00855885EA0000000376
B1433355600561N00855782EA0000000375
B1433405600506N00855819EA0000000379
B1433465600542N00855877EA0000000393
B1433515600588N00855894EA0000000392
B1433575600650N00855923EA0000000391
B1434025600701N00855936EA0000000394
B1434075600752N00855914EA0000000389
B1434125600793N00855812EA0000000388
B1434185600845N00855698EA0000000396
B1434235600886N00855736EA0000000396
B1434285600862N00855812EA0000000404
B1434335600799N00855805EA0000000408
B1434385600755N00855698EA0000000404
B1434435600774N00855575EA0000000406
B1434485600833N00855534EA0000000414
B1434535600882N00855487EA0000000427
B1434585600920N00855516EA0000000409
B1435035600892N00855591EA0000000418
B1435085600828N00855572EA0000000425
B1435135600786N00855466EA0000000422
B1435195600840N00855369EA0000000425
B1435245600858N00855423EA0000000431
B1435295600813N00855476EA0000000436
B1435345600757N00855488EA0000000432
B1435405600726N00855342EA0000000438
B1435455600778N00855288EA0000000445
B1435505600788N00855355EA0000000451
B1435555600730N00855365EA0000000456
B1436005600699N00855245EA0000000457
B1436055600742N00855145EA0000000462
B1436105600780N00855183EA0000000470
B1436155600757N00855249EA0000000477
B1436205600697N00855227EA0000000475
B1436255600687N00855096EA0000000477
B1436305600734N00855008EA0000000484
B1436355600784N00854981EA0000000485
B1436405600797N00855047EA0000000473
B1436465600734N00855100EA0000000477
B1436525600673N00855140EA0000000485
B1437005600629N00855254EA0000000484
B1437055600564N00855242EA0000000474
B1437105600549N00855119EA0000000476
B1437155600593N00855039EA0000000477
B1437215600649N00854957EA0000000486
B1437265600692N00854887EA0000000483
B1437315600733N00854922EA0000000483
B1437365600716N00854999EA0000000492
B1437425600686N00855086EA0000000503
B1437475600643N00855141EA0000000506
B1437525600581N00855088EA0000000507
B1437575600571N00854964EA0000000505
B1438025600616N00854886EA0000000504
B1438075600654N00854923EA0000000517
B1438125600647N00855006EA0000000524
B1438185600575N00855009EA0000000523
B1438235600545N00854894EA0000000528
B1438285600569N00854790EA0000000520
B1438345600629N00854763EA0000000535
B1438395600676N00854774EA0000000541
B1438445600690N00854847EA0000000546
B1438505600628N00854892EA0000000557
B1438555600586N00854797EA0000000554
B1439005600606N00854680EA0000000552
B1439065600670N00854657EA0000000564
B1439115600720N00854659EA0000000566
B1439165600718N00854736EA0000000553
B1439235600630N00854715EA0000000576
B1439285600575N00854714EA0000000577
B1439335600571N00854798EA0000000570
B1439405600635N00854737EA0000000582
B1439455600607N00854625EA0000000598
B1439515600547N00854529EA0000000602
B1439565600483N00854508EA0000000594
B1440015600468N00854590EA0000000587
B1440085600544N00854590EA0000000601
B1440135600591N00854512EA0000000605
B1440185600580N00854389EA0000000615
B1440235600518N00854361EA0000000616
B1440285600505N00854435EA0000000614
B1440335600563N00854419EA0000000623
B1440385600561N00854297EA0000000640
B1440445600519N00854167EA0000000647
B1440495600473N00854071EA0000000652
B1440555600417N00853973EA0000000653
B1441005600359N00853897EA0000000639
B1441065600282N00853795EA0000000634
B1441115600220N00853712EA0000000626
B1441165600153N00853624EA0000000622
B1441225600074N00853517EA0000000624
B1441305600022N00853338EA0000000648
B1441355559964N00853269EA0000000652
B1441415559932N00853357EA0000000657
B1441465559979N00853356EA0000000673
B1441515559977N00853224EA0000000679
B1441565559916N00853202EA0000000688
B1442025559928N00853277EA0000000700
B1442075559964N00853186EA0000000703
B1442125559923N00853085EA0000000716
B1442175559872N00853129EA0000000718
B1442225559901N00853180EA0000000730
B1442275559933N00853082EA0000000734
B1442325559881N00852999EA0000000749
B1442395559861N00853086EA0000000755
B1442455559907N00853004EA0000000769
B1442505559865N00852904EA0000000781
B1442555559813N00852938EA0000000783
B1443015559844N00852987EA0000000796
B1443065559864N00852866EA0000000794
B1443115559804N00852808EA0000000812
B1443165559776N00852878EA0000000819
B1443225559827N00852863EA0000000823
B1443275559834N00852739EA0000000828
B1443325559779N00852663EA0000000845
B1443385559722N00852723EA0000000843
B1443435559744N00852787EA0000000852
B1443495559797N00852712EA0000000852
B1443545559780N00852585EA0000000856
B1443595559720N00852509EA0000000868
B1444045559653N00852474EA0000000865
B1444095559601N00852527EA0000000866
B1444145559613N00852600EA0000000870
B1444195559663N00852594EA0000000877
B1444245559706N00852529EA0000000873
B1444295559706N00852400EA0000000873
B1444365559634N00852269EA0000000886
B1444425559575N00852161EA0000000891
B1444475559520N00852082EA0000000892
B1444545559446N00851960EA0000000897
B1444595559390N00851875EA0000000897
B1445045559331N00851786EA0000000896
B1445105559280N00851646EA0000000905
B1445165559233N00851515EA0000000896
B1445215559185N00851401EA0000000900
B1445275559134N00851285EA0000000920
B1445325559142N00851156EA0000000915
B1445375559195N00851143EA0000000923
B1445425559194N00851231EA0000000932
B1445475559137N00851273EA0000000938
B1445525559074N00851215EA0000000946
B1445575559048N00851092EA0000000948
B1446025559069N00850974EA0000000957
B1446075559118N00850922EA0000000959
B1446125559163N00850957EA0000000960
B1446175559153N00851040EA0000000967
B1446235559109N00851118EA0000000978
B1446285559065N00851184EA0000000973
B1446335558998N00851186EA0000000969
B1446415558912N00850994EA0000000937
B1446505558825N00850699EA0000000943
B1446555558777N00850554EA0000000955
B1447065558690N00850294EA0000000955
B1447155558605N00850030EA0000000941
B1447205558559N00849865EA0000000933
B1447275558493N00849623EA0000000932
B1447325558455N00849470EA0000000977
B1447385558474N00849344EA0000000981
B1447435558527N00849357EA0000000994
B1447485558522N00849434EA0000000993
B1447535558461N00849473EA0000001008
B1447595558394N00849504EA0000001018
B1448055558318N00849435EA0000001021
B1448105558322N00849313EA0000001037
B1448155558376N00849286EA0000001053
B1448215558396N00849373EA0000001064
B1448265558352N00849446EA0000001069
B1448315558288N00849448EA0000001073
B1448365558226N00849377EA0000001078
B1448425558206N00849238EA0000001092
B1448475558238N00849140EA0000001091
B1448525558291N00849124EA0000001102
B1449015558339N00849221EA0000001112
B1449065558303N00849299EA0000001119
B1449115558238N00849299EA0000001107
B1449175558162N00849214EA0000001122
B1449235558107N00849103EA0000001132
B1449305558056N00848952EA0000001123
B1449385558001N00848706EA0000001096
B1449495557946N00848365EA0000001139
B1450105557833N00847719EA0000001129
B1450265557761N00847210EA0000001152
B1450315557745N00847062EA0000001163
B1450385557722N00846862EA0000001155
B1450505557651N00846455EA0000001121
B1450575557601N00846177EA0000001110
B1451065557532N00845813EA0000001093
B1451135557475N00845516EA0000001071
B1451405557261N00844366EA0000001025
B1451515557179N00843912EA0000000995
B1452235556959N00842547EA0000000918
B1452295556920N00842317EA0000000957
B1452375556891N00842127EA0000000995
B1452425556938N00842044EA0000001003
B1452505556964N00842137EA0000001019
B1452555556906N00842171EA0000001035
B1453015556828N00842156EA0000001051
B1453115556734N00841987EA0000001063
B1453185556777N00841868EA0000001070
B1453235556824N00841880EA0000001078
B1453285556834N00841963EA0000001088
B1453335556794N00842033EA0000001105
B1453415556688N00841985EA0000001108
B1453525556588N00841755EA0000001123
B1453575556581N00841627EA0000001126
B1454025556615N00841540EA0000001127
B1454075556659N00841553EA0000001124
B1454135556660N00841655EA0000001133
B1454185556642N00841744EA0000001151
B1454235556658N00841800EA0000001156
B1454325556702N00841647EA0000001170
B1454375556636N00841571EA0000001180
B1454425556570N00841579EA0000001188
B1454475556555N00841674EA0000001198
B1454525556597N00841694EA0000001203
B1454575556629N00841585EA0000001205
B1455045556587N00841420EA0000001225
B1455095556526N00841345EA0000001227
B1455145556460N00841392EA0000001222
B1455235556464N00841546EA0000001246
B1455285556411N00841588EA0000001239
B1455345556349N00841467EA0000001245
B1455395556345N00841344EA0000001265
B1455465556313N00841181EA0000001258
B1455575556261N00840881EA0000001241
B1456085556140N00840575EA0000001228
B1459355553604N00834207EA0000001023
B1459475553456N00833993EA0000001022
B1500435552966N00832636EA0000001015
B1500495552935N00832480EA0000001005
B1500545552936N00832331EA0000000998
B1501045552945N00832038EA0000000993
B1501225553094N00831861EA0000000962
B1501275553078N00831979EA0000000953
B1501345553051N00832148EA0000000942
B1501445553005N00832398EA0000000932
B1501495552980N00832513EA0000000951
B1501555552962N00832591EA0000000974
B1502025552921N00832682EA0000000970
B1502075552901N00832755EA0000000968
B1502145552878N00832872EA0000000959
B1502195552863N00832968EA0000000954
B1502315552826N00833230EA0000000932
B1502395552802N00833423EA0000000924
B1502455552781N00833568EA0000000915
B1502505552761N00833687EA0000000926
B1502555552740N00833782EA0000000939
B1503005552721N00833863EA0000000953
B1503105552698N00834016EA0000000960
B1503175552680N00834127EA0000000965
B1503235552659N00834220EA0000000969
B1503315552620N00834329EA0000000993
B1503365552602N00834403EA0000000990
B1503525552630N00834263EA0000000990
B1503585552550N00834242EA0000001006
B1504035552493N00834259EA0000001010
B1504135552383N00834173EA0000001001
B1504195552433N00834079EA0000001006
B1504345552478N00834254EA0000001025
B1504475552355N00834114EA0000001029
B1505235552613N00834446EA0000001019
B1505315552672N00834567EA0000001022
B1505425552761N00834733EA0000001025
B1505485552808N00834816EA0000001026
B1505585552874N00834976EA0000001012
B1506035552909N00835062EA0000001011
B1506295553122N00835496EA0000001002
B1506385553203N00835640EA0000000997
B1506455553263N00835748EA0000000996
B1506515553319N00835834EA0000000986
B1506575553379N00835919EA0000000975
B1507035553439N00836012EA0000000975
B1507095553499N00836099EA0000000976
B1507155553555N00836184EA0000000976
B1507225553619N00836264EA0000000976
B1507325553721N00836391EA0000000951
B1507395553804N00836487EA0000000933
B1507445553867N00836552EA0000000943
B1507495553918N00836610EA0000000948
B1507555553983N00836688EA0000000931
B1508125554152N00836940EA0000000917
B1508315554257N00837321EA0000000896
B1508385554292N00837475EA0000000890
B1508475554310N00837646EA0000000906
B1508525554297N00837742EA0000000899
B1508595554270N00837875EA0000000902
B1509065554234N00838004EA0000000892
B1509145554187N00838176EA0000000875
B1509195554167N00838285EA0000000892
B1509245554152N00838368EA0000000904
B1509305554128N00838460EA0000000906
B1509355554101N00838536EA0000000907
B1509405554069N00838612EA0000000914
B1509495554040N00838752EA0000000924
B1509555554026N00838846EA0000000917
B1510025554000N00838971EA0000000913
B1510075553987N00839057EA0000000921
B1510145553992N00839185EA0000000916
B1510195553997N00839285EA0000000919
B1510285554002N00839433EA0000000929
B1510405553865N00839325EA0000000921
B1510475553856N00839154EA0000000925
B1510555553833N00838968EA0000000930
B1511045553845N00838761EA0000000918
B1511095553893N00838735EA0000000924
B1511205553959N00838639EA0000000936
B1511265553887N00838590EA0000000934
B1511315553860N00838672EA0000000945
B1511385553899N00838742EA0000000960
B1511445553929N00838635EA0000000970
B1511505553850N00838581EA0000000973
B1512065553868N00838548EA0000001002
B1512125553781N00838534EA0000001011
B1512285553797N00838438EA0000001043
B1512335553725N00838460EA0000001051
B1512485553769N00838400EA0000001070
B1512545553681N00838373EA0000001092
B1513015553677N00838485EA0000001097
B1513125553712N00838295EA0000001119
B1513205553605N00838242EA0000001126
B1513315553615N00838362EA0000001139
B1513395553634N00838189EA0000001163
B1513445553573N00838115EA0000001163
B1513495553498N00838127EA0000001174
B1513545553456N00838198EA0000001178
B1514005553470N00838293EA0000001166
B1514085553539N00838247EA0000001187
B1514145553551N00838116EA0000001192
B1514205553514N00837984EA0000001200
B1514255553442N00837937EA0000001203
B1514305553387N00837997EA0000001214
B1514405553409N00838143EA0000001212
B1514505553443N00838287EA0000001221
B1515015553488N00838482EA0000001182
B1515085553565N00838602EA0000001161
B1515175553644N00838797EA0000001147
B1515255553654N00839036EA0000001134
B1515365553666N00839364EA0000001123
B1515435553663N00839574EA0000001113
B1515485553656N00839723EA0000001110
B1515545553650N00839899EA0000001103
B1516035553650N00840175EA0000001090
B1516085553654N00840320EA0000001088
B1516145553657N00840494EA0000001075
B1516225553651N00840732EA0000001069
B1516295553634N00840944EA0000001045
B1516385553612N00841239EA0000001032
B1516445553598N00841432EA0000001029
B1516515553576N00841653EA0000001025
B1516585553554N00841872EA0000001022
B1517055553539N00842089EA0000001016
B1517155553510N00842402EA0000001001
B1517235553473N00842648EA0000000997
B1517315553438N00842896EA0000000980
B1517385553415N00843095EA0000000994
B1517465553405N00843305EA0000000995
B1517535553411N00843491EA0000000994
B1517595553426N00843654EA0000000990
B1518065553459N00843839EA0000000992
B1518145553531N00844024EA0000000990
B1518205553592N00844162EA0000000986
B1518255553651N00844271EA0000000984
B1518315553716N00844368EA0000001028
B1518385553784N00844437EA0000001022
B1518445553865N00844484EA0000001014
B1518535553972N00844586EA0000001025
B1518595554013N00844692EA0000001040
B1519065554062N00844816EA0000001042
B1519125554105N00844930EA0000001051
B1519185554127N00845054EA0000001065
B1519255554152N00845186EA0000001066
B1519305554167N00845296EA0000001052
B1519385554191N00845511EA0000001027
B1519435554202N00845665EA0000001016
B1519495554204N00845840EA0000001043
B1519565554183N00846000EA0000001052
B1520015554165N00846124EA0000001046
B1520075554140N00846291EA0000001033
B1520155554104N00846540EA0000001014
B1520215554097N00846709EA0000001036
B1520285554096N00846889EA0000001031
B1520345554102N00847055EA0000001021
B1520405554113N00847223EA0000001024
B1520475554126N00847418EA0000001019
B1520535554128N00847554EA0000001051
B1520585554133N00847649EA0000001049
B1521035554160N00847750EA0000001039
B1521095554224N00847869EA0000001021
B1521145554279N00847966EA0000001017
B1521205554342N00848078EA0000001011
B1521315554457N00848299EA0000000983
B1521365554513N00848402EA0000000974
B1521425554581N00848520EA0000000967
B1521485554647N00848635EA0000000965
B1521565554735N00848788EA0000000952
B1522035554807N00848931EA0000000944
B1522085554859N00849033EA0000000937
B1522155554935N00849178EA0000000916
B1522235555023N00849354EA0000000900
B1522315555106N00849532EA0000000889
B1522375555167N00849667EA0000000883
B1522465555258N00849866EA0000000872
B1522535555336N00850019EA0000000869
B1522585555397N00850115EA0000000863
B1523085555517N00850308EA0000000845
B1523135555571N00850408EA0000000847
B1523185555618N00850500EA0000000857
B1523235555660N00850585EA0000000861
B1523305555716N00850699EA0000000868
B1523355555751N00850783EA0000000875
B1523415555795N00850877EA0000000885
B1523475555834N00850963EA0000000886
B1523555555890N00851109EA0000000878
B1524005555930N00851202EA0000000893
B1524055555969N00851249EA0000000920
B1524115556004N00851134EA0000000913
B1524165555943N00851050EA0000000930
B1524215555896N00851113EA0000000939
B1524265555922N00851185EA0000000951
B1524315555970N00851135EA0000000959
B1524365555959N00851006EA0000000972
B1524425555878N00850975EA0000000986
B1524475555867N00851056EA0000000995
B1524525555914N00851068EA0000001009
B1524585555923N00850933EA0000001016
B1525045555845N00850879EA0000001033
B1525105555820N00850973EA0000001046
B1525155555863N00850991EA0000001055
B1525235555852N00850815EA0000001063
B1525285555784N00850755EA0000001083
B1525335555720N00850766EA0000001086
B1525385555704N00850854EA0000001092
B1525445555756N00850860EA0000001104
B1525495555762N00850745EA0000001112
B1525545555701N00850675EA0000001121
B1525595555644N00850719EA0000001129
B1526045555640N00850807EA0000001135
B1526145555720N00850877EA0000001151
B1526205555768N00850918EA0000001152
B1526255555798N00850995EA0000001163
B1526305555812N00851067EA0000001175
B1526355555833N00851140EA0000001171
B1526435555879N00851263EA0000001187
B1526485555910N00851321EA0000001195
B1526535555940N00851387EA0000001185
B1526585555970N00851469EA0000001183
B1527035555992N00851550EA0000001196
B1527105556015N00851663EA0000001200
B1527165556046N00851755EA0000001213
B1527225556063N00851842EA0000001221
B1527275556060N00851928EA0000001219
B1527355556047N00852071EA0000001220
B1527455556045N00852253EA0000001233
B1527505556047N00852349EA0000001233
B1527555556054N00852451EA0000001231
B1528015556062N00852576EA0000001213
B1528075556075N00852731EA0000001190
B1528165556089N00852998EA0000001177
B1528225556094N00853186EA0000001156
B1528325556103N00853514EA0000001133
B1528385556113N00853708EA0000001127
B1528445556130N00853875EA0000001144
B1528505556143N00854034EA0000001125
B1528565556160N00854206EA0000001126
B1529025556178N00854362EA0000001146
B1529085556191N00854490EA0000001159
B1529135556198N00854597EA0000001165
B1529185556201N00854695EA0000001179
B1529245556224N00854786EA0000001181
B1529305556295N00854791EA0000001185
B1529355556355N00854763EA0000001190
B1529405556416N00854732EA0000001202
B1529485556505N00854724EA0000001216
B1529545556562N00854752EA0000001215
B1530035556648N00854804EA0000001206
B1530095556717N00854803EA0000001200
B1530165556801N00854801EA0000001201
B1530225556873N00854807EA0000001197
B1530275556932N00854818EA0000001200
B1530325556988N00854839EA0000001198
B1530375557045N00854862EA0000001195
B1530425557107N00854873EA0000001181
B1530475557175N00854897EA0000001183
B1530525557229N00854909EA0000001209
B1531015557307N00854967EA0000001214
B1531105557378N00855040EA0000001230
B1531165557432N00855088EA0000001235
B1531215557478N00855121EA0000001235
B1531295557565N00855176EA0000001233
B1531345557631N00855207EA0000001229
B1531405557704N00855236EA0000001244
B1531455557758N00855269EA0000001234
B1531505557823N00855300EA0000001219
B1531565557915N00855326EA0000001201
B1532015557990N00855351EA0000001215
B1532075558063N00855365EA0000001212
B1532135558154N00855380EA0000001184
B1532185558238N00855398EA0000001190
B1532265558314N00855488EA0000001221
B1532345558368N00855618EA0000001221
B1532415558416N00855734EA0000001226
B1532495558475N00855877EA0000001222
B1532565558533N00856022EA0000001191
B1533015558577N00856141EA0000001187
B1533075558626N00856288EA0000001182
B1533125558661N00856402EA0000001211
B1533175558680N00856491EA0000001220
B1533235558714N00856608EA0000001209
B1533285558765N00856707EA0000001202
B1533345558824N00856815EA0000001220
B1533405558884N00856925EA0000001180
B1533465558957N00857064EA0000001158
B1533575559093N00857340EA0000001144
B1534025559154N00857464EA0000001141
B1534075559215N00857589EA0000001129
B1534125559279N00857712EA0000001118
B1534175559345N00857834EA0000001104
B1534235559426N00857983EA0000001092
B1534285559490N00858109EA0000001090
B1534345559564N00858255EA0000001086
B1534405559645N00858393EA0000001089
B1534455559698N00858486EA0000001127
B1534505559742N00858559EA0000001130
B1535005559851N00858699EA0000001137
B1535055559906N00858760EA0000001145
B1535105559965N00858811EA0000001150
B1535165600039N00858863EA0000001148
B1535225600118N00858910EA0000001155
B1535305600233N00858958EA0000001139
B1535365600322N00859015EA0000001131
B1535425600411N00859067EA0000001122
B1535475600482N00859108EA0000001114
B1535575600630N00859195EA0000001094
B1536105600818N00859322EA0000001071
B1536155600889N00859373EA0000001064
B1536245601010N00859473EA0000001054
B1536305601089N00859551EA0000001037
B1536365601181N00859622EA0000001022
B1536415601255N00859682EA0000001014
B1536475601343N00859763EA0000001013
B1536535601423N00859854EA0000001015
B1536585601482N00859930EA0000001018
B1537045601557N00900011EA0000001009
B1537095601620N00900087EA0000001012
B1537175601722N00900209EA0000001015
B1537235601790N00900282EA0000001028
B1537285601846N00900345EA0000001022
B1537335601909N00900417EA0000001014
B1537385601973N00900500EA0000001016
B1537465602061N00900626EA0000001027
B1537525602124N00900719EA0000001035
B1537595602194N00900820EA0000001041
B1538075602272N00900932EA0000001050
B1538125602322N00901000EA0000001058
B1538185602392N00901071EA0000001057
B1538235602453N00901133EA0000001057
B1538285602513N00901199EA0000001051
B1538335602573N00901268EA0000001036
B1538405602666N00901379EA0000001023
B1538455602732N00901449EA0000001022
B1538515602814N00901537EA0000001006
B1538575602901N00901635EA0000000994
B1539025602967N00901719EA0000001002
B1539075603023N00901797EA0000001008
B1539125603076N00901881EA0000001000
B1539195603155N00902025EA0000000981
B1539245603203N00902125EA0000001010
B1539305603239N00902232EA0000001022
B1539355603262N00902304EA0000001042
B1539405603226N00902364EA0000001031
B1539455603163N00902287EA0000001036
B1539505603157N00902150EA0000001046
B1539555603199N00902065EA0000001051
B1540015603262N00902024EA0000001057
B1540065603317N00902016EA0000001051
B1540115603346N00902078EA0000001054
B1540195603310N00902207EA0000001059
B1540245603285N00902288EA0000001056
B1540295603296N00902365EA0000001053
B1540355603358N00902392EA0000001037
B1540405603419N00902401EA0000001023
B1540475603504N00902421EA0000001022
B1540535603573N00902424EA0000001020
B1541005603666N00902419EA0000000996
B1541065603756N00902408EA0000000992
B1541125603841N00902397EA0000000991
B1541185603927N00902381EA0000000986
B1541245604009N00902363EA0000000982
B1541305604090N00902347EA0000000979
B1541395604199N00902375EA0000000990
B1541455604264N00902407EA0000000998
B1541555604369N00902475EA0000000979
B1542015604436N00902521EA0000000966
B1542065604498N00902562EA0000000954
B1542145604607N00902603EA0000000947
B1542205604693N00902624EA0000000935
B1542255604771N00902642EA0000000926
B1542305604848N00902653EA0000000923
B1542365604942N00902665EA0000000911
B1542415605020N00902680EA0000000903
B1542475605111N00902702EA0000000904
B1542535605200N00902726EA0000000910
B1542595605270N00902752EA0000000935
B1543055605321N00902790EA0000000952
B1543105605350N00902836EA0000000946
B1543155605319N00902916EA0000000944
B1543205605255N00902870EA0000000958
B1543255605237N00902745EA0000000962
B1543305605270N00902652EA0000000966
B1543395605346N00902690EA0000000968
B1543465605404N00902727EA0000000974
B1543525605456N00902764EA0000000970
B1544005605516N00902839EA0000000963
B1544055605558N00902901EA0000000938
B1544105605596N00903005EA0000000923
B1544185605656N00903172EA0000000919
B1544235605692N00903272EA0000000915
B1544315605750N00903436EA0000000906
B1544395605807N00903599EA0000000898
B1544475605861N00903766EA0000000890
B1544535605903N00903888EA0000000885
B1544595605944N00904008EA0000000881
B1545045605974N00904098EA0000000893
B1545095605992N00904173EA0000000896
B1545145606008N00904254EA0000000891
B1545195606022N00904341EA0000000895
B1545245606038N00904419EA0000000895
B1545295606060N00904498EA0000000903
B1545345606080N00904560EA0000000921
B1545405606135N00904584EA0000000920
B1545455606161N00904485EA0000000931
B1545505606119N00904382EA0000000933
B1545555606055N00904377EA0000000931
B1546015606015N00904465EA0000000940
B1546065606011N00904546EA0000000949
B1546115606039N00904608EA0000000954
B1546165606089N00904589EA0000000964
B1546215606113N00904478EA0000000970
B1546265606067N00904371EA0000000980
B1546315606006N00904383EA0000000992
B1546365605994N00904466EA0000000993
B1546415606035N00904504EA0000001004
B1546465606073N00904417EA0000001000
B1546515606042N00904287EA0000001016
B1546565605975N00904277EA0000001024
B1547015605960N00904365EA0000001028
B1547065606006N00904395EA0000001034
B1547115606036N00904291EA0000001035
B1547165605992N00904177EA0000001047
B1547225605921N00904209EA0000001053
B1547285605930N00904307EA0000001058
B1547335605983N00904284EA0000001062
B1547385605992N00904154EA0000001068
B1547445605921N00904050EA0000001076
B1547495605858N00904079EA0000001082
B1547545605853N00904163EA0000001083
B1548005605910N00904189EA0000001093
B1548065605969N00904160EA0000001099
B1548115606000N00904058EA0000001098
B1548165605969N00903932EA0000001103
B1548215605899N00903917EA0000001104
B1548265605876N00904006EA0000001104
B1548315605927N00904025EA0000001118
B1548365605952N00903908EA0000001126
B1548415605904N00903792EA0000001127
B1548465605835N00903801EA0000001132
B1548515605816N00903887EA0000001140
B1548565605855N00903939EA0000001143
B1549015605906N00903885EA0000001149
B1549065605904N00903750EA0000001155
B1549115605839N00903665EA0000001151
B1549165605777N00903708EA0000001157
B1549215605780N00903797EA0000001168
B1549265605823N00903824EA0000001175
B1549315605869N00903757EA0000001172
B1549365605874N00903625EA0000001171
B1549415605816N00903531EA0000001173
B1549465605753N00903553EA0000001174
B1549525605735N00903657EA0000001182
B1549595605777N00903743EA0000001186
B1550055605823N00903807EA0000001167
B1550115605880N00903893EA0000001155
B1550185605949N00904003EA0000001140
B1550235606005N00904086EA0000001131
B1550305606089N00904202EA0000001118
B1550375606170N00904311EA0000001119
B1550425606220N00904400EA0000001110
B1550475606272N00904485EA0000001107
B1550565606372N00904641EA0000001099
B1551015606427N00904726EA0000001093
B1551065606477N00904816EA0000001089
B1551115606524N00904898EA0000001086
B1551165606580N00904981EA0000001070
B1551235606651N00905099EA0000001075
B1551305606728N00905209EA0000001057
B1551355606789N00905283EA0000001056
B1551415606862N00905356EA0000001052
B1551465606928N00905408EA0000001038
B1551555607055N00905474EA0000001035
B1552035607171N00905508EA0000001031
B1552095607263N00905524EA0000001020
B1552145607344N00905518EA0000001013
B1552225607462N00905494EA0000001028
B1552275607525N00905509EA0000001026
B1552345607601N00905575EA0000001033
B1552405607667N00905639EA0000001030
B1552475607750N00905687EA0000001034
B1552545607835N00905733EA0000001018
B1553005607924N00905790EA0000000997
B1553055608001N00905828EA0000001015
B1553105608054N00905870EA0000001034
B1553155608091N00905931EA0000001035
B1553215608139N00906006EA0000001036
B1553265608182N00906064EA0000001033
B1553315608230N00906118EA0000001031
B1553375608292N00906177EA0000001038
B1553435608355N00906239EA0000001031
B1553485608409N00906291EA0000001037
B1553535608450N00906341EA0000001048
B1553585608466N00906417EA0000001040
B1554055608527N00906494EA0000001030
B1554175608652N00906620EA0000001006
B1554225608708N00906678EA0000000997
B1554285608781N00906749EA0000000986
B1554345608845N00906819EA0000000997
B1554395608886N00906879EA0000001001
B1554475608952N00906977EA0000001002
B1554525608991N00907049EA0000000999
B1555025609074N00907189EA0000000983
B1555085609140N00907267EA0000000978
B1555135609194N00907299EA0000000989
B1555195609256N00907336EA0000000988
B1555245609301N00907389EA0000000993
B1555315609353N00907480EA0000001000
B1555375609388N00907560EA0000001003
B1555445609443N00907647EA0000000989
B1555515609524N00907720EA0000000986
B1555565609584N00907766EA0000000994
B1556025609653N00907809EA0000000993
B1556095609740N00907856EA0000000993
B1556185609850N00907906EA0000000988
B1556235609916N00907931EA0000000984
B1556305609988N00908002EA0000000994
B1556365610029N00908093EA0000001001
B1556425610053N00908188EA0000001005
B1556495610094N00908287EA0000000988
B1556565610163N00908409EA0000000974
B1557015610212N00908503EA0000000987
B1557075610252N00908590EA0000000998
B1557125610287N00908662EA0000000984
B1557225610355N00908834EA0000000964
B1557285610398N00908941EA0000000958
B1557345610444N00909041EA0000000964
B1557405610480N00909141EA0000000960
B1557465610524N00909241EA0000000958
B1557535610572N00909359EA0000000969
B1557585610596N00909438EA0000000968
B1558065610646N00909574EA0000000952
B1558145610703N00909711EA0000000947
B1558205610746N00909816EA0000000937
B1558265610784N00909915EA0000000934
B1558315610807N00910009EA0000000918
B1558435610871N00910244EA0000000916
B1558545610926N00910467EA0000000893
B1559045610985N00910674EA0000000874
B1559095611019N00910776EA0000000870
B1559175611070N00910941EA0000000861
B1559225611105N00911046EA0000000849
B1559285611155N00911161EA0000000837
B1559335611208N00911119EA0000000834
B1559385611192N00910979EA0000000826
B1559455611168N00910793EA0000000833
B1559515611143N00910633EA0000000834
B1559565611125N00910506EA0000000833
B1600015611108N00910372EA0000000831
B1600085611088N00910183EA0000000837
B1600155611069N00909985EA0000000838
B1600215611054N00909825EA0000000841
B1600275611043N00909660EA0000000843
B1600325611022N00909530EA0000000840
B1600385610987N00909371EA0000000832
B1600435610952N00909239EA0000000831
B1600535610875N00908988EA0000000818
B1601015610806N00908780EA0000000805
B1601065610760N00908641EA0000000796
B1601125610698N00908481EA0000000791
B1601185610638N00908312EA0000000780
B1601265610566N00908083EA0000000772
B1601325610512N00907907EA0000000766
B1601385610445N00907747EA0000000759
B1601435610374N00907640EA0000000757
B1601495610283N00907524EA0000000755
B1601555610202N00907419EA0000000761
B1602035610086N00907259EA0000000738
B1602085610015N00907147EA0000000736
B1602145609936N00907011EA0000000727
B1602205609862N00906860EA0000000736
B1602255609801N00906760EA0000000748
B1602325609721N00906643EA0000000754
B1602385609670N00906514EA0000000756
B1602435609614N00906420EA0000000763
B1602515609605N00906237EA0000000764
B1602565609664N00906222EA0000000772
B1603025609679N00906312EA0000000784
B1603075609632N00906369EA0000000785
B1603125609565N00906324EA0000000795
B1603195609547N00906154EA0000000804
B1603255609605N00906078EA0000000805
B1603305609650N00906121EA0000000812
B1603355609646N00906201EA0000000818
B1603405609595N00906250EA0000000824
B1603455609532N00906239EA0000000825
B1603505609475N00906155EA0000000824
B1603555609467N00906024EA0000000832
B1604015609527N00905965EA0000000827
B1604085609544N00906062EA0000000835
B1604135609488N00906102EA0000000845
B1604185609436N00906124EA0000000842
B1604245609351N00906067EA0000000833
B1604305609279N00905963EA0000000840
B1604365609210N00905861EA0000000839
B1604425609134N00905779EA0000000833
B1604485609055N00905687EA0000000837
B1604535608996N00905587EA0000000832
B1604585608945N00905481EA0000000846
B1605035608894N00905390EA0000000848
B1605085608838N00905295EA0000000850
B1605135608789N00905197EA0000000851
B1605185608740N00905090EA0000000848
B1605255608669N00904944EA0000000854
B1605325608589N00904812EA0000000847
B1605395608503N00904681EA0000000848
B1605445608443N00904593EA0000000845
B1605495608371N00904505EA0000000834
B1605545608295N00904413EA0000000837
B1606005608208N00904316EA0000000833
B1606055608127N00904244EA0000000831
B1606105608049N00904179EA0000000844
B1606155607978N00904111EA0000000838
B1606235607856N00903973EA0000000823
B1606285607782N00903877EA0000000815
B1606345607687N00903760EA0000000794
B1606405607587N00903636EA0000000778
B1606455607504N00903522EA0000000762
B1606505607426N00903407EA0000000773
B1606555607354N00903293EA0000000764
B1607005607283N00903178EA0000000761
B1607065607196N00903034EA0000000748
B1607145607069N00902849EA0000000740
B1607205606968N00902725EA0000000735
B1607265606870N00902599EA0000000738
B1607315606794N00902502EA0000000751
B1607365606724N00902424EA0000000771
B1607415606662N00902394EA0000000775
B1607465606634N00902468EA0000000766
B1607515606680N00902494EA0000000758
B1607565606720N00902389EA0000000759
B1608025606719N00902227EA0000000773
B1608075606713N00902101EA0000000772
B1608125606672N00901990EA0000000763
B1608195606574N00901913EA0000000753
B1608245606499N00901862EA0000000739
B1608295606417N00901808EA0000000725
B1608345606333N00901757EA0000000721
B1608395606251N00901702EA0000000724
B1608465606155N00901645EA0000000757
B1608515606109N00901545EA0000000753
B1608565606138N00901422EA0000000768
B1609015606197N00901426EA0000000778
B1609065606201N00901505EA0000000791
B1609125606129N00901546EA0000000800
B1609175606066N00901471EA0000000813
B1609225606053N00901337EA0000000821
B1609275606096N00901237EA0000000835
B1609325606150N00901238EA0000000843
B1609375606158N00901314EA0000000854
B1609425606105N00901356EA0000000861
B1609475606038N00901302EA0000000874
B1609525606016N00901167EA0000000883
B1609575606052N00901067EA0000000893
B1610025606109N00901062EA0000000899
B1610075606128N00901129EA0000000912
B1610125606091N00901194EA0000000920
B1610185606011N00901178EA0000000929
B1610235605963N00901070EA0000000939
B1610295605988N00900924EA0000000948
B1610345606048N00900905EA0000000949
B1610395606081N00900974EA0000000959
B1610445606055N00901053EA0000000970
B1610505605973N00901052EA0000000985
B1610555605917N00900973EA0000000996
B1611005605911N00900845EA0000000997
B1611065605974N00900775EA0000001006
B1611115606009N00900834EA0000001011
B1611165605989N00900915EA0000001019
B1611225605917N00900945EA0000001033
B1611285605843N00900938EA0000001042
B1611335605791N00900849EA0000001037
B1611385605796N00900720EA0000001047
B1611435605842N00900655EA0000001055
B1611485605891N00900674EA0000001059
B1611535605929N00900730EA0000001067
B1611585605950N00900801EA0000001072
B1612035605927N00900881EA0000001072
B1612085605865N00900908EA0000001076
B1612165605755N00900846EA0000001088
B1612215605702N00900761EA0000001082
B1612265605706N00900636EA0000001081
B1612315605759N00900570EA0000001081
B1612365605810N00900579EA0000001096
B1612425605835N00900664EA0000001102
B1612475605821N00900740EA0000001112
B1612555605747N00900823EA0000001115
B1613005605681N00900797EA0000001118
B1613055605627N00900716EA0000001117
B1613105605574N00900625EA0000001107
B1613155605507N00900535EA0000001083
B1613205605419N00900496EA0000001077
B1613265605316N00900473EA0000001074
B1613325605214N00900449EA0000001065
B1613405605072N00900414EA0000001040
B1613465604957N00900383EA0000001030
B1613525604837N00900351EA0000001013
B1613595604696N00900331EA0000001006
B1614045604595N00900319EA0000001003
B1614095604497N00900293EA0000001000
B1614185604313N00900268EA0000000974
B1614235604208N00900263EA0000000968
B1614295604086N00900263EA0000000959
B1614395603876N00900262EA0000000940
B1614465603728N00900252EA0000000933
B1614515603628N00900232EA0000000932
B1614565603527N00900220EA0000000923
B1615025603409N00900206EA0000000920
B1615075603311N00900196EA0000000911
B1615135603192N00900190EA0000000907
B1615225603017N00900174EA0000000897
B1615295602880N00900155EA0000000891
B1615365602745N00900134EA0000000873
B1615445602589N00900132EA0000000855
B1615525602437N00900132EA0000000843
B1615575602343N00900137EA0000000840
B1616045602223N00900161EA0000000845
B1616095602142N00900182EA0000000840
B1616155602040N00900204EA0000000828
B1616215601935N00900229EA0000000814
B1616265601844N00900260EA0000000804
B1616325601740N00900289EA0000000809
B1616385601641N00900306EA0000000802
B1616495601453N00900333EA0000000790
B1616555601353N00900337EA0000000790
B1617015601253N00900315EA0000000783
B1617065601167N00900268EA0000000779
B1617115601084N00900203EA0000000775
B1617165601004N00900134EA0000000772
B1617215600918N00900117EA0000000763
B1617275600812N00900162EA0000000745
B1617325600729N00900195EA0000000749
B1617385600635N00900240EA0000000731
B1617465600498N00900304EA0000000721
B1617515600421N00900350EA0000000728
B1617585600327N00900418EA0000000717
B1618035600260N00900479EA0000000704
B1618095600204N00900606EA0000000692
B1618165600160N00900778EA0000000684
B1618235600126N00900956EA0000000686
B1618315600089N00901171EA0000000677
B1618365600070N00901312EA0000000673
B1618415600054N00901455EA0000000665
B1618465600041N00901604EA0000000653
B1618535600030N00901815EA0000000644
B1619015600022N00902050EA0000000634
B1619085600029N00902251EA0000000626
B1619145600039N00902419EA0000000614
B1619205600054N00902596EA0000000597
B1619265600069N00902773EA0000000594
B1619315600082N00902918EA0000000586
B1619375600097N00903093EA0000000576
B1619425600107N00903237EA0000000572
B1619545600126N00903578EA0000000549
B1620015600132N00903779EA0000000540
B1620105600135N00904043EA0000000521
B1620165600138N00904220EA0000000511
B1620235600141N00904430EA0000000498
B1620285600139N00904580EA0000000490
B1620355600132N00904794EA0000000483
B1620405600126N00904946EA0000000490
B1620465600119N00905078EA0000000518
B1620535600115N00905210EA0000000519
B1620585600121N00905303EA0000000518
B1621065600159N00905446EA0000000517
B1621145600198N00905589EA0000000521
B1621195600192N00905694EA0000000522
B1621245600130N00905718EA0000000535
B1621295600084N00905621EA0000000539
B1621345600087N00905476EA0000000545
B1621395600139N00905374EA0000000552
B1621445600198N00905332EA0000000568
B1621505600269N00905351EA0000000570
B1621555600329N00905361EA0000000562
B1622005600406N00905387EA0000000549
B1622055600479N00905423EA0000000568
B1622105600545N00905461EA0000000563
B1622155600619N00905465EA0000000547
B1622205600697N00905433EA0000000534
B1622265600791N00905407EA0000000533
B1622325600871N00905418EA0000000534
B1622375600937N00905431EA0000000526
B1622435601025N00905402EA0000000513
B1622505601136N00905365EA0000000507
B1622555601210N00905358EA0000000518
B1623005601270N00905362EA0000000532
B1623065601336N00905340EA0000000537
B1623115601372N00905399EA0000000537
B1623165601341N00905480EA0000000544
B1623215601283N00905461EA0000000559
B1623265601247N00905362EA0000000565
B1623315601265N00905237EA0000000569
B1623365601322N00905205EA0000000581
B1623415601351N00905270EA0000000586
B1623485601347N00905387EA0000000590
B1623535601314N00905454EA0000000602
B1623585601270N00905495EA0000000611
B1624045601202N00905491EA0000000621
B1624105601147N00905386EA0000000632
B1624155601147N00905257EA0000000637
B1624215601215N00905198EA0000000646
B1624265601238N00905278EA0000000653
B1624315601207N00905355EA0000000667
B1624365601172N00905415EA0000000679
B1624415601119N00905431EA0000000680
B1624465601074N00905337EA0000000686
B1624515601089N00905207EA0000000684
B1624565601143N00905135EA0000000695
B1625015601193N00905166EA0000000701
B1625075601186N00905261EA0000000718
B1625125601170N00905326EA0000000726
B1625175601129N00905374EA0000000725
B1625225601068N00905321EA0000000732
B1625275601055N00905193EA0000000739
B1625325601100N00905102EA0000000736
B1625375601154N00905113EA0000000744
B1625435601165N00905205EA0000000752
B1625485601158N00905275EA0000000761
B1625535601117N00905317EA0000000766
B1625585601057N00905278EA0000000765
B1626035601024N00905157EA0000000769
B1626085601051N00905039EA0000000769
B1626135601106N00905028EA0000000769
B1626185601134N00905102EA0000000776
B1626245601151N00905195EA0000000789
B1626315601155N00905308EA0000000800
B1626365601113N00905365EA0000000794
B1626415601051N00905300EA0000000795
B1626465601046N00905158EA0000000798
B1626515601098N00905059EA0000000803
B1626585601183N00904999EA0000000821
B1627035601236N00904951EA0000000820
B1627095601306N00904976EA0000000815
B1627145601361N00905010EA0000000815
B1627195601420N00905047EA0000000798
B1627245601492N00905079EA0000000786
B1627315601596N00905117EA0000000772
B1627385601702N00905144EA0000000752
B1627435601783N00905159EA0000000738
B1627505601897N00905149EA0000000737
B1627565601988N00905118EA0000000732
B1628015602067N00905076EA0000000723
B1628065602150N00905043EA0000000716
B1628125602247N00905018EA0000000723
B1628215602393N00905016EA0000000715
B1628265602470N00905041EA0000000712
B1628325602558N00905081EA0000000707
B1628375602634N00905112EA0000000702
B1628435602731N00905132EA0000000694
B1628485602814N00905147EA0000000694
B1628565602936N00905174EA0000000695
B1629015603010N00905202EA0000000695
B1629075603095N00905224EA0000000711
B1629125603161N00905243EA0000000718
B1629175603222N00905283EA0000000722
B1629235603294N00905328EA0000000730
B1629295603342N00905402EA0000000749
B1629375603383N00905506EA0000000762
B1629425603403N00905585EA0000000759
B1629475603433N00905663EA0000000765
B1629545603480N00905774EA0000000759
B1630005603518N00905874EA0000000795
B1630055603501N00905947EA0000000797
B1630105603440N00905889EA0000000811
B1630155603455N00905776EA0000000830
B1630215603525N00905749EA0000000845
B1630265603558N00905809EA0000000862
B1630315603530N00905886EA0000000862
B1630365603466N00905859EA0000000882
B1630415603458N00905733EA0000000890
B1630465603514N00905682EA0000000906
B1630515603556N00905737EA0000000921
B1630565603556N00905827EA0000000919
B1631015603502N00905880EA0000000915
B1631065603435N00905837EA0000000934
B1631115603379N00905788EA0000000949
B1631165603331N00905708EA0000000948
B1631225603348N00905570EA0000000958
B1631275603408N00905562EA0000000959
B1631325603421N00905654EA0000000976
B1631385603346N00905667EA0000000987
B1631435603314N00905544EA0000000994
B1631485603345N00905435EA0000001007
B1631535603405N00905425EA0000001014
B1631585603441N00905496EA0000001033
B1632035603428N00905581EA0000001048
B1632085603374N00905621EA0000001056
B1632135603312N00905564EA0000001064
B1632185603293N00905435EA0000001069
B1632235603328N00905336EA0000001081
B1632285603386N00905309EA0000001089
B1632355603463N00905315EA0000001113
B1632405603506N00905362EA0000001118
B1632455603510N00905450EA0000001119
B1632505603483N00905537EA0000001108
B1632555603514N00905639EA0000001091
B1633025603567N00905790EA0000001076
B1633115603634N00906000EA0000001067
B1633165603672N00906114EA0000001062
B1633215603712N00906230EA0000001058
B1633265603752N00906341EA0000001057
B1633325603801N00906476EA0000001049
B1633405603864N00906661EA0000001047
B1633465603908N00906798EA0000001042
B1633525603955N00906938EA0000001033
B1634005604019N00907125EA0000001027
B1634075604076N00907286EA0000001019
B1634135604125N00907422EA0000001017
B1634245604202N00907665EA0000001017
B1634315604254N00907817EA0000001010
B1634405604323N00908018EA0000001002
B1634455604360N00908131EA0000000997
B1634515604405N00908266EA0000000991
B1634585604463N00908416EA0000000986
B1635035604505N00908519EA0000000983
B1635085604547N00908622EA0000000980
B1635175604616N00908814EA0000000976
B1635235604662N00908939EA0000000971
B1635285604702N00909044EA0000000969
B1635355604757N00909190EA0000000964
B1635415604806N00909312EA0000000959
B1635475604855N00909433EA0000000951
B1635555604921N00909600EA0000000947
B1636045604980N00909793EA0000000947
B1636145605047N00910012EA0000000941
B1636235605109N00910203EA0000000938
B1636315605166N00910372EA0000000933
B1636435605249N00910627EA0000000923
B1636495605293N00910763EA0000000906
B1636595605362N00911000EA0000000905
B1637065605415N00911170EA0000000899
B1637115605448N00911289EA0000000898
B1637235605524N00911578EA0000000877
B1637285605560N00911693EA0000000874
B1637365605628N00911858EA0000000861
B1637415605651N00911959EA0000000873
B1637465605585N00911933EA0000000857
B1637525605510N00911757EA0000000833
B1637585605429N00911579EA0000000833
B1638055605343N00911362EA0000000803
B1638125605248N00911130EA0000000794
B1638185605168N00910960EA0000000800
B1638255605074N00910778EA0000000791
B1638315604992N00910621EA0000000784
B1638385604902N00910437EA0000000777
B1638455604814N00910259EA0000000768
B1638545604698N00910031EA0000000749
B1639015604607N00909844EA0000000737
B1639085604518N00909650EA0000000728
B1639145604442N00909474EA0000000717
B1639205604361N00909298EA0000000707
B1639275604264N00909093EA0000000692
B1639335604180N00908915EA0000000681
B1639385604109N00908768EA0000000677
B1639445604025N00908592EA0000000672
B1639495603954N00908448EA0000000673
B1639555603867N00908277EA0000000673
B1640015603779N00908103EA0000000658
B1640075603688N00907922EA0000000646
B1640125603615N00907770EA0000000643
B1640175603544N00907615EA0000000635
B1640245603443N00907399EA0000000623
B1640315603344N00907188EA0000000615
B1640385603240N00906980EA0000000603
B1640435603166N00906833EA0000000600
B1640485603091N00906686EA0000000591
B1641015602883N00906316EA0000000570
B1641075602777N00906141EA0000000549
B1641135602678N00905946EA0000000542
B1641185602594N00905789EA0000000538
B1641305602385N00905433EA0000000513
B1641355602300N00905277EA0000000502
B1641425602179N00905068EA0000000505
B1641475602092N00904926EA0000000479
B1641525601998N00904787EA0000000486
B1641575601903N00904648EA0000000455
B1642025601804N00904495EA0000000443
B1642075601707N00904336EA0000000421
B1642165601520N00904011EA0000000373
B1642225601395N00903790EA0000000366
B1642295601258N00903525EA0000000351
B1642345601164N00903325EA0000000331
B1642415601033N00903032EA0000000304
B1642475600923N00902775EA0000000285
B1642545600794N00902474EA0000000262
B1643015600678N00902161EA0000000248
B1643065600605N00901932EA0000000241
B1643115600523N00901714EA0000000221
B1643165600439N00901498EA0000000209
B1643215600372N00901263EA0000000193
B1643265600336N00901013EA0000000192
B1643315600345N00900772EA0000000192
B1643385600327N00900469EA0000000212
B1643435600295N00900288EA0000000199
B1643485600269N00900120EA0000000174
B1643545600244N00859916EA0000000157
B1643595600259N00859742EA0000000150
B1644045600330N00859640EA0000000142
B1644095600412N00859610EA0000000142
B1644155600499N00859632EA0000000138
B1644215600552N00859711EA0000000139
B1644265600567N00859796EA0000000137
B1644355600573N00859958EA0000000125
B1644445600582N00900126EA0000000112
B1644495600586N00900222EA0000000107
B1644575600590N00900381EA0000000090
B1645045600595N00900518EA0000000073
B1645115600598N00900656EA0000000056
B1645185600599N00900803EA0000000043
B1645325600598N00901054EA0000000038
