AOGNOGN
HFDTE170725
HFFXA050
HFPLTPILOTINCHARGE:
HFGTYGLIDERTYPE:HK36 Super Dimona
HFGIDGLIDERID:OY-XZS
HFDTM100GPSDATUM:WGS-1984
HFRFWFIRMWAREVERSION:
HFRHWHARDWAREVERSION:
HFFTYFRTYPE:OGN-FLIGHTBOOK
HFGPSGENERIC
HFPRSPRESSALTSENSOR:
HFCIDCOMPETITIONID:ZS
B0734475611177N00902329EA0000000053
B0734535611173N00902463EA0000000059
B0734535611173N00902463EA0000000059
B0735005611165N00902659EA0000000080
B0735415611007N00903854EA0000000253
B0735595610647N00903879EA0000000310
B0736375609809N00903533EA0000000407
B0736445609626N00903420EA0000000401
B0736525609413N00903285EA0000000401
B0737005609204N00903146EA0000000402
B0737055609074N00903049EA0000000399
B0737115608924N00902923EA0000000395
B0737165608799N00902817EA0000000395
B0737245608590N00902679EA0000000386
B0737295608455N00902607EA0000000382
B0737345608320N00902531EA0000000378
B0737395608186N00902458EA0000000379
B0737455608028N00902369EA0000000378
B0737525607841N00902250EA0000000367
B0737585607678N00902150EA0000000364
B0738035607546N00902058EA0000000364
B0738135607288N00901862EA0000000364
B0738205607108N00901728EA0000000367
B0738255606982N00901629EA0000000365
B0738315606831N00901506EA0000000361
B0738415606576N00901307EA0000000360
B0738465606450N00901206EA0000000358
B0738515606322N00901104EA0000000354
B0738585606145N00900952EA0000000352
B0739075605918N00900777EA0000000358
B0739145605742N00900658EA0000000360
B0739205605589N00900566EA0000000363
B0739275605409N00900484EA0000000367
B0739325605280N00900427EA0000000368
B0739405605074N00900333EA0000000372
B0739455604945N00900280EA0000000375
B0739525604761N00900218EA0000000373
B0739575604626N00900182EA0000000374
B0740075604360N00900117EA0000000383
B0740185604070N00900048EA0000000385
B0740245603910N00900014EA0000000387
B0740345603642N00859980EA0000000389
B0740395603510N00859982EA0000000392
B0740445603378N00859997EA0000000394
B0740515603195N00900027EA0000000398
B0741005602958N00900081EA0000000396
B0741105602689N00900150EA0000000394
B0741195602444N00900211EA0000000395
B0741265602255N00900261EA0000000398
B0741315602119N00900294EA0000000402
B0741445601768N00900372EA0000000406
B0741525601548N00900420EA0000000405
B0742015601299N00900473EA0000000405
B0742175600850N00900572EA0000000404
B0742225600708N00900599EA0000000400
B0742285600534N00900632EA0000000396
B0742345600373N00900702EA0000000390
B0742395600267N00900825EA0000000377
B0742445600196N00900994EA0000000361
B0742515600158N00901259EA0000000341
B0743005600154N00901590EA0000000319
B0743095600171N00901910EA0000000291
B0743155600184N00902129EA0000000269
B0743205600198N00902314EA0000000252
B0743255600216N00902496EA0000000239
B0743315600287N00902639EA0000000223
B0743385600412N00902620EA0000000199
B0743485600581N00902534EA0000000174
B0743545600679N00902476EA0000000161
B0744025600764N00902288EA0000000139
B0744075600764N00902118EA0000000125
B0744145600737N00901887EA0000000095
B0744245600708N00901558EA0000000049
B0744305600693N00901384EA0000000041
B0744365600682N00901257EA0000000040
