AOGNOGN
HFDTE170725
HFFXA050
HFPLTPILOTINCHARGE:
HFGTYGLIDERTYPE:PA-18 Super Cub
HFGIDGLIDERID:OY-RPY
HFDTM100GPSDATUM:WGS-1984
HFRFWFIRMWAREVERSION:
HFRHWHARDWAREVERSION:
HFFTYFRTYPE:OGN-FLIGHTBOOK
HFGPSGENERIC
HFPRSPRESSALTSENSOR:
HFCIDCOMPETITIONID:PY
B1040585600618N00900604EA0000000042
B1041005600622N00900635EA0000000043
B1041065600636N00900751EA0000000043
B1041115600649N00900869EA0000000044
B1041175600662N00901033EA0000000048
B1041245600679N00901236EA0000000069
B1041315600691N00901426EA0000000092
B1041435600732N00901741EA0000000116
B1041495600753N00901906EA0000000126
B1041545600774N00902043EA0000000137
B1041595600795N00902175EA0000000154
B1042045600811N00902304EA0000000162
B1042115600832N00902494EA0000000165
B1042185600877N00902677EA0000000174
B1042235600939N00902763EA0000000189
B1042295601033N00902786EA0000000207
B1042345601110N00902743EA0000000215
B1042425601213N00902582EA0000000231
B1042485601262N00902392EA0000000242
B1042545601288N00902175EA0000000254
B1043015601281N00901909EA0000000272
B1043075601252N00901682EA0000000285
B1043135601209N00901458EA0000000301
B1043225601128N00901129EA0000000322
B1043285601062N00900923EA0000000337
B1043335600991N00900775EA0000000351
B1043385600896N00900691EA0000000362
B1043435600791N00900680EA0000000370
B1043485600696N00900731EA0000000377
B1043555600605N00900887EA0000000385
B1044015600568N00901054EA0000000392
B1044065600544N00901193EA0000000402
B1044115600520N00901328EA0000000414
B1044165600503N00901461EA0000000425
B1044215600504N00901592EA0000000430
B1044265600526N00901714EA0000000434
B1044325600563N00901853EA0000000441
B1044375600597N00901965EA0000000448
B1044425600637N00902075EA0000000456
B1044475600680N00902187EA0000000468
B1044535600730N00902315EA0000000486
B1045005600788N00902461EA0000000502
B1045065600839N00902583EA0000000515
B1045135600906N00902723EA0000000539
B1045185600955N00902813EA0000000562
B1045245601010N00902922EA0000000573
B1045305601059N00903047EA0000000576
B1045355601081N00903177EA0000000581
B1045415601091N00903339EA0000000602
B1045465601088N00903478EA0000000615
B1045515601016N00903606EA0000000599
B1045565600895N00903664EA0000000565
B1046015600752N00903607EA0000000525
B1046065600636N00903426EA0000000507
B1046115600586N00903173EA0000000470
B1046165600607N00902917EA0000000433
B1046225600683N00902665EA0000000411
B1046275600754N00902481EA0000000393
B1046325600829N00902309EA0000000369
B1046385600921N00902109EA0000000345
B1046455601011N00901848EA0000000316
B1046515601065N00901605EA0000000289
B1046565601100N00901391EA0000000267
B1047025601117N00901124EA0000000246
B1047095601115N00900810EA0000000222
B1047165601079N00900500EA0000000211
B1047225601026N00900259EA0000000204
B1047285600953N00900052EA0000000188
B1047335600881N00859901EA0000000173
B1047385600788N00859827EA0000000161
B1047455600659N00859887EA0000000139
B1047505600602N00859997EA0000000115
B1047575600620N00900185EA0000000086
B1048025600632N00900311EA0000000072
B1048075600637N00900434EA0000000053
B1048145600644N00900590EA0000000039
B1048215600649N00900704EA0000000040
