AOGNOGN
HFDTE170725
HFFXA050
HFPLTPILOTINCHARGE:
HFGTYGLIDERTYPE:PA-18 Super Cub
HFGIDGLIDERID:OY-RPY
HFDTM100GPSDATUM:WGS-1984
HFRFWFIRMWAREVERSION:
HFRHWHARDWAREVERSION:
HFFTYFRTYPE:OGN-FLIGHTBOOK
HFGPSGENERIC
HFPRSPRESSALTSENSOR:
HFCIDCOMPETITIONID:PY
B1051485600623N00900584EA0000000043
B1051525600630N00900662EA0000000044
B1051585600644N00900813EA0000000045
B1052035600656N00900958EA0000000059
B1052105600664N00901152EA0000000088
B1052155600676N00901279EA0000000107
B1052215600697N00901429EA0000000129
B1052305600722N00901657EA0000000154
B1052355600733N00901790EA0000000171
B1052405600747N00901927EA0000000189
B1052465600763N00902103EA0000000216
B1052545600786N00902326EA0000000259
B1052595600798N00902464EA0000000285
B1053045600807N00902596EA0000000309
B1053105600815N00902745EA0000000337
B1053195600837N00902954EA0000000364
B1053245600852N00903071EA0000000383
B1053305600882N00903196EA0000000399
B1053365600932N00903296EA0000000406
B1053415600998N00903327EA0000000411
B1053465601073N00903271EA0000000420
B1053525601140N00903095EA0000000436
B1053575601176N00902912EA0000000463
B1054025601190N00902727EA0000000495
B1054075601177N00902544EA0000000515
B1054145601119N00902295EA0000000533
B1054195601062N00902113EA0000000535
B1054275601044N00901767EA0000000496
B1054325601051N00901539EA0000000464
B1054375601067N00901309EA0000000422
B1054425601101N00901077EA0000000388
B1054475601169N00900891EA0000000364
B1054525601270N00900804EA0000000333
B1054575601376N00900758EA0000000311
B1055035601484N00900622EA0000000292
B1055085601511N00900419EA0000000273
B1055135601436N00900236EA0000000250
B1055185601313N00900182EA0000000227
B1055255601144N00900180EA0000000201
B1055305601032N00900114EA0000000176
B1055355600934N00859996EA0000000160
B1055405600842N00859901EA0000000148
B1055455600745N00859889EA0000000122
B1055505600678N00859994EA0000000094
B1055555600656N00900137EA0000000077
B1056005600646N00900268EA0000000059
B1056095600645N00900488EA0000000040
B1056155600649N00900597EA0000000040
