AOGNOGN
HFDTE240825
HFFXA050
HFPLTPILOTINCHARGE:
HFGTYGLIDERTYPE:EuroFox
HFGIDGLIDERID:OY-9448
HFDTM100GPSDATUM:WGS-1984
HFRFWFIRMWAREVERSION:
HFRHWHARDWAREVERSION:
HFFTYFRTYPE:OGN-FLIGHTBOOK
HFGPSGENERIC
HFPRSPRESSALTSENSOR:
HFCIDCOMPETITIONID:
B0906015624556N00924759EA0000000035
B0906055624569N00924696EA0000000035
B0906135624603N00924538EA0000000038
B0906185624626N00924426EA0000000050
B0906235624644N00924319EA0000000062
B0906305624662N00924163EA0000000076
B0906395624687N00923965EA0000000100
B0906455624707N00923840EA0000000109
B0906525624743N00923701EA0000000115
B0906585624790N00923588EA0000000126
B0907045624842N00923486EA0000000132
B0907115624912N00923376EA0000000147
B0907175624975N00923286EA0000000162
B0907235625032N00923183EA0000000188
B0907305625101N00923077EA0000000203
B0907365625162N00922997EA0000000204
B0907415625215N00922936EA0000000211
B0907525625328N00922803EA0000000208
B0908005625416N00922713EA0000000214
B0908085625505N00922627EA0000000223
B0908155625582N00922542EA0000000235
B0908205625638N00922469EA0000000243
B0908255625697N00922396EA0000000257
B0908315625763N00922323EA0000000283
B0908375625827N00922262EA0000000294
B0908455625912N00922171EA0000000311
B0908505625965N00922113EA0000000316
B0908575626038N00922025EA0000000325
B0909035626103N00921951EA0000000342
B0909125626200N00921847EA0000000376
B0909265626338N00921670EA0000000410
B0909315626387N00921611EA0000000418
B0909375626446N00921539EA0000000423
B0909445626515N00921455EA0000000434
B0910025626683N00921208EA0000000453
B0910085626716N00921092EA0000000458
B0910135626719N00920981EA0000000467
B0910205626681N00920833EA0000000471
B0910295626574N00920692EA0000000482
B0910355626479N00920650EA0000000484
B0910445626316N00920634EA0000000489
B0910555626114N00920635EA0000000500
B0911015626005N00920645EA0000000514
B0911075625898N00920663EA0000000537
B0911155625757N00920707EA0000000557
B0911205625668N00920756EA0000000570
B0911295625514N00920943EA0000000575
B0911365625433N00921180EA0000000588
B0911415625384N00921378EA0000000589
B0911465625307N00921564EA0000000571
B0911525625199N00921763EA0000000555
B0911585625095N00921938EA0000000541
B0912085624929N00922204EA0000000515
B0912135624849N00922339EA0000000500
B0912185624773N00922476EA0000000479
B0912235624703N00922625EA0000000454
B0912285624636N00922782EA0000000431
B0912375624522N00923080EA0000000391
B0912475624408N00923424EA0000000344
B0912525624359N00923603EA0000000322
B0913015624273N00923918EA0000000285
B0913085624208N00924152EA0000000260
B0913155624147N00924384EA0000000235
B0913205624109N00924551EA0000000218
B0913275624059N00924791EA0000000199
B0913325624029N00924965EA0000000191
B0913385624005N00925180EA0000000181
B0913445624013N00925392EA0000000169
B0913515624073N00925601EA0000000158
B0913565624141N00925698EA0000000153
B0914025624229N00925736EA0000000149
B0914105624326N00925679EA0000000141
B0914165624373N00925581EA0000000124
B0914265624422N00925372EA0000000087
B0914335624456N00925231EA0000000067
B0914395624481N00925113EA0000000048
B0914465624508N00924979EA0000000037
B0914515624527N00924893EA0000000028
B0914585624546N00924798EA0000000026
