AOGNOGN
HFDTE240825
HFFXA050
HFPLTPILOTINCHARGE:
HFGTYGLIDERTYPE:Ventus 2
HFGIDGLIDERID:D-5885
HFDTM100GPSDATUM:WGS-1984
HFRFWFIRMWAREVERSION:
HFRHWHARDWAREVERSION:
HFFTYFRTYPE:OGN-FLIGHTBOOK
HFGPSGENERIC
HFPRSPRESSALTSENSOR:
HFCIDCOMPETITIONID:8X
B1124575624540N00924827EA0000000023
B1125005624550N00924778EA0000000024
B1125095624593N00924572EA0000000027
B1125165624632N00924400EA0000000056
B1125215624656N00924288EA0000000081
B1125365624718N00923975EA0000000133
B1125415624742N00923862EA0000000153
B1125485624770N00923724EA0000000179
B1125535624791N00923625EA0000000186
B1125585624814N00923519EA0000000195
B1126035624839N00923409EA0000000213
B1126085624862N00923298EA0000000233
B1126135624884N00923191EA0000000248
B1126205624915N00923055EA0000000276
B1126265624938N00922935EA0000000291
B1126325624958N00922816EA0000000306
B1126415624987N00922644EA0000000329
B1126495625011N00922490EA0000000354
B1126565625027N00922349EA0000000383
B1127015625036N00922242EA0000000405
B1127075625049N00922101EA0000000430
B1127175625062N00921875EA0000000467
B1127225625069N00921765EA0000000478
B1127285625077N00921635EA0000000499
B1127335625087N00921520EA0000000506
B1127395625103N00921383EA0000000522
B1127445625122N00921271EA0000000529
B1127495625142N00921163EA0000000544
B1127555625173N00921037EA0000000559
B1128015625204N00920914EA0000000569
B1128065625229N00920809EA0000000577
B1128165625286N00920597EA0000000600
B1128215625316N00920493EA0000000616
B1128265625339N00920395EA0000000636
B1128325625309N00920283EA0000000629
B1128385625224N00920203EA0000000604
B1128435625129N00920215EA0000000607
B1128485625049N00920313EA0000000608
B1128555624981N00920530EA0000000594
B1129025624923N00920764EA0000000590
B1129085624859N00920943EA0000000590
B1129185624756N00921251EA0000000570
B1129235624699N00921388EA0000000578
B1129305624621N00921576EA0000000567
B1129365624547N00921738EA0000000566
B1129425624457N00921847EA0000000580
B1129495624354N00921855EA0000000584
B1129555624299N00921768EA0000000582
B1130015624293N00921650EA0000000580
B1130065624334N00921597EA0000000585
B1130115624393N00921632EA0000000587
B1130165624439N00921741EA0000000589
B1130215624455N00921889EA0000000593
B1130265624426N00922034EA0000000601
B1130315624353N00922094EA0000000600
B1130385624284N00922009EA0000000605
B1130455624317N00921909EA0000000605
B1130505624372N00921951EA0000000605
B1130565624412N00922106EA0000000605
B1131015624402N00922258EA0000000613
B1131065624358N00922386EA0000000617
B1131125624279N00922485EA0000000617
B1131205624162N00922497EA0000000612
B1131345624026N00922330EA0000000607
B1131405624032N00922229EA0000000601
B1131455624074N00922181EA0000000590
B1131505624138N00922200EA0000000581
B1131555624203N00922292EA0000000578
B1132005624240N00922440EA0000000581
B1132055624230N00922612EA0000000577
B1132105624181N00922758EA0000000583
B1132165624088N00922825EA0000000578
B1132225624019N00922750EA0000000575
B1132275624012N00922639EA0000000566
B1132325624056N00922566EA0000000563
B1132385624143N00922567EA0000000548
B1132465624279N00922623EA0000000539
B1132515624366N00922663EA0000000541
B1132595624506N00922725EA0000000531
B1133045624600N00922762EA0000000525
B1133095624697N00922797EA0000000518
B1133145624800N00922829EA0000000501
B1133215624946N00922869EA0000000473
B1133285625098N00922913EA0000000452
B1133335625199N00922927EA0000000474
B1133395625307N00922930EA0000000475
B1133455625411N00923005EA0000000473
B1133505625488N00923111EA0000000471
B1133555625573N00923159EA0000000452
B1134015625665N00923114EA0000000442
B1134085625732N00922989EA0000000451
B1134135625755N00922882EA0000000453
B1134195625757N00922738EA0000000450
B1134245625742N00922610EA0000000452
B1134305625719N00922461EA0000000453
B1134365625671N00922327EA0000000457
B1134415625628N00922218EA0000000466
B1134465625559N00922151EA0000000478
B1134515625471N00922175EA0000000486
B1134565625399N00922300EA0000000496
B1135015625369N00922479EA0000000499
B1135065625384N00922669EA0000000499
B1135125625447N00922838EA0000000508
B1135195625548N00922947EA0000000506
B1135285625670N00922925EA0000000512
B1135335625696N00922832EA0000000526
B1135385625667N00922731EA0000000533
B1135455625553N00922693EA0000000540
B1135505625480N00922808EA0000000558
B1135555625450N00922980EA0000000559
B1136015625481N00923183EA0000000558
B1136065625546N00923271EA0000000558
B1136115625614N00923267EA0000000558
B1136285625508N00923093EA0000000571
B1136365625415N00923320EA0000000589
B1136415625435N00923489EA0000000588
B1136475625516N00923597EA0000000584
B1136525625582N00923575EA0000000585
B1136575625617N00923483EA0000000586
B1137025625615N00923364EA0000000581
B1137075625567N00923266EA0000000585
B1137135625474N00923208EA0000000580
B1137185625383N00923218EA0000000590
B1137235625300N00923297EA0000000601
B1137285625256N00923457EA0000000613
B1137335625280N00923624EA0000000618
B1137385625350N00923695EA0000000617
B1137435625408N00923644EA0000000620
B1137485625410N00923530EA0000000619
B1137535625360N00923428EA0000000620
B1137585625282N00923370EA0000000628
B1138035625188N00923377EA0000000629
B1138085625092N00923432EA0000000630
B1138155624967N00923547EA0000000632
B1138205624888N00923669EA0000000625
B1138265624841N00923868EA0000000631
B1138315624851N00924033EA0000000632
B1138385624901N00924225EA0000000631
B1138445624972N00924328EA0000000623
B1138495625040N00924367EA0000000624
B1138565625131N00924369EA0000000634
B1139015625170N00924300EA0000000631
B1139065625157N00924194EA0000000633
B1139125625087N00924111EA0000000650
B1139185624995N00924176EA0000000660
B1139235624965N00924335EA0000000660
B1139285624992N00924489EA0000000665
B1139355625079N00924591EA0000000674
B1139415625143N00924539EA0000000680
B1139465625150N00924440EA0000000681
B1139535625085N00924314EA0000000686
B1139585625002N00924321EA0000000689
B1140035624928N00924426EA0000000686
B1140085624895N00924592EA0000000687
B1140135624917N00924755EA0000000689
B1140185624977N00924853EA0000000698
B1140235625041N00924857EA0000000706
B1140295625072N00924754EA0000000709
B1140345625035N00924662EA0000000711
B1140395624956N00924646EA0000000715
B1140445624877N00924730EA0000000718
B1140505624828N00924911EA0000000721
B1141015624890N00925212EA0000000736
B1141065624953N00925223EA0000000740
B1141115624989N00925144EA0000000743
B1141165624971N00925041EA0000000746
B1141215624914N00924962EA0000000753
B1141285624863N00924810EA0000000748
B1141345624849N00924661EA0000000747
B1141395624843N00924532EA0000000742
B1141445624841N00924398EA0000000738
B1141555624844N00924096EA0000000740
B1142015624852N00923938EA0000000748
B1142095624866N00923737EA0000000752
B1142175624857N00923538EA0000000750
B1142295624821N00923271EA0000000762
B1142345624796N00923161EA0000000745
B1142405624764N00923018EA0000000736
B1142475624736N00922846EA0000000726
B1142535624698N00922701EA0000000723
B1142595624659N00922569EA0000000721
B1143125624595N00922286EA0000000703
B1143185624617N00922157EA0000000694
B1143255624613N00921996EA0000000689
B1143315624604N00921869EA0000000690
B1143365624604N00921761EA0000000688
B1143415624614N00921658EA0000000681
B1143485624630N00921495EA0000000665
B1143575624634N00921284EA0000000665
B1144035624638N00921150EA0000000661
B1144095624644N00921019EA0000000657
B1144185624647N00920822EA0000000661
B1144255624641N00920694EA0000000673
B1144305624680N00920639EA0000000677
B1144355624741N00920664EA0000000677
B1144405624791N00920770EA0000000672
B1144465624811N00920954EA0000000674
B1144515624779N00921101EA0000000674
B1144565624715N00921207EA0000000667
B1145045624591N00921257EA0000000661
B1145115624518N00921174EA0000000657
B1145165624484N00921090EA0000000653
B1145245624475N00920951EA0000000650
B1145325624546N00920867EA0000000652
B1145385624619N00920915EA0000000657
B1145435624677N00921005EA0000000664
B1145485624709N00921143EA0000000669
B1145575624717N00921445EA0000000654
B1146055624752N00921710EA0000000659
B1146125624796N00921950EA0000000640
B1146185624851N00922144EA0000000649
B1146275624929N00922415EA0000000653
B1146325624974N00922557EA0000000653
B1146415625058N00922818EA0000000659
B1146465625103N00922961EA0000000660
B1146525625152N00923123EA0000000661
B1146585625206N00923281EA0000000650
B1147065625284N00923497EA0000000636
B1147125625349N00923660EA0000000621
B1147265625504N00924001EA0000000620
B1147335625590N00924170EA0000000612
B1147395625659N00924318EA0000000608
B1147455625724N00924469EA0000000603
B1147545625823N00924684EA0000000586
B1148005625882N00924838EA0000000589
B1148095625972N00925058EA0000000581
B1148165626050N00925182EA0000000584
B1148225626124N00925250EA0000000580
B1148315626238N00925265EA0000000589
B1148365626302N00925273EA0000000596
B1148415626365N00925346EA0000000605
B1148465626403N00925482EA0000000614
B1148535626369N00925690EA0000000613
B1148585626294N00925776EA0000000604
B1149045626198N00925791EA0000000594
B1149105626119N00925738EA0000000588
B1149155626074N00925662EA0000000591
B1149205626035N00925576EA0000000590
B1149295625973N00925415EA0000000593
B1149385625943N00925257EA0000000586
B1149445625941N00925153EA0000000586
B1149515625971N00925048EA0000000589
B1150025626092N00925097EA0000000604
B1150085626100N00925291EA0000000618
B1150145626031N00925458EA0000000608
B1150195625945N00925505EA0000000605
B1150245625870N00925471EA0000000604
B1150325625815N00925332EA0000000602
B1150375625828N00925243EA0000000601
B1150445625875N00925137EA0000000598
B1150545625998N00925087EA0000000605
B1151015626090N00925202EA0000000613
B1151085626149N00925399EA0000000622
B1151155626155N00925634EA0000000630
B1151205626141N00925804EA0000000631
B1151325626168N00926195EA0000000651
B1151375626123N00926340EA0000000662
B1151425626046N00926396EA0000000670
B1151505625970N00926271EA0000000674
B1151555625994N00926178EA0000000689
B1152075626142N00926244EA0000000694
B1152125626173N00926389EA0000000713
B1152195626136N00926593EA0000000726
B1152265626037N00926705EA0000000731
B1152395625888N00926584EA0000000733
B1152455625898N00926471EA0000000743
B1152505625952N00926430EA0000000749
B1152575626039N00926523EA0000000752
B1153025626066N00926672EA0000000759
B1153075626041N00926829EA0000000772
B1153135625960N00926962EA0000000777
B1153205625842N00926985EA0000000767
B1153265625757N00926917EA0000000774
B1153315625705N00926832EA0000000779
B1153365625676N00926733EA0000000785
B1153435625668N00926595EA0000000799
B1153495625663N00926474EA0000000790
B1153545625650N00926357EA0000000798
B1154035625625N00926144EA0000000815
B1154085625611N00926021EA0000000813
B1154165625591N00925815EA0000000799
B1154265625587N00925563EA0000000790
B1154315625575N00925431EA0000000778
B1154365625562N00925296EA0000000771
B1154455625529N00925051EA0000000772
B1154505625497N00924934EA0000000781
B1154565625451N00924804EA0000000779
B1155035625375N00924673EA0000000790
B1155105625285N00924565EA0000000797
B1155155625243N00924459EA0000000789
B1155205625244N00924339EA0000000784
B1155275625292N00924200EA0000000774
B1155325625334N00924112EA0000000762
B1155375625383N00924029EA0000000744
B1155455625471N00923908EA0000000733
B1155505625523N00923834EA0000000723
B1155575625601N00923734EA0000000712
B1156025625657N00923664EA0000000714
B1156075625709N00923592EA0000000711
B1156145625783N00923473EA0000000703
B1156215625857N00923360EA0000000705
B1156265625914N00923299EA0000000703
B1156355626022N00923205EA0000000692
B1156425626104N00923126EA0000000682
B1156475626161N00923073EA0000000677
B1156545626236N00923000EA0000000676
B1157005626289N00922926EA0000000680
B1157095626359N00922799EA0000000685
B1157205626454N00922677EA0000000693
B1157255626511N00922698EA0000000693
B1157305626560N00922790EA0000000697
B1157395626611N00923043EA0000000707
B1157465626573N00923252EA0000000715
B1157545626455N00923356EA0000000716
B1158005626361N00923357EA0000000716
B1158055626289N00923313EA0000000717
B1158105626231N00923250EA0000000728
B1158155626202N00923162EA0000000736
B1158205626211N00923076EA0000000735
B1158255626256N00923021EA0000000729
B1158305626318N00923028EA0000000732
B1158365626381N00923138EA0000000737
B1158445626389N00923383EA0000000757
B1158495626328N00923496EA0000000757
B1158585626185N00923476EA0000000762
B1159035626160N00923385EA0000000767
B1159085626185N00923304EA0000000761
B1159135626243N00923284EA0000000758
B1159185626304N00923353EA0000000766
B1159245626346N00923507EA0000000783
B1159355626381N00923858EA0000000786
B1159405626411N00924021EA0000000784
B1159455626450N00924174EA0000000777
B1200085626665N00924820EA0000000772
B1200135626723N00924935EA0000000777
B1200195626780N00925100EA0000000785
B1200255626796N00925300EA0000000787
B1200305626765N00925462EA0000000780
B1200395626633N00925655EA0000000764
B1200445626546N00925699EA0000000763
B1200505626441N00925721EA0000000755
B1200565626333N00925751EA0000000743
B1201025626227N00925771EA0000000739
B1201085626122N00925780EA0000000734
B1201155626001N00925783EA0000000727
B1201215625910N00925734EA0000000717
B1201275625842N00925632EA0000000701
B1201395625759N00925368EA0000000683
B1201465625738N00925192EA0000000668
B1201545625742N00924996EA0000000654
B1201595625754N00924881EA0000000652
B1202245625808N00924328EA0000000643
B1202295625826N00924218EA0000000634
B1202355625852N00924080EA0000000616
B1202415625880N00923929EA0000000598
B1202465625905N00923802EA0000000594
B1202515625930N00923683EA0000000591
B1202565625957N00923565EA0000000596
B1203015625984N00923453EA0000000606
B1203065626006N00923340EA0000000612
B1203335626116N00922750EA0000000588
B1203395626153N00922622EA0000000579
B1203455626186N00922495EA0000000580
B1203505626212N00922384EA0000000575
B1203565626243N00922253EA0000000588
B1204025626280N00922133EA0000000591
B1204075626316N00922036EA0000000602
B1204135626368N00921932EA0000000613
B1204195626411N00921823EA0000000627
B1204245626441N00921719EA0000000624
B1204295626478N00921624EA0000000640
B1204355626524N00921518EA0000000633
B1204405626576N00921454EA0000000634
B1204485626677N00921401EA0000000637
B1204535626745N00921396EA0000000634
B1204595626825N00921404EA0000000625
B1205095626939N00921577EA0000000617
B1205155626950N00921763EA0000000622
B1205205626923N00921914EA0000000620
B1205265626848N00922056EA0000000616
B1205315626768N00922149EA0000000610
B1205365626683N00922226EA0000000615
B1205415626598N00922287EA0000000618
B1205465626507N00922339EA0000000606
B1205565626316N00922391EA0000000623
B1206015626220N00922408EA0000000631
B1206115626034N00922440EA0000000634
B1206165625941N00922455EA0000000626
B1206225625830N00922459EA0000000618
B1206315625672N00922455EA0000000610
B1206365625577N00922451EA0000000591
B1206425625458N00922438EA0000000579
B1206535625243N00922426EA0000000572
B1206585625142N00922442EA0000000569
B1207045625024N00922498EA0000000566
B1207255624667N00922921EA0000000559
B1207355624548N00923231EA0000000554
B1207445624524N00923539EA0000000555
B1207515624567N00923759EA0000000547
B1208145624794N00924365EA0000000517
B1208205624861N00924505EA0000000500
B1208285624956N00924690EA0000000485
B1208345625019N00924831EA0000000468
B1208405625078N00924985EA0000000451
B1208455625130N00925117EA0000000444
B1208505625191N00925220EA0000000439
B1208575625288N00925299EA0000000425
B1209035625366N00925290EA0000000410
B1209095625435N00925225EA0000000401
B1209145625482N00925146EA0000000399
B1209205625524N00925027EA0000000405
B1209275625558N00924865EA0000000407
B1209325625573N00924745EA0000000419
B1209375625583N00924617EA0000000422
B1209425625595N00924487EA0000000427
B1209495625605N00924301EA0000000432
B1209555625600N00924132EA0000000422
B1210025625575N00923940EA0000000417
B1210095625521N00923753EA0000000409
B1210205625376N00923518EA0000000388
B1210265625277N00923426EA0000000383
B1210325625164N00923386EA0000000383
B1210375625066N00923418EA0000000385
B1210445624951N00923551EA0000000392
B1210505624891N00923726EA0000000392
B1210595624862N00924050EA0000000381
B1211045624870N00924240EA0000000374
B1211125624928N00924521EA0000000377
B1211215625022N00924804EA0000000374
B1211265625081N00924946EA0000000363
B1211315625152N00925060EA0000000359
B1211365625234N00925130EA0000000357
B1211465625393N00925117EA0000000366
B1211555625509N00924964EA0000000363
B1212005625548N00924839EA0000000358
B1212055625573N00924697EA0000000359
B1212105625595N00924567EA0000000365
B1212175625608N00924390EA0000000352
B1212225625599N00924259EA0000000328
B1212325625516N00924032EA0000000264
B1212495625254N00924192EA0000000255
B1212545625225N00924373EA0000000253
B1212595625206N00924556EA0000000251
B1213045625191N00924740EA0000000239
B1213095625171N00924927EA0000000229
B1213145625150N00925123EA0000000220
B1213205625126N00925361EA0000000213
B1213275625089N00925631EA0000000207
B1213375624942N00925852EA0000000204
B1213445624819N00925929EA0000000194
B1213505624713N00925962EA0000000196
B1213575624588N00926014EA0000000181
B1214025624494N00926012EA0000000172
B1214085624387N00925973EA0000000167
B1214135624328N00925878EA0000000166
B1214205624347N00925707EA0000000155
B1214285624392N00925524EA0000000142
B1214365624431N00925343EA0000000112
B1214435624467N00925183EA0000000084
B1215195624579N00924647EA0000000023
