AOGNOGN
HFDTE240825
HFFXA050
HFPLTPILOTINCHARGE:
HFGTYGLIDERTYPE:Twin Astir II
HFGIDGLIDERID:OY-ZXN
HFDTM100GPSDATUM:WGS-1984
HFRFWFIRMWAREVERSION:
HFRHWHARDWAREVERSION:
HFFTYFRTYPE:OGN-FLIGHTBOOK
HFGPSGENERIC
HFPRSPRESSALTSENSOR:
HFCIDCOMPETITIONID:XN
B0937075624557N00924744EA0000000026
B0937075624557N00924744EA0000000026
B0937155624593N00924583EA0000000026
B0937205624617N00924469EA0000000039
B0937265624644N00924335EA0000000055
B0937315624667N00924221EA0000000068
B0937365624688N00924108EA0000000083
B0937415624707N00923997EA0000000096
B0937505624738N00923821EA0000000126
B0937575624760N00923684EA0000000133
B0938025624789N00923588EA0000000143
B0938085624832N00923473EA0000000155
B0938145624885N00923370EA0000000173
B0938245624961N00923206EA0000000188
B0938295625001N00923124EA0000000202
B0938345625038N00923038EA0000000210
B0938415625092N00922927EA0000000221
B0938475625141N00922817EA0000000225
B0939085625351N00922502EA0000000272
B0941455626927N00921521EA0000000523
B0941505626930N00921706EA0000000532
B0942085626908N00922388EA0000000568
B0949525626184N00924430EA0000000411
B0949595626101N00924339EA0000000396
B0950085626009N00924181EA0000000382
B0950135625975N00924082EA0000000381
B0950205625931N00923944EA0000000368
B0950325625832N00923742EA0000000358
B0950505625723N00923978EA0000000329
B0951055625541N00924174EA0000000300
B0951105625476N00924157EA0000000290
B0951185625536N00924138EA0000000272
B0951245625523N00924331EA0000000263
B0951355625418N00924656EA0000000247
B0951415625353N00924832EA0000000231
B0951485625265N00925029EA0000000226
B0951545625197N00925201EA0000000226
B0952115624995N00925666EA0000000228
B0952165624931N00925783EA0000000227
B0952215624867N00925898EA0000000221
B0952265624800N00926010EA0000000215
B0952375624629N00926149EA0000000202
B0952465624491N00926176EA0000000206
B0952515624427N00926138EA0000000197
B0952595624344N00926032EA0000000175
B0953045624303N00925948EA0000000169
B0953095624298N00925848EA0000000166
B0953235624344N00925581EA0000000135
B0953335624390N00925403EA0000000102
B0953435624434N00925213EA0000000065
B0953495624461N00925089EA0000000050
B0953545624484N00924988EA0000000036
B0954005624510N00924873EA0000000025
B0954065624528N00924790EA0000000023
