AOGNOGN
HFDTE220625
HFFXA050
HFPLTPILOTINCHARGE:
HFGTYGLIDERTYPE:ASK-21
HFGIDGLIDERID:OY-XNX
HFDTM100GPSDATUM:WGS-1984
HFRFWFIRMWAREVERSION:
HFRHWHARDWAREVERSION:
HFFTYFRTYPE:OGN-FLIGHTBOOK
HFGPSGENERIC
HFPRSPRESSALTSENSOR:
HFCIDCOMPETITIONID:NX
B0924435554508N00926510EA0000000095
B0924485554493N00926610EA0000000181
B0924545554485N00926731EA0000000291
B0924595554477N00926844EA0000000376
B0925045554468N00926961EA0000000447
B0925105554460N00927121EA0000000506
B0925185554439N00927336EA0000000532
B0925295554427N00927557EA0000000532
B0925345554430N00927651EA0000000530
B0925395554454N00927744EA0000000527
B0925445554518N00927793EA0000000523
B0925495554588N00927742EA0000000516
B0925555554639N00927608EA0000000508
B0926005554670N00927486EA0000000502
B0926065554709N00927331EA0000000491
B0926165554754N00927052EA0000000479
B0926215554769N00926921EA0000000487
B0926275554775N00926807EA0000000478
B0926325554749N00926687EA0000000453
B0926375554724N00926569EA0000000461
B0926425554738N00926442EA0000000457
B0926475554810N00926368EA0000000452
B0926525554882N00926427EA0000000441
B0927005554926N00926615EA0000000435
B0927075554930N00926771EA0000000432
B0927145554928N00926920EA0000000421
B0927245554913N00927134EA0000000412
B0927315554896N00927275EA0000000404
B0927385554868N00927416EA0000000401
B0927465554826N00927563EA0000000396
B0927515554800N00927656EA0000000394
B0927565554794N00927765EA0000000385
B0928015554850N00927852EA0000000379
B0928065554931N00927820EA0000000373
B0928125554958N00927670EA0000000367
B0928175554911N00927613EA0000000358
B0928225554861N00927653EA0000000351
B0928295554793N00927727EA0000000340
B0928345554739N00927707EA0000000340
B0928395554728N00927589EA0000000336
B0928445554790N00927510EA0000000337
B0928495554843N00927573EA0000000327
B0928545554815N00927644EA0000000318
B0928595554766N00927593EA0000000312
B0929055554779N00927433EA0000000309
B0929105554807N00927289EA0000000303
B0929175554843N00927072EA0000000295
B0929275554889N00926757EA0000000275
B0929325554914N00926589EA0000000266
B0929415554960N00926283EA0000000257
B0929465554971N00926113EA0000000254
B0929515554952N00925957EA0000000253
B0929565554920N00925816EA0000000253
B0930015554868N00925710EA0000000249
B0930075554792N00925617EA0000000244
B0930145554697N00925552EA0000000230
B0930195554638N00925586EA0000000223
B0930275554610N00925777EA0000000206
B0930365554583N00925987EA0000000179
B0930415554568N00926101EA0000000167
B0930465554558N00926218EA0000000153
B0930515554546N00926329EA0000000134
B0930565554533N00926444EA0000000110
B0931035554518N00926602EA0000000091
B0931085554510N00926679EA0000000089
