AOGNOGN
HFDTE220625
HFFXA050
HFPLTPILOTINCHARGE:
HFGTYGLIDERTYPE:ASK-21
HFGIDGLIDERID:OY-XNX
HFDTM100GPSDATUM:WGS-1984
HFRFWFIRMWAREVERSION:
HFRHWHARDWAREVERSION:
HFFTYFRTYPE:OGN-FLIGHTBOOK
HFGPSGENERIC
HFPRSPRESSALTSENSOR:
HFCIDCOMPETITIONID:NX
B1209435554511N00926486EA0000000088
B1209445554507N00926509EA0000000091
B1209495554497N00926628EA0000000163
B1209545554490N00926736EA0000000252
B1209595554480N00926858EA0000000336
B1210045554466N00926993EA0000000408
B1210105554443N00927169EA0000000460
B1210165554420N00927323EA0000000484
B1210255554417N00927541EA0000000470
B1210325554468N00927722EA0000000459
B1210375554535N00927826EA0000000452
B1210515554775N00928005EA0000000438
B1210575554887N00928049EA0000000428
B1211025554985N00928058EA0000000421
B1211095555119N00927998EA0000000407
B1211145555200N00927906EA0000000403
B1211215555279N00927730EA0000000391
B1211265555311N00927589EA0000000384
B1211325555326N00927419EA0000000378
B1211375555326N00927279EA0000000372
B1211465555254N00927114EA0000000363
B1211525555184N00927056EA0000000351
B1211595555096N00926996EA0000000341
B1212055555019N00926947EA0000000335
B1212115554944N00926904EA0000000333
B1212165554883N00926879EA0000000329
B1212245554784N00926860EA0000000317
B1212315554703N00926887EA0000000310
B1212365554695N00926996EA0000000305
B1212415554767N00927073EA0000000295
B1212465554839N00926988EA0000000284
B1212515554861N00926844EA0000000274
B1212585554890N00926633EA0000000263
B1213075554896N00926359EA0000000257
B1213135554872N00926197EA0000000255
B1213225554817N00925980EA0000000244
B1213285554761N00925864EA0000000234
B1213365554664N00925790EA0000000228
B1213435554591N00925861EA0000000218
B1213515554576N00926068EA0000000196
B1213595554561N00926280EA0000000164
B1214055554538N00926430EA0000000138
B1214125554511N00926617EA0000000111
B1214175554495N00926758EA0000000102
B1214235554475N00926925EA0000000093
B1214305554453N00927090EA0000000091
B1214365554434N00927172EA0000000092
