AOGNOGN
HFDTE220625
HFFXA050
HFPLTPILOTINCHARGE:
HFGTYGLIDERTYPE:ASK-21
HFGIDGLIDERID:OY-XNX
HFDTM100GPSDATUM:WGS-1984
HFRFWFIRMWAREVERSION:
HFRHWHARDWAREVERSION:
HFFTYFRTYPE:OGN-FLIGHTBOOK
HFGPSGENERIC
HFPRSPRESSALTSENSOR:
HFCIDCOMPETITIONID:NX
B1036465554510N00926498EA0000000093
B1036485554505N00926546EA0000000112
B1036545554492N00926674EA0000000210
B1037025554469N00926850EA0000000342
B1037085554454N00927001EA0000000407
B1037185554432N00927301EA0000000464
B1037245554421N00927439EA0000000482
B1037305554370N00927479EA0000000472
B1037355554338N00927390EA0000000465
B1037405554372N00927267EA0000000460
B1037455554456N00927209EA0000000452
B1037505554544N00927218EA0000000447
B1037555554629N00927251EA0000000437
B1038025554745N00927322EA0000000425
B1038095554855N00927415EA0000000413
B1038165554957N00927528EA0000000406
B1038215555025N00927614EA0000000405
B1038265555085N00927709EA0000000401
B1038315555109N00927823EA0000000394
B1038365555090N00927917EA0000000386
B1038415555048N00927970EA0000000377
B1038475554977N00927951EA0000000366
B1038525554937N00927856EA0000000368
B1038575554955N00927716EA0000000362
B1039025555031N00927629EA0000000356
B1039075555118N00927589EA0000000349
B1039125555171N00927479EA0000000344
B1039185555175N00927325EA0000000337
B1039245555181N00927173EA0000000329
B1039305555212N00927012EA0000000314
B1039365555250N00926842EA0000000304
B1039415555274N00926696EA0000000300
B1039475555260N00926517EA0000000293
B1039535555240N00926345EA0000000293
B1039595555214N00926177EA0000000281
B1040065555175N00925988EA0000000275
B1040125555106N00925899EA0000000261
B1040205555004N00925813EA0000000257
B1040295554894N00925730EA0000000246
B1040365554804N00925674EA0000000233
B1040425554727N00925624EA0000000225
B1040495554638N00925613EA0000000211
B1040545554613N00925724EA0000000201
B1040595554600N00925851EA0000000181
B1041075554575N00926052EA0000000149
B1041145554559N00926232EA0000000119
B1041215554543N00926411EA0000000091
B1041275554530N00926544EA0000000087
B1041335554520N00926631EA0000000088
