AOGNOGN
HFDTE220625
HFFXA050
HFPLTPILOTINCHARGE:
HFGTYGLIDERTYPE:LS-4
HFGIDGLIDERID:OY-XLM
HFDTM100GPSDATUM:WGS-1984
HFRFWFIRMWAREVERSION:
HFRHWHARDWAREVERSION:
HFFTYFRTYPE:OGN-FLIGHTBOOK
HFGPSGENERIC
HFPRSPRESSALTSENSOR:
HFCIDCOMPETITIONID:N9
B1003185554514N00926470EA0000000087
B1003205554507N00926511EA0000000090
B1003255554495N00926623EA0000000166
B1003305554480N00926721EA0000000231
B1003355554465N00926834EA0000000286
B1003405554443N00926944EA0000000350
B1003465554424N00927101EA0000000403
B1003525554417N00927256EA0000000418
B1003595554407N00927405EA0000000410
B1004045554391N00927521EA0000000396
B1004105554380N00927671EA0000000410
B1004155554438N00927743EA0000000414
B1004205554511N00927681EA0000000418
B1004255554555N00927549EA0000000396
B1004305554601N00927401EA0000000408
B1004355554660N00927289EA0000000413
B1004405554751N00927240EA0000000405
B1004455554846N00927219EA0000000407
B1004505554926N00927271EA0000000401
B1004555554948N00927396EA0000000395
B1005005554911N00927482EA0000000392
B1005055554869N00927551EA0000000383
B1005105554853N00927654EA0000000375
B1005155554886N00927774EA0000000361
B1005205554955N00927862EA0000000357
B1005255555041N00927907EA0000000357
B1005305555128N00927860EA0000000364
B1005355555170N00927735EA0000000368
B1005405555146N00927617EA0000000361
B1005455555092N00927623EA0000000361
B1005505555096N00927737EA0000000361
B1005555555164N00927801EA0000000373
B1006005555236N00927725EA0000000370
B1006065555275N00927546EA0000000364
B1006155555330N00927276EA0000000360
B1006215555370N00927088EA0000000348
B1006265555407N00926936EA0000000355
B1006335555434N00926729EA0000000347
B1006395555438N00926546EA0000000339
B1006475555440N00926305EA0000000327
B1006525555423N00926171EA0000000313
B1006595555341N00926069EA0000000299
B1007045555280N00926002EA0000000301
B1007105555208N00925921EA0000000295
B1007165555139N00925841EA0000000286
B1007255555027N00925745EA0000000269
B1007335554919N00925664EA0000000252
B1007415554808N00925578EA0000000230
B1007485554707N00925511EA0000000228
B1007535554640N00925556EA0000000222
B1007595554608N00925726EA0000000205
B1008075554583N00925970EA0000000158
B1008135554566N00926151EA0000000126
B1008185554556N00926300EA0000000102
B1008255554536N00926488EA0000000088
B1008325554522N00926610EA0000000087
