AOGNOGN
HFDTE220625
HFFXA050
HFPLTPILOTINCHARGE:
HFGTYGLIDERTYPE:ASK-23
HFGIDGLIDERID:OY-NVX
HFDTM100GPSDATUM:WGS-1984
HFRFWFIRMWAREVERSION:
HFRHWHARDWAREVERSION:
HFFTYFRTYPE:OGN-FLIGHTBOOK
HFGPSGENERIC
HFPRSPRESSALTSENSOR:
HFCIDCOMPETITIONID:NV
B1046315554503N00926574EA0000000131
B1046325554502N00926598EA0000000148
B1046375554496N00926710EA0000000238
B1046435554486N00926844EA0000000342
B1046495554473N00926994EA0000000420
B1046545554455N00927132EA0000000465
B1047005554428N00927300EA0000000485
B1047075554408N00927454EA0000000494
B1047155554386N00927612EA0000000489
B1047245554367N00927782EA0000000478
B1047295554385N00927888EA0000000469
B1047345554451N00927969EA0000000464
B1047395554537N00927973EA0000000460
B1047465554656N00927925EA0000000455
B1047545554794N00927865EA0000000447
B1047595554879N00927828EA0000000441
B1048045554959N00927855EA0000000438
B1048095555013N00927950EA0000000431
B1048145555016N00928056EA0000000425
B1048195554975N00928085EA0000000419
B1048255554946N00927981EA0000000415
B1048315555002N00927846EA0000000407
B1048365555087N00927845EA0000000399
B1048415555126N00927951EA0000000390
B1048465555096N00928022EA0000000392
B1048545555016N00927984EA0000000382
B1049015554944N00927953EA0000000381
B1049085554871N00927938EA0000000368
B1049145554809N00927936EA0000000363
B1049195554788N00928016EA0000000359
B1049245554858N00928074EA0000000361
B1049295554918N00927977EA0000000355
B1049345554890N00927895EA0000000346
B1049395554844N00927951EA0000000335
B1049445554791N00927936EA0000000340
B1049495554754N00927840EA0000000340
B1049545554780N00927713EA0000000335
B1049595554865N00927683EA0000000329
B1050045554948N00927686EA0000000324
B1050105554981N00927543EA0000000317
B1050155554951N00927429EA0000000312
B1050225554899N00927283EA0000000303
B1050275554869N00927174EA0000000298
B1050335554910N00927015EA0000000293
B1050425554963N00926768EA0000000282
B1050485554994N00926592EA0000000272
B1050535555021N00926441EA0000000264
B1050585555044N00926288EA0000000258
B1051035555028N00926151EA0000000256
B1051105554984N00925973EA0000000254
B1051155554955N00925853EA0000000252
B1051205554903N00925780EA0000000248
B1051255554839N00925759EA0000000249
B1051305554778N00925735EA0000000241
B1051355554718N00925710EA0000000227
B1051405554660N00925700EA0000000211
B1051475554614N00925825EA0000000199
B1051535554598N00925959EA0000000172
B1051595554583N00926101EA0000000142
B1052125554544N00926422EA0000000092
B1052205554528N00926578EA0000000087
