AOGNOGN
HFDTE240825
HFFXA050
HFPLTPILOTINCHARGE:
HFGTYGLIDERTYPE:SZD-51 Junior
HFGIDGLIDERID:OY-RXB
HFDTM100GPSDATUM:WGS-1984
HFRFWFIRMWAREVERSION:
HFRHWHARDWAREVERSION:
HFFTYFRTYPE:OGN-FLIGHTBOOK
HFGPSGENERIC
HFPRSPRESSALTSENSOR:
HFCIDCOMPETITIONID:RB
B1344345720641N01024897EA0000000037
B1344365720656N01024852EA0000000056
B1344415720688N01024724EA0000000129
B1344465720721N01024596EA0000000207
B1344515720755N01024470EA0000000272
B1344575720798N01024337EA0000000307
B1345185720865N01023957EA0000000294
B1345245720824N01023849EA0000000290
B1345305720750N01023832EA0000000279
B1345365720682N01023901EA0000000264
B1345415720636N01023994EA0000000251
B1345505720537N01024171EA0000000235
B1345555720466N01024241EA0000000225
B1346025720360N01024208EA0000000220
B1346075720366N01024104EA0000000205
B1346125720420N01024134EA0000000186
B1346175720409N01024260EA0000000179
B1346225720360N01024376EA0000000166
B1346275720318N01024505EA0000000156
B1346335720294N01024682EA0000000141
B1346405720317N01024892EA0000000124
B1346455720349N01025033EA0000000118
B1346525720416N01025223EA0000000102
B1346575720487N01025291EA0000000105
B1347025720551N01025206EA0000000083
B1347075720584N01025042EA0000000063
B1347135720621N01024883EA0000000026
B1347185720644N01024786EA0000000027
