AOGNOGN
HFDTE240825
HFFXA050
HFPLTPILOTINCHARGE:
HFGTYGLIDERTYPE:LS-4
HFGIDGLIDERID:OY-XLI
HFDTM100GPSDATUM:WGS-1984
HFRFWFIRMWAREVERSION:
HFRHWHARDWAREVERSION:
HFFTYFRTYPE:OGN-FLIGHTBOOK
HFGPSGENERIC
HFPRSPRESSALTSENSOR:
HFCIDCOMPETITIONID:U1
B1444445720623N01024912EA0000000028
B1444455720630N01024893EA0000000031
B1444505720664N01024780EA0000000113
B1444555720686N01024666EA0000000211
B1445015720711N01024514EA0000000317
B1445065720737N01024386EA0000000384
B1445175720790N01024160EA0000000446
B1445225720806N01024095EA0000000430
B1445325720847N01023944EA0000000409
B1445395720853N01023821EA0000000398
B1445455720846N01023707EA0000000388
B1445505720833N01023617EA0000000381
B1445565720804N01023509EA0000000367
B1446015720762N01023426EA0000000359
B1446085720684N01023342EA0000000351
B1446175720552N01023305EA0000000331
B1446225720474N01023324EA0000000323
B1446285720391N01023404EA0000000317
B1446335720336N01023508EA0000000309
B1446455720291N01023835EA0000000286
B1446505720290N01023980EA0000000282
B1446585720259N01024201EA0000000273
B1447055720205N01024381EA0000000267
B1447125720139N01024548EA0000000262
B1447185720071N01024663EA0000000258
B1447245719990N01024724EA0000000255
B1447295719918N01024731EA0000000251
B1447375719828N01024636EA0000000241
B1447435719798N01024523EA0000000236
B1447495719803N01024415EA0000000225
B1447555719840N01024341EA0000000227
B1448025719889N01024265EA0000000224
B1448075719926N01024216EA0000000227
B1448125719972N01024188EA0000000219
B1448175720021N01024164EA0000000218
B1448305720133N01024076EA0000000219
B1448355720174N01024031EA0000000212
B1448425720233N01023965EA0000000205
B1448475720278N01023932EA0000000199
B1448575720358N01023812EA0000000198
B1449055720404N01023699EA0000000198
B1449115720434N01023608EA0000000194
B1449165720467N01023542EA0000000185
B1449225720519N01023508EA0000000181
B1449275720565N01023538EA0000000175
B1449335720604N01023633EA0000000167
B1449395720604N01023781EA0000000160
B1449455720567N01023926EA0000000159
B1449505720526N01024040EA0000000152
B1449555720493N01024164EA0000000143
B1450015720453N01024317EA0000000133
B1450065720417N01024448EA0000000124
B1450115720383N01024583EA0000000117
B1450235720298N01024925EA0000000101
B1450285720287N01025081EA0000000089
B1450345720343N01025231EA0000000081
B1450405720421N01025323EA0000000079
B1450455720491N01025336EA0000000075
B1450525720554N01025190EA0000000061
B1450585720592N01025033EA0000000046
B1451065720637N01024831EA0000000029
B1451125720666N01024719EA0000000028
