AOGNOGN
HFDTE240825
HFFXA050
HFPLTPILOTINCHARGE:
HFGTYGLIDERTYPE:SZD-50 Puchacz
HFGIDGLIDERID:OY-XRA
HFDTM100GPSDATUM:WGS-1984
HFRFWFIRMWAREVERSION:
HFRHWHARDWAREVERSION:
HFFTYFRTYPE:OGN-FLIGHTBOOK
HFGPSGENERIC
HFPRSPRESSALTSENSOR:
HFCIDCOMPETITIONID:RA
B1522045720642N01024865EA0000000031
B1522095720676N01024766EA0000000107
B1524185720746N01024126EA0000000453
B1527225720330N01024491EA0000000385
B1527275720382N01024556EA0000000377
B1528575720047N01025292EA0000000367
B1529175720098N01024923EA0000000327
B1529425720256N01024452EA0000000294
B1530595720385N01023661EA0000000277
B1531175720367N01023507EA0000000275
B1531315720229N01023891EA0000000218
B1532055720008N01024944EA0000000143
B1532105720011N01025108EA0000000137
B1532575720499N01025329EA0000000069
B1533055720543N01025155EA0000000049
B1533115720576N01025039EA0000000039
B1533175720607N01024927EA0000000030
B1533255720641N01024787EA0000000025
