AOGNOGN
HFDTE240825
HFFXA050
HFPLTPILOTINCHARGE:
HFGTYGLIDERTYPE:SZD-50 Puchacz
HFGIDGLIDERID:OY-XRA
HFDTM100GPSDATUM:WGS-1984
HFRFWFIRMWAREVERSION:
HFRHWHARDWAREVERSION:
HFFTYFRTYPE:OGN-FLIGHTBOOK
HFGPSGENERIC
HFPRSPRESSALTSENSOR:
HFCIDCOMPETITIONID:RA
B0901185720770N01024433EA0000000143
B0901465720526N01024921EA0000000287
B0902125720209N01024434EA0000000280
B0902135720210N01024407EA0000000281
B0902265720306N01024429EA0000000274
B0902415720126N01024357EA0000000293
B0902565720217N01024337EA0000000290
B0903075720082N01024311EA0000000300
B0915025720183N01024743EA0000000187
B0915075720249N01024707EA0000000177
B0915135720311N01024565EA0000000172
B0915185720358N01024453EA0000000176
B0915245720410N01024325EA0000000176
B0915355720485N01024091EA0000000167
B0916115720898N01023630EA0000000127
B0929455720569N01024294EA0000000148
B0930015720738N01023972EA0000000130
B0930245720748N01024446EA0000000053
B0930305720708N01024591EA0000000026
B0930365720679N01024696EA0000000026
