AOGNOGN
HFDTE240825
HFFXA050
HFPLTPILOTINCHARGE:
HFGTYGLIDERTYPE:HK36 Super Dimona
HFGIDGLIDERID:OY-XZV
HFDTM100GPSDATUM:WGS-1984
HFRFWFIRMWAREVERSION:
HFRHWHARDWAREVERSION:
HFFTYFRTYPE:OGN-FLIGHTBOOK
HFGPSGENERIC
HFPRSPRESSALTSENSOR:
HFCIDCOMPETITIONID:
B0916335630199N00818855EA0000000037
B0916335630199N00818855EA0000000037
B0916395630184N00818710EA0000000052
B0916465630170N00818536EA0000000084
B0916515630160N00818425EA0000000109
B0916565630150N00818309EA0000000131
B0917025630137N00818182EA0000000157
B0917135630130N00817950EA0000000178
B0917185630147N00817863EA0000000182
B0917235630178N00817794EA0000000184
B0917285630225N00817735EA0000000193
B0917375630334N00817700EA0000000208
B0917435630415N00817734EA0000000214
B0917495630496N00817821EA0000000219
B0917555630578N00817932EA0000000231
B0918025630675N00818111EA0000000247
B0918085630734N00818304EA0000000258
B0918155630800N00818523EA0000000261
B0918235630880N00818751EA0000000266
B0918295630942N00818921EA0000000270
B0918355631001N00819087EA0000000275
B0918405631050N00819227EA0000000279
B0918465631108N00819393EA0000000292
B0918575631223N00819688EA0000000299
B0919035631288N00819852EA0000000303
B0919115631373N00820077EA0000000302
B0919185631450N00820278EA0000000306
B0919265631539N00820514EA0000000315
B0919315631595N00820657EA0000000331
B0919385631674N00820861EA0000000334
B0919485631784N00821161EA0000000339
B0919555631862N00821373EA0000000353
B0920055631974N00821683EA0000000359
B0920105632027N00821834EA0000000368
B0920185632113N00822068EA0000000374
B0920255632194N00822273EA0000000379
B0920345632302N00822542EA0000000392
B0920415632394N00822752EA0000000392
B0920465632459N00822903EA0000000396
B0920565632589N00823188EA0000000407
B0921035632679N00823374EA0000000411
B0921105632772N00823565EA0000000412
B0921165632856N00823714EA0000000421
B0921235632951N00823898EA0000000429
B0921305633043N00824117EA0000000432
B0921375633133N00824342EA0000000432
B0921435633209N00824538EA0000000436
B0921525633324N00824833EA0000000448
B0921595633417N00825058EA0000000449
B0922055633496N00825252EA0000000452
B0922105633563N00825414EA0000000454
B0922215633709N00825765EA0000000464
B0922275633787N00825961EA0000000468
B0922325633851N00826126EA0000000471
B0922385633926N00826329EA0000000474
B0922435633989N00826499EA0000000476
B0922555634145N00826918EA0000000483
B0923015634226N00827132EA0000000482
B0923075634306N00827348EA0000000485
B0923125634374N00827531EA0000000481
B0923235634523N00827944EA0000000483
B0923295634608N00828166EA0000000486
B0923405634759N00828583EA0000000488
B0923465634841N00828815EA0000000493
B0923525634922N00829042EA0000000494
B0924035635070N00829456EA0000000495
B0924135635214N00829819EA0000000494
B0924225635359N00830126EA0000000494
B0924285635458N00830329EA0000000490
B0924365635587N00830622EA0000000488
B0924415635666N00830805EA0000000492
B0924465635746N00830989EA0000000495
B0924535635858N00831255EA0000000492
B0925015635984N00831565EA0000000495
B0925105636124N00831918EA0000000493
B0925175636230N00832192EA0000000497
B0925245636335N00832463EA0000000493
B0925325636464N00832764EA0000000488
B0925415636612N00833102EA0000000490
B0925485636724N00833366EA0000000488
B0925535636802N00833556EA0000000485
B0925585636880N00833750EA0000000485
B0926325637398N00835071EA0000000478
B0926465637626N00835591EA0000000465
B0951445659804N00930131EA0000000565
B0952225700309N00931457EA0000000576
B0956375703808N00940268EA0000000624
B0956495703991N00940667EA0000000628
B0957565705019N00942980EA0000000654
B0958025705108N00943196EA0000000651
B0958105705230N00943485EA0000000664
B0958525705868N00944999EA0000000644
B0958595705969N00945259EA0000000638
B0959045706041N00945444EA0000000634
B0959215706292N00946051EA0000000634
B0959295706404N00946339EA0000000632
B0959355706490N00946563EA0000000625
B0959425706587N00946820EA0000000633
B0959515706708N00947147EA0000000626
B0959585706799N00947399EA0000000633
B1000095706945N00947790EA0000000638
B1000175707060N00948064EA0000000645
B1000235707149N00948272EA0000000639
B1000295707237N00948483EA0000000638
B1000425707432N00948930EA0000000627
B1000545707607N00949359EA0000000624
B1000595707679N00949540EA0000000619
B1001045707750N00949719EA0000000630
B1001135707876N00950031EA0000000636
B1001595708583N00951565EA0000000615
B1002055708666N00951775EA0000000612
B1002115708750N00951978EA0000000605
B1002175708832N00952178EA0000000602
B1002245708927N00952422EA0000000598
B1002305709010N00952635EA0000000599
B1002395709128N00952974EA0000000603
B1002465709221N00953233EA0000000610
B1002525709299N00953447EA0000000615
B1003025709433N00953794EA0000000617
B1003085709513N00954003EA0000000616
B1003135709580N00954175EA0000000615
B1003185709648N00954344EA0000000618
B1003255709744N00954589EA0000000613
B1003315709829N00954796EA0000000614
B1003445710008N00955238EA0000000614
B1003525710113N00955518EA0000000607
B1003595710200N00955772EA0000000599
B1004095710313N00956144EA0000000600
B1004165710391N00956410EA0000000611
B1004235710483N00956666EA0000000625
B1004305710580N00956917EA0000000624
B1004385710688N00957204EA0000000630
B1004435710757N00957383EA0000000628
B1004515710869N00957664EA0000000622
B1005015711010N00958008EA0000000619
B1005065711083N00958182EA0000000609
B1005115711157N00958354EA0000000608
B1005165711233N00958524EA0000000606
B1005245711356N00958807EA0000000601
B1005345711517N00959161EA0000000588
B1005405711607N00959377EA0000000587
B1005455711680N00959553EA0000000584
B1005565711844N00959945EA0000000575
B1006035711945N01000211EA0000000570
B1006095712034N01000437EA0000000576
B1006165712142N01000697EA0000000570
B1006305712362N01001192EA0000000568
B1006375712468N01001437EA0000000566
B1006445712573N01001683EA0000000566
B1006495712647N01001853EA0000000565
B1006575712762N01002125EA0000000560
B1007035712850N01002324EA0000000558
B1007135713000N01002656EA0000000550
B1007215713116N01002926EA0000000547
B1007265713189N01003095EA0000000540
B1007355713317N01003407EA0000000532
B1007435713428N01003686EA0000000546
B1007485713499N01003855EA0000000544
B1007535713574N01004020EA0000000540
B1008015713694N01004281EA0000000536
B1008135713869N01004694EA0000000537
B1008205713968N01004940EA0000000543
B1008255714037N01005118EA0000000552
B1008325714135N01005363EA0000000558
B1008385714223N01005561EA0000000551
B1009005714553N01006299EA0000000572
B1009055714625N01006466EA0000000568
B1009145714754N01006784EA0000000575
B1009225714866N01007061EA0000000583
B1009365715079N01007534EA0000000580
B1009425715166N01007752EA0000000580
B1009475715234N01007937EA0000000581
B1009555715342N01008235EA0000000573
B1010015715423N01008453EA0000000568
B1010095715527N01008752EA0000000559
B1010185715631N01009111EA0000000544
B1010235715687N01009316EA0000000542
B1010305715766N01009601EA0000000543
B1010355715825N01009804EA0000000536
B1010415715897N01010047EA0000000536
B1010465715958N01010248EA0000000539
B1010545716062N01010561EA0000000546
B1011005716139N01010798EA0000000547
B1011085716240N01011110EA0000000539
B1011165716333N01011436EA0000000536
B1011225716404N01011674EA0000000539
B1011275716462N01011870EA0000000538
B1011325716518N01012067EA0000000529
B1011405716610N01012375EA0000000517
B1011455716669N01012569EA0000000521
B1011505716728N01012757EA0000000532
B1011565716801N01012985EA0000000533
B1012015716860N01013175EA0000000531
B1012085716946N01013436EA0000000524
B1012145717019N01013656EA0000000516
B1012195717080N01013838EA0000000515
B1012265717163N01014095EA0000000517
B1012335717248N01014347EA0000000515
B1012395717318N01014571EA0000000516
B1012475717420N01014869EA0000000528
B1012565717534N01015204EA0000000518
B1013025717617N01015417EA0000000514
B1013105717730N01015699EA0000000510
B1013165717817N01015916EA0000000502
B1013235717920N01016168EA0000000494
B1013315718036N01016452EA0000000487
B1013365718106N01016636EA0000000490
B1013435718202N01016895EA0000000489
B1013505718300N01017155EA0000000480
B1013585718415N01017462EA0000000479
B1014045718499N01017693EA0000000479
B1014095718568N01017889EA0000000472
B1014145718636N01018087EA0000000470
B1014195718703N01018285EA0000000461
B1014245718771N01018485EA0000000450
B1014325718877N01018809EA0000000435
B1014385718957N01019051EA0000000429
B1014455719053N01019332EA0000000432
B1014505719122N01019531EA0000000429
B1014565719201N01019765EA0000000422
B1015035719293N01020034EA0000000413
B1015125719406N01020381EA0000000415
B1015185719479N01020609EA0000000426
B1015235719540N01020803EA0000000419
B1015295719615N01021040EA0000000413
B1015355719690N01021256EA0000000404
B1015405719751N01021423EA0000000387
B1015485719849N01021666EA0000000380
B1015555719936N01021865EA0000000373
B1016015719973N01022082EA0000000349
B1016065719965N01022292EA0000000333
B1016145719923N01022631EA0000000312
B1016205719893N01022881EA0000000293
B1016255719875N01023088EA0000000276
B1016315719865N01023330EA0000000265
B1016395719862N01023641EA0000000244
B1016445719899N01023813EA0000000242
B1016495719975N01023915EA0000000228
B1016545720067N01023897EA0000000206
B1016595720141N01023787EA0000000192
B1017055720210N01023624EA0000000193
B1017105720263N01023487EA0000000196
B1017175720332N01023300EA0000000181
B1017225720396N01023200EA0000000175
B1017295720499N01023122EA0000000166
B1017385720639N01023126EA0000000156
B1017455720746N01023186EA0000000154
B1017505720816N01023241EA0000000146
B1017565720896N01023323EA0000000133
B1018015720956N01023406EA0000000126
B1018065720992N01023530EA0000000117
B1018125720974N01023712EA0000000096
B1018195720914N01023919EA0000000069
B1018245720873N01024068EA0000000053
B1018305720828N01024238EA0000000040
B1018385720776N01024434EA0000000036
B1018435720754N01024518EA0000000036
