AOGNOGN
HFDTE100825
HFFXA050
HFPLTPILOTINCHARGE:
HFGTYGLIDERTYPE:SF-25
HFGIDGLIDERID:OY-XZG
HFDTM100GPSDATUM:WGS-1984
HFRFWFIRMWAREVERSION:
HFRHWHARDWAREVERSION:
HFFTYFRTYPE:OGN-FLIGHTBOOK
HFGPSGENERIC
HFPRSPRESSALTSENSOR:
HFCIDCOMPETITIONID:ZG
B1302595624556N00924751EA0000000025
B1303025624568N00924695EA0000000027
B1303045624576N00924654EA0000000030
B1303115624606N00924509EA0000000049
B1303215624645N00924313EA0000000088
B1303295624675N00924179EA0000000116
B1303365624704N00924056EA0000000124
B1303415624724N00923957EA0000000134
B1303465624742N00923860EA0000000151
B1303565624774N00923671EA0000000175
B1304045624764N00923529EA0000000191
B1304105624713N00923431EA0000000203
B1304155624643N00923386EA0000000213
B1304215624544N00923409EA0000000228
B1304305624398N00923542EA0000000247
B1304355624319N00923641EA0000000250
B1304415624225N00923779EA0000000254
B1304495624111N00923981EA0000000274
B1304575624026N00924226EA0000000285
B1305035623990N00924440EA0000000293
B1305105623952N00924693EA0000000302
B1305165623943N00924918EA0000000307
B1305275624006N00925308EA0000000318
B1305335624063N00925494EA0000000329
B1305405624145N00925677EA0000000340
B1305485624246N00925854EA0000000354
B1305565624357N00925990EA0000000362
B1306015624427N00926054EA0000000371
B1306095624539N00926139EA0000000381
B1306265624785N00926316EA0000000392
B1306335624893N00926381EA0000000401
B1306385624970N00926425EA0000000404
B1306465625093N00926483EA0000000409
B1306525625189N00926513EA0000000408
B1307025625356N00926538EA0000000409
B1307095625473N00926562EA0000000416
B1307165625584N00926596EA0000000416
B1308165626595N00927390EA0000000399
B1308295626817N00927574EA0000000393
B1308345626900N00927589EA0000000394
B1308405626997N00927685EA0000000396
B1308475627104N00927809EA0000000404
B1308525627172N00927914EA0000000412
B1308575627191N00928087EA0000000419
B1309025627146N00928260EA0000000412
B1309075627057N00928352EA0000000407
B1309135626962N00928301EA0000000399
B1309205626941N00928137EA0000000393
B1309285626953N00927957EA0000000400
B1309365626981N00927807EA0000000406
B1309465627038N00927636EA0000000407
B1309515627096N00927583EA0000000399
B1309565627166N00927560EA0000000398
B1310045627301N00927694EA0000000391
B1310105627402N00927753EA0000000400
B1310155627457N00927693EA0000000396
B1310205627446N00927580EA0000000386
B1310255627361N00927523EA0000000385
B1310365627159N00927565EA0000000420
B1310415627099N00927517EA0000000411
B1310485627094N00927379EA0000000398
B1310555627178N00927306EA0000000391
B1311035627309N00927333EA0000000388
B1311105627427N00927384EA0000000384
B1311155627511N00927433EA0000000392
B1311205627592N00927494EA0000000401
B1311255627671N00927538EA0000000408
B1311305627739N00927528EA0000000417
B1311365627796N00927449EA0000000420
B1311445627822N00927266EA0000000405
B1311565627803N00926953EA0000000406
B1312025627787N00926784EA0000000416
B1312085627777N00926616EA0000000419
B1312155627761N00926431EA0000000410
B1312205627753N00926305EA0000000404
B1312265627755N00926159EA0000000406
B1312335627767N00925996EA0000000403
B1312395627770N00925856EA0000000403
B1312455627744N00925723EA0000000403
B1312545627636N00925580EA0000000394
B1313005627543N00925519EA0000000386
B1313065627449N00925459EA0000000376
B1313135627366N00925341EA0000000368
B1313185627328N00925239EA0000000370
B1313265627311N00925082EA0000000367
B1313335627336N00924957EA0000000362
B1313405627364N00924841EA0000000365
B1313495627403N00924698EA0000000358
B1313545627432N00924621EA0000000356
B1314025627483N00924505EA0000000357
B1314105627530N00924393EA0000000357
B1314155627560N00924321EA0000000355
B1314205627581N00924235EA0000000356
B1314275627559N00924109EA0000000363
B1314365627517N00923938EA0000000357
B1314435627492N00923803EA0000000368
B1314505627500N00923681EA0000000365
B1314565627531N00923575EA0000000361
B1315065627533N00923377EA0000000366
B1315135627479N00923244EA0000000364
B1315205627382N00923159EA0000000365
B1315275627312N00923046EA0000000370
B1315335627307N00922930EA0000000376
B1315415627372N00922847EA0000000389
B1315465627431N00922835EA0000000389
B1315535627525N00922852EA0000000393
B1316025627644N00922985EA0000000397
B1316085627707N00923142EA0000000408
B1316145627764N00923321EA0000000412
B1316195627807N00923498EA0000000414
B1316265627866N00923755EA0000000417
B1316315627909N00923939EA0000000412
B1316365627947N00924128EA0000000414
B1316425627985N00924355EA0000000416
B1316485628018N00924582EA0000000416
B1316555628051N00924851EA0000000420
B1317015628071N00925093EA0000000415
B1317065628084N00925301EA0000000416
B1317155628108N00925678EA0000000418
B1317205628128N00925891EA0000000414
B1317255628159N00926102EA0000000406
B1317305628197N00926310EA0000000402
B1317405628243N00926726EA0000000417
B1317455628235N00926941EA0000000412
B1317515628190N00927198EA0000000409
B1317575628110N00927424EA0000000413
B1318065627968N00927723EA0000000414
B1318135627862N00927939EA0000000425
B1318185627784N00928078EA0000000436
B1318235627709N00928227EA0000000440
B1318335627536N00928478EA0000000444
B1318385627433N00928555EA0000000436
B1318455627290N00928594EA0000000432
B1318525627174N00928538EA0000000420
B1318585627091N00928456EA0000000409
B1319045627020N00928365EA0000000405
B1319105626948N00928277EA0000000398
B1319175626888N00928146EA0000000393
B1319245626830N00928016EA0000000392
B1319365626813N00927766EA0000000384
B1319445626746N00927609EA0000000382
B1319505626671N00927509EA0000000394
B1320025626500N00927319EA0000000403
B1320075626427N00927243EA0000000394
B1320145626330N00927134EA0000000389
B1320195626269N00927053EA0000000385
B1320265626191N00926941EA0000000381
B1320315626136N00926864EA0000000380
B1320385626053N00926759EA0000000376
B1320445625981N00926665EA0000000372
B1320495625923N00926579EA0000000375
B1320555625857N00926464EA0000000384
B1321005625799N00926364EA0000000392
B1321075625720N00926229EA0000000403
B1321135625655N00926111EA0000000401
B1321205625575N00925987EA0000000400
B1321255625495N00925931EA0000000404
B1321335625359N00925869EA0000000417
B1321405625251N00925809EA0000000424
B1321485625135N00925729EA0000000420
B1321565625042N00925601EA0000000412
B1322015624994N00925510EA0000000412
B1322065624956N00925414EA0000000410
B1322125624923N00925295EA0000000403
B1322185624912N00925168EA0000000398
B1322255624911N00925013EA0000000389
B1322395625045N00924816EA0000000381
B1322495625189N00924838EA0000000388
B1322555625276N00924934EA0000000391
B1323005625337N00925059EA0000000391
B1323065625384N00925243EA0000000406
B1323115625400N00925411EA0000000410
B1323185625374N00925657EA0000000416
B1323255625287N00925867EA0000000422
B1323315625188N00926010EA0000000420
B1323375625077N00926131EA0000000415
B1323425624979N00926204EA0000000410
B1324255624297N00925908EA0000000366
B1324315624227N00925818EA0000000369
B1324385624153N00925707EA0000000365
B1324455624078N00925581EA0000000359
B1325005623913N00925333EA0000000362
B1325065623849N00925238EA0000000361
B1325145623759N00925112EA0000000361
B1325195623704N00925034EA0000000363
B1325275623623N00924909EA0000000361
B1325365623529N00924752EA0000000353
B1325415623478N00924666EA0000000356
B1325495623407N00924536EA0000000365
B1325575623343N00924398EA0000000361
B1326025623306N00924306EA0000000369
B1326075623269N00924217EA0000000372
B1326135623224N00924102EA0000000368
B1326185623184N00924004EA0000000370
B1326235623144N00923913EA0000000375
B1326325623083N00923736EA0000000375
B1326385623049N00923613EA0000000377
B1326455623018N00923471EA0000000379
B1326555622981N00923271EA0000000384
B1327005622966N00923168EA0000000383
B1327065622957N00923043EA0000000385
B1327135622961N00922899EA0000000388
B1327195622971N00922778EA0000000392
B1327275622984N00922620EA0000000397
B1327375622991N00922418EA0000000397
B1327455622986N00922243EA0000000390
B1327545622983N00922033EA0000000384
B1327595622990N00921922EA0000000390
B1328045622997N00921821EA0000000392
B1328105623027N00921713EA0000000390
B1328155623058N00921624EA0000000383
B1328215623087N00921511EA0000000384
B1328285623116N00921395EA0000000388
B1328335623144N00921322EA0000000388
B1328395623179N00921237EA0000000393
B1328445623204N00921171EA0000000396
B1328515623254N00921105EA0000000394
B1328575623298N00921030EA0000000386
B1329025623331N00920962EA0000000387
B1329095623383N00920893EA0000000389
B1329165623461N00920880EA0000000386
B1329235623546N00920890EA0000000380
B1329285623613N00920908EA0000000376
B1329345623693N00920929EA0000000381
B1329405623768N00920992EA0000000381
B1329465623836N00921094EA0000000387
B1329535623908N00921236EA0000000378
B1329585623958N00921340EA0000000375
B1330075624064N00921526EA0000000399
B1330125624120N00921637EA0000000405
B1330175624180N00921760EA0000000385
B1330235624267N00921900EA0000000381
B1330285624338N00921996EA0000000374
B1330365624463N00922127EA0000000364
B1330415624532N00922225EA0000000383
B1330465624575N00922357EA0000000401
B1330525624592N00922549EA0000000412
B1330575624577N00922734EA0000000415
B1331045624534N00923002EA0000000417
B1331095624490N00923183EA0000000408
B1331165624409N00923431EA0000000393
B1331245624281N00923671EA0000000388
B1331315624159N00923852EA0000000382
B1331365624072N00923972EA0000000375
B1331435623944N00924131EA0000000348
B1331495623830N00924279EA0000000319
B1331565623718N00924516EA0000000305
B1332025623664N00924756EA0000000305
B1332125623660N00925168EA0000000274
B1332205623701N00925476EA0000000243
B1332265623766N00925671EA0000000231
B1332335623873N00925821EA0000000216
B1332395623969N00925926EA0000000209
B1332445624046N00926010EA0000000202
B1332495624127N00926082EA0000000187
B1332545624207N00926090EA0000000178
B1333005624280N00926009EA0000000168
B1333055624318N00925909EA0000000160
B1333115624340N00925777EA0000000150
B1333195624370N00925607EA0000000132
B1333285624413N00925419EA0000000106
B1333345624436N00925297EA0000000085
B1333425624472N00925132EA0000000058
B1333495624504N00924990EA0000000041
B1333545624527N00924893EA0000000028
B1334025624554N00924761EA0000000026
B1334075624565N00924705EA0000000026
