AOGNOGN
HFDTE100825
HFFXA050
HFPLTPILOTINCHARGE:
HFGTYGLIDERTYPE:EuroFox
HFGIDGLIDERID:OY-9448
HFDTM100GPSDATUM:WGS-1984
HFRFWFIRMWAREVERSION:
HFRHWHARDWAREVERSION:
HFFTYFRTYPE:OGN-FLIGHTBOOK
HFGPSGENERIC
HFPRSPRESSALTSENSOR:
HFCIDCOMPETITIONID:
B1015225624562N00924728EA0000000030
B1015225624562N00924728EA0000000030
B1015285624588N00924612EA0000000032
B1015335624613N00924494EA0000000046
B1015405624648N00924337EA0000000068
B1015465624681N00924205EA0000000084
B1015515624709N00924098EA0000000100
B1015585624748N00923960EA0000000128
B1016035624775N00923868EA0000000143
B1016085624801N00923773EA0000000163
B1016185624852N00923584EA0000000198
B1016235624879N00923491EA0000000213
B1016285624909N00923389EA0000000221
B1016335624936N00923283EA0000000244
B1016385624959N00923189EA0000000269
B1016445624987N00923072EA0000000290
B1016495625017N00922982EA0000000312
B1016565625064N00922856EA0000000336
B1017015625112N00922780EA0000000361
B1017065625180N00922742EA0000000380
B1017115625253N00922751EA0000000409
B1017175625346N00922830EA0000000418
B1017225625419N00922924EA0000000425
B1017295625521N00923057EA0000000437
B1017355625605N00923165EA0000000448
B1017415625690N00923278EA0000000466
B1017465625762N00923380EA0000000478
B1017515625830N00923484EA0000000505
B1017565625895N00923597EA0000000514
B1018045625993N00923798EA0000000553
B1018095626040N00923950EA0000000572
B1018155626089N00924140EA0000000591
B1018205626085N00924337EA0000000578
B1018275625999N00924561EA0000000558
B1018325625916N00924672EA0000000542
B1018395625792N00924789EA0000000514
B1018445625702N00924858EA0000000497
B1018505625594N00924927EA0000000466
B1018585625448N00924973EA0000000430
B1019045625341N00925001EA0000000402
B1019115625215N00925031EA0000000370
B1019195625072N00925071EA0000000330
B1019265624947N00925099EA0000000297
B1019325624845N00925096EA0000000272
B1019405624715N00925047EA0000000242
B1019465624617N00924999EA0000000237
B1019515624538N00924951EA0000000231
B1019565624463N00924892EA0000000230
B1020025624381N00924820EA0000000225
B1020075624317N00924772EA0000000217
B1020125624238N00924791EA0000000191
B1020175624171N00924915EA0000000176
B1020225624161N00925091EA0000000154
B1020285624221N00925250EA0000000130
B1020345624311N00925330EA0000000115
B1020395624385N00925364EA0000000097
B1020445624438N00925312EA0000000086
B1020515624469N00925177EA0000000065
B1020575624493N00925051EA0000000051
B1021025624515N00924948EA0000000038
B1021105624545N00924805EA0000000032
