AOGNOGN
HFDTE100825
HFFXA050
HFPLTPILOTINCHARGE:
HFGTYGLIDERTYPE:EuroFox
HFGIDGLIDERID:OY-9448
HFDTM100GPSDATUM:WGS-1984
HFRFWFIRMWAREVERSION:
HFRHWHARDWAREVERSION:
HFFTYFRTYPE:OGN-FLIGHTBOOK
HFGPSGENERIC
HFPRSPRESSALTSENSOR:
HFCIDCOMPETITIONID:
B1147295624551N00924775EA0000000034
B1147325624561N00924728EA0000000035
B1147345624569N00924692EA0000000037
B1147405624596N00924568EA0000000053
B1147455624621N00924470EA0000000071
B1147505624647N00924372EA0000000088
B1147565624687N00924264EA0000000104
B1148015624733N00924186EA0000000113
B1148065624789N00924109EA0000000137
B1148125624861N00924046EA0000000163
B1148185624934N00923997EA0000000180
B1148235624994N00923951EA0000000196
B1148285625055N00923910EA0000000210
B1148335625118N00923874EA0000000230
B1148405625202N00923830EA0000000258
B1148465625276N00923788EA0000000281
B1148515625338N00923753EA0000000295
B1148585625429N00923719EA0000000321
B1149055625521N00923700EA0000000338
B1149135625632N00923681EA0000000360
B1149185625703N00923668EA0000000381
B1149245625793N00923668EA0000000393
B1149325625915N00923689EA0000000425
B1149415626044N00923708EA0000000454
B1149485626133N00923671EA0000000472
B1149535626185N00923625EA0000000486
B1149585626232N00923575EA0000000498
B1150045626282N00923510EA0000000517
B1150095626323N00923458EA0000000526
B1150155626376N00923388EA0000000536
B1150205626419N00923322EA0000000546
B1150255626461N00923253EA0000000560
B1150375626566N00923097EA0000000586
B1150445626626N00923007EA0000000604
B1150525626686N00922886EA0000000616
B1150585626735N00922796EA0000000632
B1151115626855N00922620EA0000000660
B1151165626903N00922552EA0000000676
B1151255626986N00922431EA0000000716
B1151315627042N00922341EA0000000747
B1151365627097N00922287EA0000000763
B1151435627194N00922342EA0000000751
B1151485627253N00922460EA0000000733
B1151545627282N00922668EA0000000714
B1152005627269N00922886EA0000000699
B1152075627205N00923118EA0000000683
B1152125627137N00923259EA0000000669
B1152225626968N00923417EA0000000638
B1152285626867N00923478EA0000000623
B1152345626769N00923537EA0000000609
B1152405626668N00923581EA0000000590
B1152485626534N00923631EA0000000568
B1152535626453N00923657EA0000000559
B1153005626344N00923694EA0000000540
B1153065626247N00923724EA0000000518
B1153125626149N00923753EA0000000501
B1153195626036N00923793EA0000000497
B1153275625906N00923848EA0000000493
B1153325625823N00923891EA0000000487
B1153385625722N00923936EA0000000484
B1153495625535N00924030EA0000000483
B1153565625413N00924105EA0000000471
B1154015625325N00924159EA0000000463
B1154105625158N00924240EA0000000443
B1154175625023N00924284EA0000000430
B1154245624888N00924322EA0000000421
B1154305624778N00924347EA0000000414
B1154415624584N00924407EA0000000379
B1154475624478N00924438EA0000000360
B1154525624394N00924461EA0000000346
B1154585624295N00924498EA0000000325
B1155045624195N00924582EA0000000308
B1155095624124N00924697EA0000000297
B1155165624057N00924910EA0000000278
B1155215624046N00925083EA0000000260
B1155275624092N00925261EA0000000237
B1155345624180N00925397EA0000000218
B1155405624259N00925487EA0000000197
B1155475624356N00925539EA0000000172
B1155545624413N00925480EA0000000156
B1155595624431N00925419EA0000000147
B1156055624444N00925339EA0000000128
B1156125624457N00925236EA0000000106
B1156225624488N00925095EA0000000064
B1156285624508N00925005EA0000000046
B1156355624527N00924897EA0000000027
B1156405624538N00924833EA0000000027
