AOGNOGN
HFDTE100825
HFFXA050
HFPLTPILOTINCHARGE:
HFGTYGLIDERTYPE:EuroFox
HFGIDGLIDERID:OY-9448
HFDTM100GPSDATUM:WGS-1984
HFRFWFIRMWAREVERSION:
HFRHWHARDWAREVERSION:
HFFTYFRTYPE:OGN-FLIGHTBOOK
HFGPSGENERIC
HFPRSPRESSALTSENSOR:
HFCIDCOMPETITIONID:
B1244335624560N00924735EA0000000024
B1244365624570N00924686EA0000000025
B1244395624582N00924632EA0000000027
B1244455624610N00924517EA0000000042
B1244565624665N00924311EA0000000064
B1245025624683N00924184EA0000000072
B1245075624679N00924071EA0000000084
B1245165624646N00923862EA0000000111
B1245215624615N00923753EA0000000128
B1245265624576N00923654EA0000000141
B1245335624512N00923518EA0000000157
B1245405624441N00923389EA0000000175
B1245495624361N00923218EA0000000201
B1245585624286N00923048EA0000000225
B1246115624169N00922798EA0000000250
B1246165624120N00922710EA0000000262
B1246235624049N00922599EA0000000287
B1246285623998N00922531EA0000000306
B1246365623894N00922444EA0000000322
B1246425623812N00922382EA0000000344
B1246485623749N00922306EA0000000362
B1246545623705N00922208EA0000000376
B1247015623682N00922077EA0000000398
B1247095623676N00921927EA0000000422
B1247145623679N00921837EA0000000434
B1247195623683N00921745EA0000000446
B1247245623690N00921653EA0000000455
B1247305623698N00921547EA0000000471
B1247355623707N00921461EA0000000472
B1247405623718N00921370EA0000000475
B1247455623727N00921277EA0000000483
B1247505623738N00921181EA0000000490
B1247565623759N00921070EA0000000499
B1248035623789N00920950EA0000000512
B1248085623821N00920874EA0000000516
B1248185623912N00920747EA0000000537
B1248245623980N00920714EA0000000549
B1248295624037N00920686EA0000000553
B1248355624106N00920651EA0000000557
B1248405624171N00920622EA0000000563
B1248495624285N00920582EA0000000581
B1248555624358N00920547EA0000000596
B1249035624458N00920478EA0000000616
B1249085624515N00920432EA0000000636
B1249145624588N00920380EA0000000657
B1249195624662N00920354EA0000000661
B1249255624758N00920399EA0000000643
B1249325624857N00920541EA0000000617
B1249395624941N00920724EA0000000588
B1249465625006N00920946EA0000000556
B1249535624997N00921224EA0000000526
B1250025624928N00921570EA0000000499
B1250095624863N00921817EA0000000477
B1250165624792N00922055EA0000000459
B1250245624705N00922315EA0000000430
B1250325624614N00922565EA0000000403
B1250415624512N00922851EA0000000372
B1250465624454N00923005EA0000000362
B1251175624134N00924005EA0000000284
B1251225624090N00924177EA0000000275
B1251275624047N00924347EA0000000267
B1251335624001N00924560EA0000000256
B1251405623953N00924811EA0000000250
B1251455623922N00924988EA0000000244
B1251515623913N00925208EA0000000226
B1251565623942N00925382EA0000000208
B1252015623991N00925530EA0000000190
B1252065624049N00925638EA0000000182
B1252125624122N00925730EA0000000179
B1252215624240N00925813EA0000000162
B1252265624304N00925802EA0000000145
B1252315624351N00925730EA0000000129
B1252445624415N00925450EA0000000104
B1252505624442N00925324EA0000000084
B1252555624463N00925220EA0000000070
B1253005624484N00925114EA0000000052
B1253095624521N00924928EA0000000028
B1253185624552N00924778EA0000000025
