AOGNOGN
HFDTE100825
HFFXA050
HFPLTPILOTINCHARGE:
HFGTYGLIDERTYPE:Twin Astir II
HFGIDGLIDERID:OY-ZXN
HFDTM100GPSDATUM:WGS-1984
HFRFWFIRMWAREVERSION:
HFRHWHARDWAREVERSION:
HFFTYFRTYPE:OGN-FLIGHTBOOK
HFGPSGENERIC
HFPRSPRESSALTSENSOR:
HFCIDCOMPETITIONID:XN
B1027135624560N00924735EA0000000027
B1027135624560N00924735EA0000000027
B1027195624584N00924616EA0000000030
B1027245624610N00924510EA0000000038
B1027315624641N00924358EA0000000057
B1027365624672N00924254EA0000000073
B1027455624735N00924086EA0000000099
B1027515624791N00923996EA0000000116
B1027565624835N00923922EA0000000133
B1028015624883N00923841EA0000000141
B1028065624931N00923784EA0000000178
B1028125624990N00923718EA0000000191
B1028195625062N00923645EA0000000219
B1028285625151N00923556EA0000000236
