AOGNOGN
HFDTE100825
HFFXA050
HFPLTPILOTINCHARGE:
HFGTYGLIDERTYPE:Twin Astir II
HFGIDGLIDERID:OY-ZXN
HFDTM100GPSDATUM:WGS-1984
HFRFWFIRMWAREVERSION:
HFRHWHARDWAREVERSION:
HFFTYFRTYPE:OGN-FLIGHTBOOK
HFGPSGENERIC
HFPRSPRESSALTSENSOR:
HFCIDCOMPETITIONID:XN
B1115425624557N00924749EA0000000025
B1115455624568N00924698EA0000000026
B1115475624576N00924661EA0000000028
B1115535624600N00924548EA0000000041
B1115595624626N00924439EA0000000058
B1116075624653N00924295EA0000000083
B1116125624672N00924216EA0000000092
B1116195624699N00924097EA0000000106
B1116245624722N00924013EA0000000109
B1116355624771N00923834EA0000000139
B1116445624822N00923713EA0000000159
B1116505624863N00923629EA0000000167
B1117075624997N00923341EA0000000211
B1117265625173N00923097EA0000000264
B1117425625391N00923154EA0000000315
B1124585625833N00924024EA0000000284
B1125335625417N00924614EA0000000252
B1125435625319N00924929EA0000000251
B1125535625215N00925235EA0000000247
B1126425624548N00926114EA0000000173
B1127015624371N00925884EA0000000152
B1127095624340N00925749EA0000000136
B1127175624360N00925612EA0000000118
B1127245624381N00925490EA0000000099
B1127335624416N00925327EA0000000073
B1127405624442N00925196EA0000000056
B1127465624466N00925080EA0000000040
B1127525624492N00924960EA0000000031
B1127595624521N00924828EA0000000025
