AOGNOGN
HFDTE100825
HFFXA050
HFPLTPILOTINCHARGE:
HFGTYGLIDERTYPE:LS-4
HFGIDGLIDERID:OY-XKV
HFDTM100GPSDATUM:WGS-1984
HFRFWFIRMWAREVERSION:
HFRHWHARDWAREVERSION:
HFFTYFRTYPE:OGN-FLIGHTBOOK
HFGPSGENERIC
HFPRSPRESSALTSENSOR:
HFCIDCOMPETITIONID:X7
B1147285624539N00924838EA0000000024
B1147335624555N00924760EA0000000024
B1147335624555N00924760EA0000000024
B1147405624586N00924619EA0000000039
B1147465624615N00924500EA0000000059
B1147525624647N00924382EA0000000081
B1147585624690N00924276EA0000000093
B1148045624748N00924182EA0000000108
B1148125624838N00924088EA0000000139
B1148185624911N00924039EA0000000157
B1148235624970N00923990EA0000000174
B1148295625044N00923937EA0000000194
B1148355625119N00923895EA0000000218
B1148415625191N00923856EA0000000245
B1148475625263N00923813EA0000000266
B1148525625325N00923775EA0000000281
B1149005625429N00923736EA0000000314
B1149075625523N00923718EA0000000331
B1149165625648N00923693EA0000000361
B1149215625720N00923679EA0000000379
B1149285625827N00923689EA0000000399
B1149335625902N00923704EA0000000422
B1149385625974N00923723EA0000000443
B1149485626111N00923701EA0000000466
B1149545626176N00923653EA0000000484
B1150015626240N00923582EA0000000500
B1150095626306N00923499EA0000000521
B1150155626361N00923431EA0000000530
B1150205626403N00923365EA0000000541
B1150255626447N00923297EA0000000555
B1150315626496N00923217EA0000000571
B1150365626542N00923153EA0000000579
B1150435626604N00923064EA0000000596
B1150485626644N00922998EA0000000608
B1150545626687N00922899EA0000000615
B1150595626728N00922825EA0000000629
B1151055626783N00922741EA0000000643
B1151105626830N00922675EA0000000653
B1151165626886N00922593EA0000000670
B1151215626934N00922530EA0000000693
B1151265626979N00922460EA0000000712
B1151315627025N00922387EA0000000736
B1151365627057N00922311EA0000000749
B1151425627046N00922212EA0000000753
B1151475627000N00922144EA0000000752
B1151525626931N00922120EA0000000750
B1152025626776N00922223EA0000000736
B1152085626707N00922378EA0000000723
B1152145626657N00922581EA0000000710
B1152205626640N00922804EA0000000705
B1152265626650N00923027EA0000000708
B1152325626689N00923226EA0000000700
B1152405626781N00923401EA0000000694
B1152455626845N00923439EA0000000692
B1152555626946N00923359EA0000000681
B1153005626959N00923268EA0000000688
B1153055626937N00923185EA0000000696
B1153105626882N00923136EA0000000694
B1153175626779N00923132EA0000000691
B1153225626700N00923186EA0000000687
B1153285626613N00923310EA0000000680
B1153335626561N00923458EA0000000676
B1153385626541N00923630EA0000000683
B1153435626558N00923792EA0000000683
B1153495626608N00923974EA0000000660
B1153575626644N00924255EA0000000651
B1154025626627N00924443EA0000000646
B1154115626533N00924746EA0000000626
B1154165626451N00924858EA0000000617
B1154245626310N00924904EA0000000606
B1154295626239N00924852EA0000000599
B1154375626183N00924701EA0000000590
B1154435626189N00924574EA0000000585
B1154485626218N00924483EA0000000584
B1154545626273N00924407EA0000000584
B1154595626319N00924344EA0000000577
B1155055626375N00924268EA0000000566
B1155115626430N00924186EA0000000557
B1155185626489N00924078EA0000000545
B1155245626530N00923971EA0000000536
B1155315626553N00923828EA0000000523
B1155375626540N00923700EA0000000519
B1155425626504N00923602EA0000000509
B1155485626438N00923503EA0000000509
B1155565626324N00923423EA0000000509
B1156015626252N00923373EA0000000506
B1156075626163N00923322EA0000000508
B1156125626081N00923325EA0000000513
B1156185625988N00923426EA0000000514
B1156235625937N00923585EA0000000513
B1156295625929N00923815EA0000000507
B1156345625962N00923991EA0000000511
B1156395626022N00924115EA0000000517
B1156445626095N00924174EA0000000514
B1156495626164N00924161EA0000000509
B1156545626212N00924087EA0000000501
B1157015626223N00923937EA0000000492
B1157065626187N00923833EA0000000488
B1157115626128N00923748EA0000000487
B1157165626053N00923690EA0000000484
B1157225625949N00923668EA0000000477
B1157275625856N00923694EA0000000472
B1157325625772N00923788EA0000000477
B1157375625721N00923946EA0000000472
B1157425625723N00924134EA0000000468
B1157495625805N00924327EA0000000463
B1157545625880N00924361EA0000000465
B1157595625934N00924318EA0000000459
B1158055625947N00924205EA0000000443
B1158105625903N00924115EA0000000430
B1158185625773N00924058EA0000000413
B1158235625690N00924026EA0000000399
B1158285625639N00923941EA0000000389
B1158335625639N00923832EA0000000380
B1158385625680N00923748EA0000000372
B1158435625750N00923732EA0000000366
B1158485625825N00923801EA0000000362
B1158545625896N00923969EA0000000354
B1158595625919N00924159EA0000000347
B1159045625897N00924349EA0000000341
B1159095625835N00924488EA0000000332
B1159155625737N00924523EA0000000315
B1159205625682N00924452EA0000000299
B1159265625657N00924320EA0000000278
B1159315625652N00924199EA0000000264
B1159365625628N00924089EA0000000269
B1159415625561N00924040EA0000000266
B1159465625480N00924087EA0000000265
B1159525625406N00924258EA0000000259
B1159585625346N00924454EA0000000266
B1200035625295N00924606EA0000000284
B1200095625235N00924777EA0000000280
B1200145625178N00924922EA0000000270
B1200205625102N00925096EA0000000264
B1200285624993N00925332EA0000000248
B1200365624876N00925563EA0000000235
B1200415624798N00925705EA0000000231
B1200475624704N00925870EA0000000223
B1200535624611N00926029EA0000000223
B1201005624498N00926186EA0000000218
B1201085624353N00926250EA0000000204
B1201145624257N00926205EA0000000195
B1201205624232N00926079EA0000000187
B1201275624280N00925925EA0000000174
B1201355624317N00925738EA0000000163
B1201405624340N00925636EA0000000148
B1201465624366N00925514EA0000000122
B1201595624436N00925216EA0000000082
B1202075624476N00925036EA0000000055
B1202135624507N00924898EA0000000035
B1202205624539N00924749EA0000000025
B1202275624560N00924650EA0000000024
