AOGNOGN
HFDTE100825
HFFXA050
HFPLTPILOTINCHARGE:
HFGTYGLIDERTYPE:Twin Astir II
HFGIDGLIDERID:OY-ZXN
HFDTM100GPSDATUM:WGS-1984
HFRFWFIRMWAREVERSION:
HFRHWHARDWAREVERSION:
HFFTYFRTYPE:OGN-FLIGHTBOOK
HFGPSGENERIC
HFPRSPRESSALTSENSOR:
HFCIDCOMPETITIONID:XN
B1244345624552N00924767EA0000000024
B1244385624567N00924698EA0000000025
B1244405624575N00924660EA0000000027
B1244475624607N00924526EA0000000040
B1244545624642N00924396EA0000000055
B1245055624682N00924169EA0000000076
B1245135624662N00923983EA0000000094
B1245195624638N00923845EA0000000110
B1245265624587N00923705EA0000000131
B1256455625323N00924570EA0000000224
B1257035625152N00925138EA0000000197
B1257095625103N00925314EA0000000200
B1257165625042N00925500EA0000000202
B1257345624827N00925886EA0000000177
B1257505624590N00926018EA0000000160
B1258025624444N00925915EA0000000147
B1258135624348N00925776EA0000000127
B1258325624384N00925422EA0000000097
B1258375624410N00925328EA0000000073
B1258425624427N00925230EA0000000072
B1258525624473N00925046EA0000000045
B1259015624508N00924882EA0000000028
B1259115624540N00924733EA0000000025
