AOGNOGN
HFDTE010725
HFFXA050
HFPLTPILOTINCHARGE:
HFGTYGLIDERTYPE:SF-25
HFGIDGLIDERID:OY-XXV
HFDTM100GPSDATUM:WGS-1984
HFRFWFIRMWAREVERSION:
HFRHWHARDWAREVERSION:
HFFTYFRTYPE:OGN-FLIGHTBOOK
HFGPSGENERIC
HFPRSPRESSALTSENSOR:
HFCIDCOMPETITIONID:XV
B0939465537883N00845576EA0000000034
B0939505537892N00845502EA0000000034
B0939555537905N00845388EA0000000045
B0940025537924N00845213EA0000000066
B0940085537939N00845060EA0000000088
B0940155537951N00844880EA0000000112
B0940245537959N00844655EA0000000148
B0940325537954N00844457EA0000000186
B0940505537961N00844034EA0000000237
B0941065538180N00843875EA0000000269
B0941135538275N00843959EA0000000292
B0941275538383N00844281EA0000000307
B0941565538387N00845019EA0000000338
B0942015538374N00845146EA0000000336
B0942065538361N00845269EA0000000337
B0942115538347N00845388EA0000000333
B0942175538325N00845524EA0000000341
B0942235538302N00845658EA0000000342
B0942285538283N00845770EA0000000343
B0942395538234N00846058EA0000000357
B0942445538209N00846215EA0000000350
B0943305537819N00847577EA0000000373
B0944185537505N00846112EA0000000366
B0944245537473N00845906EA0000000376
B0944295537448N00845744EA0000000389
B0944345537422N00845581EA0000000388
B0944415537378N00845352EA0000000382
B0944465537347N00845195EA0000000377
B0945505536946N00843262EA0000000364
B0945555537031N00843171EA0000000368
B0946135537419N00843199EA0000000365
B0946195537551N00843229EA0000000363
B0946285537750N00843277EA0000000362
B0946345537881N00843314EA0000000362
B0946425538044N00843418EA0000000359
B0946585538240N00843877EA0000000345
B0947145538254N00844481EA0000000330
B0947195538267N00844671EA0000000324
B0947245538284N00844855EA0000000329
B0947335538290N00845184EA0000000331
B0947395538303N00845392EA0000000322
B0947505538486N00845536EA0000000321
B0948075538588N00845021EA0000000288
B0950035537966N00844689EA0000000048
B0950105537950N00844881EA0000000029
B0950175537935N00845046EA0000000028
B0950235537926N00845148EA0000000028
B0950285537920N00845209EA0000000028
