AOGNOGN
HFDTE010725
HFFXA050
HFPLTPILOTINCHARGE:
HFGTYGLIDERTYPE:LS-4
HFGIDGLIDERID:OY-XNV
HFDTM100GPSDATUM:WGS-1984
HFRFWFIRMWAREVERSION:
HFRHWHARDWAREVERSION:
HFFTYFRTYPE:OGN-FLIGHTBOOK
HFGPSGENERIC
HFPRSPRESSALTSENSOR:
HFCIDCOMPETITIONID:V8
B1557425537907N00845577EA0000000088
B1557485537913N00845420EA0000000217
B1557495537914N00845394EA0000000238
B1558245537869N00844531EA0000000354
B1558315537795N00844486EA0000000344
B1558395537706N00844596EA0000000341
B1558495537611N00844778EA0000000327
B1559015537511N00845033EA0000000324
B1559145537403N00845300EA0000000315
B1559195537406N00845445EA0000000312
B1559245537450N00845574EA0000000311
B1559315537535N00845710EA0000000309
B1559365537608N00845775EA0000000299
B1600095537883N00845132EA0000000267
B1600225538002N00844866EA0000000257
B1600365538171N00845092EA0000000242
B1600425538172N00845272EA0000000231
B1600485538227N00845453EA0000000229
B1600535538206N00845579EA0000000235
B1600585538173N00845520EA0000000228
B1601065538278N00845500EA0000000231
B1601145538241N00845625EA0000000221
B1601245538312N00845562EA0000000204
B1601295538309N00845706EA0000000196
B1601345538286N00845849EA0000000188
B1601505538177N00846287EA0000000167
B1601595538076N00846481EA0000000155
B1602045538012N00846542EA0000000155
B1602435537876N00845759EA0000000049
B1602485537886N00845614EA0000000037
B1602555537900N00845433EA0000000031
B1603025537904N00845319EA0000000030
