AOGNOGN
HFDTE190725
HFFXA050
HFPLTPILOTINCHARGE:
HFGTYGLIDERTYPE:ASW-19
HFGIDGLIDERID:OY-ZXX
HFDTM100GPSDATUM:WGS-1984
HFRFWFIRMWAREVERSION:
HFRHWHARDWAREVERSION:
HFFTYFRTYPE:OGN-FLIGHTBOOK
HFGPSGENERIC
HFPRSPRESSALTSENSOR:
HFCIDCOMPETITIONID:70
B1219015624621N00924452EA0000000022
B1219045624611N00924499EA0000000021
B1219065624603N00924535EA0000000022
B1219125624576N00924671EA0000000025
B1219185624544N00924822EA0000000042
B1219305624441N00925087EA0000000074
B1219365624379N00925212EA0000000087
B1219455624289N00925420EA0000000102
B1219505624256N00925564EA0000000114
B1219565624235N00925746EA0000000130
B1220015624227N00925897EA0000000150
B1220085624225N00926102EA0000000177
B1220175624220N00926355EA0000000212
B1220235624216N00926527EA0000000240
B1220285624220N00926663EA0000000267
B1220345624228N00926829EA0000000297
B1220445624236N00927102EA0000000346
B1220515624236N00927284EA0000000366
B1220565624230N00927415EA0000000384
B1221185624125N00927960EA0000000467
B1221235624080N00928067EA0000000487
B1221435623912N00928448EA0000000577
B1221485623956N00928540EA0000000580
B1221535624034N00928550EA0000000584
B1221585624099N00928459EA0000000590
B1222085624078N00928173EA0000000610
B1222135624009N00928102EA0000000625
B1222275623912N00928328EA0000000637
B1222325623973N00928407EA0000000652
B1222375624049N00928393EA0000000662
B1222425624110N00928298EA0000000663
B1222475624125N00928155EA0000000673
B1222525624092N00928023EA0000000680
B1222575624022N00927965EA0000000697
B1223065623932N00928100EA0000000700
B1223115623952N00928227EA0000000710
B1223165624016N00928288EA0000000721
B1223225624094N00928209EA0000000722
B1223315624080N00927945EA0000000735
B1223385623973N00927859EA0000000742
B1223525623884N00928141EA0000000764
B1223575623951N00928200EA0000000780
B1224035624044N00928155EA0000000779
B1224085624104N00928032EA0000000782
B1224135624121N00927871EA0000000791
B1224185624089N00927723EA0000000804
B1224345623907N00927804EA0000000822
B1224395623937N00927924EA0000000831
B1224455624019N00927961EA0000000835
B1224505624086N00927873EA0000000838
B1224565624115N00927693EA0000000857
B1225015624081N00927564EA0000000868
B1225065624012N00927497EA0000000866
B1225235623913N00927793EA0000000879
B1225315624024N00927828EA0000000892
B1225365624082N00927732EA0000000892
B1225425624108N00927562EA0000000896
B1225495624053N00927398EA0000000906
B1226045623903N00927546EA0000000902
B1226095623938N00927664EA0000000907
B1226145624009N00927702EA0000000927
B1226195624076N00927639EA0000000934
B1226265624138N00927452EA0000000929
B1226345624226N00927248EA0000000937
B1226395624308N00927218EA0000000940
B1226465624379N00927337EA0000000931
B1226515624366N00927455EA0000000922
B1226595624264N00927533EA0000000911
B1227065624162N00927446EA0000000905
B1227125624096N00927300EA0000000900
B1227205624004N00927036EA0000000839
B1227265623922N00926775EA0000000790
B1227315623855N00926554EA0000000801
B1227385623771N00926271EA0000000808
B1227445623714N00926068EA0000000834
B1227505623669N00925903EA0000000842
B1227575623621N00925738EA0000000836
B1228025623586N00925626EA0000000837
B1228105623535N00925438EA0000000820
B1228155623520N00925291EA0000000813
B1228205623544N00925150EA0000000810
B1228265623615N00925047EA0000000801
B1228315623690N00925029EA0000000792
B1228375623778N00925034EA0000000783
B1228465623906N00925075EA0000000776
B1228525623995N00925129EA0000000774
B1228585624080N00925204EA0000000782
B1229035624162N00925182EA0000000785
B1229085624224N00925073EA0000000781
B1229155624235N00924867EA0000000769
B1229225624158N00924739EA0000000759
B1229275624085N00924752EA0000000743
B1229345624002N00924875EA0000000737
B1229425623942N00925065EA0000000749
B1229475623910N00925184EA0000000757
B1229535623880N00925327EA0000000756
B1229595623855N00925473EA0000000750
B1230085623831N00925692EA0000000738
B1230135623825N00925811EA0000000731
B1230185623831N00925930EA0000000726
B1230285623856N00926169EA0000000723
B1230345623882N00926315EA0000000723
B1230405623915N00926458EA0000000727
B1230465623978N00926579EA0000000735
B1230525624067N00926633EA0000000746
B1230575624146N00926628EA0000000748
B1231025624218N00926562EA0000000748
B1231085624273N00926412EA0000000743
B1231145624283N00926227EA0000000741
B1231225624224N00926014EA0000000754
B1231275624167N00925908EA0000000762
B1231345624073N00925793EA0000000782
B1231465623903N00925769EA0000000796
B1231525623839N00925871EA0000000798
B1231575623810N00925990EA0000000808
B1232025623813N00926120EA0000000813
B1232075623856N00926238EA0000000814
B1232125623930N00926293EA0000000820
B1232175624012N00926260EA0000000826
B1232225624078N00926150EA0000000833
B1232305624132N00925906EA0000000833
B1232375624144N00925671EA0000000845
B1232425624140N00925497EA0000000844
B1232495624125N00925236EA0000000839
B1232565624099N00924988EA0000000838
B1233025624058N00924800EA0000000834
B1233095623971N00924650EA0000000840
B1233145623902N00924551EA0000000836
B1233195623862N00924408EA0000000834
B1233245623862N00924244EA0000000821
B1233305623910N00924061EA0000000807
B1233395624051N00923912EA0000000798
B1233445624133N00923931EA0000000801
B1233495624184N00924028EA0000000801
B1233565624176N00924203EA0000000808
B1234025624134N00924347EA0000000815
B1234115624028N00924516EA0000000822
B1234195623934N00924658EA0000000815
B1234255623870N00924767EA0000000813
B1234315623808N00924869EA0000000805
B1234445623667N00925088EA0000000788
B1234505623583N00925111EA0000000797
B1234555623511N00925043EA0000000794
B1235005623460N00924907EA0000000793
B1235065623454N00924716EA0000000807
B1235125623476N00924533EA0000000788
B1235175623496N00924366EA0000000766
B1235235623517N00924175EA0000000746
B1235285623532N00924020EA0000000724
B1235355623556N00923799EA0000000689
B1235405623590N00923640EA0000000680
B1235455623657N00923530EA0000000673
B1235515623760N00923498EA0000000663
B1235575623848N00923559EA0000000658
B1236035623908N00923665EA0000000646
B1236105623953N00923822EA0000000629
B1236155623974N00923940EA0000000624
B1236265624013N00924195EA0000000618
B1236315624020N00924315EA0000000611
B1236395624011N00924514EA0000000608
B1236465623977N00924680EA0000000610
B1236535623893N00924802EA0000000613
B1236585623814N00924806EA0000000625
B1237045623727N00924721EA0000000636
B1237105623663N00924566EA0000000634
B1237185623632N00924298EA0000000631
B1237235623644N00924127EA0000000628
B1237285623690N00923984EA0000000624
B1237345623781N00923897EA0000000618
B1237395623860N00923912EA0000000610
B1237465623937N00924036EA0000000600
B1237525623952N00924192EA0000000596
B1237575623920N00924315EA0000000601
B1238045623829N00924402EA0000000615
B1238115623726N00924328EA0000000615
B1238165623684N00924193EA0000000616
B1238215623685N00924032EA0000000609
B1238265623722N00923879EA0000000599
B1238315623789N00923773EA0000000594
B1238375623884N00923754EA0000000587
B1238425623950N00923815EA0000000580
B1238485623992N00923948EA0000000576
B1238555623995N00924127EA0000000576
B1239015623981N00924282EA0000000571
B1239125623959N00924577EA0000000535
B1239185623947N00924742EA0000000513
B1239245623944N00924916EA0000000509
B1239295623978N00925032EA0000000519
B1239345624041N00925076EA0000000522
B1239395624107N00925027EA0000000522
B1239445624150N00924913EA0000000523
B1239525624160N00924683EA0000000520
B1240015624118N00924405EA0000000527
B1240065624062N00924279EA0000000530
B1240115623987N00924192EA0000000534
B1240185623866N00924164EA0000000531
B1240235623791N00924215EA0000000534
B1240295623736N00924337EA0000000543
B1240355623712N00924479EA0000000552
B1240405623717N00924597EA0000000556
B1240455623752N00924707EA0000000548
B1240505623826N00924762EA0000000556
B1240555623905N00924732EA0000000567
B1241005623965N00924637EA0000000571
B1241065623988N00924471EA0000000579
B1241145623935N00924257EA0000000577
B1241215623833N00924155EA0000000579
B1241265623755N00924159EA0000000586
B1241315623685N00924200EA0000000597
B1241405623571N00924277EA0000000607
B1241465623517N00924382EA0000000611
B1241525623493N00924524EA0000000607
B1242125623282N00924685EA0000000601
B1242185623226N00924535EA0000000595
B1242235623219N00924375EA0000000589
B1242295623259N00924188EA0000000593
B1242365623347N00924026EA0000000614
B1242435623456N00923946EA0000000633
B1242485623534N00923947EA0000000642
B1242535623600N00924003EA0000000650
B1243015623658N00924168EA0000000656
B1243075623672N00924315EA0000000659
B1243185623645N00924586EA0000000670
B1243295623542N00924785EA0000000652
B1243405623390N00924767EA0000000648
B1243455623338N00924653EA0000000653
B1243505623313N00924502EA0000000651
B1243555623324N00924336EA0000000649
B1244015623383N00924165EA0000000648
B1244105623521N00924064EA0000000656
B1244155623591N00924092EA0000000656
B1244205623644N00924170EA0000000657
B1244275623685N00924330EA0000000647
B1244395623680N00924647EA0000000622
B1244445623647N00924770EA0000000613
B1244525623549N00924898EA0000000608
B1244595623443N00924871EA0000000610
B1245045623391N00924754EA0000000621
B1245125623386N00924494EA0000000622
B1245175623420N00924332EA0000000621
B1245245623498N00924139EA0000000622
B1245315623607N00924030EA0000000614
B1245365623690N00924030EA0000000608
B1245415623757N00924098EA0000000604
B1245465623787N00924214EA0000000594
B1245535623778N00924399EA0000000586
B1245585623735N00924499EA0000000580
B1246035623669N00924547EA0000000568
B1246085623593N00924523EA0000000560
B1246135623533N00924428EA0000000552
B1246185623505N00924282EA0000000544
B1246235623518N00924114EA0000000539
B1246285623569N00923976EA0000000537
B1246355623679N00923880EA0000000521
B1246435623810N00923911EA0000000515
B1246535623906N00924121EA0000000500
B1246595623908N00924292EA0000000484
B1247045623886N00924437EA0000000475
B1247115623853N00924636EA0000000466
B1247205623796N00924870EA0000000463
B1247265623725N00924973EA0000000468
B1247345623602N00924964EA0000000471
B1247405623532N00924829EA0000000466
B1247465623511N00924635EA0000000465
B1247515623540N00924479EA0000000460
B1248015623676N00924276EA0000000448
B1248075623777N00924244EA0000000441
B1248125623849N00924291EA0000000437
B1248175623888N00924398EA0000000431
B1248235623880N00924549EA0000000422
B1248315623821N00924734EA0000000416
B1248385623764N00924889EA0000000415
B1248435623728N00925000EA0000000414
B1248485623694N00925114EA0000000410
B1248555623653N00925279EA0000000401
B1249095623476N00925439EA0000000400
B1249215623288N00925380EA0000000403
B1249265623248N00925472EA0000000389
B1249315623256N00925591EA0000000380
B1249375623317N00925682EA0000000380
B1249445623419N00925694EA0000000373
B1249505623506N00925625EA0000000370
B1249555623558N00925505EA0000000357
B1250025623561N00925285EA0000000353
B1250095623529N00925065EA0000000357
B1250145623537N00924906EA0000000357
B1250205623605N00924774EA0000000348
B1250255623686N00924754EA0000000341
B1250305623758N00924806EA0000000334
B1250365623815N00924930EA0000000320
B1250425623844N00925078EA0000000314
B1250475623844N00925200EA0000000308
B1250535623780N00925289EA0000000299
B1250585623705N00925249EA0000000292
B1251035623664N00925114EA0000000288
B1251085623670N00924950EA0000000276
B1251145623733N00924776EA0000000266
B1251195623808N00924667EA0000000249
B1251285623966N00924578EA0000000231
B1251335624049N00924509EA0000000222
B1251385624113N00924385EA0000000224
B1251465624190N00924179EA0000000225
B1251515624228N00924051EA0000000205
B1251595624285N00923832EA0000000179
B1252045624324N00923696EA0000000175
B1252105624395N00923579EA0000000175
B1252165624478N00923505EA0000000164
B1252235624585N00923453EA0000000154
B1252285624663N00923461EA0000000143
B1252335624726N00923537EA0000000139
B1252385624754N00923671EA0000000129
B1252465624735N00923906EA0000000101
B1252545624693N00924110EA0000000072
B1253015624655N00924281EA0000000045
B1253105624610N00924498EA0000000026
B1253175624585N00924620EA0000000025
