AOGNOGN
HFDTE190725
HFFXA050
HFPLTPILOTINCHARGE:
HFGTYGLIDERTYPE:ASW-19
HFGIDGLIDERID:OY-ZXX
HFDTM100GPSDATUM:WGS-1984
HFRFWFIRMWAREVERSION:
HFRHWHARDWAREVERSION:
HFFTYFRTYPE:OGN-FLIGHTBOOK
HFGPSGENERIC
HFPRSPRESSALTSENSOR:
HFCIDCOMPETITIONID:70
B1134575624620N00924450EA0000000026
B1135005624610N00924499EA0000000025
B1135075624582N00924648EA0000000026
B1135135624547N00924806EA0000000030
B1135225624470N00925035EA0000000053
B1135275624409N00925139EA0000000065
B1135335624325N00925252EA0000000075
B1135405624216N00925366EA0000000093
B1135455624137N00925450EA0000000107
B1135515624043N00925546EA0000000126
B1135565623974N00925651EA0000000137
B1136025623933N00925827EA0000000154
B1136075623920N00925983EA0000000171
B1136145623919N00926200EA0000000192
B1136215623955N00926416EA0000000204
B1136285624011N00926614EA0000000221
B1136355624078N00926797EA0000000233
B1136475624185N00927107EA0000000260
B1136525624225N00927243EA0000000282
B1136595624284N00927432EA0000000307
B1137165624230N00927855EA0000000368
B1137215624149N00927887EA0000000378
B1137275624044N00927842EA0000000395
B1137325623970N00927735EA0000000411
B1137375623929N00927580EA0000000425
B1137435623889N00927391EA0000000440
B1137485623854N00927238EA0000000452
B1137545623815N00927058EA0000000464
B1138005623775N00926876EA0000000472
B1138065623725N00926704EA0000000481
B1138115623674N00926570EA0000000491
B1138195623579N00926379EA0000000516
B1138255623504N00926260EA0000000530
B1138305623436N00926169EA0000000537
B1138375623342N00926054EA0000000556
B1138445623243N00925947EA0000000563
B1138515623157N00925784EA0000000570
B1138575623118N00925592EA0000000581
B1139035623110N00925384EA0000000603
B1139085623124N00925223EA0000000622
B1139145623113N00925043EA0000000622
B1139285622942N00924876EA0000000613
B1139395622812N00924966EA0000000606
B1139455622766N00925086EA0000000596
B1139515622736N00925232EA0000000594
B1139565622719N00925366EA0000000585
B1140035622705N00925553EA0000000591
B1140235622758N00926034EA0000000599
B1140315622854N00926155EA0000000600
B1140485623127N00926093EA0000000600
B1141015623313N00925850EA0000000577
B1141095623419N00925675EA0000000556
B1141155623489N00925511EA0000000547
B1141205623524N00925354EA0000000542
B1141275623545N00925131EA0000000538
B1141325623544N00924978EA0000000534
B1141425623535N00924683EA0000000521
B1141505623522N00924444EA0000000513
B1141595623506N00924172EA0000000496
B1142095623483N00923876EA0000000476
B1142155623461N00923686EA0000000454
B1142205623459N00923515EA0000000452
B1142255623493N00923363EA0000000446
B1142315623567N00923236EA0000000440
B1142365623646N00923190EA0000000430
B1142415623724N00923231EA0000000422
B1142475623780N00923363EA0000000413
B1142535623811N00923523EA0000000404
B1142595623836N00923689EA0000000392
B1143045623850N00923827EA0000000385
B1143095623860N00923960EA0000000376
B1143145623867N00924093EA0000000363
B1143225623876N00924318EA0000000340
B1143285623877N00924496EA0000000328
B1143385623866N00924798EA0000000311
B1143455623858N00925004EA0000000309
B1143505623848N00925144EA0000000301
B1144015623783N00925445EA0000000275
B1144065623735N00925569EA0000000271
B1144115623667N00925646EA0000000270
B1144165623587N00925633EA0000000261
B1144215623532N00925520EA0000000257
B1144265623526N00925371EA0000000252
B1144335623584N00925193EA0000000242
B1144385623654N00925117EA0000000234
B1144435623730N00925127EA0000000231
B1144485623778N00925228EA0000000220
B1144535623761N00925360EA0000000207
B1144585623683N00925395EA0000000201
B1145035623628N00925291EA0000000190
B1145085623642N00925141EA0000000180
B1145145623713N00925008EA0000000170
B1145205623807N00924940EA0000000161
B1145255623888N00924892EA0000000154
B1145335624003N00924760EA0000000146
B1145385624069N00924658EA0000000138
B1145445624141N00924521EA0000000128
B1145495624200N00924402EA0000000117
B1145545624265N00924291EA0000000108
B1146025624376N00924125EA0000000100
B1146095624468N00923968EA0000000089
B1146145624546N00923892EA0000000080
B1146195624622N00923942EA0000000076
B1146245624656N00924082EA0000000064
B1146295624644N00924233EA0000000051
B1146375624600N00924449EA0000000028
B1146445624568N00924596EA0000000029
B1146505624553N00924671EA0000000030
