AOGNOGN
HFDTE190725
HFFXA050
HFPLTPILOTINCHARGE:
HFGTYGLIDERTYPE:EuroFox
HFGIDGLIDERID:OY-9448
HFDTM100GPSDATUM:WGS-1984
HFRFWFIRMWAREVERSION:
HFRHWHARDWAREVERSION:
HFFTYFRTYPE:OGN-FLIGHTBOOK
HFGPSGENERIC
HFPRSPRESSALTSENSOR:
HFCIDCOMPETITIONID:
B1219015624611N00924497EA0000000029
B1219065624594N00924582EA0000000029
B1219065624594N00924582EA0000000029
B1219125624568N00924717EA0000000033
B1219225624499N00924957EA0000000060
B1219305624424N00925125EA0000000080
B1219365624362N00925249EA0000000093
B1219455624278N00925465EA0000000109
B1220005624229N00925919EA0000000156
B1220065624225N00926095EA0000000179
B1220125624221N00926264EA0000000198
B1220205624217N00926492EA0000000231
B1220265624220N00926660EA0000000263
B1220315624226N00926795EA0000000288
B1220365624233N00926935EA0000000314
B1220425624238N00927098EA0000000344
B1220515624236N00927334EA0000000371
B1221005624218N00927568EA0000000403
B1221055624197N00927693EA0000000422
B1221115624160N00927842EA0000000445
B1221185624111N00928002EA0000000474
B1221235624064N00928108EA0000000493
B1221285624010N00928203EA0000000526
B1221335623949N00928280EA0000000563
B1221405623850N00928324EA0000000612
B1221475623752N00928265EA0000000622
B1221545623688N00928096EA0000000608
B1221595623670N00927944EA0000000585
B1222065623683N00927724EA0000000547
B1222125623727N00927540EA0000000495
B1222185623796N00927351EA0000000461
B1222275623902N00927097EA0000000423
B1222345623990N00926909EA0000000404
B1222405624067N00926745EA0000000394
B1222505624193N00926467EA0000000388
B1222555624258N00926327EA0000000379
B1223015624338N00926157EA0000000385
B1223065624397N00926025EA0000000392
B1223135624484N00925862EA0000000382
B1223195624562N00925728EA0000000362
B1223275624664N00925537EA0000000330
B1223395624808N00925220EA0000000300
B1223455624869N00925058EA0000000284
B1223515624930N00924898EA0000000271
B1223595625004N00924680EA0000000248
B1224045625047N00924551EA0000000240
B1224115625104N00924382EA0000000227
B1224175625147N00924231EA0000000207
B1224235625160N00924057EA0000000184
B1224285625138N00923911EA0000000163
B1224335625083N00923795EA0000000143
B1224395624992N00923723EA0000000129
B1224455624894N00923695EA0000000108
B1224505624814N00923704EA0000000092
B1224555624754N00923786EA0000000079
B1225015624725N00923944EA0000000060
B1225105624680N00924182EA0000000040
B1225175624641N00924359EA0000000026
B1225255624608N00924524EA0000000024
