AOGNOGN
HFDTE190725
HFFXA050
HFPLTPILOTINCHARGE:
HFGTYGLIDERTYPE:LS-4
HFGIDGLIDERID:OY-XKV
HFDTM100GPSDATUM:WGS-1984
HFRFWFIRMWAREVERSION:
HFRHWHARDWAREVERSION:
HFFTYFRTYPE:OGN-FLIGHTBOOK
HFGPSGENERIC
HFPRSPRESSALTSENSOR:
HFCIDCOMPETITIONID:X7
B1147355624615N00924477EA0000000021
B1147395624601N00924549EA0000000020
B1147445624578N00924660EA0000000023
B1147565624493N00924962EA0000000044
B1148025624419N00925094EA0000000054
B1148135624246N00925223EA0000000088
B1148205624129N00925259EA0000000106
B1148285623989N00925284EA0000000123
B1148365623848N00925299EA0000000143
B1148425623741N00925312EA0000000157
B1148495623614N00925341EA0000000172
B1148545623526N00925386EA0000000187
B1149015623412N00925474EA0000000207
B1149065623335N00925544EA0000000221
B1149155623197N00925676EA0000000245
B1149225623086N00925788EA0000000267
B1149275623009N00925856EA0000000297
B1149345622911N00925922EA0000000338
B1149415622814N00925999EA0000000359
B1149465622738N00926077EA0000000365
B1149515622663N00926151EA0000000391
B1149575622577N00926226EA0000000419
B1150055622465N00926336EA0000000446
B1150115622370N00926363EA0000000467
B1150165622292N00926318EA0000000474
B1150215622231N00926212EA0000000488
B1150265622208N00926062EA0000000504
B1150325622255N00925885EA0000000520
B1150375622336N00925802EA0000000528
B1150435622448N00925818EA0000000543
B1150505622560N00925898EA0000000571
B1150555622635N00925882EA0000000580
B1151015622661N00925743EA0000000578
B1151065622605N00925677EA0000000563
B1151155622491N00925818EA0000000576
B1151205622433N00925896EA0000000577
B1151255622451N00926011EA0000000583
B1151315622537N00925978EA0000000577
B1151365622565N00925836EA0000000571
B1151415622518N00925731EA0000000587
B1151465622466N00925788EA0000000597
B1151515622501N00925888EA0000000592
B1151565622572N00925840EA0000000588
B1152015622563N00925700EA0000000597
B1152075622483N00925650EA0000000604
B1152125622463N00925751EA0000000609
B1152175622533N00925793EA0000000601
B1152225622601N00925695EA0000000608
B1152275622612N00925562EA0000000626
B1152325622555N00925508EA0000000631
B1152375622526N00925596EA0000000637
B1152425622577N00925672EA0000000634
B1152475622644N00925611EA0000000633
B1152525622667N00925481EA0000000632
B1152585622610N00925377EA0000000635
B1153035622554N00925435EA0000000639
B1153085622579N00925535EA0000000646
B1153145622655N00925486EA0000000646
B1153205622626N00925357EA0000000653
B1153255622572N00925397EA0000000651
B1153305622596N00925494EA0000000661
B1153355622666N00925481EA0000000660
B1153405622677N00925361EA0000000661
B1153465622610N00925349EA0000000663
B1153515622614N00925455EA0000000666
B1153595622718N00925484EA0000000667
B1154045622735N00925358EA0000000660
B1154095622676N00925309EA0000000661
B1154145622658N00925414EA0000000662
B1154195622704N00925510EA0000000666
B1154245622772N00925529EA0000000679
B1154295622829N00925455EA0000000680
B1154345622810N00925343EA0000000671
B1154405622745N00925397EA0000000668
B1154455622769N00925510EA0000000664
B1154505622830N00925581EA0000000680
B1154555622893N00925598EA0000000692
B1155005622943N00925528EA0000000702
B1155065622904N00925411EA0000000708
B1155115622852N00925480EA0000000707
B1155165622865N00925613EA0000000707
B1155225622944N00925675EA0000000722
B1155275623007N00925611EA0000000729
B1155345622957N00925479EA0000000731
B1155395622920N00925574EA0000000735
B1155455622987N00925643EA0000000743
B1155505623035N00925544EA0000000741
B1155565622977N00925431EA0000000755
B1156025622927N00925528EA0000000759
B1156075622975N00925607EA0000000763
B1156125623034N00925533EA0000000759
B1156205622954N00925385EA0000000771
B1156265622912N00925511EA0000000773
B1156315622969N00925571EA0000000787
B1156365623011N00925472EA0000000783
B1156425622947N00925363EA0000000789
B1156475622899N00925450EA0000000794
B1156525622939N00925539EA0000000803
B1156595623009N00925432EA0000000800
B1157075622925N00925300EA0000000808
B1157125622894N00925407EA0000000810
B1157175622946N00925479EA0000000828
B1157225623011N00925451EA0000000835
B1157275623027N00925336EA0000000840
B1157325622967N00925285EA0000000839
B1157375622927N00925374EA0000000837
B1157435622971N00925493EA0000000847
B1157485623037N00925505EA0000000847
B1157535623055N00925392EA0000000845
B1157585622990N00925328EA0000000848
B1158035622923N00925399EA0000000850
B1158095622941N00925554EA0000000863
B1158145623013N00925560EA0000000868
B1158195623040N00925446EA0000000864
B1158245622984N00925367EA0000000868
B1158295622921N00925430EA0000000875
B1158345622929N00925558EA0000000879
B1158395623000N00925567EA0000000880
B1158445623012N00925439EA0000000873
B1158495622946N00925411EA0000000884
B1158545622905N00925517EA0000000890
B1158595622932N00925628EA0000000900
B1159045623002N00925630EA0000000890
B1159095623023N00925505EA0000000889
B1159155622947N00925456EA0000000886
B1159205622905N00925558EA0000000892
B1159255622927N00925684EA0000000893
B1159305622998N00925695EA0000000889
B1159355623019N00925571EA0000000887
B1159405622964N00925500EA0000000884
B1159475622875N00925556EA0000000899
B1159525622844N00925656EA0000000896
B1159575622872N00925767EA0000000890
B1200025622944N00925761EA0000000872
B1200075622966N00925632EA0000000863
B1200145622890N00925508EA0000000874
B1200195622826N00925462EA0000000881
B1200245622765N00925477EA0000000878
B1200295622763N00925589EA0000000866
B1200345622832N00925621EA0000000855
B1200395622894N00925517EA0000000843
B1200445622929N00925381EA0000000857
B1200495622909N00925266EA0000000865
B1200545622847N00925278EA0000000854
B1200595622839N00925396EA0000000851
B1201045622895N00925472EA0000000848
B1201105622982N00925422EA0000000850
B1201175623055N00925295EA0000000843
B1201225623086N00925171EA0000000847
B1201275623116N00925042EA0000000848
B1201355623158N00924848EA0000000842
B1201435623217N00924642EA0000000813
B1201525623339N00924435EA0000000785
B1202005623476N00924298EA0000000773
B1202065623572N00924201EA0000000765
B1202125623665N00924110EA0000000758
B1202195623776N00924008EA0000000745
B1202245623854N00923919EA0000000738
B1202305623948N00923801EA0000000737
B1202365624039N00923689EA0000000735
B1202435624140N00923552EA0000000731
B1202485624206N00923444EA0000000725
B1202555624302N00923291EA0000000714
B1203025624402N00923143EA0000000703
B1203105624518N00922969EA0000000692
B1203165624616N00922887EA0000000696
B1203225624718N00922865EA0000000689
B1203305624849N00922830EA0000000703
B1203365624938N00922786EA0000000695
B1203445625050N00922639EA0000000667
B1204065625297N00922015EA0000000621
B1204145625380N00921820EA0000000642
B1204205625438N00921687EA0000000640
B1204265625420N00921546EA0000000643
B1204315625360N00921578EA0000000638
B1204365625370N00921693EA0000000633
B1204425625453N00921773EA0000000626
B1204495625548N00921684EA0000000630
B1204545625589N00921562EA0000000623
B1205035625583N00921301EA0000000629
B1205095625549N00921142EA0000000626
B1205145625508N00921018EA0000000618
B1205195625438N00920969EA0000000625
B1205245625389N00921052EA0000000642
B1205305625428N00921156EA0000000655
B1205355625477N00921072EA0000000652
B1205405625439N00920950EA0000000645
B1205465625368N00921008EA0000000666
B1205515625388N00921120EA0000000671
B1205565625451N00921066EA0000000676
B1206025625404N00920933EA0000000680
B1206075625347N00921006EA0000000684
B1206125625373N00921115EA0000000699
B1206185625444N00921033EA0000000698
B1206235625391N00920926EA0000000707
B1206285625321N00920960EA0000000719
B1206345625335N00921079EA0000000720
B1206395625405N00921043EA0000000718
B1206445625401N00920893EA0000000724
B1206505625315N00920834EA0000000730
B1206585625309N00920995EA0000000739
B1207035625379N00920946EA0000000738
B1207085625371N00920799EA0000000745
B1207135625305N00920751EA0000000751
B1207225625305N00920916EA0000000752
B1207275625369N00920851EA0000000743
B1207325625364N00920696EA0000000755
B1207385625294N00920605EA0000000759
B1207435625256N00920688EA0000000755
B1207485625303N00920770EA0000000740
B1207545625358N00920643EA0000000735
B1208015625323N00920445EA0000000740
B1208065625261N00920418EA0000000750
B1208115625260N00920529EA0000000753
B1208175625339N00920493EA0000000737
B1208225625316N00920348EA0000000748
B1208275625249N00920297EA0000000760
B1208325625200N00920368EA0000000765
B1208375625237N00920460EA0000000772
B1208425625301N00920406EA0000000769
B1208475625291N00920267EA0000000772
B1208525625224N00920207EA0000000780
B1208585625164N00920298EA0000000780
B1209035625217N00920382EA0000000787
B1209085625277N00920288EA0000000804
B1209145625235N00920149EA0000000810
B1209195625173N00920208EA0000000811
B1209245625200N00920319EA0000000823
B1209305625279N00920256EA0000000830
B1209355625250N00920127EA0000000842
B1209445625187N00920245EA0000000859
B1209495625255N00920263EA0000000862
B1209545625281N00920127EA0000000870
B1210005625208N00920055EA0000000879
B1210055625180N00920156EA0000000885
B1210105625245N00920208EA0000000889
B1210155625297N00920093EA0000000895
B1210205625247N00919974EA0000000903
B1210255625180N00920034EA0000000909
B1210305625214N00920145EA0000000919
B1210355625282N00920087EA0000000932
B1210405625261N00919950EA0000000939
B1210455625189N00919953EA0000000948
B1210505625176N00920068EA0000000955
B1210555625239N00920119EA0000000966
B1211015625279N00919971EA0000000965
B1211065625220N00919871EA0000000978
B1211115625161N00919927EA0000000989
B1211175625192N00920048EA0000000997
B1211225625257N00919986EA0000001002
B1211275625239N00919842EA0000001010
B1211325625165N00919852EA0000001012
B1211375625166N00919979EA0000001027
B1211425625232N00919990EA0000001042
B1211475625260N00919861EA0000001040
B1211525625199N00919769EA0000001047
B1211575625137N00919838EA0000001051
B1212025625158N00919956EA0000001057
B1212075625232N00919953EA0000001065
B1212125625253N00919813EA0000001070
B1212175625189N00919742EA0000001081
B1212235625144N00919861EA0000001082
B1212285625201N00919937EA0000001090
B1212335625254N00919840EA0000001098
B1212385625216N00919714EA0000001100
B1212445625137N00919767EA0000001110
B1212495625158N00919882EA0000001113
B1212545625232N00919872EA0000001116
B1212595625249N00919734EA0000001125
B1213045625187N00919658EA0000001132
B1213095625136N00919743EA0000001127
B1213145625182N00919841EA0000001130
B1213205625262N00919761EA0000001138
B1213255625251N00919623EA0000001146
B1213305625181N00919577EA0000001151
B1213355625123N00919647EA0000001151
B1213405625118N00919767EA0000001145
B1213465625157N00919919EA0000001126
B1213525625204N00920070EA0000001120
B1213575625243N00920192EA0000001115
B1214025625272N00920328EA0000001104
B1214075625287N00920475EA0000001098
B1214145625306N00920682EA0000001087
B1214205625313N00920861EA0000001083
B1214265625318N00921048EA0000001076
B1214335625327N00921270EA0000001058
B1214395625329N00921469EA0000001051
B1214445625326N00921627EA0000001053
B1214505625318N00921811EA0000001045
B1214575625315N00922024EA0000001038
B1215055625317N00922263EA0000001035
B1215105625328N00922412EA0000001032
B1215155625354N00922554EA0000001034
B1215215625391N00922711EA0000001034
B1215265625425N00922835EA0000001027
B1215315625465N00922959EA0000001016
B1215365625507N00923084EA0000001009
B1215435625568N00923267EA0000001007
B1215495625619N00923423EA0000001007
B1215545625661N00923556EA0000001015
B1215595625699N00923670EA0000001032
B1216045625761N00923674EA0000001037
B1216105625767N00923527EA0000001029
B1216155625699N00923518EA0000001037
B1216205625649N00923613EA0000001035
B1216265625685N00923729EA0000001043
B1216315625742N00923656EA0000001044
B1216365625709N00923536EA0000001042
B1216415625645N00923578EA0000001042
B1216465625662N00923692EA0000001041
B1216515625731N00923740EA0000001043
B1216585625833N00923808EA0000001036
B1217055625926N00923924EA0000001029
B1217115625995N00924063EA0000001013
B1217185626074N00924249EA0000000998
B1217285626183N00924520EA0000000982
B1217335626237N00924646EA0000000977
B1217405626316N00924824EA0000000956
B1217455626377N00924957EA0000000943
B1217505626435N00925088EA0000000936
B1217565626501N00925256EA0000000921
B1218015626555N00925404EA0000000912
B1218065626604N00925550EA0000000913
B1218125626663N00925709EA0000000913
B1218195626735N00925887EA0000000900
B1218295626845N00926145EA0000000886
B1218345626897N00926268EA0000000885
B1218395626950N00926387EA0000000879
B1218475627032N00926573EA0000000877
B1218555627109N00926740EA0000000870
B1219005627160N00926838EA0000000857
B1219095627262N00927027EA0000000843
B1219145627320N00927123EA0000000847
B1219195627377N00927214EA0000000843
B1219245627433N00927304EA0000000836
B1219325627525N00927447EA0000000825
B1219385627610N00927514EA0000000820
B1219475627751N00927559EA0000000801
B1219545627868N00927589EA0000000786
B1220005627967N00927612EA0000000785
B1220055628042N00927630EA0000000790
B1220105628100N00927695EA0000000785
B1220185628166N00927878EA0000000782
B1220245628227N00927992EA0000000799
B1220295628217N00928113EA0000000810
B1220355628137N00928086EA0000000805
B1220405628163N00927960EA0000000797
B1220475628273N00927955EA0000000827
B1220525628285N00928061EA0000000831
B1220585628202N00928034EA0000000830
B1221035628190N00927892EA0000000836
B1221115628287N00927793EA0000000852
B1221165628299N00927914EA0000000861
B1221225628215N00927909EA0000000866
B1221275628202N00927772EA0000000880
B1221355628302N00927741EA0000000901
B1221405628296N00927862EA0000000911
B1221465628213N00927842EA0000000919
B1221515628223N00927715EA0000000927
B1221565628295N00927722EA0000000939
B1222015628293N00927849EA0000000948
B1222065628219N00927862EA0000000959
B1222115628198N00927734EA0000000963
B1222175628277N00927687EA0000000980
B1222225628304N00927799EA0000000990
B1222275628241N00927864EA0000000995
B1222345628211N00927707EA0000000996
B1222405628303N00927670EA0000001010
B1222455628354N00927768EA0000001019
B1222515628284N00927835EA0000001021
B1222565628270N00927700EA0000001023
B1223015628325N00927591EA0000001034
B1223065628390N00927620EA0000001046
B1223125628339N00927723EA0000001033
B1223175628274N00927605EA0000001033
B1223235628268N00927431EA0000001059
B1223285628335N00927426EA0000001065
B1223335628329N00927553EA0000001078
B1223385628257N00927550EA0000001083
B1223475628304N00927395EA0000001097
B1223525628322N00927515EA0000001101
B1224015628214N00927474EA0000001115
B1224085628293N00927416EA0000001120
B1224135628298N00927545EA0000001128
B1224195628213N00927558EA0000001139
B1224245628205N00927428EA0000001144
B1224305628281N00927413EA0000001157
B1224355628283N00927535EA0000001156
B1224435628180N00927486EA0000001172
B1224485628217N00927374EA0000001168
B1224535628280N00927431EA0000001184
B1224585628263N00927557EA0000001185
B1225045628177N00927535EA0000001196
B1225095628182N00927398EA0000001200
B1225145628249N00927395EA0000001210
B1225195628273N00927520EA0000001211
B1225245628295N00927659EA0000001214
B1225295628340N00927786EA0000001216
B1225345628395N00927897EA0000001219
B1225395628446N00928014EA0000001216
B1225455628486N00928179EA0000001206
B1225505628516N00928323EA0000001193
B1225565628542N00928502EA0000001183
B1226015628548N00928659EA0000001172
B1226115628551N00928972EA0000001167
B1226165628565N00929122EA0000001163
B1226235628603N00929316EA0000001156
B1226285628642N00929446EA0000001149
B1226345628697N00929596EA0000001139
B1226435628789N00929815EA0000001120
B1226485628845N00929937EA0000001111
B1226535628900N00930057EA0000001106
B1226585628949N00930183EA0000001099
B1227035628997N00930313EA0000001093
B1227085629040N00930444EA0000001090
B1227135629084N00930569EA0000001087
B1227185629132N00930685EA0000001083
B1227235629178N00930800EA0000001070
B1227285629221N00930928EA0000001058
B1227345629275N00931086EA0000001072
B1227405629321N00931226EA0000001093
B1227455629356N00931341EA0000001101
B1227515629392N00931490EA0000001112
B1227565629350N00931574EA0000001133
B1228025629290N00931481EA0000001131
B1228095629361N00931374EA0000001135
B1228145629409N00931471EA0000001144
B1228195629383N00931589EA0000001154
B1228245629309N00931580EA0000001154
B1228305629323N00931432EA0000001144
B1228355629392N00931476EA0000001158
B1228405629425N00931588EA0000001166
B1228455629446N00931714EA0000001154
B1228515629474N00931885EA0000001142
B1228575629510N00932056EA0000001134
B1229025629547N00932192EA0000001123
B1229085629599N00932367EA0000001095
B1229135629646N00932525EA0000001082
B1229185629689N00932678EA0000001084
B1229245629710N00932876EA0000001070
B1229315629721N00933118EA0000001061
B1229365629729N00933287EA0000001057
B1229445629736N00933548EA0000001044
B1229525629735N00933813EA0000001025
B1230045629709N00934221EA0000001000
B1230105629694N00934421EA0000000999
B1230175629683N00934648EA0000000987
B1230245629669N00934869EA0000000981
B1230295629657N00935028EA0000000978
B1230375629635N00935243EA0000001004
B1230425629623N00935366EA0000000997
B1230485629607N00935527EA0000000989
B1230545629605N00935695EA0000000982
B1230595629644N00935818EA0000000978
B1231055629731N00935905EA0000000970
B1231105629808N00935942EA0000000986
B1231165629894N00935977EA0000000986
B1231225629984N00936042EA0000000965
B1231285630082N00936113EA0000000954
B1231335630166N00936179EA0000000949
B1231425630314N00936295EA0000000955
B1231535630496N00936449EA0000000942
B1231585630574N00936532EA0000000939
B1232035630577N00936673EA0000000939
B1232085630508N00936752EA0000000932
B1232175630357N00936829EA0000000936
B1232225630277N00936855EA0000000949
B1232285630183N00936877EA0000000943
B1232385630016N00936912EA0000000930
B1232445629916N00936938EA0000000924
B1232515629801N00936972EA0000000917
B1232565629722N00937012EA0000000906
B1233015629638N00937040EA0000000892
B1233095629501N00937065EA0000000875
B1233155629397N00937081EA0000000874
B1233235629269N00937103EA0000000885
B1233295629176N00937114EA0000000890
B1233345629119N00937179EA0000000902
B1233425629184N00937267EA0000000896
B1233475629211N00937129EA0000000891
B1233525629157N00937012EA0000000906
B1233575629082N00937005EA0000000911
B1234025629053N00937124EA0000000926
B1234085629124N00937170EA0000000937
B1234165629093N00936987EA0000000942
B1234215629022N00937033EA0000000959
B1234265629027N00937160EA0000000971
B1234325629104N00937143EA0000000971
B1234415629012N00936970EA0000000991
B1234475628956N00937078EA0000001001
B1234525629022N00937117EA0000001009
B1234585629038N00936950EA0000001027
B1235045628949N00936903EA0000001044
B1235105628919N00937033EA0000001060
B1235165628996N00937066EA0000001075
B1235215629020N00936940EA0000001085
B1235275628937N00936873EA0000001093
B1235325628907N00936985EA0000001111
B1235375628959N00937045EA0000001118
B1235445628992N00936879EA0000001132
B1235495628917N00936835EA0000001139
B1235545628873N00936931EA0000001147
B1236025628964N00936954EA0000001145
B1236075628955N00936786EA0000001153
B1236125628890N00936683EA0000001173
B1236175628826N00936725EA0000001183
B1236245628870N00936842EA0000001183
B1236305628930N00936701EA0000001190
B1236355628905N00936546EA0000001195
B1236405628832N00936466EA0000001198
B1236465628772N00936565EA0000001195
B1236515628831N00936635EA0000001191
B1236565628893N00936524EA0000001197
B1237025628871N00936346EA0000001203
B1237085628783N00936329EA0000001204
B1237155628689N00936418EA0000001183
B1237205628622N00936487EA0000001176
B1237255628563N00936567EA0000001164
B1237325628495N00936713EA0000001144
B1237395628428N00936867EA0000001129
B1237515628328N00937148EA0000001118
B1238015628250N00937389EA0000001105
B1238065628181N00937456EA0000001103
B1238135628066N00937491EA0000001104
B1238195627978N00937529EA0000001103
B1238245627910N00937560EA0000001105
B1238335627786N00937638EA0000001086
B1238395627695N00937688EA0000001080
B1238455627593N00937736EA0000001076
B1238515627491N00937776EA0000001080
B1238595627352N00937822EA0000001059
B1239045627262N00937847EA0000001056
B1239095627171N00937865EA0000001056
B1239165627044N00937875EA0000001063
B1239275626844N00937879EA0000001050
B1239345626716N00937892EA0000001044
B1239395626627N00937914EA0000001036
B1239465626506N00937953EA0000001034
B1239515626421N00937985EA0000001028
B1239565626335N00938015EA0000001025
B1240015626245N00938019EA0000001020
B1240085626121N00938013EA0000001021
B1240135626032N00937997EA0000001022
B1240205625916N00937972EA0000001036
B1240265625819N00937957EA0000001052
B1240325625721N00937957EA0000001060
B1240395625613N00937960EA0000001089
B1240445625533N00937972EA0000001102
B1240495625453N00938003EA0000001113
B1240555625358N00938060EA0000001121
B1241015625261N00938124EA0000001119
B1241095625137N00938180EA0000001112
B1241175624991N00938300EA0000001051
B1241225624910N00938286EA0000001098
B1241275624821N00938317EA0000001106
B1241325624733N00938356EA0000001111
B1241385624627N00938405EA0000001117
B1241435624543N00938448EA0000001125
B1241485624462N00938493EA0000001122
B1241545624365N00938549EA0000001116
B1242005624267N00938601EA0000001112
B1242065624169N00938656EA0000001098
B1242135624050N00938736EA0000001101
B1242185623967N00938797EA0000001110
B1242235623886N00938864EA0000001114
B1242295623789N00938950EA0000001107
B1242345623703N00939022EA0000001096
B1242395623615N00939089EA0000001075
B1242465623491N00939191EA0000001054
B1242525623384N00939284EA0000001039
B1242575623295N00939356EA0000001032
B1243025623203N00939424EA0000001020
B1243075623108N00939485EA0000001011
B1243135622995N00939559EA0000000997
B1243185622901N00939612EA0000000985
B1243235622804N00939636EA0000000971
B1243285622709N00939583EA0000000963
B1243335622616N00939520EA0000000960
B1243385622526N00939518EA0000000966
B1243435622443N00939550EA0000000967
B1243495622350N00939593EA0000000971
B1243555622261N00939630EA0000000967
B1244025622169N00939638EA0000000960
B1244085622082N00939530EA0000000943
B1244155621985N00939348EA0000000932
B1244205621915N00939203EA0000000925
B1244265621838N00939031EA0000000935
B1244345621742N00938795EA0000000926
B1244405621665N00938624EA0000000930
B1244465621595N00938470EA0000000943
B1244515621540N00938347EA0000000945
B1245005621437N00938100EA0000000928
B1245065621368N00937922EA0000000924
B1245145621269N00937696EA0000000927
B1245195621210N00937563EA0000000936
B1245245621152N00937442EA0000000944
B1245305621077N00937450EA0000000949
B1245355621078N00937549EA0000000951
B1245405621144N00937560EA0000000947
B1245465621188N00937405EA0000000947
B1245515621158N00937264EA0000000945
B1245575621068N00937197EA0000000943
B1246025620989N00937173EA0000000958
B1246095620913N00937220EA0000000978
B1246165620985N00937279EA0000000992
B1246215621000N00937143EA0000001004
B1246265620932N00937094EA0000001008
B1246315620902N00937194EA0000001022
B1246375620985N00937235EA0000001036
B1246425620998N00937093EA0000001048
B1246475620931N00937044EA0000001061
B1246535620923N00937169EA0000001078
B1246585621000N00937151EA0000001084
B1247035620989N00937013EA0000001099
B1247085620923N00937024EA0000001108
B1247135620943N00937134EA0000001122
B1247185621019N00937088EA0000001127
B1247235621008N00936941EA0000001133
B1247285620937N00936955EA0000001139
B1247335620963N00937076EA0000001155
B1247385621042N00937054EA0000001169
B1247435621039N00936912EA0000001161
B1247485620961N00936923EA0000001165
B1247545620929N00937064EA0000001190
B1247595620992N00937100EA0000001184
B1248045621036N00936965EA0000001164
B1248095620971N00936829EA0000001155
B1248145620885N00936860EA0000001189
B1248205620856N00936995EA0000001226
B1248255620925N00937031EA0000001233
B1248305620973N00936904EA0000001246
B1248355620935N00936774EA0000001255
B1248405620870N00936797EA0000001277
B1248455620875N00936910EA0000001290
B1248505620948N00936911EA0000001300
B1248555620950N00936763EA0000001307
B1249015620856N00936719EA0000001321
B1249065620799N00936776EA0000001351
B1249115620827N00936871EA0000001357
B1249165620898N00936810EA0000001360
B1249215620863N00936661EA0000001360
B1249265620788N00936582EA0000001383
B1249325620700N00936571EA0000001396
B1249375620626N00936569EA0000001383
B1249425620541N00936541EA0000001363
B1249475620451N00936511EA0000001343
B1249525620354N00936470EA0000001324
B1249585620238N00936412EA0000001316
B1250035620147N00936354EA0000001312
B1250095620044N00936261EA0000001308
B1250185619890N00936109EA0000001308
B1250235619804N00936026EA0000001318
B1250305619697N00935921EA0000001337
B1250355619614N00935874EA0000001339
B1250425619493N00935833EA0000001323
B1250485619381N00935807EA0000001307
B1250535619282N00935789EA0000001299
B1250585619180N00935772EA0000001286
B1251055619040N00935765EA0000001280
B1251105618944N00935776EA0000001280
B1251155618848N00935790EA0000001277
B1251205618756N00935808EA0000001273
B1251285618603N00935848EA0000001256
B1251335618509N00935906EA0000001241
B1251385618413N00935963EA0000001230
B1251435618323N00936005EA0000001265
B1251485618246N00936042EA0000001287
B1251545618148N00936087EA0000001292
B1252015618018N00936140EA0000001281
B1252085617881N00936197EA0000001270
B1252145617766N00936259EA0000001261
B1252205617652N00936323EA0000001247
B1252265617538N00936401EA0000001233
B1252315617444N00936470EA0000001223
B1252365617349N00936545EA0000001216
B1252415617254N00936626EA0000001209
B1252475617138N00936720EA0000001200
B1252545617000N00936831EA0000001182
B1253005616879N00936923EA0000001168
B1253085616721N00937034EA0000001167
B1253145616608N00937113EA0000001156
B1253215616483N00937210EA0000001160
B1253275616384N00937284EA0000001180
B1253325616308N00937338EA0000001191
B1253375616230N00937384EA0000001182
B1253435616112N00937370EA0000001169
B1253495615990N00937301EA0000001186
B1253545615892N00937229EA0000001198
B1254005615778N00937133EA0000001206
B1254055615683N00937048EA0000001195
B1254105615584N00936957EA0000001189
B1254155615483N00936862EA0000001184
B1254215615360N00936755EA0000001186
B1254285615216N00936628EA0000001179
B1254335615112N00936529EA0000001154
B1254385615004N00936423EA0000001151
B1254435614908N00936329EA0000001168
B1254485614814N00936243EA0000001161
B1254545614691N00936203EA0000001153
B1255025614537N00936303EA0000001138
B1255075614447N00936410EA0000001123
B1255125614360N00936527EA0000001108
B1255185614261N00936682EA0000001092
B1255265614132N00936894EA0000001065
B1255315614046N00937024EA0000001060
B1255405613883N00937241EA0000001032
B1255475613763N00937393EA0000001049
B1255545613658N00937521EA0000001045
B1256005613604N00937665EA0000001054
B1256055613656N00937755EA0000001058
B1256105613745N00937715EA0000001034
B1256155613830N00937579EA0000001010
B1256205613909N00937412EA0000000996
B1256255613985N00937232EA0000000981
B1256305614057N00937051EA0000000976
B1256365614145N00936829EA0000000954
B1256415614215N00936646EA0000000968
B1256465614281N00936474EA0000000964
B1256545614387N00936197EA0000000940
B1257035614515N00935887EA0000000914
B1257085614589N00935720EA0000000915
B1257165614711N00935471EA0000000909
B1257225614802N00935300EA0000000946
B1257275614867N00935172EA0000000960
B1257325614934N00935039EA0000000953
B1257375615002N00934891EA0000000955
B1257425614996N00934735EA0000000976
B1257475614930N00934723EA0000000987
B1257525614929N00934834EA0000000995
B1257575615006N00934849EA0000001002
B1258025615030N00934705EA0000000999
B1258075614962N00934675EA0000001010
B1258125614960N00934787EA0000001025
B1258175615036N00934801EA0000001026
B1258225615057N00934657EA0000001029
B1258275614991N00934632EA0000001035
B1258325614999N00934740EA0000001048
B1258375615075N00934721EA0000001048
B1258425615079N00934575EA0000001041
B1258475615011N00934583EA0000001050
B1258525614992N00934698EA0000001050
B1258575615066N00934716EA0000001049
B1259025615099N00934551EA0000001043
B1259095615184N00934342EA0000001044
B1259145615267N00934226EA0000001037
B1259195615354N00934117EA0000001019
B1259245615445N00934001EA0000001001
B1259305615553N00933845EA0000000982
B1259355615641N00933711EA0000000969
B1259415615744N00933550EA0000000964
B1259475615838N00933396EA0000000966
B1259525615915N00933266EA0000000968
B1300005616044N00933072EA0000000963
B1300105616206N00932811EA0000000963
B1300155616277N00932661EA0000000969
B1300215616349N00932473EA0000000968
B1300275616415N00932276EA0000000959
B1300335616479N00932070EA0000000941
B1300395616546N00931859EA0000000931
B1300455616615N00931648EA0000000925
B1300515616683N00931451EA0000000934
B1300575616755N00931255EA0000000932
B1301025616816N00931096EA0000000928
B1301095616940N00930930EA0000000908
B1301145617044N00930839EA0000000893
B1301195617150N00930754EA0000000883
B1301245617253N00930677EA0000000877
B1301305617373N00930589EA0000000863
B1301355617474N00930512EA0000000849
B1301405617575N00930432EA0000000843
B1301465617694N00930331EA0000000837
B1301535617830N00930208EA0000000828
B1301585617930N00930125EA0000000819
B1302045618053N00930025EA0000000807
B1302095618159N00929941EA0000000794
B1302145618268N00929855EA0000000778
B1302195618379N00929768EA0000000770
B1302245618488N00929680EA0000000764
B1302305618614N00929569EA0000000767
B1302355618710N00929465EA0000000766
B1302405618804N00929364EA0000000761
B1302465618915N00929250EA0000000761
B1302515619008N00929163EA0000000780
B1302565619088N00929087EA0000000805
B1303015619154N00928990EA0000000813
B1303065619147N00928858EA0000000798
B1303115619080N00928836EA0000000779
B1303165619046N00928947EA0000000782
B1303225619071N00929104EA0000000806
B1303275619138N00929161EA0000000821
B1303325619194N00929052EA0000000827
B1303385619140N00928942EA0000000827
B1303435619101N00929028EA0000000832
B1303485619146N00929138EA0000000840
B1303545619249N00929108EA0000000847
B1303595619275N00928956EA0000000852
B1304045619212N00928900EA0000000846
B1304095619198N00928997EA0000000860
B1304145619268N00929025EA0000000863
B1304215619391N00928923EA0000000850
B1304265619481N00928826EA0000000844
B1304315619568N00928720EA0000000845
B1304365619639N00928587EA0000000845
B1304425619722N00928418EA0000000829
B1304495619820N00928208EA0000000813
B1304585619947N00927927EA0000000806
B1305055620045N00927719EA0000000805
B1305115620119N00927552EA0000000808
B1305165620177N00927409EA0000000793
B1305355620419N00926836EA0000000769
B1305425620505N00926621EA0000000754
B1305485620584N00926440EA0000000745
B1305555620676N00926229EA0000000741
B1306005620744N00926086EA0000000756
B1306065620823N00925938EA0000000774
B1306125620925N00925846EA0000000782
B1306195621053N00925796EA0000000780
B1306245621148N00925761EA0000000781
B1306315621279N00925710EA0000000789
B1306375621393N00925663EA0000000790
B1306425621492N00925617EA0000000780
B1306515621690N00925538EA0000000738
B1306565621811N00925496EA0000000722
B1307015621936N00925455EA0000000706
B1307065622064N00925414EA0000000693
B1307135622242N00925359EA0000000677
B1307195622400N00925312EA0000000633
B1307265622607N00925252EA0000000592
B1307315622760N00925202EA0000000573
B1307425623094N00925085EA0000000536
B1307505623338N00924995EA0000000509
B1308015623672N00924853EA0000000465
B1308105623941N00924710EA0000000439
B1308165624123N00924623EA0000000406
B1308215624283N00924579EA0000000382
B1308265624444N00924567EA0000000366
B1308335624644N00924573EA0000000409
B1308385624748N00924649EA0000000420
B1308435624781N00924805EA0000000422
B1308485624757N00924968EA0000000412
B1308555624698N00925212EA0000000378
B1309005624654N00925402EA0000000367
B1309055624604N00925570EA0000000391
B1309105624511N00925646EA0000000392
B1309165624381N00925594EA0000000387
B1309215624286N00925506EA0000000410
B1309305624121N00925319EA0000000383
B1309355624024N00925207EA0000000379
B1309415623929N00925030EA0000000382
B1309465623840N00924948EA0000000379
B1309515623775N00925040EA0000000373
B1309565623809N00925174EA0000000376
B1310025623913N00925220EA0000000376
B1310075623972N00925307EA0000000369
B1310125623952N00925425EA0000000366
B1310185623869N00925458EA0000000367
B1310265623767N00925339EA0000000374
B1310315623720N00925229EA0000000374
B1310365623670N00925110EA0000000365
B1310415623596N00925072EA0000000354
B1310465623563N00925184EA0000000343
B1310515623636N00925265EA0000000330
B1310585623776N00925200EA0000000330
B1311035623872N00925171EA0000000330
B1311085623943N00925256EA0000000328
B1311135623960N00925392EA0000000327
B1311185623926N00925513EA0000000328
B1311265623829N00925640EA0000000328
B1311315623753N00925611EA0000000331
B1311365623729N00925454EA0000000324
B1311445623768N00925183EA0000000322
B1311495623790N00925015EA0000000319
B1311545623811N00924850EA0000000322
B1311595623800N00924695EA0000000323
B1312055623720N00924640EA0000000316
B1312105623673N00924727EA0000000309
B1312165623666N00924880EA0000000300
B1312215623670N00925011EA0000000293
B1312275623682N00925168EA0000000285
B1312325623681N00925304EA0000000279
B1312395623677N00925496EA0000000279
B1312445623671N00925629EA0000000280
B1312495623631N00925735EA0000000278
B1312545623551N00925691EA0000000267
B1312595623536N00925516EA0000000249
B1313045623606N00925403EA0000000252
B1313125623731N00925317EA0000000261
B1313195623834N00925243EA0000000266
B1313245623900N00925174EA0000000251
B1313305623966N00925050EA0000000229
B1313375624024N00924871EA0000000226
B1313425624059N00924726EA0000000213
B1313505624108N00924493EA0000000221
B1313555624133N00924345EA0000000209
B1314045624172N00924072EA0000000189
B1314095624200N00923927EA0000000186
B1314155624241N00923769EA0000000186
B1314225624324N00923643EA0000000176
B1314325624453N00923473EA0000000166
B1314375624519N00923393EA0000000165
B1314425624582N00923322EA0000000177
B1314475624649N00923310EA0000000179
B1314545624739N00923346EA0000000176
B1314595624779N00923434EA0000000164
B1315065624778N00923591EA0000000158
B1315135624754N00923730EA0000000130
B1315185624730N00923826EA0000000105
B1315285624687N00924027EA0000000069
B1315335624669N00924128EA0000000061
B1315415624636N00924288EA0000000039
B1315475624610N00924410EA0000000024
B1315525624591N00924503EA0000000022
