AOGNOGN
HFDTE190725
HFFXA050
HFPLTPILOTINCHARGE:
HFGTYGLIDERTYPE:LS-4
HFGIDGLIDERID:OY-XKV
HFDTM100GPSDATUM:WGS-1984
HFRFWFIRMWAREVERSION:
HFRHWHARDWAREVERSION:
HFFTYFRTYPE:OGN-FLIGHTBOOK
HFGPSGENERIC
HFPRSPRESSALTSENSOR:
HFCIDCOMPETITIONID:X7
B1027545624622N00924446EA0000000023
B1027575624612N00924493EA0000000022
B1028045624582N00924640EA0000000023
B1028105624549N00924794EA0000000031
B1028155624513N00924920EA0000000045
B1028215624451N00925057EA0000000059
B1028265624385N00925153EA0000000069
B1028335624288N00925280EA0000000084
B1028395624216N00925422EA0000000100
B1028455624182N00925594EA0000000123
B1028565624187N00925913EA0000000165
B1029015624216N00926039EA0000000182
B1029075624264N00926185EA0000000203
B1029145624332N00926336EA0000000228
B1029225624415N00926502EA0000000247
B1029305624494N00926683EA0000000270
B1029365624555N00926817EA0000000284
B1029435624632N00926974EA0000000311
B1029485624691N00927089EA0000000335
B1029565624788N00927255EA0000000361
B1030025624886N00927309EA0000000378
B1030085624988N00927254EA0000000395
B1030135625050N00927141EA0000000409
B1030195625083N00926963EA0000000423
B1030265625069N00926750EA0000000437
B1030365624967N00926520EA0000000459
B1030435624865N00926422EA0000000473
B1030515624746N00926331EA0000000486
B1030565624669N00926284EA0000000495
B1031025624575N00926229EA0000000505
B1031085624479N00926179EA0000000521
B1031135624398N00926135EA0000000533
B1031185624323N00926088EA0000000559
B1031235624251N00926064EA0000000568
B1031285624190N00926135EA0000000566
B1031345624171N00926287EA0000000572
B1031395624202N00926404EA0000000587
B1031445624263N00926468EA0000000593
B1031495624337N00926466EA0000000596
B1031545624394N00926376EA0000000607
B1031595624405N00926244EA0000000608
B1032045624359N00926144EA0000000606
B1032105624279N00926197EA0000000617
B1032155624290N00926315EA0000000630
B1032205624357N00926344EA0000000648
B1032265624397N00926214EA0000000651
B1032315624346N00926140EA0000000662
B1032365624303N00926216EA0000000670
B1032425624357N00926316EA0000000678
B1032475624419N00926236EA0000000683
B1032525624398N00926109EA0000000689
B1032585624326N00926139EA0000000698
B1033035624345N00926254EA0000000702
B1033085624426N00926248EA0000000700
B1033145624449N00926070EA0000000707
B1033195624379N00926013EA0000000715
B1033245624332N00926106EA0000000722
B1033305624387N00926228EA0000000725
B1033355624460N00926168EA0000000741
B1033405624468N00926027EA0000000744
B1033465624392N00925947EA0000000747
B1033515624349N00926038EA0000000756
B1033565624394N00926133EA0000000767
B1034025624470N00926051EA0000000776
B1034075624449N00925920EA0000000779
B1034125624386N00925943EA0000000784
B1034185624418N00926063EA0000000793
B1034235624483N00926004EA0000000796
B1034285624462N00925876EA0000000804
B1034345624403N00925930EA0000000806
B1034395624449N00926016EA0000000809
B1034445624507N00925926EA0000000809
B1034525624424N00925838EA0000000816
B1034575624424N00925956EA0000000824
B1035025624494N00925980EA0000000831
B1035075624532N00925866EA0000000846
B1035125624494N00925769EA0000000843
B1035175624442N00925825EA0000000844
B1035225624470N00925933EA0000000848
B1035275624542N00925912EA0000000856
B1035325624557N00925777EA0000000864
B1035375624501N00925717EA0000000864
B1035425624466N00925808EA0000000867
B1035475624509N00925907EA0000000870
B1035525624578N00925865EA0000000885
B1035575624587N00925736EA0000000888
B1036025624531N00925671EA0000000885
B1036075624481N00925752EA0000000876
B1036125624520N00925874EA0000000884
B1036175624598N00925840EA0000000889
B1036225624615N00925687EA0000000894
B1036275624550N00925614EA0000000897
B1036325624506N00925697EA0000000908
B1036375624547N00925795EA0000000912
B1036425624619N00925764EA0000000919
B1036475624633N00925634EA0000000926
B1036525624583N00925551EA0000000922
B1036585624532N00925641EA0000000926
B1037035624582N00925731EA0000000929
B1037085624653N00925700EA0000000938
B1037145624657N00925553EA0000000943
B1037205624590N00925570EA0000000941
B1037255624613N00925678EA0000000945
B1037305624688N00925677EA0000000945
B1037355624739N00925565EA0000000955
B1037405624720N00925445EA0000000955
B1037475624656N00925510EA0000000950
B1037525624703N00925593EA0000000954
B1037575624769N00925521EA0000000954
B1038025624771N00925384EA0000000958
B1038075624712N00925351EA0000000953
B1038125624692N00925454EA0000000953
B1038185624768N00925498EA0000000958
B1038245624800N00925369EA0000000962
B1038295624742N00925320EA0000000951
B1038345624710N00925415EA0000000944
B1038395624766N00925484EA0000000956
B1038445624834N00925431EA0000000954
B1038495624902N00925332EA0000000945
B1038555624980N00925192EA0000000937
B1039035625076N00924988EA0000000922
B1039125625198N00924755EA0000000901
B1039175625279N00924633EA0000000886
B1039235625391N00924511EA0000000878
B1039285625488N00924414EA0000000884
B1039335625572N00924333EA0000000908
B1039395625670N00924247EA0000000898
B1039455625772N00924145EA0000000894
B1039515625869N00924022EA0000000892
B1039565625938N00923918EA0000000905
B1040015625998N00923813EA0000000900
B1040075626059N00923668EA0000000892
B1040135626091N00923504EA0000000890
B1040195626090N00923326EA0000000885
B1040245626073N00923184EA0000000879
B1040335626029N00922926EA0000000862
B1040425625975N00922669EA0000000846
B1040485625934N00922508EA0000000841
B1040545625884N00922347EA0000000838
B1041015625816N00922170EA0000000840
B1041065625744N00922149EA0000000858
B1041115625716N00922254EA0000000854
B1041165625772N00922323EA0000000847
B1041215625825N00922241EA0000000840
B1041265625786N00922137EA0000000842
B1041315625715N00922181EA0000000836
B1041365625703N00922313EA0000000833
B1041415625739N00922445EA0000000816
B1041465625740N00922591EA0000000803
B1041525625674N00922731EA0000000784
B1042015625536N00922874EA0000000759
B1042065625451N00922942EA0000000754
B1042115625365N00923006EA0000000751
B1042165625280N00923065EA0000000744
B1042215625198N00923134EA0000000741
B1042265625166N00923271EA0000000743
B1042315625193N00923416EA0000000743
B1042395625258N00923642EA0000000742
B1042445625298N00923782EA0000000742
B1042505625286N00923965EA0000000737
B1042555625225N00924090EA0000000721
B1043005625137N00924176EA0000000706
B1043075624992N00924244EA0000000685
B1043125624883N00924265EA0000000678
B1043175624776N00924287EA0000000673
B1043225624675N00924312EA0000000670
B1043285624550N00924333EA0000000652
B1043335624441N00924353EA0000000645
B1043395624313N00924385EA0000000644
B1043455624187N00924428EA0000000630
B1043505624079N00924435EA0000000619
B1043555623993N00924321EA0000000610
B1044005623925N00924161EA0000000591
B1044105623780N00923827EA0000000560
B1044175623672N00923601EA0000000546
B1044235623576N00923418EA0000000535
B1044285623478N00923393EA0000000545
B1044335623414N00923517EA0000000528
B1044385623415N00923703EA0000000507
B1044465623465N00923996EA0000000506
B1044525623508N00924197EA0000000504
B1044585623520N00924413EA0000000484
B1045085623514N00924793EA0000000469
B1045175623520N00925118EA0000000449
B1045245623537N00925368EA0000000431
B1045305623562N00925572EA0000000431
B1045365623590N00925775EA0000000425
B1045425623538N00925962EA0000000429
B1045475623444N00926016EA0000000429
B1045525623352N00925953EA0000000417
B1045575623309N00925787EA0000000404
B1046025623352N00925611EA0000000390
B1046075623450N00925603EA0000000392
B1046125623469N00925753EA0000000386
B1046185623373N00925800EA0000000380
B1046255623338N00925589EA0000000353
B1046315623446N00925479EA0000000334
B1046375623536N00925635EA0000000326
B1046435623615N00925823EA0000000330
B1046485623694N00925960EA0000000336
B1046545623793N00926095EA0000000329
B1046595623878N00926189EA0000000322
B1047045623961N00926280EA0000000320
B1047105623990N00926462EA0000000310
B1047155623923N00926563EA0000000306
B1047205623848N00926515EA0000000317
B1047255623838N00926360EA0000000295
B1047315623888N00926151EA0000000267
B1047385623954N00925912EA0000000269
B1047465624008N00925656EA0000000284
B1047515624026N00925500EA0000000276
B1047565623995N00925372EA0000000273
B1048015623926N00925373EA0000000259
B1048065623908N00925494EA0000000247
B1048115623971N00925581EA0000000237
B1048165624053N00925534EA0000000235
B1048215624090N00925399EA0000000226
B1048265624098N00925248EA0000000217
B1048315624108N00925089EA0000000219
B1048395624120N00924852EA0000000217
B1048465624128N00924660EA0000000217
B1048525624138N00924497EA0000000209
B1048585624151N00924334EA0000000199
B1049055624180N00924147EA0000000180
B1049145624242N00923915EA0000000164
B1049215624311N00923769EA0000000161
B1049285624411N00923699EA0000000154
B1049365624520N00923614EA0000000156
B1049415624584N00923551EA0000000148
B1049475624667N00923534EA0000000134
B1049525624719N00923609EA0000000123
B1049585624735N00923757EA0000000112
B1050045624716N00923907EA0000000099
B1050105624689N00924043EA0000000079
B1050165624657N00924185EA0000000053
B1050255624610N00924419EA0000000025
B1050325624573N00924589EA0000000021
B1050375624556N00924663EA0000000020
