AOGNOGN
HFDTE180625
HFFXA050
HFPLTPILOTINCHARGE:
HFGTYGLIDERTYPE:ASK-21
HFGIDGLIDERID:OY-XDB
HFDTM100GPSDATUM:WGS-1984
HFRFWFIRMWAREVERSION:
HFRHWHARDWAREVERSION:
HFFTYFRTYPE:OGN-FLIGHTBOOK
HFGPSGENERIC
HFPRSPRESSALTSENSOR:
HFCIDCOMPETITIONID:V1
B1446415537912N00845734EA0000000025
B1448155537916N00845691EA0000000031
B1448185537923N00845622EA0000000078
B1448205537932N00845582EA0000000130
B1448295537956N00845415EA0000000320
B1448405537975N00845246EA0000000422
B1449215537825N00844620EA0000000392
B1449495537810N00844208EA0000000395
B1449545537845N00844324EA0000000409
B1450015537782N00844513EA0000000416
B1450475537604N00844611EA0000000470
B1451595537503N00845290EA0000000601
B1452095537360N00845431EA0000000614
B1452185537305N00845317EA0000000613
B1452295537398N00845456EA0000000631
B1452525537169N00845532EA0000000640
B1453245537060N00845750EA0000000645
B1454195537041N00845815EA0000000646
B1455055537495N00845398EA0000000581
B1455245537672N00845501EA0000000626
B1455405537502N00845601EA0000000631
B1455565537633N00845795EA0000000649
B1456325537571N00845804EA0000000658
B1457025537535N00845976EA0000000677
B1457405537841N00845669EA0000000740
B1457475537895N00845635EA0000000754
B1458035538016N00845543EA0000000741
B1458225538046N00845210EA0000000708
B1458365538212N00845087EA0000000685
B1500295538310N00843485EA0000000537
B1500345538212N00843560EA0000000532
B1500535537985N00843552EA0000000568
B1501045538094N00843703EA0000000574
B1501125538000N00843949EA0000000571
B1501195537864N00843997EA0000000591
B1501245537831N00843909EA0000000609
B1501315537896N00843878EA0000000619
B1501385537915N00844078EA0000000628
B1501525537742N00844098EA0000000657
B1502165537678N00844270EA0000000703
B1502275537759N00844367EA0000000719
B1502335537730N00844554EA0000000729
B1502385537701N00844683EA0000000754
B1502455537652N00844887EA0000000743
B1502525537590N00845088EA0000000751
B1502585537530N00845260EA0000000742
B1503175537216N00845543EA0000000708
B1504185537889N00845050EA0000000662
B1504375538155N00845034EA0000000675
B1504545538359N00845136EA0000000645
B1505045538439N00845034EA0000000538
B1505145538248N00844839EA0000000510
B1505255538008N00844688EA0000000500
B1505515537610N00844763EA0000000450
B1505585537493N00844963EA0000000439
B1506135537203N00845177EA0000000397
B1506435537346N00844683EA0000000356
B1507225537680N00844176EA0000000346
B1507295537763N00844344EA0000000290
B1507365537880N00844494EA0000000253
B1507415537934N00844652EA0000000272
B1508125537484N00845597EA0000000227
B1508225537437N00845976EA0000000217
B1509295537884N00845683EA0000000030
B1509365537896N00845537EA0000000027
B1509425537901N00845452EA0000000026
