AOGNOGN
HFDTE180625
HFFXA050
HFPLTPILOTINCHARGE:
HFGTYGLIDERTYPE:ASK-21
HFGIDGLIDERID:OY-XDB
HFDTM100GPSDATUM:WGS-1984
HFRFWFIRMWAREVERSION:
HFRHWHARDWAREVERSION:
HFFTYFRTYPE:OGN-FLIGHTBOOK
HFGPSGENERIC
HFPRSPRESSALTSENSOR:
HFCIDCOMPETITIONID:V1
B1117455537914N00845719EA0000000042
B1117475537918N00845680EA0000000047
B1117535537926N00845535EA0000000163
B1118065537932N00845273EA0000000309
B1118275537984N00844936EA0000000335
B1118325537913N00844919EA0000000345
B1118435537824N00845226EA0000000329
B1118545537950N00845286EA0000000322
B1119015538013N00845200EA0000000342
B1119065538015N00845123EA0000000326
B1119175537843N00845231EA0000000318
B1119255537822N00845497EA0000000317
B1119325537911N00845584EA0000000331
B1119375537907N00845484EA0000000312
B1119475537748N00845623EA0000000324
B1119525537747N00845802EA0000000326
B1119585537815N00845937EA0000000326
B1120035537871N00845906EA0000000320
B1120105537845N00845769EA0000000313
B1120335537932N00845292EA0000000274
B1121005537970N00844761EA0000000274
B1121075537954N00844621EA0000000278
B1121135537934N00844496EA0000000279
B1121185537853N00844445EA0000000279
B1121235537786N00844587EA0000000275
B1121285537845N00844720EA0000000277
B1121365537875N00844570EA0000000302
B1121415537790N00844579EA0000000325
B1121485537776N00844807EA0000000315
B1121575537870N00844754EA0000000339
B1122025537807N00844704EA0000000342
B1122175537856N00844897EA0000000376
B1122225537797N00844847EA0000000381
B1122435537818N00845038EA0000000403
B1122485537733N00845073EA0000000418
B1122545537699N00845270EA0000000434
B1123075537785N00845295EA0000000429
B1123175537623N00845341EA0000000457
B1123225537609N00845517EA0000000460
B1123405537582N00845514EA0000000493
B1123465537549N00845719EA0000000506
B1124145537461N00845866EA0000000551
B1124195537471N00846031EA0000000554
B1124265537558N00846085EA0000000572
B1124445537398N00846111EA0000000588
B1124495537396N00846282EA0000000593
B1125265537238N00846704EA0000000617
B1125325537265N00846925EA0000000622
B1126015537174N00847290EA0000000648
B1135445536588N00846305EA0000000739
B1138265536445N00847554EA0000000978
B1141235536838N00847702EA0000000827
B1141465536941N00847445EA0000000781
B1146365537176N00845426EA0000000350
B1147155537317N00845050EA0000000261
B1147215537375N00844990EA0000000256
B1147395537458N00845421EA0000000240
B1148235537794N00846379EA0000000174
B1148285537821N00846259EA0000000154
B1149465537875N00845501EA0000000036
