AOGNOGN
HFDTE180625
HFFXA050
HFPLTPILOTINCHARGE:
HFGTYGLIDERTYPE:ASK-21
HFGIDGLIDERID:OY-XDB
HFDTM100GPSDATUM:WGS-1984
HFRFWFIRMWAREVERSION:
HFRHWHARDWAREVERSION:
HFFTYFRTYPE:OGN-FLIGHTBOOK
HFGPSGENERIC
HFPRSPRESSALTSENSOR:
HFCIDCOMPETITIONID:V1
B0950245537921N00845645EA0000000048
B0950295537936N00845525EA0000000151
B0950365537958N00845374EA0000000309
B0951095538068N00845279EA0000000450
B0951175537967N00845279EA0000000445
B0951395538062N00845339EA0000000453
B0951445537989N00845347EA0000000453
B0952045537941N00844960EA0000000464
B0952105537975N00844892EA0000000466
B0952275537911N00845010EA0000000463
B0952335537973N00845094EA0000000470
B0952525537780N00845043EA0000000482
B0953345537688N00844314EA0000000450
B0953395537738N00844311EA0000000448
B0953455537767N00844476EA0000000443
B0954315537595N00844037EA0000000430
B0954385537650N00844177EA0000000426
B0954545537531N00844176EA0000000426
B0954595537588N00844237EA0000000429
B0955095537494N00844432EA0000000438
B0955155537479N00844335EA0000000440
B0955205537539N00844370EA0000000444
B0955265537533N00844553EA0000000450
B0955365537430N00844512EA0000000454
B0955585537392N00844655EA0000000468
B0956035537446N00844656EA0000000464
B0956175537361N00844901EA0000000477
B0956235537370N00844809EA0000000474
B0956445537317N00845011EA0000000493
B0956585537374N00845236EA0000000506
B0957055537289N00845221EA0000000510
B0957105537326N00845172EA0000000502
B0957255537262N00845390EA0000000520
B0957305537281N00845319EA0000000519
B0957405537312N00845552EA0000000531
B0957465537225N00845576EA0000000538
B0957525537240N00845496EA0000000528
B0958095537170N00845756EA0000000544
B0958145537181N00845678EA0000000543
B0958315537138N00845938EA0000000562
B0958575537083N00846075EA0000000586
B0959315537131N00846295EA0000000618
B0959415537015N00846460EA0000000636
B0959515537050N00846350EA0000000643
B1000075536961N00846639EA0000000669
B1000165536988N00846528EA0000000672
B1000215537037N00846637EA0000000684
B1000355536890N00846828EA0000000703
B1000455536935N00846705EA0000000709
B1000515536991N00846829EA0000000724
B1001105536820N00846951EA0000000753
B1001305536796N00847163EA0000000772
B1001455536901N00847149EA0000000787
B1001575536789N00847331EA0000000795
B1002255536721N00847398EA0000000822
B1002315536759N00847325EA0000000832
B1005125537343N00844891EA0000000766
B1005175537417N00844927EA0000000725
B1005275537313N00845102EA0000000691
B1005325537392N00845139EA0000000680
B1005395537293N00845317EA0000000614
B1005445537320N00845171EA0000000587
B1006015537638N00845531EA0000000603
B1006165537415N00845712EA0000000529
B1006375537455N00845070EA0000000473
B1006425537438N00844917EA0000000463
B1006495537407N00844705EA0000000446
B1006565537420N00844512EA0000000419
B1007075537619N00844749EA0000000327
B1007155537752N00845170EA0000000226
B1007205537834N00845474EA0000000183
B1007255537857N00845771EA0000000252
B1007345537742N00845989EA0000000327
B1007395537688N00845936EA0000000308
B1007515537702N00845694EA0000000282
B1008025537751N00845474EA0000000273
B1008075537776N00845379EA0000000267
B1008135537805N00845264EA0000000263
B1008215537808N00845109EA0000000264
B1008265537737N00845064EA0000000252
B1008325537625N00845121EA0000000240
B1008375537541N00845227EA0000000222
B1008455537462N00845525EA0000000201
B1008515537430N00845768EA0000000191
B1008565537425N00845972EA0000000184
B1009015537474N00846132EA0000000176
B1009065537550N00846231EA0000000171
B1009115537628N00846301EA0000000162
B1009205537774N00846376EA0000000158
B1009465537865N00845829EA0000000055
B1010335537875N00845614EA0000000038
