AOGNOGN
HFDTE240825
HFFXA050
HFPLTPILOTINCHARGE:
HFGTYGLIDERTYPE:LS-4
HFGIDGLIDERID:OY-XNV
HFDTM100GPSDATUM:WGS-1984
HFRFWFIRMWAREVERSION:
HFRHWHARDWAREVERSION:
HFFTYFRTYPE:OGN-FLIGHTBOOK
HFGPSGENERIC
HFPRSPRESSALTSENSOR:
HFCIDCOMPETITIONID:V8
B1103435537909N00845640EA0000000056
B1103465537917N00845570EA0000000119
B1103515537929N00845449EA0000000221
B1103575537941N00845297EA0000000331
B1105475538265N00844059EA0000000443
B1105525538258N00844237EA0000000447
B1106065538052N00844566EA0000000428
B1106255538009N00844839EA0000000440
B1106355537860N00844971EA0000000429
B1106465537871N00845245EA0000000439
B1107055537737N00845449EA0000000444
B1107115537793N00845556EA0000000451
B1107475537740N00845153EA0000000395
B1107575537593N00845058EA0000000381
B1108025537503N00845187EA0000000376
B1108075537460N00845382EA0000000364
B1108125537438N00845582EA0000000362
B1108175537462N00845748EA0000000346
B1108375537612N00845565EA0000000334
B1108435537505N00845629EA0000000321
B1108485537498N00845808EA0000000313
B1108535537550N00845897EA0000000323
B1109095537676N00845678EA0000000292
B1109245537749N00845375EA0000000264
B1109415537831N00845087EA0000000258
B1109575537662N00844937EA0000000232
B1110035537581N00845143EA0000000217
B1110095537529N00845394EA0000000202
B1110175537482N00845726EA0000000204
B1110225537463N00845927EA0000000200
B1110295537511N00846161EA0000000182
B1110345537576N00846302EA0000000172
B1110405537661N00846437EA0000000177
B1110465537744N00846513EA0000000175
B1111205537861N00845857EA0000000054
B1111255537868N00845738EA0000000034
B1111335537875N00845583EA0000000029
B1111385537877N00845529EA0000000028
