AOGNOGN
HFDTE240825
HFFXA050
HFPLTPILOTINCHARGE:
HFGTYGLIDERTYPE:LS-4
HFGIDGLIDERID:OY-XNV
HFDTM100GPSDATUM:WGS-1984
HFRFWFIRMWAREVERSION:
HFRHWHARDWAREVERSION:
HFFTYFRTYPE:OGN-FLIGHTBOOK
HFGPSGENERIC
HFPRSPRESSALTSENSOR:
HFCIDCOMPETITIONID:V8
B0930395537928N00845596EA0000000063
B0930445537952N00845468EA0000000166
B0930495537982N00845342EA0000000267
B0931355538296N00844587EA0000000392
B0931405538264N00844497EA0000000401
B0931455538185N00844571EA0000000404
B0931595538273N00844747EA0000000402
B0932045538227N00844665EA0000000401
B0932215538203N00844905EA0000000420
B0932265538170N00844810EA0000000419
B0932455538130N00844996EA0000000430
B0932515538059N00844922EA0000000438
B0933075538045N00845150EA0000000439
B0933145537962N00845073EA0000000444
B0933215537873N00845242EA0000000435
B0936235537771N00845917EA0000000403
B0936395537856N00846268EA0000000395
B0936455537925N00846372EA0000000382
B0936505537979N00846320EA0000000365
B0937035538045N00846019EA0000000317
B0937085538069N00845894EA0000000310
B0937175538110N00845703EA0000000310
B0937265538145N00845513EA0000000300
B0937345538181N00845360EA0000000292
B0937405538211N00845242EA0000000288
B0937455538237N00845141EA0000000290
B0938035538398N00845020EA0000000281
B0938085538429N00844926EA0000000265
B0938135538419N00844805EA0000000258
B0938225538484N00844682EA0000000248
B0938515538439N00845710EA0000000230
B0939015538399N00846082EA0000000213
B0939205538100N00846630EA0000000197
B0939445537827N00846184EA0000000114
B0939515537849N00846001EA0000000084
B0939595537863N00845797EA0000000045
B0940055537866N00845655EA0000000034
B0940125537869N00845544EA0000000032
