AOGNOGN
HFDTE290625
HFFXA050
HFPLTPILOTINCHARGE:
HFGTYGLIDERTYPE:Duo Discus
HFGIDGLIDERID:OY-FXY
HFDTM100GPSDATUM:WGS-1984
HFRFWFIRMWAREVERSION:
HFRHWHARDWAREVERSION:
HFFTYFRTYPE:OGN-FLIGHTBOOK
HFGPSGENERIC
HFPRSPRESSALTSENSOR:
HFCIDCOMPETITIONID:FY
B0905315610635N01005012EA0000000073
B0905325610639N01004989EA0000000079
B0905375610660N01004869EA0000000179
B0905425610679N01004770EA0000000276
B0905475610695N01004671EA0000000344
B0905525610713N01004572EA0000000409
B0905575610726N01004466EA0000000451
B0906025610740N01004353EA0000000473
B0906095610753N01004201EA0000000478
B0906145610758N01004081EA0000000462
B0906235610756N01003826EA0000000460
B0906295610736N01003677EA0000000482
B0906345610716N01003555EA0000000468
B0906445610670N01003277EA0000000450
B0906515610643N01003079EA0000000454
B0906565610627N01002951EA0000000476
B0907035610606N01002794EA0000000477
B0907105610565N01002634EA0000000462
B0907155610543N01002511EA0000000464
B0907205610525N01002406EA0000000477
B0907255610528N01002318EA0000000474
B0907315610600N01002318EA0000000476
B0907385610669N01002519EA0000000474
B0907435610672N01002711EA0000000475
B0907485610628N01002889EA0000000471
B0907545610542N01003057EA0000000477
B0908035610399N01003272EA0000000477
B0908085610315N01003314EA0000000473
B0908135610272N01003246EA0000000467
B0908185610303N01003177EA0000000467
B0908235610374N01003197EA0000000462
B0908295610469N01003291EA0000000461
B0908345610541N01003387EA0000000471
B0908395610527N01003560EA0000000475
B0908445610443N01003591EA0000000466
B0908495610413N01003510EA0000000470
B0908555610446N01003428EA0000000475
B0909005610500N01003465EA0000000468
B0909055610492N01003642EA0000000467
B0909115610388N01003746EA0000000461
B0909165610321N01003685EA0000000463
B0909225610289N01003570EA0000000467
B0909275610314N01003493EA0000000468
B0909325610379N01003537EA0000000469
B0909385610439N01003704EA0000000468
B0909445610502N01003859EA0000000467
B0909495610561N01003891EA0000000460
B0909545610604N01003825EA0000000437
B0909595610682N01003809EA0000000431
B0910055610785N01003886EA0000000438
B0910105610867N01003954EA0000000441
B0910195611011N01004082EA0000000441
B0910265611112N01004180EA0000000442
B0910345611231N01004277EA0000000421
B0910395611317N01004328EA0000000405
B0910445611403N01004331EA0000000397
B0910515611521N01004294EA0000000373
B0911015611662N01004169EA0000000369
B0911085611735N01004059EA0000000383
B0911135611777N01003989EA0000000389
B0911205611842N01003877EA0000000357
B0911255611842N01003757EA0000000350
B0911315611776N01003633EA0000000351
B0911385611687N01003516EA0000000373
B0911435611685N01003433EA0000000372
B0911485611748N01003510EA0000000365
B0911545611737N01003733EA0000000375
B0911595611674N01003875EA0000000388
B0912045611612N01003875EA0000000383
B0912105611668N01003855EA0000000357
B0912155611691N01004029EA0000000368
B0912205611642N01004179EA0000000384
B0912275611594N01004120EA0000000378
B0912325611655N01004196EA0000000374
B0912375611642N01004376EA0000000390
B0912425611570N01004457EA0000000393
B0912475611538N01004392EA0000000390
B0912525611592N01004397EA0000000389
B0912585611602N01004592EA0000000402
B0913035611526N01004658EA0000000399
B0913085611496N01004591EA0000000394
B0913145611560N01004602EA0000000389
B0913195611602N01004738EA0000000399
B0913245611574N01004895EA0000000401
B0913305611486N01004937EA0000000402
B0913355611482N01004868EA0000000398
B0913405611540N01004917EA0000000401
B0913465611546N01005113EA0000000408
B0913515611474N01005202EA0000000408
B0913575611438N01005131EA0000000399
B0914025611498N01005151EA0000000397
B0914075611517N01005316EA0000000407
B0914125611451N01005426EA0000000406
B0914185611378N01005391EA0000000404
B0914245611362N01005284EA0000000372
B0914315611361N01005113EA0000000336
B0914405611357N01004877EA0000000345
B0914475611338N01004714EA0000000344
B0914525611325N01004597EA0000000324
B0915015611291N01004371EA0000000304
B0915065611289N01004254EA0000000301
B0915115611341N01004193EA0000000296
B0915165611418N01004246EA0000000295
B0915225611493N01004360EA0000000321
B0915275611505N01004299EA0000000325
B0915325611427N01004300EA0000000316
B0915385611396N01004480EA0000000333
B0915445611455N01004589EA0000000340
B0915505611481N01004539EA0000000337
B0915555611408N01004517EA0000000334
B0916005611360N01004653EA0000000342
B0916065611395N01004798EA0000000346
B0916115611445N01004837EA0000000343
B0916165611482N01004802EA0000000335
B0916225611485N01004707EA0000000343
B0916285611487N01004613EA0000000346
B0916355611507N01004511EA0000000359
B0916405611539N01004467EA0000000365
B0916455611570N01004601EA0000000371
B0916505611499N01004705EA0000000384
B0916555611466N01004633EA0000000400
B0917005611517N01004619EA0000000408
B0917055611547N01004762EA0000000411
B0917105611493N01004904EA0000000420
B0917155611425N01004893EA0000000428
B0917205611446N01004828EA0000000429
B0917255611496N01004946EA0000000433
B0917315611450N01005130EA0000000430
B0917375611355N01005161EA0000000440
B0917425611298N01005109EA0000000452
B0917475611327N01005054EA0000000459
B0917525611360N01005183EA0000000460
B0917575611294N01005304EA0000000456
B0918025611217N01005283EA0000000471
B0918075611198N01005200EA0000000479
B0918125611252N01005244EA0000000475
B0918185611223N01005439EA0000000485
B0918235611149N01005510EA0000000501
B0918285611080N01005497EA0000000506
B0918345611093N01005412EA0000000508
B0918395611131N01005529EA0000000514
B0918445611075N01005661EA0000000515
B0918505610986N01005655EA0000000523
B0918555610962N01005580EA0000000527
B0919005611003N01005555EA0000000524
B0919065611043N01005709EA0000000520
B0919115611027N01005885EA0000000522
B0919175610946N01006049EA0000000542
B0919225610871N01006042EA0000000540
B0919275610891N01005971EA0000000544
B0919325610938N01006069EA0000000547
B0919385610899N01006268EA0000000569
B0919435610834N01006384EA0000000570
B0919485610773N01006343EA0000000566
B0919545610808N01006282EA0000000564
B0919595610852N01006394EA0000000565
B0920045610853N01006562EA0000000575
B0920105610776N01006692EA0000000570
B0920155610705N01006669EA0000000571
B0920215610655N01006571EA0000000555
B0920265610623N01006453EA0000000538
B0920325610582N01006321EA0000000556
B0920375610547N01006222EA0000000540
B0920435610508N01006097EA0000000546
B0920495610476N01005986EA0000000548
B0920545610450N01005898EA0000000545
B0920595610426N01005793EA0000000533
B0921055610406N01005681EA0000000551
B0921115610380N01005577EA0000000548
B0921175610355N01005465EA0000000521
B0921235610335N01005344EA0000000537
B0921315610318N01005204EA0000000523
B0921375610287N01005091EA0000000495
B0921435610234N01004961EA0000000481
B0921485610194N01004846EA0000000473
B0921555610149N01004681EA0000000470
B0922005610116N01004569EA0000000469
B0922055610068N01004471EA0000000476
B0922115610006N01004387EA0000000495
B0922185609946N01004296EA0000000499
B0922245609892N01004209EA0000000504
B0922295609815N01004207EA0000000511
B0922345609760N01004340EA0000000522
B0922395609785N01004477EA0000000523
B0922445609835N01004482EA0000000526
B0922505609816N01004391EA0000000529
B0922555609735N01004392EA0000000535
B0923005609699N01004544EA0000000547
B0923065609759N01004602EA0000000549
B0923115609731N01004526EA0000000556
B0923165609656N01004599EA0000000567
B0923225609671N01004780EA0000000570
B0923275609718N01004771EA0000000577
B0923325609685N01004711EA0000000586
B0923385609602N01004811EA0000000585
B0923435609616N01004971EA0000000589
B0923485609671N01004998EA0000000594
B0923545609659N01004914EA0000000603
B0923595609582N01004947EA0000000606
B0924055609552N01005139EA0000000615
B0924105609592N01005271EA0000000611
B0924155609643N01005382EA0000000615
B0924215609711N01005493EA0000000624
B0924265609767N01005554EA0000000619
B0924315609791N01005501EA0000000622
B0924365609742N01005446EA0000000612
B0924425609643N01005533EA0000000615
B0924475609583N01005680EA0000000622
B0924525609522N01005801EA0000000638
B0924585609453N01005767EA0000000630
B0925035609496N01005736EA0000000631
B0925085609544N01005853EA0000000630
B0925145609548N01006065EA0000000647
B0925205609487N01006213EA0000000649
B0925255609424N01006164EA0000000649
B0925305609439N01006090EA0000000661
B0925355609491N01006109EA0000000666
B0925405609499N01006264EA0000000667
B0925465609405N01006332EA0000000669
B0925515609368N01006263EA0000000683
B0925565609404N01006239EA0000000677
B0926025609438N01006409EA0000000684
B0926075609388N01006556EA0000000683
B0926125609304N01006572EA0000000688
B0926185609270N01006495EA0000000696
B0926235609317N01006494EA0000000691
B0926305609360N01006694EA0000000698
B0926365609371N01006891EA0000000695
B0926435609350N01007132EA0000000705
B0926485609322N01007297EA0000000715
B0926535609278N01007436EA0000000714
B0926585609196N01007455EA0000000709
B0927045609168N01007358EA0000000721
B0927095609198N01007302EA0000000731
B0927145609222N01007244EA0000000738
B0927225609207N01007115EA0000000750
B0927295609190N01007010EA0000000767
B0927345609194N01006946EA0000000754
B0927395609250N01007013EA0000000743
B0927445609257N01007182EA0000000737
B0927495609200N01007328EA0000000746
B0927545609123N01007398EA0000000761
B0927595609053N01007393EA0000000758
B0928055609018N01007306EA0000000752
B0928105609007N01007211EA0000000744
B0928165609000N01007077EA0000000739
B0928265608999N01006874EA0000000740
B0928325608995N01006744EA0000000732
B0928375608985N01006632EA0000000727
B0928425608977N01006516EA0000000714
B0928495608971N01006335EA0000000705
B0928545608967N01006227EA0000000719
B0929015608961N01006087EA0000000709
B0929075608956N01005964EA0000000701
B0929155608953N01005795EA0000000685
B0929205608953N01005682EA0000000676
B0929305608948N01005461EA0000000664
B0929365608920N01005328EA0000000673
B0929475608861N01005152EA0000000689
B0929535608824N01005042EA0000000690
B0929595608791N01004929EA0000000703
B0930045608769N01004845EA0000000715
B0930125608723N01004709EA0000000714
B0930195608675N01004596EA0000000720
B0930245608640N01004514EA0000000716
B0930315608592N01004384EA0000000702
B0930375608553N01004263EA0000000700
B0930425608504N01004184EA0000000701
B0930485608434N01004094EA0000000689
B0930535608376N01004004EA0000000680
B0931015608296N01003848EA0000000676
B0931075608254N01003730EA0000000676
B0931135608239N01003615EA0000000681
B0931185608285N01003573EA0000000677
B0931235608358N01003586EA0000000649
B0931295608467N01003601EA0000000620
B0931355608575N01003620EA0000000629
B0931405608652N01003641EA0000000615
B0931475608774N01003646EA0000000606
B0931545608871N01003636EA0000000642
B0931595608879N01003565EA0000000638
B0932045608805N01003550EA0000000641
B0932105608734N01003718EA0000000652
B0932155608736N01003878EA0000000664
B0932205608785N01003943EA0000000656
B0932265608778N01003861EA0000000653
B0932315608694N01003895EA0000000657
B0932375608621N01004063EA0000000672
B0932425608631N01004205EA0000000670
B0932475608686N01004229EA0000000665
B0932525608693N01004153EA0000000661
B0932585608611N01004111EA0000000662
B0933035608532N01004182EA0000000669
B0933085608478N01004314EA0000000664
B0933145608482N01004506EA0000000639
B0933205608561N01004571EA0000000645
B0933265608633N01004581EA0000000644
B0933335608732N01004593EA0000000621
B0933385608810N01004598EA0000000614
B0933465608940N01004611EA0000000602
B0933575609105N01004622EA0000000589
B0934035609195N01004609EA0000000564
B0934095609284N01004589EA0000000566
B0934185609402N01004514EA0000000551
B0934235609462N01004468EA0000000573
B0934285609504N01004438EA0000000586
B0934345609549N01004386EA0000000584
B0934415609609N01004314EA0000000589
B0934475609658N01004252EA0000000594
B0934525609698N01004194EA0000000587
B0934585609755N01004122EA0000000582
B0935045609819N01004060EA0000000572
B0935095609875N01004002EA0000000578
B0935145609930N01003956EA0000000583
B0935195609981N01003924EA0000000583
B0935245610029N01003894EA0000000574
B0935305610095N01003881EA0000000556
B0935365610170N01003871EA0000000551
B0935415610230N01003955EA0000000551
B0935465610259N01004124EA0000000537
B0935525610268N01004350EA0000000531
B0935585610254N01004592EA0000000524
B0936045610243N01004826EA0000000527
B0936125610296N01005077EA0000000523
B0936175610348N01005179EA0000000516
B0936235610419N01005271EA0000000506
B0936315610525N01005394EA0000000488
B0936425610682N01005527EA0000000478
B0936475610745N01005584EA0000000497
B0936525610795N01005629EA0000000511
B0936585610788N01005573EA0000000505
B0937035610701N01005636EA0000000509
B0937085610679N01005817EA0000000521
B0937145610720N01005934EA0000000534
B0937195610716N01005872EA0000000543
B0937245610635N01005932EA0000000554
B0937305610623N01006122EA0000000567
B0937355610675N01006180EA0000000566
B0937405610696N01006123EA0000000590
B0937465610614N01006126EA0000000597
B0937515610579N01006288EA0000000603
B0937565610622N01006389EA0000000608
B0938025610669N01006358EA0000000627
B0938075610648N01006300EA0000000626
B0938125610575N01006375EA0000000620
B0938185610572N01006578EA0000000631
B0938235610615N01006681EA0000000658
B0938285610656N01006653EA0000000657
B0938345610594N01006616EA0000000666
B0938395610544N01006762EA0000000667
B0938455610576N01006940EA0000000695
B0938505610629N01006967EA0000000698
B0938555610613N01006904EA0000000709
B0939005610538N01006959EA0000000710
B0939065610513N01007147EA0000000738
B0939115610567N01007226EA0000000729
B0939175610599N01007159EA0000000745
B0939225610536N01007137EA0000000742
B0939275610467N01007251EA0000000755
B0939335610448N01007433EA0000000773
B0939385610500N01007523EA0000000764
B0939435610555N01007493EA0000000781
B0939485610541N01007433EA0000000790
B0939545610450N01007490EA0000000785
B0940015610399N01007714EA0000000812
B0940065610367N01007861EA0000000805
B0940115610294N01007937EA0000000785
B0940165610254N01007884EA0000000786
B0940215610293N01007847EA0000000769
B0940265610362N01007899EA0000000780
B0940325610433N01007964EA0000000798
B0940375610468N01007933EA0000000798
B0940425610455N01007870EA0000000784
B0940475610454N01007790EA0000000758
B0940585610610N01007754EA0000000716
B0941045610713N01007746EA0000000708
B0941095610794N01007753EA0000000728
B0941165610869N01007739EA0000000729
B0941215610927N01007715EA0000000713
B0941265610986N01007683EA0000000712
B0941315611019N01007623EA0000000707
B0941415611012N01007460EA0000000694
B0941465611013N01007378EA0000000684
B0941515611072N01007351EA0000000671
B0942005611203N01007345EA0000000665
B0942065611289N01007345EA0000000659
B0942135611371N01007344EA0000000675
B0942185611432N01007350EA0000000648
B0942265611550N01007369EA0000000624
B0942345611676N01007402EA0000000618
B0942475611868N01007447EA0000000583
B0942535611958N01007446EA0000000573
B0942595612035N01007420EA0000000571
B0943065612114N01007385EA0000000573
B0943145612205N01007347EA0000000571
B0943195612258N01007316EA0000000591
B0943255612307N01007285EA0000000612
B0943305612321N01007233EA0000000611
B0943355612261N01007228EA0000000609
B0943405612201N01007365EA0000000601
B0943455612215N01007530EA0000000612
B0943515612284N01007598EA0000000626
B0943565612299N01007547EA0000000621
B0944015612237N01007526EA0000000615
B0944065612178N01007663EA0000000603
B0944115612208N01007826EA0000000615
B0944165612270N01007904EA0000000609
B0944245612334N01007812EA0000000608
B0944295612358N01007740EA0000000607
B0944355612385N01007653EA0000000602
B0944435612422N01007531EA0000000613
B0944525612454N01007420EA0000000639
B0944585612475N01007345EA0000000643
B0945125612519N01007162EA0000000653
B0945195612545N01007075EA0000000654
B0945265612567N01006986EA0000000644
B0945325612586N01006900EA0000000640
B0945395612610N01006811EA0000000664
B0945445612665N01006831EA0000000656
B0945505612661N01007035EA0000000651
B0945555612594N01007053EA0000000653
B0946005612578N01006985EA0000000667
B0946055612590N01006938EA0000000681
B0946105612642N01006993EA0000000667
B0946155612663N01007180EA0000000673
B0946205612603N01007315EA0000000682
B0946255612544N01007311EA0000000678
B0946305612544N01007261EA0000000683
B0946355612594N01007280EA0000000685
B0946415612643N01007462EA0000000679
B0946465612615N01007641EA0000000694
B0946525612534N01007689EA0000000685
B0946575612495N01007637EA0000000680
B0947025612466N01007571EA0000000666
B0947125612351N01007437EA0000000638
B0947185612276N01007352EA0000000627
B0947265612183N01007218EA0000000606
B0947315612130N01007124EA0000000595
B0947365612076N01007032EA0000000593
B0947415612024N01006947EA0000000606
B0947465612021N01006877EA0000000612
B0947515612085N01006915EA0000000609
B0947565612119N01007092EA0000000603
B0948015612077N01007287EA0000000598
B0948065611993N01007337EA0000000600
B0948115611967N01007264EA0000000593
B0948165612017N01007232EA0000000583
B0948215612073N01007373EA0000000586
B0948275612010N01007572EA0000000587
B0948325611947N01007554EA0000000577
B0948375611987N01007520EA0000000580
B0948425612032N01007659EA0000000576
B0948475611974N01007814EA0000000566
B0948535611888N01007776EA0000000551
B0948595611829N01007672EA0000000531
B0949055611780N01007558EA0000000534
B0949125611731N01007418EA0000000516
B0949185611690N01007287EA0000000499
B0949315611602N01006993EA0000000488
B0949375611539N01006904EA0000000500
B0949425611477N01006855EA0000000491
B0949475611415N01006790EA0000000474
B0949555611330N01006658EA0000000476
B0950025611277N01006547EA0000000490
B0950075611247N01006472EA0000000460
B0950155611202N01006302EA0000000447
B0950215611164N01006185EA0000000439
B0950285611127N01006041EA0000000414
B0950345611100N01005911EA0000000401
B0950415611090N01005765EA0000000388
B0950505611085N01005579EA0000000377
B0951005611084N01005378EA0000000359
B0951115611086N01005156EA0000000347
B0951185611093N01005016EA0000000335
B0951265611099N01004851EA0000000327
B0951325611098N01004730EA0000000327
B0951385611091N01004618EA0000000329
B0951435611086N01004537EA0000000328
B0951485611082N01004459EA0000000325
B0951545611076N01004348EA0000000294
B0952025611060N01004183EA0000000295
B0952085611052N01004081EA0000000302
B0952165611052N01003947EA0000000308
B0952235611041N01003851EA0000000314
B0952285610994N01003797EA0000000304
B0952335610922N01003891EA0000000302
B0952385610926N01004062EA0000000295
B0952435610983N01004142EA0000000300
B0952515611059N01004137EA0000000300
B0952585611119N01004109EA0000000299
B0953035611160N01004086EA0000000296
B0953105611216N01004056EA0000000294
B0953155611247N01004019EA0000000277
B0953205611288N01003990EA0000000256
B0953255611331N01004120EA0000000245
B0953305611309N01004308EA0000000237
B0953355611282N01004503EA0000000232
B0953425611252N01004775EA0000000230
B0953515611223N01005123EA0000000227
B0953565611176N01005294EA0000000222
B0954035611060N01005483EA0000000212
B0954105610945N01005661EA0000000221
B0954165610834N01005737EA0000000214
B0954215610754N01005720EA0000000204
B0954265610738N01005611EA0000000172
B0954395610739N01005304EA0000000121
B0954445610738N01005185EA0000000103
B0954515610735N01005019EA0000000075
B0955025610734N01004823EA0000000070
