AOGNOGN
HFDTE100825
HFFXA050
HFPLTPILOTINCHARGE:
HFGTYGLIDERTYPE:ASK-21
HFGIDGLIDERID:OY-XNX
HFDTM100GPSDATUM:WGS-1984
HFRFWFIRMWAREVERSION:
HFRHWHARDWAREVERSION:
HFFTYFRTYPE:OGN-FLIGHTBOOK
HFGPSGENERIC
HFPRSPRESSALTSENSOR:
HFCIDCOMPETITIONID:NX
B1243375554418N00927275EA0000000105
B1243425554432N00927154EA0000000190
B1243475554436N00927039EA0000000280
B1243525554443N00926931EA0000000356
B1243575554452N00926821EA0000000423
B1244025554463N00926708EA0000000474
B1244075554478N00926602EA0000000490
B1244145554492N00926466EA0000000492
B1244195554499N00926387EA0000000490
B1244245554524N00926321EA0000000484
B1244295554580N00926301EA0000000478
B1244345554644N00926345EA0000000475
B1244405554716N00926434EA0000000465
B1244475554806N00926524EA0000000459
B1244525554873N00926538EA0000000460
B1244585554929N00926467EA0000000472
B1245035554972N00926403EA0000000480
B1245085555039N00926451EA0000000493
B1245135555068N00926599EA0000000502
B1245185555026N00926738EA0000000505
B1245235554949N00926763EA0000000508
B1245285554918N00926680EA0000000509
B1245335554948N00926595EA0000000515
B1245395555026N00926563EA0000000525
B1245445555088N00926653EA0000000534
B1245495555092N00926812EA0000000544
B1245545555035N00926912EA0000000548
B1245595554968N00926888EA0000000546
B1246045554961N00926785EA0000000555
B1246095555016N00926729EA0000000558
B1246145555087N00926796EA0000000567
B1246205555111N00926978EA0000000590
B1246255555063N00927102EA0000000591
B1246305554992N00927110EA0000000595
B1246355554956N00927028EA0000000602
B1246445555021N00926905EA0000000608
B1246495555090N00926961EA0000000614
B1246545555124N00927104EA0000000627
B1246595555098N00927252EA0000000632
B1247045555029N00927312EA0000000634
B1247095554976N00927258EA0000000638
B1247155554981N00927143EA0000000647
B1247215555050N00927085EA0000000652
B1247265555119N00927137EA0000000653
B1247315555151N00927280EA0000000654
B1247365555114N00927419EA0000000654
B1247415555045N00927454EA0000000656
B1247465555000N00927387EA0000000661
B1247515554979N00927293EA0000000664
B1247565555004N00927207EA0000000667
B1248015555068N00927205EA0000000666
B1248065555118N00927314EA0000000666
B1248115555107N00927466EA0000000663
B1248165555045N00927560EA0000000664
B1248215554979N00927544EA0000000671
B1248265554932N00927474EA0000000679
B1248325554922N00927350EA0000000683
B1248385554967N00927255EA0000000694
B1248445555048N00927288EA0000000698
B1248495555088N00927420EA0000000700
B1248545555070N00927583EA0000000701
B1248595555002N00927679EA0000000697
B1249055554918N00927645EA0000000688
B1249105554902N00927542EA0000000688
B1249155554921N00927435EA0000000692
B1249225554998N00927351EA0000000700
B1249275555068N00927407EA0000000707
B1249325555106N00927553EA0000000714
B1249375555090N00927717EA0000000717
B1249425555028N00927821EA0000000714
B1249485554950N00927793EA0000000717
B1249535554936N00927700EA0000000713
B1249595554960N00927584EA0000000714
B1250055554984N00927476EA0000000719
B1250175555048N00927287EA0000000723
B1250225555074N00927201EA0000000726
B1250275555099N00927116EA0000000733
B1250335555166N00927078EA0000000735
B1250385555223N00927170EA0000000734
B1250435555227N00927329EA0000000730
B1250485555173N00927454EA0000000721
B1251165555131N00927038EA0000000717
B1251225555156N00926931EA0000000715
B1251315555179N00926767EA0000000709
B1251415555187N00926581EA0000000715
B1251475555226N00926497EA0000000711
B1251525555295N00926522EA0000000710
B1251575555335N00926658EA0000000715
B1252025555308N00926812EA0000000715
B1252075555234N00926889EA0000000712
B1252135555160N00926844EA0000000714
B1252185555123N00926768EA0000000716
B1252255555085N00926650EA0000000721
B1252315555063N00926545EA0000000715
B1252405555055N00926373EA0000000701
B1252455555056N00926276EA0000000704
B1252505555049N00926184EA0000000708
B1252565555009N00926089EA0000000707
B1253015554934N00926085EA0000000701
B1253065554862N00926192EA0000000695
B1253115554831N00926361EA0000000688
B1253165554859N00926517EA0000000688
B1253215554922N00926568EA0000000688
B1253265554955N00926507EA0000000685
B1253325554936N00926394EA0000000682
B1253375554911N00926301EA0000000673
B1253425554893N00926207EA0000000668
B1253485554866N00926092EA0000000664
B1253535554842N00925998EA0000000668
B1253595554819N00925887EA0000000668
B1254075554791N00925746EA0000000664
B1254125554779N00925658EA0000000653
B1254245554756N00925436EA0000000640
B1254325554719N00925291EA0000000633
B1254385554697N00925185EA0000000624
B1254445554681N00925068EA0000000608
B1254495554665N00924972EA0000000607
B1254545554644N00924880EA0000000608
B1255025554609N00924731EA0000000609
B1255095554604N00924590EA0000000616
B1255155554614N00924466EA0000000626
B1255215554629N00924348EA0000000637
B1255295554648N00924203EA0000000636
B1255345554658N00924114EA0000000637
B1255405554668N00924011EA0000000646
B1255475554681N00923899EA0000000648
B1255595554702N00923711EA0000000637
B1256085554716N00923571EA0000000635
B1256135554721N00923491EA0000000641
B1256205554731N00923384EA0000000646
B1256265554742N00923295EA0000000648
B1256345554761N00923184EA0000000647
B1256415554770N00923078EA0000000645
B1256465554773N00923001EA0000000642
B1256525554774N00922904EA0000000645
B1257005554775N00922776EA0000000650
B1257075554780N00922664EA0000000660
B1257155554782N00922533EA0000000676
B1257205554790N00922452EA0000000679
B1257255554843N00922424EA0000000681
B1257305554904N00922505EA0000000687
B1257355554917N00922664EA0000000694
B1257405554864N00922801EA0000000699
B1257455554780N00922830EA0000000713
B1257515554718N00922744EA0000000719
B1257565554732N00922652EA0000000717
B1258015554794N00922628EA0000000718
B1258065554858N00922716EA0000000727
B1258115554885N00922872EA0000000739
B1258165554857N00923028EA0000000760
B1258215554786N00923104EA0000000772
B1258275554708N00923051EA0000000783
B1258325554697N00922951EA0000000785
B1258375554744N00922889EA0000000786
B1258425554814N00922937EA0000000788
B1258475554848N00923089EA0000000806
B1258535554815N00923285EA0000000833
B1258585554746N00923391EA0000000842
B1259045554651N00923364EA0000000857
B1259095554632N00923266EA0000000864
B1259145554681N00923219EA0000000866
B1259195554742N00923299EA0000000875
B1259285554730N00923578EA0000000904
B1259345554645N00923701EA0000000915
B1259395554567N00923681EA0000000928
B1259445554533N00923593EA0000000932
B1259495554562N00923520EA0000000929
B1259545554629N00923541EA0000000924
B1259595554688N00923654EA0000000936
B1300045554731N00923804EA0000000952
B1300115554772N00924030EA0000000969
B1300205554809N00924325EA0000000976
B1300295554832N00924631EA0000000967
B1300355554850N00924834EA0000000963
B1300425554882N00925062EA0000000956
B1300475554915N00925215EA0000000952
B1300525554951N00925361EA0000000948
B1300585555020N00925475EA0000000938
B1301065555119N00925492EA0000000928
B1301135555201N00925474EA0000000918
B1301185555261N00925475EA0000000906
B1301265555365N00925495EA0000000890
B1301325555443N00925526EA0000000885
B1301395555529N00925563EA0000000879
B1301445555588N00925575EA0000000881
B1301495555646N00925584EA0000000881
B1301555555717N00925602EA0000000880
B1302015555795N00925630EA0000000875
B1302085555894N00925675EA0000000872
B1302135555967N00925703EA0000000874
B1302185556040N00925730EA0000000881
B1302245556123N00925764EA0000000880
B1302315556221N00925805EA0000000868
B1302365556289N00925834EA0000000864
B1302425556370N00925869EA0000000851
B1302475556438N00925892EA0000000843
B1302585556579N00925914EA0000000831
B1303095556697N00925866EA0000000823
B1303175556777N00925817EA0000000823
B1303225556833N00925809EA0000000835
B1303275556890N00925886EA0000000836
B1303325556898N00926042EA0000000833
B1303375556838N00926171EA0000000837
B1303425556754N00926208EA0000000840
B1303475556693N00926144EA0000000838
B1303525556692N00926051EA0000000840
B1304015556793N00926031EA0000000849
B1304075556855N00926164EA0000000849
B1304125556856N00926335EA0000000855
B1304175556806N00926480EA0000000853
B1304225556724N00926533EA0000000860
B1304285556635N00926507EA0000000861
B1304345556611N00926400EA0000000864
B1304395556659N00926356EA0000000869
B1304495556749N00926564EA0000000885
B1304545556709N00926714EA0000000886
B1304595556630N00926758EA0000000897
B1305045556576N00926698EA0000000900
B1305115556608N00926581EA0000000908
B1305165556669N00926616EA0000000923
B1305245556689N00926856EA0000000925
B1305295556621N00926969EA0000000932
B1305345556546N00926952EA0000000943
B1305395556514N00926856EA0000000949
B1305465556559N00926750EA0000000967
B1305515556622N00926775EA0000000971
B1305595556676N00926995EA0000000974
B1306045556635N00927156EA0000000982
B1306095556558N00927246EA0000000985
B1306145556482N00927226EA0000000990
B1306195556450N00927126EA0000000993
B1306245556475N00927031EA0000001003
B1306315556562N00927029EA0000001007
B1306415556613N00927308EA0000001012
B1306465556559N00927439EA0000001017
B1306525556468N00927456EA0000001020
B1306585556394N00927379EA0000001025
B1307035556370N00927279EA0000001026
B1307095556398N00927173EA0000001019
B1307165556489N00927144EA0000001014
B1307215556560N00927207EA0000001012
B1307355556582N00927626EA0000001000
B1307405556512N00927705EA0000000987
B1307455556433N00927698EA0000000981
B1307525556322N00927664EA0000000981
B1307575556245N00927635EA0000000987
B1308025556185N00927571EA0000000981
B1308075556181N00927476EA0000000986
B1308165556281N00927445EA0000000983
B1308215556342N00927548EA0000000983
B1308285556350N00927781EA0000000978
B1308335556286N00927898EA0000000971
B1308385556211N00927893EA0000000969
B1308445556176N00927794EA0000000965
B1308535556177N00927620EA0000000964
B1309025556166N00927452EA0000000967
B1309125556156N00927269EA0000000960
B1309205556135N00927124EA0000000959
B1309265556114N00927017EA0000000956
B1309325556096N00926907EA0000000952
B1309395556082N00926780EA0000000949
B1309455556076N00926670EA0000000945
B1309505556052N00926584EA0000000947
B1309585555951N00926530EA0000000944
B1310045555862N00926516EA0000000936
B1310105555772N00926499EA0000000930
B1310155555696N00926494EA0000000926
B1310205555616N00926541EA0000000920
B1310255555549N00926656EA0000000917
B1310305555507N00926816EA0000000914
B1310365555501N00927023EA0000000910
B1310415555525N00927189EA0000000903
B1310525555598N00927537EA0000000902
B1311015555654N00927811EA0000000901
B1311095555701N00928051EA0000000899
B1311175555752N00928283EA0000000891
B1311225555790N00928426EA0000000884
B1311295555828N00928648EA0000000877
B1311345555827N00928820EA0000000875
B1311415555792N00929057EA0000000871
B1311485555739N00929284EA0000000863
B1311535555667N00929392EA0000000860
B1311585555588N00929404EA0000000852
B1312035555538N00929333EA0000000845
B1312095555515N00929213EA0000000834
B1312165555489N00929071EA0000000830
B1312255555458N00928891EA0000000820
B1312305555443N00928791EA0000000816
B1312365555409N00928675EA0000000811
B1312435555347N00928557EA0000000807
B1312495555297N00928454EA0000000806
B1312555555253N00928352EA0000000804
B1313025555206N00928231EA0000000796
B1313145555141N00928006EA0000000782
B1313195555116N00927911EA0000000779
B1313295555070N00927720EA0000000768
B1313355555043N00927606EA0000000764
B1313435555011N00927451EA0000000757
B1313525554975N00927287EA0000000759
B1313585554950N00927189EA0000000757
B1314095554912N00927007EA0000000747
B1314155554913N00926907EA0000000742
B1314225554962N00926827EA0000000740
B1314275555019N00926819EA0000000735
B1314325555084N00926859EA0000000730
B1314375555143N00926953EA0000000726
B1314425555178N00927100EA0000000719
B1314475555175N00927274EA0000000715
B1314525555164N00927446EA0000000709
B1315045555279N00927656EA0000000698
B1315095555308N00927597EA0000000695
B1315165555320N00927488EA0000000684
B1315315555317N00927232EA0000000667
B1315385555311N00927114EA0000000661
B1315455555312N00927002EA0000000652
B1315515555314N00926890EA0000000629
B1315575555313N00926761EA0000000622
B1316065555317N00926586EA0000000612
B1316115555338N00926485EA0000000598
B1316185555375N00926357EA0000000606
B1316255555405N00926246EA0000000605
B1316305555450N00926200EA0000000600
B1316355555514N00926248EA0000000599
B1316405555550N00926390EA0000000595
B1316455555529N00926560EA0000000590
B1316515555444N00926692EA0000000586
B1316565555365N00926698EA0000000579
B1317015555320N00926624EA0000000572
B1317075555347N00926536EA0000000558
B1317125555410N00926633EA0000000544
B1317175555363N00926800EA0000000536
B1317225555291N00926753EA0000000518
B1317295555304N00926591EA0000000526
B1317365555315N00926465EA0000000531
B1317435555361N00926384EA0000000527
B1317485555423N00926418EA0000000524
B1317535555472N00926540EA0000000518
B1317585555477N00926713EA0000000514
B1318045555414N00926887EA0000000506
B1318105555320N00926929EA0000000495
B1318155555274N00926863EA0000000491
B1318255555296N00926710EA0000000484
B1318315555325N00926632EA0000000478
B1318415555393N00926520EA0000000467
B1318505555466N00926428EA0000000457
B1318585555520N00926320EA0000000445
B1319065555468N00926198EA0000000441
B1319115555389N00926215EA0000000438
B1319165555316N00926320EA0000000433
B1319215555278N00926487EA0000000430
B1319265555299N00926654EA0000000428
B1319315555359N00926749EA0000000425
B1319365555422N00926751EA0000000417
B1319435555481N00926660EA0000000411
B1319495555509N00926559EA0000000404
B1320015555526N00926327EA0000000389
B1320115555459N00926147EA0000000389
B1320165555380N00926131EA0000000386
B1320215555299N00926202EA0000000383
B1320285555272N00926426EA0000000377
B1320365555365N00926500EA0000000368
B1320425555361N00926399EA0000000358
B1320475555298N00926354EA0000000350
B1320525555218N00926398EA0000000346
B1320575555157N00926530EA0000000341
B1321025555110N00926692EA0000000333
B1321085555067N00926898EA0000000325
B1321135555034N00927075EA0000000314
B1321455554751N00928156EA0000000269
B1321515554659N00928284EA0000000266
B1321565554573N00928330EA0000000261
B1322055554424N00928331EA0000000228
B1322105554357N00928271EA0000000221
B1322155554353N00928167EA0000000206
B1322205554363N00928063EA0000000185
B1322375554402N00927694EA0000000135
B1322435554420N00927557EA0000000118
B1322505554438N00927400EA0000000097
B1322575554453N00927264EA0000000091
B1323025554462N00927190EA0000000087
