AOGNOGN
HFDTE100825
HFFXA050
HFPLTPILOTINCHARGE:
HFGTYGLIDERTYPE:DG-300
HFGIDGLIDERID:OY-XRU
HFDTM100GPSDATUM:WGS-1984
HFRFWFIRMWAREVERSION:
HFRHWHARDWAREVERSION:
HFFTYFRTYPE:OGN-FLIGHTBOOK
HFGPSGENERIC
HFPRSPRESSALTSENSOR:
HFCIDCOMPETITIONID:RU
B1306135554428N00927264EA0000000090
B1306155554433N00927220EA0000000105
B1306225554452N00927084EA0000000224
B1306285554465N00926971EA0000000327
B1306335554477N00926865EA0000000398
B1306385554489N00926753EA0000000442
B1306435554500N00926637EA0000000464
B1306485554506N00926551EA0000000479
B1307025554508N00926329EA0000000479
B1307085554511N00926237EA0000000482
B1307145554512N00926150EA0000000479
B1307395554534N00925777EA0000000466
B1307525554545N00925557EA0000000460
B1308195554579N00925717EA0000000467
B1308245554501N00925756EA0000000467
B1308295554439N00925701EA0000000473
B1308355554413N00925607EA0000000472
B1308405554458N00925596EA0000000471
B1308455554481N00925724EA0000000469
B1308505554422N00925842EA0000000473
B1308555554356N00925821EA0000000464
B1309045554365N00925674EA0000000462
B1309115554399N00925567EA0000000463
B1309165554426N00925498EA0000000460
B1309215554461N00925435EA0000000458
B1309285554501N00925336EA0000000460
B1309335554517N00925272EA0000000461
B1309395554529N00925188EA0000000458
B1309445554539N00925116EA0000000455
B1309515554557N00925000EA0000000436
B1309575554571N00924877EA0000000426
B1310025554585N00924771EA0000000419
B1310115554612N00924572EA0000000412
B1310235554627N00924306EA0000000405
B1310325554622N00924123EA0000000416
B1310375554624N00924027EA0000000409
B1310435554632N00923906EA0000000401
B1310585554660N00923591EA0000000379
B1311275554744N00923461EA0000000355
B1311345554681N00923685EA0000000341
B1311405554629N00923884EA0000000332
B1311465554580N00924087EA0000000327
B1311535554530N00924323EA0000000328
B1312025554461N00924612EA0000000319
B1312075554425N00924776EA0000000312
B1312135554394N00924974EA0000000319
B1312205554350N00925164EA0000000334
B1312265554273N00925192EA0000000333
B1312365554309N00925071EA0000000331
B1312415554359N00925164EA0000000335
B1312475554330N00925330EA0000000337
B1312525554262N00925349EA0000000343
B1312575554242N00925279EA0000000348
B1313065554319N00925254EA0000000343
B1313115554356N00925365EA0000000339
B1313165554328N00925511EA0000000347
B1313225554269N00925651EA0000000353
B1313295554176N00925684EA0000000351
B1313355554165N00925599EA0000000343
B1313405554224N00925607EA0000000343
B1313455554258N00925732EA0000000349
B1313505554221N00925868EA0000000353
B1313555554153N00925884EA0000000358
B1314045554181N00925798EA0000000347
B1314095554237N00925871EA0000000354
B1314145554258N00926003EA0000000353
B1314205554192N00926140EA0000000347
B1314255554134N00926096EA0000000355
B1314315554114N00926015EA0000000367
B1314365554124N00925952EA0000000358
B1314415554175N00925974EA0000000350
B1314505554180N00926220EA0000000351
B1314555554117N00926290EA0000000353
B1315005554054N00926273EA0000000350
B1315085554073N00926186EA0000000344
B1315135554126N00926263EA0000000337
B1315195554125N00926445EA0000000340
B1315245554106N00926587EA0000000344
B1315295554140N00926698EA0000000337
B1315355554201N00926671EA0000000342
B1315405554180N00926592EA0000000342
B1315455554107N00926619EA0000000345
B1315505554086N00926764EA0000000336
B1315565554152N00926847EA0000000343
B1316015554177N00926779EA0000000340
B1316065554125N00926719EA0000000342
B1316125554043N00926803EA0000000351
B1316175554044N00926953EA0000000348
B1316235554112N00926995EA0000000349
B1316285554121N00926913EA0000000350
B1316335554057N00926883EA0000000347
B1316385553998N00926996EA0000000349
B1316445554032N00927155EA0000000348
B1316505554106N00927164EA0000000359
B1316565554129N00927079EA0000000357
B1317015554065N00927038EA0000000358
B1317075554001N00927180EA0000000353
B1317125554040N00927305EA0000000361
B1317175554101N00927309EA0000000366
B1317225554139N00927264EA0000000371
B1317275554118N00927188EA0000000370
B1317325554043N00927212EA0000000372
B1317375554024N00927362EA0000000373
B1317425554080N00927435EA0000000372
B1317485554140N00927388EA0000000374
B1317535554137N00927307EA0000000373
B1317585554069N00927289EA0000000371
B1318045554006N00927427EA0000000383
B1318095554013N00927569EA0000000387
B1318165554090N00927629EA0000000377
B1318215554108N00927557EA0000000371
B1318345553936N00927648EA0000000379
B1318395553935N00927795EA0000000381
B1318455554005N00927848EA0000000384
B1318505554017N00927772EA0000000384
B1318585553904N00927782EA0000000385
B1319055553898N00927986EA0000000391
B1319125553983N00927999EA0000000395
B1319175553978N00927913EA0000000389
B1319255553863N00927955EA0000000404
B1319315553862N00928130EA0000000405
B1319365553927N00928178EA0000000406
B1319435553948N00928071EA0000000399
B1319515553832N00928087EA0000000410
B1319565553809N00928240EA0000000413
B1320035553883N00928344EA0000000421
B1320085553917N00928289EA0000000417
B1320185553801N00928240EA0000000415
B1320265553743N00928444EA0000000426
B1320325553803N00928532EA0000000435
B1320375553827N00928475EA0000000431
B1320465553779N00928327EA0000000445
B1320535553756N00928209EA0000000442
B1320585553764N00928120EA0000000441
B1321045553760N00928032EA0000000451
B1321155553776N00927897EA0000000440
B1321225553795N00927812EA0000000436
B1321335553687N00927713EA0000000422
B1321395553607N00927675EA0000000417
B1321545553468N00927525EA0000000427
B1322045553568N00927579EA0000000437
B1322105553548N00927764EA0000000438
B1322385553539N00927757EA0000000474
B1322435553502N00927911EA0000000473
B1322525553399N00927864EA0000000482
B1322575553426N00927788EA0000000498
B1323055553513N00927803EA0000000504
B1323125553520N00928025EA0000000503
B1323225553405N00928015EA0000000493
B1323325553440N00927857EA0000000514
B1323375553461N00927792EA0000000516
B1323425553470N00927719EA0000000514
B1324265553636N00926953EA0000000457
B1324315553686N00926920EA0000000457
B1324365553746N00926973EA0000000452
B1324425553782N00927131EA0000000460
B1324495553838N00927279EA0000000461
B1324555553908N00927294EA0000000461
B1325005553956N00927269EA0000000468
B1325075553996N00927198EA0000000462
B1325165554043N00927086EA0000000448
B1325235554091N00927010EA0000000444
B1325285554123N00926954EA0000000434
B1325335554144N00926875EA0000000421
B1325395554131N00926763EA0000000417
B1325445554106N00926673EA0000000419
B1325505554066N00926571EA0000000414
B1325585554006N00926430EA0000000410
B1326055553963N00926301EA0000000406
B1326115553915N00926194EA0000000404
B1326165553878N00926108EA0000000407
B1326225553844N00926005EA0000000415
B1326435553786N00925680EA0000000412
B1327345553521N00925561EA0000000440
B1328035553308N00925495EA0000000462
B1328125553353N00925695EA0000000476
B1328325553258N00925643EA0000000489
B1328465553239N00925950EA0000000515
B1328565553184N00925842EA0000000526
B1329075553265N00926027EA0000000544
B1329235553175N00925999EA0000000570
B1329325553255N00926169EA0000000591
B1329375553213N00926303EA0000000600
B1330015553223N00926355EA0000000629
B1330095553141N00926531EA0000000645
B1330175553071N00926460EA0000000657
B1330235553130N00926442EA0000000668
B1330285553170N00926570EA0000000675
B1330335553139N00926712EA0000000681
B1330465553035N00926650EA0000000698
B1330545553122N00926735EA0000000707
B1331015553083N00926941EA0000000717
B1331105552983N00926904EA0000000732
B1331155553012N00926847EA0000000745
B1331215553085N00926853EA0000000751
B1331275553167N00926914EA0000000757
B1331335553259N00927001EA0000000747
B1331425553415N00927159EA0000000734
B1332145553968N00927827EA0000000682
B1332235554126N00928019EA0000000667
B1332305554248N00928164EA0000000657
B1332375554369N00928302EA0000000650
B1332485554555N00928502EA0000000640
B1332555554672N00928624EA0000000637
B1333055554844N00928792EA0000000615
B1333115554952N00928878EA0000000603
B1333175555061N00928958EA0000000592
B1333225555151N00929019EA0000000586
B1333335555344N00929149EA0000000597
B1333385555425N00929212EA0000000590
B1333465555562N00929320EA0000000574
B1333525555669N00929402EA0000000563
B1333575555760N00929467EA0000000556
B1334295556354N00929889EA0000000524
B1334345556443N00929936EA0000000515
B1334525556753N00929947EA0000000488
B1334595556867N00929948EA0000000480
B1335055556963N00929939EA0000000475
B1335105557040N00929932EA0000000478
B1335175557148N00929898EA0000000457
B1335245557249N00929817EA0000000461
B1335295557308N00929747EA0000000476
B1335375557385N00929650EA0000000485
B1335445557462N00929592EA0000000493
B1335545557568N00929502EA0000000511
B1336155557796N00929318EA0000000525
B1336215557850N00929234EA0000000534
B1336265557835N00929144EA0000000547
B1337295558193N00928958EA0000000620
B1337505558314N00928677EA0000000635
B1338245558601N00928289EA0000000618
B1338335558675N00928139EA0000000606
B1338415558746N00927992EA0000000608
B1340015559080N00927315EA0000000670
B1350395602594N00918917EA0000000547
B1350595602566N00919265EA0000000574
B1351065602581N00919172EA0000000584
B1351225602562N00919497EA0000000597
B1351515602479N00919705EA0000000623
B1352095602466N00919426EA0000000637
B1352155602472N00919332EA0000000651
B1352265602368N00919306EA0000000663
B1352385602433N00919536EA0000000662
B1352445602431N00919441EA0000000673
B1353015602355N00919688EA0000000679
B1353065602397N00919639EA0000000687
B1353135602343N00919533EA0000000694
B1353355602339N00919747EA0000000714
B1353405602347N00919659EA0000000730
B1353465602346N00919550EA0000000747
B1353515602341N00919457EA0000000758
B1353595602323N00919310EA0000000777
B1354045602307N00919217EA0000000792
B1354145602287N00919034EA0000000811
B1354215602275N00918912EA0000000795
B1354315602252N00918719EA0000000791
B1355135602229N00918764EA0000000884
B1355405602146N00919006EA0000000924
B1355575602152N00919328EA0000000932
B1356025602087N00919288EA0000000943
B1356075602055N00919204EA0000000949
B1356135602084N00919122EA0000000946
B1356345602011N00919491EA0000000982
B1356445601999N00919348EA0000000976
B1357025601943N00919701EA0000001006
B1357075601881N00919656EA0000001008
B1357145601882N00919545EA0000001000
B1357205601942N00919604EA0000000986
B1357455601686N00919810EA0000000973
B1357595601676N00919544EA0000000938
B1358045601667N00919435EA0000000929
B1358125601606N00919270EA0000000923
B1358175601558N00919172EA0000000915
B1358245601479N00919044EA0000000917
B1358325601411N00918916EA0000000929
B1358415601361N00918753EA0000000911
B1358475601348N00918625EA0000000915
B1358535601342N00918500EA0000000912
B1358585601334N00918395EA0000000895
B1359035601308N00918281EA0000000879
B1359085601279N00918162EA0000000867
B1359145601242N00918021EA0000000863
B1359235601183N00917821EA0000000861
B1359295601151N00917702EA0000000863
B1359405601091N00917472EA0000000840
B1359455601063N00917355EA0000000830
B1359515601030N00917212EA0000000815
B1359585600986N00917042EA0000000794
B1400075600928N00916822EA0000000772
B1400135600888N00916671EA0000000761
B1400245600783N00916418EA0000000740
B1400295600734N00916303EA0000000729
B1400415600618N00916045EA0000000725
B1400465600575N00915944EA0000000718
B1400555600500N00915753EA0000000702
B1401045600431N00915553EA0000000684
B1401125600371N00915369EA0000000675
B1401185600333N00915233EA0000000666
B1401235600305N00915123EA0000000663
B1401315600260N00914951EA0000000650
B1401375600231N00914825EA0000000648
B1401425600207N00914720EA0000000641
B1401475600187N00914609EA0000000635
B1401535600165N00914470EA0000000634
B1401595600144N00914344EA0000000646
B1402055600124N00914230EA0000000652
B1402115600105N00914116EA0000000652
B1402165600093N00914011EA0000000658
B1402235600081N00913864EA0000000672
B1402305600094N00913737EA0000000694
B1402355600157N00913770EA0000000708
B1402425600157N00913977EA0000000720
B1402475600082N00914057EA0000000734
B1402525600018N00914009EA0000000738
B1402585600030N00913904EA0000000751
B1403045600108N00913929EA0000000762
B1403095600130N00914077EA0000000778
B1403155600059N00914217EA0000000788
B1403205559995N00914174EA0000000799
B1403255600004N00914089EA0000000811
B1403315600078N00914110EA0000000821
B1403365600103N00914246EA0000000833
B1403445600003N00914399EA0000000838
B1403515559933N00914306EA0000000859
B1403565559914N00914222EA0000000866
B1404025559902N00914109EA0000000873
B1404105559890N00913959EA0000000885
B1404215559890N00913731EA0000000861
B1404265559895N00913612EA0000000851
B1404315559899N00913485EA0000000842
B1404365559905N00913354EA0000000832
B1404425559912N00913189EA0000000822
B1404495559919N00913005EA0000000817
B1404545559924N00912873EA0000000811
B1405105559939N00912443EA0000000779
B1405175559946N00912247EA0000000763
B1405225559953N00912106EA0000000758
B1405285559965N00911939EA0000000753
B1405355559979N00911742EA0000000744
B1405435559993N00911510EA0000000732
B1405485600004N00911364EA0000000729
B1406015600035N00910986EA0000000718
B1406075600048N00910832EA0000000727
B1406135600058N00910686EA0000000719
B1406245600080N00910416EA0000000699
B1406315600107N00910247EA0000000683
B1406365600125N00910125EA0000000680
B1406425600144N00909977EA0000000675
B1406475600161N00909848EA0000000667
B1406535600184N00909693EA0000000658
B1406595600208N00909534EA0000000641
B1407085600246N00909255EA0000000615
B1407135600264N00909089EA0000000602
B1407235600296N00908755EA0000000593
B1407295600321N00908550EA0000000572
B1407345600344N00908375EA0000000564
B1407395600368N00908198EA0000000550
B1407465600409N00907951EA0000000532
B1407545600461N00907676EA0000000519
B1408005600503N00907472EA0000000506
B1408065600545N00907273EA0000000494
B1408115600581N00907111EA0000000484
B1408205600649N00906820EA0000000463
B1408255600688N00906660EA0000000447
B1408315600737N00906465EA0000000431
B1408395600803N00906203EA0000000406
B1408475600866N00905937EA0000000388
B1408545600922N00905705EA0000000371
B1409005600951N00905497EA0000000361
B1409065600954N00905285EA0000000357
B1409125600953N00905083EA0000000354
B1409185600941N00904888EA0000000346
B1409265600916N00904633EA0000000330
B1409315600903N00904474EA0000000316
B1409405600888N00904169EA0000000277
B1409465600878N00903947EA0000000254
B1409515600867N00903759EA0000000240
B1409575600853N00903528EA0000000216
B1410025600841N00903328EA0000000203
B1410105600814N00902989EA0000000154
B1410155600799N00902758EA0000000138
B1410235600775N00902420EA0000000139
B1410285600762N00902242EA0000000120
B1410345600748N00902064EA0000000105
B1410415600734N00901873EA0000000085
B1410465600725N00901734EA0000000074
B1410515600716N00901593EA0000000059
B1410565600706N00901455EA0000000049
B1411015600698N00901326EA0000000043
B1411065600691N00901207EA0000000041
B1411125600683N00901073EA0000000041
B1411205600675N00900937EA0000000042
