AOGNOGN
HFDTE100825
HFFXA050
HFPLTPILOTINCHARGE:
HFGTYGLIDERTYPE:Duo Discus xlt
HFGIDGLIDERID:OY-HXD
HFDTM100GPSDATUM:WGS-1984
HFRFWFIRMWAREVERSION:
HFRHWHARDWAREVERSION:
HFFTYFRTYPE:OGN-FLIGHTBOOK
HFGPSGENERIC
HFPRSPRESSALTSENSOR:
HFCIDCOMPETITIONID:HD
B1324245554441N00927070EA0000000243
B1324265554443N00927026EA0000000284
B1324295554446N00926962EA0000000342
B1324375554457N00926790EA0000000462
B1325035554437N00926251EA0000000511
B1325105554344N00926151EA0000000494
B1325165554263N00926052EA0000000478
B1328175553227N00925556EA0000000564
B1328445553182N00925734EA0000000606
B1329095553122N00925935EA0000000641
B1329275553147N00926237EA0000000661
B1329325553073N00926201EA0000000666
B1329375553073N00926114EA0000000672
B1330025553046N00926492EA0000000694
B1330075553019N00926402EA0000000698
B1330265553103N00926706EA0000000715
B1330315553025N00926711EA0000000719
B1330365553024N00926617EA0000000735
B1330535552988N00926874EA0000000759
B1330585552963N00926790EA0000000771
B1331085553077N00926744EA0000000749
B1331415553656N00927418EA0000000731
B1331475553751N00927563EA0000000735
B1331535553837N00927699EA0000000733
B1331585553910N00927814EA0000000723
B1332035553988N00927918EA0000000714
B1332125554133N00928087EA0000000703
B1332265554367N00928321EA0000000686
B1332325554470N00928394EA0000000677
B1332485554726N00928626EA0000000674
B1332545554735N00928849EA0000000669
B1333245554686N00930150EA0000000612
B1333305554657N00930405EA0000000597
B1333485554653N00931175EA0000000555
B1333535554755N00931245EA0000000534
B1333585554844N00931211EA0000000535
B1334045554831N00931047EA0000000519
B1334105554789N00930879EA0000000513
B1334165554756N00930725EA0000000509
B1334215554722N00930601EA0000000503
B1334295554679N00930402EA0000000496
B1334395554637N00930149EA0000000483
B1334495554566N00929907EA0000000474
B1334555554531N00929761EA0000000472
B1335015554505N00929618EA0000000469
B1335065554489N00929516EA0000000483
B1335125554450N00929410EA0000000465
B1335195554344N00929316EA0000000442
B1335275554212N00929205EA0000000426
B1335355554093N00929091EA0000000426
B1335415554016N00929007EA0000000425
B1335475553948N00928916EA0000000417
B1335535553881N00928810EA0000000400
B1336015553803N00928642EA0000000384
B1336085553752N00928467EA0000000368
B1336145553731N00928310EA0000000358
B1336215553705N00928125EA0000000344
B1336285553689N00927936EA0000000336
B1336335553678N00927798EA0000000328
B1336485553640N00927376EA0000000312
B1336565553596N00927166EA0000000305
B1337015553567N00927034EA0000000302
B1337065553534N00926904EA0000000296
B1337115553523N00926769EA0000000286
B1337165553567N00926672EA0000000284
B1337225553649N00926614EA0000000270
B1337355553768N00926925EA0000000265
B1337455553771N00927326EA0000000246
B1337515553806N00927545EA0000000245
B1338025553926N00927858EA0000000230
B1338075554000N00927962EA0000000224
B1338125554078N00928061EA0000000215
B1338175554159N00928146EA0000000213
B1338245554277N00928240EA0000000208
B1338295554353N00928216EA0000000201
B1338365554377N00928027EA0000000195
B1338445554393N00927805EA0000000173
B1338505554410N00927660EA0000000147
B1338555554426N00927539EA0000000117
B1339015554444N00927383EA0000000091
B1339085554462N00927233EA0000000088
