AOGNOGN
HFDTE100825
HFFXA050
HFPLTPILOTINCHARGE:
HFGTYGLIDERTYPE:Duo Discus xlt
HFGIDGLIDERID:OY-HXD
HFDTM100GPSDATUM:WGS-1984
HFRFWFIRMWAREVERSION:
HFRHWHARDWAREVERSION:
HFFTYFRTYPE:OGN-FLIGHTBOOK
HFGPSGENERIC
HFPRSPRESSALTSENSOR:
HFCIDCOMPETITIONID:HD
B1122245554420N00927258EA0000000092
B1122295554443N00927132EA0000000162
B1122345554464N00927021EA0000000243
B1122395554482N00926910EA0000000314
B1122445554501N00926789EA0000000386
B1122495554515N00926664EA0000000437
B1122555554536N00926523EA0000000461
B1123005554556N00926425EA0000000459
B1123095554601N00926259EA0000000454
B1123165554640N00926138EA0000000435
B1123255554689N00925964EA0000000414
B1123345554730N00925781EA0000000418
B1123405554750N00925684EA0000000422
B1123515554809N00925530EA0000000415
B1123565554868N00925544EA0000000412
B1124015554930N00925626EA0000000404
B1124065554989N00925734EA0000000395
B1124135555044N00925939EA0000000392
B1124185555068N00926094EA0000000394
B1124255555047N00926317EA0000000401
B1124315554970N00926449EA0000000386
B1124365554893N00926452EA0000000388
B1124455554817N00926334EA0000000378
B1124515554818N00926225EA0000000378
B1124595554828N00926092EA0000000384
B1125055554861N00926022EA0000000377
B1125115554925N00926006EA0000000376
B1125195555033N00926102EA0000000368
B1125295555159N00926122EA0000000373
B1125375555240N00926083EA0000000376
B1125425555243N00926003EA0000000364
B1125475555173N00925989EA0000000369
B1125535555095N00926134EA0000000384
B1125595555073N00926320EA0000000391
B1126045555127N00926426EA0000000389
B1126115555203N00926387EA0000000387
B1126175555179N00926288EA0000000383
B1126225555110N00926270EA0000000385
B1126275555037N00926348EA0000000395
B1126365555007N00926609EA0000000398
B1126415555060N00926715EA0000000394
B1126465555118N00926707EA0000000397
B1126515555126N00926631EA0000000389
B1126565555088N00926553EA0000000382
B1127015555036N00926482EA0000000381
B1127075554994N00926373EA0000000375
B1127145554963N00926240EA0000000377
B1127195554964N00926150EA0000000371
B1127245555012N00926115EA0000000377
B1127295555067N00926201EA0000000365
B1127355555063N00926396EA0000000373
B1127405554997N00926502EA0000000375
B1127455554923N00926503EA0000000372
B1127505554891N00926422EA0000000359
B1127575554932N00926339EA0000000364
B1128025554988N00926382EA0000000350
B1128075555035N00926493EA0000000342
B1128125555039N00926648EA0000000346
B1128175554987N00926774EA0000000343
B1128225554909N00926818EA0000000337
B1128285554833N00926767EA0000000321
B1128355554780N00926648EA0000000315
B1128425554767N00926524EA0000000311
B1128475554775N00926441EA0000000298
B1128525554818N00926385EA0000000296
B1128575554887N00926419EA0000000289
B1129025554933N00926556EA0000000284
B1129095554938N00926808EA0000000286
B1129145554926N00926989EA0000000277
B1129195554919N00927174EA0000000273
B1129245554912N00927360EA0000000269
B1129295554901N00927544EA0000000265
B1129345554878N00927731EA0000000260
B1129405554848N00927957EA0000000253
B1129455554812N00928139EA0000000245
B1129505554736N00928266EA0000000236
B1129585554585N00928367EA0000000243
B1130065554447N00928369EA0000000229
B1130115554372N00928324EA0000000217
B1130175554328N00928210EA0000000207
B1130255554345N00928045EA0000000183
B1130335554369N00927884EA0000000155
B1130415554393N00927705EA0000000130
B1130465554413N00927592EA0000000113
B1130515554432N00927478EA0000000096
B1130585554449N00927329EA0000000086
