AOGNOGN
HFDTE170825
HFFXA050
HFPLTPILOTINCHARGE:
HFGTYGLIDERTYPE:ASK-21
HFGIDGLIDERID:OY-XNX
HFDTM100GPSDATUM:WGS-1984
HFRFWFIRMWAREVERSION:
HFRHWHARDWAREVERSION:
HFFTYFRTYPE:OGN-FLIGHTBOOK
HFGPSGENERIC
HFPRSPRESSALTSENSOR:
HFCIDCOMPETITIONID:NX
B1025575554431N00927239EA0000000103
B1025585554435N00927209EA0000000114
B1026035554457N00927054EA0000000211
B1026085554480N00926899EA0000000309
B1026135554504N00926743EA0000000373
B1026185554529N00926587EA0000000412
B1026235554555N00926447EA0000000413
B1026325554649N00926273EA0000000401
B1026385554732N00926241EA0000000403
B1026435554799N00926272EA0000000413
B1026495554864N00926205EA0000000421
B1026545554834N00926095EA0000000423
B1026595554765N00926094EA0000000419
B1027045554717N00926187EA0000000426
B1027095554713N00926303EA0000000435
B1027175554785N00926257EA0000000447
B1027225554737N00926177EA0000000458
B1027285554691N00926278EA0000000461
B1027365554766N00926296EA0000000476
B1027415554755N00926182EA0000000489
B1027465554690N00926172EA0000000493
B1027525554667N00926299EA0000000496
B1028035554745N00926210EA0000000521
B1028085554683N00926156EA0000000527
B1028145554632N00926261EA0000000533
B1028255554712N00926245EA0000000560
B1028305554663N00926163EA0000000570
B1028355554609N00926226EA0000000572
B1028405554634N00926315EA0000000581
B1028455554681N00926261EA0000000593
B1028505554647N00926159EA0000000602
B1028575554575N00926233EA0000000609
B1029025554611N00926308EA0000000614
B1029085554673N00926240EA0000000628
B1029135554656N00926131EA0000000637
B1029205554580N00926190EA0000000640
B1029325554644N00926122EA0000000659
B1029375554582N00926068EA0000000661
B1029445554525N00926180EA0000000661
B1029495554567N00926246EA0000000662
B1029545554619N00926184EA0000000668
B1030015554566N00926072EA0000000671
B1030065554516N00926148EA0000000672
B1030115554528N00926250EA0000000675
B1030165554578N00926300EA0000000674
B1030215554626N00926233EA0000000670
B1030295554575N00926066EA0000000678
B1030355554493N00926085EA0000000678
B1030405554453N00926187EA0000000675
B1030535554457N00926484EA0000000690
B1031025554547N00926444EA0000000688
B1031075554522N00926326EA0000000679
B1031125554454N00926284EA0000000675
B1031175554407N00926358EA0000000684
B1031225554429N00926457EA0000000684
B1031275554494N00926492EA0000000681
B1031335554575N00926470EA0000000678
B1031395554638N00926360EA0000000672
B1031475554685N00926155EA0000000665
B1031525554716N00926029EA0000000672
B1031575554749N00925902EA0000000672
B1032025554812N00925889EA0000000674
B1032075554816N00925999EA0000000674
B1032145554726N00926077EA0000000676
B1032195554658N00926031EA0000000683
B1032245554641N00925905EA0000000684
B1032295554698N00925871EA0000000682
B1032345554714N00925966EA0000000686
B1032395554660N00926009EA0000000697
B1032445554614N00925919EA0000000701
B1032495554640N00925808EA0000000695
B1032545554705N00925805EA0000000688
B1032595554729N00925902EA0000000694
B1033045554689N00925983EA0000000697
B1033095554620N00925957EA0000000696
B1033145554585N00925838EA0000000696
B1033195554625N00925745EA0000000693
B1033245554688N00925760EA0000000685
B1033295554728N00925851EA0000000686
B1033355554738N00925983EA0000000693
B1033405554688N00926059EA0000000688
B1033465554599N00926032EA0000000683
B1033525554515N00925966EA0000000689
B1033575554444N00925914EA0000000694
B1034025554443N00925801EA0000000700
B1034075554497N00925805EA0000000700
B1034125554498N00925909EA0000000699
B1034205554394N00926001EA0000000700
B1034265554365N00926119EA0000000693
B1034315554421N00926166EA0000000690
B1034405554530N00926040EA0000000690
B1034455554495N00925925EA0000000688
B1034505554422N00925952EA0000000700
B1034555554423N00926061EA0000000694
B1035045554531N00926192EA0000000687
B1035105554612N00926273EA0000000685
B1035155554681N00926335EA0000000685
B1035235554793N00926435EA0000000669
B1035285554864N00926508EA0000000656
B1035345554947N00926602EA0000000648
B1035395555015N00926680EA0000000646
B1035445555083N00926744EA0000000662
B1035495555142N00926804EA0000000672
B1035545555137N00926909EA0000000678
B1035595555069N00926890EA0000000687
B1036055555069N00926751EA0000000692
B1036105555117N00926758EA0000000700
B1036155555095N00926846EA0000000698
B1036205555024N00926835EA0000000709
B1036255554989N00926729EA0000000712
B1036305555028N00926651EA0000000711
B1036355555073N00926701EA0000000712
B1036405555047N00926803EA0000000721
B1036455554983N00926757EA0000000729
B1036505555007N00926662EA0000000733
B1036565555032N00926743EA0000000740
B1037015554968N00926760EA0000000740
B1037065554935N00926649EA0000000743
B1037115554976N00926576EA0000000746
B1037165555018N00926632EA0000000750
B1037215554989N00926727EA0000000754
B1037265554917N00926701EA0000000758
B1037315554914N00926579EA0000000759
B1037365554972N00926554EA0000000765
B1037415554998N00926646EA0000000776
B1037465554952N00926728EA0000000786
B1037515554885N00926682EA0000000788
B1037565554891N00926566EA0000000788
B1038015554947N00926546EA0000000797
B1038065554981N00926631EA0000000804
B1038115554935N00926701EA0000000815
B1038175554901N00926575EA0000000820
B1038225554955N00926546EA0000000832
B1038275554970N00926636EA0000000842
B1038325554912N00926687EA0000000848
B1038375554863N00926593EA0000000854
B1038425554903N00926517EA0000000862
B1038485554942N00926599EA0000000871
B1038535554897N00926672EA0000000876
B1038585554837N00926607EA0000000879
B1039035554852N00926496EA0000000885
B1039085554906N00926505EA0000000889
B1039135554906N00926603EA0000000897
B1039185554839N00926619EA0000000898
B1039235554811N00926506EA0000000907
B1039285554855N00926443EA0000000908
B1039335554896N00926506EA0000000912
B1039385554862N00926592EA0000000918
B1039435554799N00926545EA0000000922
B1039485554803N00926427EA0000000921
B1039535554860N00926404EA0000000924
B1039585554881N00926497EA0000000928
B1040035554831N00926571EA0000000933
B1040085554771N00926509EA0000000938
B1040135554784N00926396EA0000000937
B1040185554841N00926390EA0000000939
B1040245554850N00926504EA0000000945
B1040295554790N00926548EA0000000947
B1040345554739N00926465EA0000000947
B1040395554759N00926353EA0000000949
B1040445554817N00926344EA0000000948
B1040495554834N00926441EA0000000952
B1040545554784N00926514EA0000000952
B1040595554722N00926453EA0000000953
B1041045554730N00926335EA0000000953
B1041095554789N00926286EA0000000953
B1041145554843N00926335EA0000000956
B1041205554848N00926465EA0000000960
B1041255554781N00926474EA0000000961
B1041305554760N00926357EA0000000964
B1041355554808N00926284EA0000000960
B1041405554862N00926327EA0000000962
B1041485554912N00926499EA0000000955
B1041555554950N00926662EA0000000964
B1042005554965N00926776EA0000000961
B1042085555001N00926953EA0000000959
B1042135555000N00927074EA0000000960
B1042195555003N00927218EA0000000964
B1042425555036N00927122EA0000000973
B1042485555005N00927238EA0000000969
B1043005555125N00927310EA0000000967
B1043055555178N00927235EA0000000951
B1043105555252N00927219EA0000000938
B1043155555312N00927314EA0000000945
B1043205555363N00927420EA0000000945
B1043265555424N00927545EA0000000942
B1043325555482N00927661EA0000000945
B1043375555530N00927758EA0000000936
B1043435555582N00927894EA0000000930
B1043485555619N00928012EA0000000930
B1043535555660N00928129EA0000000926
B1044115555870N00928402EA0000000928
B1044185555954N00928272EA0000000936
B1044235555974N00928127EA0000000937
B1044345555914N00927836EA0000000975
B1044405555839N00927876EA0000000988
B1044465555854N00927997EA0000001004
B1044515555914N00927989EA0000001011
B1044565555936N00927875EA0000001024
B1045025555872N00927773EA0000001037
B1045095555801N00927875EA0000001042
B1045215555909N00927889EA0000001068
B1045265555883N00927764EA0000001077
B1045325555794N00927765EA0000001087
B1045375555779N00927882EA0000001088
B1045425555837N00927933EA0000001103
B1045475555881N00927849EA0000001115
B1045535555828N00927742EA0000001127
B1045585555771N00927800EA0000001137
B1046035555780N00927904EA0000001142
B1046105555857N00927866EA0000001154
B1046195555796N00927699EA0000001174
B1046245555741N00927766EA0000001179
B1046295555759N00927867EA0000001183
B1046355555829N00927832EA0000001196
B1046405555829N00927707EA0000001206
B1046465555750N00927664EA0000001216
B1046515555714N00927765EA0000001217
B1046585555783N00927834EA0000001234
B1047075555784N00927637EA0000001250
B1047125555712N00927633EA0000001258
B1047175555690N00927740EA0000001261
B1047235555752N00927784EA0000001270
B1047285555775N00927678EA0000001281
B1047335555716N00927608EA0000001290
B1047395555661N00927709EA0000001294
B1047475555737N00927770EA0000001309
B1047525555756N00927659EA0000001319
B1048025555635N00927629EA0000001326
B1048115555680N00927779EA0000001334
B1048185555719N00927644EA0000001346
B1048265555610N00927582EA0000001350
B1048335555556N00927734EA0000001355
B1048445555662N00927798EA0000001358
B1049015555524N00927645EA0000001358
B1049155555622N00927815EA0000001364
B1049325555498N00927662EA0000001374
B1049455555581N00927777EA0000001374
B1049595555483N00927572EA0000001374
B1050075555451N00927755EA0000001369
B1050165555553N00927788EA0000001375
B1050305555449N00927568EA0000001368
B1050365555355N00927630EA0000001362
B1050415555293N00927729EA0000001360
B1050495555249N00927937EA0000001352
B1050575555303N00928109EA0000001351
B1051075555423N00928065EA0000001346
B1051125555443N00927941EA0000001332
B1051185555426N00927769EA0000001327
B1051235555429N00927626EA0000001332
B1051295555478N00927495EA0000001338
B1051355555534N00927365EA0000001342
B1051405555577N00927249EA0000001340
B1051475555631N00927076EA0000001338
B1051525555666N00926952EA0000001338
B1052025555728N00926700EA0000001331
B1052075555758N00926578EA0000001326
B1052165555824N00926371EA0000001316
B1052435556025N00925732EA0000001278
B1052495556062N00925579EA0000001262
B1052585556119N00925340EA0000001245
B1053035556150N00925206EA0000001240
B1053095556199N00925059EA0000001237
B1053155556250N00924916EA0000001230
B1053215556302N00924769EA0000001226
B1053305556370N00924556EA0000001234
B1053355556403N00924440EA0000001222
B1053405556434N00924310EA0000001208
B1053515556527N00924049EA0000001184
B1053565556579N00923954EA0000001174
B1054035556663N00923829EA0000001160
B1054145556798N00923612EA0000001181
B1054195556854N00923522EA0000001197
B1054245556913N00923548EA0000001205
B1054295556877N00923639EA0000001209
B1054355556815N00923564EA0000001220
B1054415556824N00923429EA0000001224
B1054465556876N00923436EA0000001232
B1054515556861N00923536EA0000001236
B1054565556796N00923535EA0000001241
B1055035556778N00923383EA0000001245
B1055085556836N00923350EA0000001246
B1055135556867N00923442EA0000001249
B1055195556822N00923548EA0000001255
B1055245556754N00923528EA0000001259
B1055295556722N00923426EA0000001260
B1055345556760N00923337EA0000001258
B1055395556813N00923370EA0000001261
B1055445556817N00923481EA0000001259
B1055495556760N00923554EA0000001262
B1055555556693N00923491EA0000001267
B1056005556711N00923387EA0000001263
B1056055556769N00923396EA0000001269
B1056105556776N00923499EA0000001267
B1056155556717N00923555EA0000001262
B1056205556665N00923475EA0000001263
B1056255556685N00923363EA0000001259
B1056305556744N00923367EA0000001259
B1056355556754N00923472EA0000001258
B1056405556697N00923530EA0000001256
B1056455556642N00923471EA0000001257
B1056505556652N00923361EA0000001253
B1056555556709N00923332EA0000001248
B1057005556749N00923415EA0000001241
B1057055556723N00923531EA0000001237
B1057105556657N00923574EA0000001235
B1057155556595N00923518EA0000001236
B1057205556585N00923396EA0000001234
B1057255556639N00923337EA0000001233
B1057305556687N00923407EA0000001230
B1057355556679N00923524EA0000001224
B1057445556636N00923753EA0000001203
B1057515556591N00923942EA0000001212
B1057565556548N00924071EA0000001205
B1058025556495N00924229EA0000001190
B1058105556416N00924432EA0000001184
B1058175556349N00924603EA0000001175
B1058235556290N00924752EA0000001176
B1058305556226N00924924EA0000001173
B1058355556175N00925042EA0000001161
B1058415556111N00925186EA0000001153
B1058495556026N00925374EA0000001145
B1058545555975N00925492EA0000001136
B1059005555912N00925631EA0000001129
B1059075555844N00925797EA0000001120
B1059135555789N00925941EA0000001123
B1059215555713N00926127EA0000001119
B1059305555626N00926330EA0000001101
B1059365555569N00926461EA0000001093
B1059445555494N00926637EA0000001085
B1059565555388N00926928EA0000001086
B1100035555331N00927099EA0000001087
B1100085555287N00927222EA0000001087
B1100145555239N00927377EA0000001088
B1100225555179N00927593EA0000001085
B1100275555143N00927731EA0000001080
B1100325555103N00927858EA0000001079
B1100375555056N00927971EA0000001083
B1100425554994N00928052EA0000001075
B1100475554910N00928066EA0000001070
B1100535554816N00927989EA0000001081
B1100585554748N00927905EA0000001080
B1101105554583N00927704EA0000001067
B1101165554526N00927552EA0000001065
B1101235554489N00927347EA0000001080
B1101495554448N00927179EA0000001092
B1101545554470N00927040EA0000001099
B1102075554359N00926995EA0000001109
B1102185554451N00926957EA0000001113
B1102255554378N00926812EA0000001108
B1102345554283N00926944EA0000001108
B1102415554349N00927018EA0000001118
B1102465554390N00926925EA0000001122
B1102525554355N00926776EA0000001116
B1103045554220N00926874EA0000001115
B1103105554274N00926952EA0000001107
B1103195554374N00926794EA0000001106
B1103245554410N00926667EA0000001104
B1103305554447N00926507EA0000001097
B1103405554497N00926220EA0000001080
B1103465554512N00926036EA0000001078
B1103525554534N00925862EA0000001077
B1104015554597N00925638EA0000001070
B1104065554628N00925501EA0000001062
B1104115554651N00925365EA0000001065
B1104165554684N00925241EA0000001073
B1104225554741N00925117EA0000001081
B1104285554810N00925062EA0000001091
B1104335554822N00925158EA0000001085
B1104385554760N00925221EA0000001079
B1104435554686N00925199EA0000001087
B1104485554622N00925130EA0000001089
B1104535554625N00925009EA0000001092
B1104585554677N00925002EA0000001095
B1105035554677N00925104EA0000001104
B1105095554604N00925083EA0000001106
B1105145554612N00924975EA0000001107
B1105195554666N00924993EA0000001104
B1105255554648N00925121EA0000001118
B1105305554583N00925091EA0000001120
B1105355554584N00924977EA0000001123
B1105405554637N00924960EA0000001126
B1105475554637N00925099EA0000001133
B1105525554569N00925098EA0000001145
B1105575554548N00924985EA0000001140
B1106025554589N00924918EA0000001147
B1106075554640N00924961EA0000001151
B1106125554641N00925072EA0000001154
B1106185554564N00925119EA0000001162
B1106245554521N00924998EA0000001160
B1106295554565N00924929EA0000001166
B1106375554607N00925062EA0000001178
B1106425554555N00925131EA0000001176
B1106475554495N00925063EA0000001178
B1106535554514N00924937EA0000001177
B1106585554574N00924954EA0000001183
B1107045554579N00925084EA0000001189
B1107095554517N00925144EA0000001190
B1107145554453N00925082EA0000001191
B1107195554451N00924956EA0000001190
B1107245554510N00924918EA0000001189
B1107295554560N00925000EA0000001194
B1107345554602N00925092EA0000001199
B1107445554699N00925300EA0000001200
B1107505554755N00925434EA0000001207
B1107555554798N00925549EA0000001213
B1108015554851N00925684EA0000001213
B1108085554912N00925843EA0000001214
B1108175554983N00926042EA0000001200
B1108265555058N00926251EA0000001191
B1108405555175N00926565EA0000001157
B1108455555224N00926679EA0000001156
B1108525555296N00926845EA0000001164
B1109015555384N00927057EA0000001167
B1109075555456N00927122EA0000001172
B1109125555507N00927035EA0000001165
B1109175555497N00926888EA0000001165
B1109235555423N00926767EA0000001170
B1109355555267N00926916EA0000001141
B1109465555191N00927230EA0000001125
B1109545555285N00927338EA0000001108
B1110015555366N00927198EA0000001095
B1110065555405N00927063EA0000001094
B1110115555439N00926931EA0000001094
B1110175555480N00926779EA0000001094
B1110225555511N00926657EA0000001096
B1110285555546N00926507EA0000001091
B1110345555593N00926376EA0000001087
B1110435555679N00926215EA0000001071
B1110485555702N00926086EA0000001056
B1110535555677N00925952EA0000001048
B1110585555604N00925888EA0000001040
B1111045555503N00925902EA0000001033
B1111105555421N00925996EA0000001038
B1111175555379N00926172EA0000001023
B1111235555362N00926340EA0000001012
B1111335555342N00926626EA0000000992
B1111395555327N00926793EA0000000989
B1111455555306N00926957EA0000000987
B1111555555275N00927234EA0000000980
B1112005555261N00927366EA0000000975
B1112095555232N00927602EA0000000955
B1112145555217N00927734EA0000000946
B1112215555197N00927923EA0000000932
B1112265555183N00928062EA0000000940
B1112325555135N00928200EA0000000945
B1112375555086N00928299EA0000000948
B1112425555013N00928322EA0000000947
B1112475554977N00928214EA0000000940
B1112535555030N00928132EA0000000930
B1112585555075N00928194EA0000000931
B1113055555066N00928360EA0000000930
B1113105555053N00928485EA0000000929
B1113155555047N00928615EA0000000925
B1113235555049N00928815EA0000000942
B1113285555107N00928839EA0000000951
B1113375555064N00928682EA0000000970
B1113505555110N00928785EA0000000986
B1113575555080N00928633EA0000000999
B1114025555012N00928649EA0000001009
B1114075555010N00928747EA0000001012
B1114165555099N00928670EA0000001021
B1114275554969N00928567EA0000001041
B1114395555044N00928735EA0000001041
B1114555554951N00928534EA0000001072
B1115015554942N00928658EA0000001075
B1115115555047N00928609EA0000001090
B1115185555005N00928449EA0000001096
B1115235554929N00928443EA0000001102
B1115415555021N00928487EA0000001118
B1115465554984N00928366EA0000001120
B1115525554895N00928356EA0000001128
B1115585554866N00928471EA0000001135
B1116035554918N00928517EA0000001133
B1116085554960N00928421EA0000001137
B1116145554921N00928273EA0000001141
B1116275554800N00928377EA0000001149
B1116335554860N00928448EA0000001151
B1116425554929N00928280EA0000001156
B1116515554828N00928132EA0000001141
B1117015554753N00928328EA0000001147
B1117085554833N00928360EA0000001152
B1117145554889N00928231EA0000001142
B1117205554949N00928091EA0000001112
B1117255555009N00927956EA0000001097
B1117315555085N00927789EA0000001098
B1117385555171N00927613EA0000001112
B1117435555232N00927488EA0000001102
B1117485555297N00927362EA0000001093
B1117555555392N00927182EA0000001083
B1118025555482N00927008EA0000001099
B1118085555557N00926878EA0000001092
B1118155555651N00926727EA0000001079
B1118225555740N00926578EA0000001068
B1118295555830N00926420EA0000001044
B1118415555988N00926129EA0000001020
B1118465556052N00926013EA0000001010
B1118515556119N00925899EA0000000997
B1118575556201N00925759EA0000000997
B1119075556337N00925538EA0000000991
B1119145556432N00925377EA0000000979
B1119195556501N00925266EA0000000974
B1119245556570N00925156EA0000000961
B1119335556694N00924948EA0000000944
B1119385556758N00924831EA0000000939
B1119435556821N00924713EA0000000931
B1119545556950N00924440EA0000000929
B1119595557007N00924317EA0000000926
B1120065557090N00924144EA0000000932
B1120125557169N00924029EA0000000926
B1120205557280N00923852EA0000000896
B1120515557625N00923054EA0000000883
B1120585557699N00922875EA0000000880
B1121045557766N00922722EA0000000883
B1121105557854N00922659EA0000000886
B1121155557931N00922644EA0000000877
B1121235558051N00922528EA0000000856
B1121315558171N00922375EA0000000849
B1121485558411N00922100EA0000000878
B1121535558473N00922135EA0000000886
B1121585558452N00922240EA0000000882
B1122035558382N00922226EA0000000878
B1122095558328N00922099EA0000000890
B1122145558297N00921979EA0000000908
B1122195558340N00921911EA0000000923
B1122245558356N00922001EA0000000932
B1122295558294N00922044EA0000000939
B1122355558217N00921973EA0000000956
B1122405558239N00921873EA0000000965
B1122455558285N00921916EA0000000972
B1122505558257N00922018EA0000000980
B1122555558194N00921995EA0000000990
B1123005558200N00921882EA0000000995
B1123055558258N00921887EA0000001006
B1123105558261N00921997EA0000001012
B1123165558186N00922096EA0000001019
B1123225558095N00922183EA0000001018
B1123275558012N00922258EA0000001006
B1123325557927N00922342EA0000000999
B1123375557840N00922435EA0000000983
B1123435557733N00922562EA0000000970
B1123505557612N00922701EA0000000962
B1123555557524N00922802EA0000000956
B1124015557415N00922928EA0000000943
B1124115557227N00923143EA0000000923
B1124195557078N00923300EA0000000909
B1124245556988N00923383EA0000000907
B1124295556899N00923463EA0000000899
B1124405556692N00923668EA0000000868
B1124465556588N00923781EA0000000876
B1124515556508N00923877EA0000000868
B1124575556411N00923996EA0000000855
B1125025556326N00924097EA0000000848
B1125095556201N00924248EA0000000824
B1125165556073N00924401EA0000000810
B1125225555970N00924517EA0000000820
B1125275555889N00924614EA0000000808
B1125355555754N00924790EA0000000780
B1125405555672N00924891EA0000000781
B1125465555581N00925012EA0000000767
B1125525555489N00925143EA0000000751
B1126005555365N00925327EA0000000737
B1126135555160N00925577EA0000000723
B1126265554926N00925747EA0000000684
B1126375554731N00925915EA0000000683
B1126445554615N00926025EA0000000672
B1126525554477N00926168EA0000000655
B1126585554380N00926276EA0000000649
B1127045554273N00926298EA0000000632
B1127095554208N00926189EA0000000618
B1127145554196N00926028EA0000000606
B1127195554229N00925881EA0000000602
B1127245554301N00925820EA0000000598
B1127295554361N00925911EA0000000586
B1127345554338N00926061EA0000000578
B1127395554252N00926116EA0000000568
B1127455554132N00926097EA0000000553
B1127505554051N00925990EA0000000552
B1127555554029N00925819EA0000000556
B1128015554053N00925620EA0000000562
B1128075554077N00925418EA0000000548
B1128125554103N00925244EA0000000542
B1128175554179N00925154EA0000000536
B1128275554220N00925390EA0000000542
B1128345554103N00925407EA0000000541
B1128405554093N00925243EA0000000539
B1128455554157N00925200EA0000000549
B1128505554199N00925275EA0000000548
B1129055554053N00925587EA0000000525
B1129105553979N00925661EA0000000527
B1129155553914N00925583EA0000000531
B1129205553941N00925464EA0000000534
B1129255554000N00925497EA0000000533
B1129315553963N00925628EA0000000529
B1129375553887N00925726EA0000000531
B1129445553932N00925827EA0000000496
B1129525553922N00925609EA0000000513
B1129575553851N00925645EA0000000519
B1130025553853N00925758EA0000000516
B1130075553915N00925785EA0000000506
B1130175553914N00925585EA0000000512
B1130245553833N00925653EA0000000506
B1130335553906N00925761EA0000000485
B1130415553976N00925584EA0000000484
B1130485554013N00925409EA0000000480
B1130535554066N00925331EA0000000474
B1130595554149N00925314EA0000000468
B1131055554235N00925304EA0000000474
B1131145554360N00925298EA0000000495
B1131225554467N00925313EA0000000499
B1131275554532N00925295EA0000000498
B1131335554525N00925151EA0000000478
B1131385554445N00925159EA0000000473
B1131435554388N00925267EA0000000466
B1131545554289N00925533EA0000000438
B1132015554242N00925687EA0000000422
B1132085554207N00925845EA0000000386
B1132165554179N00926041EA0000000352
B1132215554167N00926163EA0000000332
B1132285554153N00926329EA0000000312
B1132345554135N00926478EA0000000306
B1132485554111N00926851EA0000000288
B1132545554082N00927009EA0000000289
B1132595554063N00927130EA0000000288
B1133065554047N00927315EA0000000275
B1133125554032N00927484EA0000000259
B1133175554023N00927620EA0000000264
B1133245554028N00927794EA0000000268
B1133315554079N00927954EA0000000258
B1133395554156N00928113EA0000000258
B1133455554232N00928173EA0000000256
B1133515554311N00928187EA0000000232
B1133565554355N00928090EA0000000196
B1134025554375N00927919EA0000000167
B1134085554391N00927752EA0000000147
B1134135554409N00927616EA0000000127
B1134185554428N00927477EA0000000104
B1134245554446N00927322EA0000000093
