AOGNOGN
HFDTE170825
HFFXA050
HFPLTPILOTINCHARGE:
HFGTYGLIDERTYPE:ASK-21
HFGIDGLIDERID:OY-XNX
HFDTM100GPSDATUM:WGS-1984
HFRFWFIRMWAREVERSION:
HFRHWHARDWAREVERSION:
HFFTYFRTYPE:OGN-FLIGHTBOOK
HFGPSGENERIC
HFPRSPRESSALTSENSOR:
HFCIDCOMPETITIONID:NX
B1000495554432N00927254EA0000000096
B1000545554453N00927112EA0000000142
B1000595554468N00926967EA0000000229
B1001045554478N00926814EA0000000309
B1001095554495N00926651EA0000000370
B1001155554526N00926457EA0000000388
B1001205554559N00926318EA0000000394
B1001255554623N00926265EA0000000396
B1001315554653N00926386EA0000000390
B1001365554599N00926471EA0000000387
B1001415554524N00926458EA0000000383
B1001465554453N00926399EA0000000382
B1001545554336N00926408EA0000000373
B1002025554218N00926457EA0000000373
B1002145554050N00926534EA0000000349
B1002195554011N00926632EA0000000334
B1002255553981N00926771EA0000000321
B1002325553953N00926935EA0000000320
B1002405553928N00927119EA0000000308
B1002485553906N00927316EA0000000294
B1002565553886N00927523EA0000000288
B1003025553883N00927678EA0000000284
B1003075553906N00927806EA0000000281
B1003145553938N00927973EA0000000279
B1003225553981N00928167EA0000000262
B1003275554029N00928264EA0000000250
B1003335554119N00928310EA0000000247
B1003405554226N00928342EA0000000246
B1003455554303N00928345EA0000000246
B1003505554360N00928242EA0000000238
B1003575554380N00928012EA0000000212
B1004055554399N00927776EA0000000172
B1004105554413N00927625EA0000000133
B1004155554430N00927475EA0000000107
B1004245554456N00927252EA0000000092
