AOGNOGN
HFDTE170825
HFFXA050
HFPLTPILOTINCHARGE:
HFGTYGLIDERTYPE:ASK-21
HFGIDGLIDERID:OY-XNX
HFDTM100GPSDATUM:WGS-1984
HFRFWFIRMWAREVERSION:
HFRHWHARDWAREVERSION:
HFFTYFRTYPE:OGN-FLIGHTBOOK
HFGPSGENERIC
HFPRSPRESSALTSENSOR:
HFCIDCOMPETITIONID:NX
B0854265554424N00927252EA0000000103
B0854325554436N00927101EA0000000167
B0854375554446N00926973EA0000000233
B0854425554460N00926838EA0000000320
B0854485554487N00926671EA0000000382
B0854545554510N00926502EA0000000416
B0855005554523N00926368EA0000000419
B0855055554536N00926258EA0000000409
B0855105554553N00926153EA0000000407
B0855185554584N00925994EA0000000393
B0855245554608N00925878EA0000000381
B0855295554591N00925771EA0000000382
B0855365554518N00925671EA0000000389
B0855415554468N00925722EA0000000371
B0855465554486N00925833EA0000000385
B0855525554542N00925838EA0000000395
B0855595554527N00925694EA0000000389
B0856055554453N00925701EA0000000393
B0856105554440N00925805EA0000000397
B0856155554480N00925866EA0000000398
B0856245554531N00925739EA0000000402
B0856295554478N00925674EA0000000403
B0856345554419N00925713EA0000000406
B0856405554430N00925823EA0000000412
B0856485554481N00925726EA0000000418
B0856535554433N00925651EA0000000416
B0856585554372N00925681EA0000000419
B0857035554364N00925783EA0000000421
B0857125554451N00925795EA0000000417
B0857175554467N00925688EA0000000421
B0857225554415N00925624EA0000000425
B0857285554362N00925710EA0000000424
B0857335554389N00925798EA0000000428
B0857405554457N00925744EA0000000429
B0857455554444N00925635EA0000000433
B0857505554381N00925611EA0000000436
B0857565554339N00925716EA0000000433
B0858015554375N00925792EA0000000440
B0858075554431N00925728EA0000000438
B0858125554426N00925615EA0000000441
B0858185554355N00925571EA0000000444
B0858235554320N00925660EA0000000443
B0858285554345N00925756EA0000000443
B0858335554401N00925789EA0000000436
B0858385554450N00925731EA0000000424
B0858445554446N00925596EA0000000417
B0858505554377N00925520EA0000000417
B0858555554307N00925508EA0000000417
B0859005554268N00925417EA0000000413
B0859055554305N00925336EA0000000407
B0859105554368N00925361EA0000000394
B0859185554424N00925530EA0000000393
B0859255554425N00925706EA0000000386
B0859325554407N00925880EA0000000383
B0859535554202N00926258EA0000000367
B0859585554139N00926331EA0000000362
B0900035554069N00926320EA0000000361
B0900085554033N00926216EA0000000349
B0900135554056N00926109EA0000000344
B0900185554112N00926092EA0000000338
B0900245554135N00926202EA0000000332
B0900315554097N00926362EA0000000314
B0900515554034N00926899EA0000000299
B0900565554015N00927032EA0000000296
B0901035553977N00927212EA0000000293
B0901085553953N00927320EA0000000293
B0901165553932N00927498EA0000000271
B0901225553977N00927618EA0000000259
B0901305554047N00927771EA0000000250
B0901415554146N00927974EA0000000245
B0901475554223N00928030EA0000000243
B0901525554289N00928052EA0000000235
B0901575554341N00927987EA0000000219
B0902035554360N00927837EA0000000192
B0902085554389N00927713EA0000000153
B0902165554428N00927500EA0000000111
B0902235554448N00927317EA0000000095
B0902305554461N00927205EA0000000092
