AOGNOGN
HFDTE170825
HFFXA050
HFPLTPILOTINCHARGE:
HFGTYGLIDERTYPE:ASK-21
HFGIDGLIDERID:OY-XNX
HFDTM100GPSDATUM:WGS-1984
HFRFWFIRMWAREVERSION:
HFRHWHARDWAREVERSION:
HFFTYFRTYPE:OGN-FLIGHTBOOK
HFGPSGENERIC
HFPRSPRESSALTSENSOR:
HFCIDCOMPETITIONID:NX
B1212325554411N00927311EA0000000091
B1212345554418N00927270EA0000000093
B1212405554437N00927100EA0000000186
B1212455554451N00926953EA0000000282
B1212505554472N00926800EA0000000362
B1212555554493N00926646EA0000000409
B1213015554522N00926449EA0000000433
B1213065554545N00926304EA0000000439
B1213125554600N00926191EA0000000447
B1213175554662N00926150EA0000000431
B1213225554734N00926125EA0000000426
B1213285554820N00926148EA0000000422
B1213355554919N00926162EA0000000431
B1213445555000N00926026EA0000000432
B1213495554973N00925916EA0000000426
B1214005554836N00925979EA0000000414
B1214065554838N00926130EA0000000430
B1214125554897N00926205EA0000000433
B1214175554945N00926143EA0000000438
B1214225554926N00926040EA0000000439
B1214275554862N00926012EA0000000436
B1214325554807N00926088EA0000000444
B1214375554804N00926201EA0000000450
B1214425554851N00926266EA0000000450
B1214495554914N00926191EA0000000453
B1214545554891N00926093EA0000000461
B1215015554805N00926096EA0000000470
B1215075554788N00926215EA0000000471
B1215135554848N00926268EA0000000466
B1215185554894N00926203EA0000000465
B1215235554881N00926100EA0000000475
B1215285554823N00926060EA0000000477
B1215335554772N00926131EA0000000482
B1215385554781N00926236EA0000000481
B1215475554875N00926206EA0000000481
B1215525554867N00926103EA0000000488
B1215575554817N00926033EA0000000490
B1216035554748N00926086EA0000000498
B1216085554753N00926190EA0000000502
B1216135554811N00926220EA0000000500
B1216185554854N00926138EA0000000509
B1216245554815N00926034EA0000000515
B1216325554731N00926116EA0000000529
B1216375554745N00926218EA0000000531
B1216475554849N00926194EA0000000538
B1216595554751N00926090EA0000000548
B1217065554731N00926237EA0000000556
B1217125554794N00926291EA0000000554
B1217175554838N00926225EA0000000560
B1217225554819N00926131EA0000000565
B1217335554716N00926222EA0000000577
B1217385554744N00926312EA0000000576
B1217465554821N00926253EA0000000569
B1217515554797N00926151EA0000000577
B1217575554722N00926147EA0000000585
B1218035554696N00926266EA0000000585
B1218085554738N00926340EA0000000584
B1218145554794N00926278EA0000000588
B1218195554774N00926183EA0000000593
B1218265554692N00926184EA0000000596
B1218325554674N00926306EA0000000594
B1218425554767N00926319EA0000000601
B1218495554741N00926196EA0000000602
B1218585554667N00926305EA0000000600
B1219045554714N00926392EA0000000600
B1219095554764N00926371EA0000000604
B1219145554789N00926282EA0000000601
B1219205554753N00926172EA0000000602
B1219255554689N00926188EA0000000604
B1219315554666N00926310EA0000000604
B1219365554705N00926384EA0000000603
B1219455554777N00926289EA0000000607
B1219555554681N00926207EA0000000606
B1220015554655N00926323EA0000000604
B1220085554702N00926442EA0000000607
B1220145554763N00926507EA0000000600
B1220195554823N00926538EA0000000606
B1220245554882N00926570EA0000000614
B1220295554938N00926530EA0000000616
B1220365554895N00926407EA0000000628
B1220435554841N00926518EA0000000645
B1220535554935N00926521EA0000000656
B1220585554918N00926409EA0000000659
B1221035554855N00926399EA0000000667
B1221095554827N00926525EA0000000678
B1221165554895N00926586EA0000000686
B1221215554926N00926496EA0000000687
B1221265554890N00926398EA0000000692
B1221315554826N00926406EA0000000697
B1221375554799N00926531EA0000000704
B1221495554908N00926538EA0000000709
B1221545554897N00926420EA0000000710
B1222015554814N00926378EA0000000714
B1222065554773N00926467EA0000000719
B1222115554787N00926570EA0000000721
B1222195554866N00926527EA0000000718
B1222245554849N00926417EA0000000718
B1222325554746N00926423EA0000000720
B1222375554721N00926534EA0000000730
B1222435554676N00926636EA0000000732
B1222515554606N00926546EA0000000730
B1222565554645N00926473EA0000000725
B1223015554701N00926511EA0000000731
B1223065554735N00926595EA0000000736
B1223115554716N00926699EA0000000735
B1223165554653N00926724EA0000000734
B1223225554614N00926617EA0000000729
B1223275554653N00926547EA0000000727
B1223325554701N00926595EA0000000726
B1223375554692N00926705EA0000000728
B1223425554636N00926759EA0000000727
B1223475554581N00926703EA0000000718
B1223525554588N00926599EA0000000712
B1223575554643N00926577EA0000000707
B1224045554718N00926645EA0000000702
B1224125554799N00926748EA0000000699
B1224175554848N00926835EA0000000694
B1224225554893N00926920EA0000000706
B1224275554921N00926996EA0000000717
B1224325554896N00927086EA0000000719
B1224375554832N00927094EA0000000722
B1224425554796N00926999EA0000000722
B1224475554827N00926905EA0000000715
B1224525554882N00926917EA0000000714
B1224575554918N00926986EA0000000719
B1225025554897N00927081EA0000000720
B1225075554836N00927094EA0000000727
B1225125554799N00926998EA0000000725
B1225175554824N00926892EA0000000726
B1225225554881N00926886EA0000000731
B1225285554923N00926977EA0000000740
B1225345554955N00927077EA0000000752
B1225395554970N00927170EA0000000757
B1225445554926N00927256EA0000000758
B1225495554858N00927234EA0000000750
B1225575554856N00927053EA0000000756
B1226025554912N00927028EA0000000767
B1226075554948N00927099EA0000000781
B1226125554929N00927200EA0000000789
B1226185554853N00927235EA0000000787
B1226235554811N00927132EA0000000776
B1226285554852N00927043EA0000000789
B1226345554918N00927081EA0000000802
B1226395554932N00927179EA0000000808
B1226445554883N00927259EA0000000804
B1226495554815N00927232EA0000000801
B1226565554804N00927070EA0000000801
B1227015554856N00927028EA0000000815
B1227065554907N00927048EA0000000825
B1227115554908N00927149EA0000000829
B1227165554848N00927201EA0000000826
B1227225554784N00927110EA0000000821
B1227275554810N00927001EA0000000831
B1227325554867N00927006EA0000000841
B1227375554879N00927109EA0000000847
B1227425554820N00927156EA0000000845
B1227495554798N00927007EA0000000847
B1227545554858N00927001EA0000000864
B1227595554863N00927104EA0000000872
B1228065554778N00927118EA0000000870
B1228125554784N00926981EA0000000883
B1228175554838N00926979EA0000000895
B1228225554843N00927080EA0000000902
B1228285554771N00927111EA0000000904
B1228345554746N00926980EA0000000916
B1228395554786N00926922EA0000000927
B1228445554828N00926973EA0000000936
B1228495554820N00927075EA0000000948
B1228545554765N00927124EA0000000946
B1228595554709N00927061EA0000000951
B1229065554733N00926922EA0000000959
B1229125554785N00926972EA0000000973
B1229175554760N00927069EA0000000981
B1229225554697N00927067EA0000000982
B1229275554664N00926963EA0000000988
B1229325554701N00926881EA0000000995
B1229375554745N00926925EA0000001009
B1229425554737N00927031EA0000001016
B1229475554678N00927079EA0000001020
B1229525554628N00927007EA0000001022
B1229575554649N00926897EA0000001028
B1230025554702N00926899EA0000001044
B1230085554705N00927017EA0000001055
B1230135554647N00927062EA0000001059
B1230185554595N00926993EA0000001063
B1230235554608N00926881EA0000001068
B1230305554675N00926898EA0000001082
B1230365554662N00927025EA0000001090
B1230415554596N00927046EA0000001093
B1230465554550N00926954EA0000001096
B1230515554575N00926853EA0000001106
B1230565554626N00926869EA0000001114
B1231025554623N00926994EA0000001121
B1231075554561N00927029EA0000001126
B1231125554510N00926947EA0000001125
B1231175554526N00926838EA0000001133
B1231225554579N00926820EA0000001138
B1231295554596N00926962EA0000001147
B1231355554526N00927019EA0000001155
B1231405554472N00926945EA0000001153
B1231455554477N00926828EA0000001163
B1231515554537N00926794EA0000001169
B1231595554558N00926952EA0000001179
B1232045554499N00927015EA0000001188
B1232105554428N00926944EA0000001192
B1232165554433N00926809EA0000001200
B1232215554481N00926765EA0000001204
B1232325554516N00926956EA0000001221
B1232385554441N00926999EA0000001230
B1232435554390N00926923EA0000001233
B1232505554408N00926781EA0000001241
B1232555554459N00926788EA0000001246
B1233035554460N00926951EA0000001255
B1233085554400N00926997EA0000001265
B1233145554341N00926901EA0000001267
B1233215554377N00926774EA0000001274
B1233265554424N00926812EA0000001281
B1233325554426N00926934EA0000001287
B1233375554367N00926988EA0000001294
B1233425554307N00926929EA0000001295
B1233485554318N00926804EA0000001301
B1233545554375N00926829EA0000001304
B1234025554338N00926977EA0000001315
B1234085554258N00926959EA0000001321
B1234145554232N00926825EA0000001332
B1234195554269N00926761EA0000001334
B1234245554316N00926798EA0000001333
B1234315554305N00926939EA0000001341
B1234375554231N00926979EA0000001355
B1234425554179N00926898EA0000001362
B1234495554200N00926760EA0000001368
B1234545554251N00926756EA0000001368
B1235035554254N00926918EA0000001373
B1235085554201N00926991EA0000001380
B1235135554131N00926955EA0000001389
B1235195554106N00926817EA0000001395
B1235265554166N00926735EA0000001399
B1235365554197N00926899EA0000001400
B1235415554137N00926955EA0000001413
B1235465554074N00926904EA0000001419
B1235525554068N00926769EA0000001416
B1235585554104N00926642EA0000001413
B1236035554139N00926534EA0000001425
B1236105554182N00926399EA0000001435
B1236175554229N00926263EA0000001433
B1236225554262N00926164EA0000001430
B1236275554294N00926064EA0000001418
B1236325554336N00925954EA0000001396
B1236395554413N00925804EA0000001381
B1236445554468N00925688EA0000001367
B1236515554527N00925500EA0000001364
B1236565554537N00925349EA0000001356
B1237015554543N00925192EA0000001348
B1237075554550N00924998EA0000001331
B1237155554562N00924724EA0000001315
B1237205554570N00924556EA0000001308
B1237265554583N00924357EA0000001299
B1237345554591N00924091EA0000001284
B1237485554593N00923677EA0000001288
B1237535554592N00923539EA0000001297
B1238065554586N00923214EA0000001303
B1238115554583N00923086EA0000001305
B1238175554579N00922943EA0000001317
B1238235554566N00922799EA0000001306
B1238325554556N00922563EA0000001293
B1238395554553N00922373EA0000001273
B1238445554561N00922228EA0000001266
B1238505554593N00922070EA0000001258
B1238575554635N00921890EA0000001251
B1239025554670N00921757EA0000001239
B1239095554722N00921564EA0000001240
B1239145554759N00921426EA0000001245
B1239195554789N00921304EA0000001265
B1239245554818N00921191EA0000001266
B1239295554860N00921103EA0000001268
B1239345554917N00921115EA0000001267
B1239415554935N00921257EA0000001270
B1239465554881N00921319EA0000001270
B1239515554816N00921266EA0000001266
B1239585554792N00921092EA0000001268
B1240075554787N00920863EA0000001268
B1240155554796N00920662EA0000001271
B1240215554830N00920536EA0000001272
B1240265554887N00920487EA0000001274
B1240315554946N00920525EA0000001268
B1240365554969N00920631EA0000001267
B1240425555008N00920749EA0000001260
B1240535555140N00920732EA0000001251
B1241005555233N00920671EA0000001227
B1241055555305N00920629EA0000001218
B1241125555408N00920577EA0000001215
B1241175555485N00920533EA0000001217
B1241245555577N00920473EA0000001234
B1241295555637N00920442EA0000001234
B1241365555726N00920448EA0000001229
B1241425555803N00920392EA0000001221
B1241485555874N00920306EA0000001200
B1241545555952N00920192EA0000001188
B1241595556021N00920100EA0000001186
B1242045556089N00920016EA0000001209
B1242105556155N00919977EA0000001219
B1242185556167N00920123EA0000001221
B1242235556099N00920135EA0000001222
B1242285556063N00920023EA0000001223
B1242335556098N00919924EA0000001227
B1242445556227N00919923EA0000001222
B1242525556327N00919897EA0000001215
B1243045556496N00919818EA0000001179
B1243135556648N00919759EA0000001165
B1243185556734N00919731EA0000001169
B1243255556830N00919697EA0000001188
B1243305556892N00919675EA0000001197
B1243355556951N00919654EA0000001199
B1243435557048N00919617EA0000001208
B1243485557110N00919622EA0000001219
B1243535557139N00919716EA0000001227
B1243585557105N00919813EA0000001232
B1244035557040N00919805EA0000001233
B1244085557009N00919695EA0000001235
B1244135557042N00919596EA0000001243
B1244185557098N00919597EA0000001252
B1244245557129N00919709EA0000001255
B1244295557095N00919801EA0000001251
B1244365557006N00919767EA0000001250
B1244435557022N00919602EA0000001256
B1244485557075N00919549EA0000001261
B1244535557120N00919614EA0000001258
B1244585557095N00919707EA0000001248
B1245035557029N00919689EA0000001238
B1245085557008N00919572EA0000001244
B1245145557047N00919448EA0000001247
B1245215557088N00919307EA0000001249
B1245275557115N00919171EA0000001236
B1245355557153N00918981EA0000001239
B1245425557190N00918820EA0000001247
B1245505557225N00918635EA0000001247
B1245555557247N00918515EA0000001248
B1246025557270N00918360EA0000001256
B1246095557301N00918197EA0000001237
B1246155557337N00918036EA0000001232
B1246205557368N00917899EA0000001235
B1246285557416N00917682EA0000001234
B1246345557451N00917522EA0000001223
B1246395557485N00917380EA0000001214
B1246455557526N00917204EA0000001199
B1246505557561N00917055EA0000001189
B1246575557605N00916850EA0000001177
B1247035557642N00916672EA0000001165
B1247125557695N00916405EA0000001151
B1247185557728N00916225EA0000001142
B1247245557761N00916075EA0000001157
B1247295557797N00915951EA0000001150
B1247355557856N00915812EA0000001164
B1247405557919N00915775EA0000001186
B1247455557964N00915847EA0000001202
B1247505557939N00915945EA0000001215
B1247555557875N00915934EA0000001230
B1248025557860N00915772EA0000001245
B1248075557915N00915721EA0000001264
B1248125557953N00915788EA0000001279
B1248175557923N00915877EA0000001291
B1248225557861N00915867EA0000001303
B1248305557847N00915686EA0000001323
B1248355557901N00915644EA0000001337
B1248405557940N00915710EA0000001341
B1248455557909N00915805EA0000001351
B1248505557845N00915790EA0000001366
B1248555557822N00915676EA0000001377
B1249005557863N00915585EA0000001394
B1249055557916N00915610EA0000001396
B1249115557897N00915727EA0000001401
B1249165557829N00915725EA0000001417
B1249215557793N00915618EA0000001432
B1249285557845N00915509EA0000001444
B1249365557887N00915625EA0000001446
B1249415557833N00915690EA0000001455
B1249465557770N00915642EA0000001468
B1249515557754N00915525EA0000001480
B1249565557797N00915453EA0000001485
B1250015557843N00915498EA0000001487
B1250065557835N00915598EA0000001488
B1250125557759N00915638EA0000001501
B1250175557707N00915562EA0000001507
B1250235557727N00915442EA0000001519
B1250325557774N00915541EA0000001521
B1250375557721N00915606EA0000001531
B1250425557657N00915567EA0000001540
B1250475557634N00915452EA0000001545
B1250535557679N00915363EA0000001553
B1250585557725N00915387EA0000001552
B1251045557727N00915504EA0000001547
B1251115557651N00915601EA0000001563
B1251165557583N00915576EA0000001571
B1251215557544N00915471EA0000001578
B1251265557558N00915360EA0000001584
B1251315557609N00915322EA0000001585
B1251415557639N00915496EA0000001590
B1251465557582N00915571EA0000001596
B1251515557511N00915540EA0000001608
B1251565557482N00915427EA0000001616
B1252015557505N00915323EA0000001620
B1252065557560N00915295EA0000001618
B1252115557599N00915362EA0000001620
B1252195557560N00915520EA0000001630
B1252245557491N00915526EA0000001637
B1252295557446N00915431EA0000001641
B1252345557456N00915313EA0000001644
B1252395557509N00915272EA0000001642
B1252445557546N00915341EA0000001646
B1252495557533N00915448EA0000001650
B1252545557473N00915507EA0000001656
B1252595557408N00915459EA0000001655
B1253045557384N00915340EA0000001660
B1253095557385N00915212EA0000001656
B1253145557409N00915091EA0000001649
B1253195557439N00914969EA0000001635
B1253245557477N00914852EA0000001626
B1253305557525N00914699EA0000001610
B1253355557562N00914562EA0000001596
B1253465557658N00914255EA0000001573
B1253515557707N00914118EA0000001567
B1254025557819N00913813EA0000001551
B1254115557897N00913566EA0000001551
B1254165557932N00913433EA0000001559
B1254225557964N00913283EA0000001554
B1254325558043N00913058EA0000001541
B1254405558114N00912882EA0000001527
B1254465558167N00912746EA0000001519
B1254515558208N00912623EA0000001506
B1254565558245N00912484EA0000001495
B1255035558290N00912278EA0000001481
B1255085558323N00912126EA0000001472
B1255135558355N00911974EA0000001463
B1255205558400N00911760EA0000001447
B1255265558436N00911569EA0000001427
B1255325558470N00911369EA0000001411
B1255405558515N00911114EA0000001394
B1255455558543N00910957EA0000001374
B1255505558571N00910782EA0000001343
B1255555558604N00910592EA0000001338
B1256015558638N00910400EA0000001363
B1256065558661N00910270EA0000001382
B1256125558688N00910120EA0000001381
B1256175558642N00910005EA0000001384
B1256225558560N00910003EA0000001388
B1256275558492N00910083EA0000001397
B1256425558441N00910422EA0000001394
B1256485558491N00910535EA0000001383
B1256535558547N00910460EA0000001368
B1256595558529N00910280EA0000001366
B1257045558545N00910141EA0000001366
B1257105558575N00909968EA0000001362
B1257165558607N00909785EA0000001355
B1257215558636N00909634EA0000001377
B1257275558674N00909510EA0000001400
B1257325558731N00909510EA0000001404
B1257375558763N00909604EA0000001400
B1257425558735N00909713EA0000001404
B1257485558648N00909717EA0000001402
B1257535558615N00909605EA0000001407
B1257595558635N00909467EA0000001420
B1258045558679N00909402EA0000001423
B1258105558727N00909479EA0000001420
B1258155558698N00909575EA0000001418
B1258205558628N00909565EA0000001417
B1258285558609N00909384EA0000001428
B1258335558626N00909264EA0000001432
B1258395558665N00909131EA0000001437
B1258445558698N00909018EA0000001458
B1258495558754N00908994EA0000001474
B1258545558786N00909081EA0000001487
B1258595558750N00909181EA0000001501
B1259065558650N00909151EA0000001521
B1259115558628N00909028EA0000001531
B1259165558665N00908938EA0000001546
B1259215558719N00908958EA0000001556
B1259275558731N00909088EA0000001573
B1259325558679N00909169EA0000001583
B1259385558594N00909124EA0000001592
B1259445558585N00908986EA0000001611
B1259505558639N00908944EA0000001621
B1259555558662N00909036EA0000001621
B1300005558609N00909115EA0000001636
B1300055558544N00909062EA0000001642
B1300115558553N00908925EA0000001656
B1300165558606N00908925EA0000001662
B1300215558608N00909034EA0000001675
B1300265558545N00909075EA0000001684
B1300315558498N00908981EA0000001686
B1300365558520N00908878EA0000001704
B1300415558572N00908875EA0000001705
B1300465558600N00908966EA0000001715
B1300515558566N00909065EA0000001720
B1300565558494N00909079EA0000001711
B1301025558461N00908935EA0000001710
B1301085558485N00908789EA0000001728
B1301165558522N00908607EA0000001740
B1301225558554N00908474EA0000001733
B1301305558600N00908270EA0000001700
B1301365558637N00908087EA0000001677
B1301435558687N00907868EA0000001671
B1301485558722N00907715EA0000001664
B1301545558769N00907533EA0000001649
B1302005558819N00907344EA0000001638
B1302055558861N00907182EA0000001624
B1302105558901N00907017EA0000001616
B1302165558948N00906824EA0000001611
B1302215558992N00906664EA0000001598
B1302265559040N00906518EA0000001605
B1302315559084N00906393EA0000001601
B1302375559138N00906236EA0000001579
B1302435559194N00906071EA0000001565
B1302485559241N00905940EA0000001567
B1302565559305N00905774EA0000001587
B1303015559347N00905686EA0000001592
B1303075559411N00905597EA0000001594
B1303125559478N00905555EA0000001591
B1303205559591N00905479EA0000001571
B1303295559724N00905380EA0000001550
B1303355559822N00905299EA0000001536
B1303425559923N00905197EA0000001544
B1303485559991N00905083EA0000001538
B1303545600044N00904958EA0000001558
B1304005600087N00904837EA0000001552
B1304055600127N00904731EA0000001546
B1304125600176N00904565EA0000001526
B1304185600206N00904396EA0000001513
B1304275600305N00904197EA0000001494
B1304325600363N00904079EA0000001482
B1304375600427N00903968EA0000001474
B1304435600501N00903836EA0000001464
B1304495600577N00903696EA0000001451
B1304545600638N00903571EA0000001442
B1304595600703N00903449EA0000001437
B1305045600768N00903331EA0000001433
B1305115600831N00903140EA0000001427
B1305165600844N00902980EA0000001412
B1305215600841N00902808EA0000001399
B1305315600817N00902449EA0000001371
B1305365600802N00902268EA0000001363
B1305435600782N00902022EA0000001357
B1305555600751N00901630EA0000001345
B1306035600721N00901368EA0000001336
B1306085600704N00901201EA0000001333
B1306165600698N00900946EA0000001332
B1306215600744N00900814EA0000001327
B1306275600825N00900713EA0000001347
B1306335600896N00900628EA0000001354
B1306415601003N00900597EA0000001359
B1306465601046N00900690EA0000001367
B1306515601029N00900803EA0000001372
B1306565600961N00900839EA0000001371
B1307015600905N00900761EA0000001371
B1307065600905N00900638EA0000001371
B1307115600963N00900573EA0000001373
B1307165601021N00900625EA0000001382
B1307215601025N00900740EA0000001387
B1307285600937N00900825EA0000001390
B1307355600834N00900889EA0000001390
B1307425600734N00900964EA0000001391
B1307475600663N00901009EA0000001392
B1307545600570N00901081EA0000001393
B1307595600512N00901150EA0000001388
B1308045600455N00901228EA0000001383
B1308105600449N00901364EA0000001376
B1308155600500N00901428EA0000001370
B1308205600563N00901416EA0000001367
B1308265600630N00901348EA0000001363
B1308315600688N00901278EA0000001358
B1308375600756N00901184EA0000001355
B1308425600798N00901082EA0000001353
B1308485600813N00900929EA0000001351
B1308555600797N00900750EA0000001353
B1309015600781N00900598EA0000001357
B1309115600822N00900352EA0000001355
B1309175600819N00900188EA0000001356
B1309245600785N00900002EA0000001357
B1309345600736N00859738EA0000001370
B1309395600717N00859607EA0000001369
B1309445600707N00859473EA0000001361
B1309505600737N00859335EA0000001351
B1309555600775N00859229EA0000001338
B1310025600837N00859086EA0000001325
B1310085600894N00858963EA0000001312
B1310135600947N00858855EA0000001298
B1310185601004N00858749EA0000001289
B1310255601091N00858595EA0000001269
B1310325601183N00858419EA0000001256
B1310385601263N00858265EA0000001246
B1310435601330N00858144EA0000001235
B1310495601415N00858001EA0000001218
B1310545601485N00857883EA0000001212
B1310595601545N00857782EA0000001227
B1311065601619N00857639EA0000001236
B1311135601677N00857506EA0000001242
B1311185601705N00857384EA0000001239
B1311235601734N00857265EA0000001263
B1311285601790N00857233EA0000001268
B1311335601823N00857334EA0000001271
B1311385601788N00857444EA0000001266
B1311435601717N00857442EA0000001258
B1311505601702N00857284EA0000001267
B1311585601728N00857098EA0000001271
B1312045601664N00857003EA0000001277
B1312105601591N00857070EA0000001290
B1312155601598N00857179EA0000001300
B1312205601657N00857185EA0000001316
B1312255601672N00857079EA0000001322
B1312315601596N00857029EA0000001334
B1312365601555N00857126EA0000001349
B1312415601585N00857223EA0000001363
B1312465601641N00857197EA0000001377
B1312515601644N00857084EA0000001376
B1312565601582N00857023EA0000001383
B1313015601520N00857081EA0000001397
B1313075601506N00857220EA0000001403
B1313125601563N00857262EA0000001419
B1313175601597N00857176EA0000001429
B1313225601560N00857075EA0000001437
B1313275601491N00857089EA0000001451
B1313325601469N00857203EA0000001457
B1313375601520N00857270EA0000001469
B1313425601559N00857193EA0000001480
B1313495601496N00857076EA0000001492
B1313545601430N00857127EA0000001504
B1314005601433N00857262EA0000001511
B1314065601502N00857270EA0000001523
B1314115601505N00857162EA0000001529
B1314165601437N00857123EA0000001538
B1314235601401N00857270EA0000001554
B1314295601467N00857317EA0000001560
B1314345601497N00857227EA0000001567
B1314395601452N00857135EA0000001572
B1314445601385N00857191EA0000001582
B1314505601403N00857320EA0000001589
B1314565601474N00857305EA0000001593
B1315015601488N00857199EA0000001599
B1315065601433N00857134EA0000001598
B1315115601367N00857199EA0000001605
B1315175601361N00857339EA0000001611
B1315225601416N00857385EA0000001608
B1315315601468N00857244EA0000001613
B1315365601422N00857162EA0000001613
B1315425601337N00857195EA0000001612
B1315475601318N00857317EA0000001611
B1315525601359N00857397EA0000001608
B1315575601414N00857367EA0000001611
B1316025601444N00857276EA0000001609
B1316105601435N00857095EA0000001595
B1316155601406N00856975EA0000001598
B1316215601371N00856840EA0000001603
B1316265601351N00856715EA0000001597
B1316315601344N00856582EA0000001598
B1316375601338N00856416EA0000001593
B1316425601346N00856285EA0000001591
B1316475601371N00856160EA0000001589
B1316545601420N00855994EA0000001577
B1316595601441N00855853EA0000001566
B1317075601468N00855613EA0000001548
B1317165601503N00855316EA0000001522
B1317225601521N00855108EA0000001505
B1317305601546N00854827EA0000001489
B1317375601586N00854589EA0000001476
B1317435601621N00854381EA0000001469
B1317485601646N00854213EA0000001468
B1317555601682N00853984EA0000001453
B1318105601764N00853479EA0000001415
B1318155601794N00853307EA0000001407
B1318205601825N00853137EA0000001417
B1318275601867N00852947EA0000001436
B1318325601902N00852846EA0000001466
B1318375601961N00852835EA0000001481
B1318425601994N00852929EA0000001487
B1318475601967N00853040EA0000001474
B1318535601883N00853042EA0000001474
B1318585601850N00852932EA0000001474
B1319035601851N00852810EA0000001488
B1319085601902N00852747EA0000001494
B1319135601950N00852810EA0000001509
B1319185601929N00852923EA0000001516
B1319235601856N00852936EA0000001506
B1319285601829N00852823EA0000001520
B1319335601877N00852776EA0000001529
B1319385601912N00852865EA0000001536
B1319435601877N00852973EA0000001533
B1319485601804N00852949EA0000001529
B1319555601801N00852787EA0000001547
B1320005601854N00852764EA0000001556
B1320055601879N00852865EA0000001565
B1320105601828N00852941EA0000001564
B1320155601777N00852863EA0000001551
B1320205601821N00852784EA0000001569
B1320265601860N00852875EA0000001578
B1320315601808N00852951EA0000001565
B1320365601748N00852885EA0000001569
B1320415601741N00852768EA0000001580
B1320465601787N00852733EA0000001584
B1320535601776N00852870EA0000001598
B1320585601702N00852850EA0000001589
B1321035601701N00852734EA0000001601
B1321085601752N00852729EA0000001612
B1321145601746N00852861EA0000001628
B1321195601672N00852899EA0000001628
B1321255601612N00852791EA0000001633
B1321305601639N00852699EA0000001634
B1321355601692N00852719EA0000001649
B1321405601699N00852827EA0000001665
B1321465601625N00852914EA0000001670
B1321515601553N00852867EA0000001667
B1321565601537N00852751EA0000001661
B1322015601585N00852677EA0000001663
B1322065601635N00852719EA0000001670
B1322125601618N00852867EA0000001685
B1322195601514N00852915EA0000001689
B1322245601450N00852843EA0000001687
B1322295601424N00852725EA0000001675
B1322345601442N00852605EA0000001665
B1322395601476N00852502EA0000001657
B1322445601531N00852464EA0000001653
B1322505601599N00852412EA0000001647
B1322555601655N00852347EA0000001644
B1323015601725N00852263EA0000001635
B1323065601782N00852188EA0000001622
B1323125601850N00852092EA0000001611
B1323175601910N00852013EA0000001599
B1323225601976N00851929EA0000001582
B1323285602065N00851818EA0000001574
B1323355602165N00851675EA0000001570
B1323425602249N00851502EA0000001555
B1323475602303N00851362EA0000001544
B1323535602367N00851191EA0000001530
B1323585602422N00851046EA0000001523
B1324065602502N00850821EA0000001506
B1324115602559N00850681EA0000001496
B1324165602615N00850541EA0000001492
B1324215602670N00850402EA0000001483
B1324265602728N00850267EA0000001477
B1324325602800N00850109EA0000001465
B1324375602863N00849980EA0000001459
B1324445602948N00849801EA0000001455
B1324495603005N00849670EA0000001451
B1324585603114N00849451EA0000001444
B1325055603201N00849292EA0000001433
B1325105603262N00849185EA0000001424
B1325155603326N00849080EA0000001418
B1325205603389N00848974EA0000001423
B1325255603444N00848882EA0000001450
B1325305603505N00848850EA0000001457
B1325355603546N00848946EA0000001461
B1325405603511N00849058EA0000001451
B1325455603434N00849057EA0000001436
B1325505603394N00848942EA0000001429
B1325555603425N00848833EA0000001437
B1326025603492N00848712EA0000001451
B1326075603550N00848678EA0000001449
B1326125603593N00848769EA0000001451
B1326185603549N00848895EA0000001459
B1326235603477N00848875EA0000001455
B1326285603452N00848757EA0000001457
B1326335603489N00848655EA0000001456
B1326385603537N00848555EA0000001460
B1326435603580N00848457EA0000001461
B1326485603628N00848360EA0000001452
B1326535603677N00848268EA0000001450
B1326595603740N00848164EA0000001451
B1327055603795N00848049EA0000001463
B1327105603833N00847951EA0000001473
B1327155603893N00847952EA0000001473
B1327205603910N00848062EA0000001476
B1327275603825N00848135EA0000001487
B1327335603780N00848016EA0000001503
B1327385603815N00847934EA0000001504
B1327435603868N00847977EA0000001498
B1327495603834N00848105EA0000001503
B1327545603762N00848074EA0000001514
B1327595603746N00847961EA0000001525
B1328055603805N00847914EA0000001523
B1328115603830N00848037EA0000001525
B1328165603773N00848111EA0000001531
B1328215603707N00848061EA0000001539
B1328265603693N00847945EA0000001550
B1328315603736N00847873EA0000001553
B1328365603790N00847917EA0000001553
B1328425603781N00848056EA0000001557
B1328475603717N00848104EA0000001564
B1328545603655N00847988EA0000001572
B1328595603680N00847888EA0000001578
B1329075603715N00847728EA0000001572
B1329145603739N00847566EA0000001563
B1329215603749N00847396EA0000001554
B1329265603762N00847269EA0000001546
B1329315603779N00847144EA0000001557
B1329385603802N00846972EA0000001565
B1329445603829N00846826EA0000001571
B1329535603852N00846600EA0000001577
B1329595603790N00846495EA0000001575
B1330055603707N00846528EA0000001576
B1330105603684N00846637EA0000001582
B1330155603707N00846742EA0000001588
B1330205603742N00846834EA0000001590
B1330265603818N00846841EA0000001595
B1330335603859N00846696EA0000001599
B1330385603817N00846601EA0000001591
B1330435603751N00846621EA0000001590
B1330495603738N00846755EA0000001596
B1330545603778N00846844EA0000001596
B1330595603843N00846865EA0000001597
B1331055603915N00846809EA0000001598
B1331445604032N00845662EA0000001517
B1331525604008N00845380EA0000001511
B1331575603993N00845203EA0000001506
B1332055603963N00844917EA0000001496
B1332105603964N00844739EA0000001496
B1332165603985N00844535EA0000001488
B1332265604025N00844185EA0000001469
B1332505604035N00843476EA0000001452
B1332555604010N00843312EA0000001434
B1333005603986N00843139EA0000001422
B1333195603912N00842438EA0000001392
B1333255603884N00842235EA0000001424
B1333305603888N00842093EA0000001434
B1333355603948N00842042EA0000001443
B1333405603978N00842126EA0000001444
B1333465603919N00842204EA0000001438
B1333515603854N00842133EA0000001439
B1333575603830N00841982EA0000001443
B1334025603875N00841888EA0000001444
B1334075603934N00841919EA0000001447
B1334135603932N00842042EA0000001447
B1334185603868N00842073EA0000001441
B1334365603766N00841635EA0000001443
B1334415603777N00841502EA0000001440
B1334475603830N00841375EA0000001430
B1334525603876N00841263EA0000001405
B1334575603931N00841143EA0000001394
B1335035603998N00841010EA0000001385
B1335085604056N00840904EA0000001372
B1335135604118N00840791EA0000001358
B1335185604181N00840672EA0000001343
B1335245604257N00840526EA0000001322
B1335315604354N00840350EA0000001303
B1335365604428N00840231EA0000001298
B1335415604496N00840119EA0000001323
B1335465604545N00840030EA0000001348
B1335515604604N00840028EA0000001353
B1335565604631N00840132EA0000001371
B1336035604568N00840259EA0000001380
B1336085604500N00840221EA0000001381
B1336135604483N00840108EA0000001378
B1336185604527N00840046EA0000001384
B1336235604572N00840109EA0000001395
B1336355604460N00840246EA0000001404
B1336415604437N00840120EA0000001402
B1336465604479N00840043EA0000001406
B1336515604534N00840076EA0000001414
B1337005604489N00840261EA0000001424
B1337055604419N00840232EA0000001427
B1337105604403N00840121EA0000001424
B1337165604465N00840073EA0000001435
B1337275604436N00840274EA0000001446
B1337365604350N00840143EA0000001443
B1337415604387N00840058EA0000001448
B1337465604443N00840077EA0000001456
B1337515604460N00840185EA0000001462
B1337575604393N00840281EA0000001463
B1338045604315N00840188EA0000001463
B1338095604341N00840091EA0000001466
B1338145604398N00840095EA0000001475
B1338195604427N00840190EA0000001478
B1338265604364N00840315EA0000001479
B1338415604293N00840057EA0000001477
B1338485604330N00839915EA0000001488
B1338535604367N00839838EA0000001489
B1338585604413N00839775EA0000001488
B1339055604468N00839654EA0000001493
B1339145604528N00839493EA0000001494
B1339205604571N00839372EA0000001482
B1339265604624N00839236EA0000001469
B1339315604673N00839115EA0000001464
B1339405604743N00838888EA0000001455
B1339475604795N00838704EA0000001443
B1339525604842N00838583EA0000001431
B1339575604900N00838472EA0000001425
B1340035604968N00838337EA0000001422
B1340105605044N00838184EA0000001428
B1340165605105N00838068EA0000001438
B1340215605151N00837972EA0000001434
B1340275605201N00837846EA0000001443
B1340325605241N00837743EA0000001456
B1340375605292N00837676EA0000001454
B1340425605349N00837720EA0000001452
B1340475605352N00837840EA0000001466
B1340525605293N00837910EA0000001473
B1340585605218N00837835EA0000001475
B1341045605234N00837693EA0000001478
B1341095605297N00837670EA0000001475
B1341155605336N00837792EA0000001477
B1341205605289N00837882EA0000001492
B1341255605220N00837854EA0000001492
B1341315605201N00837711EA0000001492
B1341365605252N00837638EA0000001489
B1341415605309N00837686EA0000001490
B1341485605293N00837844EA0000001504
B1341535605241N00837917EA0000001519
B1342015605156N00837807EA0000001520
B1342065605183N00837703EA0000001521
B1342115605242N00837699EA0000001518
B1342165605264N00837802EA0000001524
B1342265605151N00837938EA0000001532
B1342315605099N00838030EA0000001540
B1342365605108N00838147EA0000001550
B1342475605194N00838062EA0000001553
B1342575605078N00838049EA0000001564
B1343035605102N00838172EA0000001567
B1343115605161N00838071EA0000001565
B1343175605090N00837997EA0000001564
B1343225605038N00838081EA0000001570
B1343275605012N00838197EA0000001569
B1343345604951N00838344EA0000001557
B1343395604888N00838432EA0000001543
B1343495604752N00838636EA0000001517
B1343555604670N00838776EA0000001504
B1344015604585N00838920EA0000001492
B1344095604472N00839111EA0000001480
B1344145604405N00839246EA0000001470
B1344195604338N00839380EA0000001473
B1344275604228N00839589EA0000001483
B1344425604042N00839921EA0000001506
B1344475603988N00840016EA0000001504
B1345045603824N00840414EA0000001463
B1345345603589N00841155EA0000001484
B1345395603555N00841266EA0000001482
B1345465603488N00841409EA0000001483
B1345525603418N00841510EA0000001472
B1345595603325N00841622EA0000001452
B1346075603215N00841769EA0000001439
B1346185603068N00841996EA0000001420
B1346255602969N00842133EA0000001444
B1346315602897N00842232EA0000001452
B1346365602832N00842289EA0000001463
B1346415602770N00842231EA0000001464
B1346465602758N00842105EA0000001467
B1346525602820N00842021EA0000001475
B1346575602871N00842079EA0000001483
B1347025602860N00842185EA0000001489
B1347075602794N00842208EA0000001497
B1347125602750N00842113EA0000001498
B1347185602789N00841988EA0000001507
B1347235602845N00842016EA0000001515
B1347295602832N00842130EA0000001521
B1347345602769N00842130EA0000001524
B1347395602739N00842020EA0000001525
B1347445602783N00841937EA0000001531
B1347495602833N00841983EA0000001540
B1347565602805N00842113EA0000001540
B1348025602724N00842081EA0000001548
B1348075602699N00841962EA0000001549
B1348125602737N00841864EA0000001558
B1348175602797N00841873EA0000001559
B1348245602804N00842016EA0000001559
B1348325602710N00842119EA0000001565
B1348395602648N00842245EA0000001573
B1348445602609N00842341EA0000001571
B1348545602551N00842568EA0000001553
B1349005602521N00842724EA0000001544
B1349105602468N00842975EA0000001571
B1349155602441N00843077EA0000001565
B1349235602381N00843233EA0000001568
B1349295602326N00843333EA0000001562
B1349355602267N00843443EA0000001564
B1349435602201N00843606EA0000001564
B1349485602160N00843717EA0000001566
B1349535602118N00843816EA0000001575
B1349595602071N00843936EA0000001572
B1350045602038N00844040EA0000001559
B1350105602028N00844188EA0000001543
B1350155602038N00844319EA0000001527
B1350215602059N00844485EA0000001506
B1350295602104N00844726EA0000001482
B1350345602130N00844874EA0000001474
B1350395602153N00845027EA0000001461
B1350475602188N00845282EA0000001469
B1350525602204N00845414EA0000001487
B1350595602228N00845595EA0000001479
B1351065602253N00845785EA0000001484
B1351125602281N00845937EA0000001484
B1351175602311N00846060EA0000001479
B1351225602342N00846180EA0000001484
B1351275602375N00846300EA0000001484
B1351345602418N00846466EA0000001497
B1351395602406N00846589EA0000001511
B1351445602346N00846666EA0000001508
B1351495602273N00846637EA0000001500
B1351555602250N00846495EA0000001488
B1352005602301N00846413EA0000001493
B1352055602369N00846428EA0000001509
B1352105602409N00846526EA0000001514
B1352165602374N00846675EA0000001522
B1352215602303N00846683EA0000001520
B1352265602289N00846572EA0000001511
B1352315602347N00846534EA0000001514
B1352365602411N00846566EA0000001521
B1352425602415N00846710EA0000001526
B1352475602356N00846777EA0000001514
B1352535602297N00846687EA0000001498
B1352595602311N00846544EA0000001501
B1353055602343N00846420EA0000001519
B1353105602396N00846385EA0000001514
B1353155602444N00846466EA0000001513
B1353225602407N00846619EA0000001519
B1353275602338N00846629EA0000001512
B1353325602302N00846523EA0000001508
B1353415602322N00846310EA0000001519
B1353485602233N00846268EA0000001515
B1353565602227N00846431EA0000001526
B1354065602292N00846315EA0000001520
B1354175602151N00846330EA0000001517
B1354245602074N00846448EA0000001537
B1354315602000N00846554EA0000001538
B1354365601947N00846633EA0000001532
B1354475601820N00846803EA0000001520
B1354565601710N00846948EA0000001507
B1355015601648N00847036EA0000001499
B1355085601556N00847166EA0000001475
B1355135601483N00847268EA0000001460
B1355225601356N00847455EA0000001457
B1355285601283N00847576EA0000001493
B1355335601229N00847634EA0000001505
B1355385601169N00847586EA0000001507
B1355435601165N00847471EA0000001499
B1355485601224N00847428EA0000001497
B1355555601279N00847557EA0000001501
B1356005601244N00847659EA0000001516
B1356055601177N00847645EA0000001524
B1356105601151N00847529EA0000001527
B1356155601189N00847434EA0000001530
B1356205601254N00847443EA0000001533
B1356265601275N00847569EA0000001540
B1356315601219N00847633EA0000001551
B1356365601165N00847564EA0000001560
B1356425601195N00847447EA0000001560
B1356485601259N00847492EA0000001566
B1356545601252N00847622EA0000001567
B1356595601188N00847651EA0000001577
B1357065601138N00847523EA0000001579
B1357115601186N00847460EA0000001582
B1357165601233N00847527EA0000001588
B1357225601206N00847642EA0000001602
B1357275601143N00847638EA0000001609
B1357325601112N00847541EA0000001609
B1357375601141N00847443EA0000001610
B1357425601199N00847446EA0000001610
B1357485601221N00847570EA0000001607
B1357555601143N00847622EA0000001619
B1358005601109N00847523EA0000001620
B1358055601141N00847421EA0000001616
B1358105601204N00847417EA0000001614
B1358155601236N00847514EA0000001610
B1358235601232N00847703EA0000001616
B1358285601225N00847823EA0000001606
B1358355601208N00847999EA0000001585
B1358445601204N00848245EA0000001565
B1358495601203N00848392EA0000001556
B1358545601199N00848538EA0000001550
B1358595601197N00848684EA0000001541
B1359065601193N00848887EA0000001528
B1359185601190N00849234EA0000001485
B1359265601195N00849491EA0000001469
B1359325601192N00849695EA0000001461
B1359385601175N00849869EA0000001497
B1359435601152N00849984EA0000001505
B1359485601089N00850031EA0000001505
B1359545601032N00849927EA0000001497
B1359595601066N00849829EA0000001495
B1400045601128N00849853EA0000001500
B1400105601141N00849994EA0000001506
B1400155601115N00850110EA0000001509
B1400205601044N00850140EA0000001505
B1400255600990N00850048EA0000001499
B1400305601010N00849930EA0000001496
B1400355601074N00849928EA0000001496
B1400405601122N00850019EA0000001496
B1400465601188N00850088EA0000001519
B1400515601241N00850093EA0000001518
B1400585601246N00849944EA0000001517
B1401035601175N00849918EA0000001528
B1401085601156N00850022EA0000001539
B1401205601217N00849907EA0000001546
B1401275601134N00849938EA0000001558
B1401325601161N00850019EA0000001561
B1401395601195N00849905EA0000001555
B1401445601132N00849855EA0000001565
B1401525601118N00849992EA0000001570
B1401595601165N00849897EA0000001564
B1402045601107N00849820EA0000001568
B1402105601035N00849875EA0000001574
B1402155601053N00849968EA0000001570
B1402205601102N00849923EA0000001579
B1402255601080N00849816EA0000001574
B1402345600960N00849854EA0000001576
B1402405600893N00849948EA0000001573
B1402465600872N00850093EA0000001564
B1402515600867N00850228EA0000001556
B1402575600857N00850392EA0000001562
B1403025600850N00850518EA0000001556
B1403075600840N00850655EA0000001540
B1403125600831N00850815EA0000001521
B1403175600825N00850981EA0000001514
B1403245600820N00851217EA0000001499
B1403425600819N00851866EA0000001474
B1403485600811N00852077EA0000001470
B1403535600801N00852250EA0000001466
B1403595600788N00852455EA0000001456
B1404075600772N00852731EA0000001440
B1404125600765N00852903EA0000001434
B1404205600754N00853172EA0000001415
B1404255600745N00853342EA0000001401
B1404315600737N00853550EA0000001389
B1404365600730N00853725EA0000001380
B1404495600732N00854127EA0000001409
B1404555600744N00854269EA0000001422
B1405015600806N00854321EA0000001422
B1405085600836N00854168EA0000001420
B1405185600695N00854096EA0000001426
B1405235600642N00854175EA0000001426
B1405285600674N00854270EA0000001423
B1405335600735N00854241EA0000001420
B1405385600744N00854113EA0000001420
B1405435600680N00854038EA0000001417
B1405495600606N00854127EA0000001416
B1405555600547N00854253EA0000001412
B1406025600517N00854430EA0000001405
B1406085600480N00854578EA0000001394
B1406135600445N00854711EA0000001380
B1406225600366N00854970EA0000001355
B1406285600313N00855148EA0000001345
B1406375600232N00855403EA0000001336
B1406425600182N00855541EA0000001327
B1406505600097N00855766EA0000001324
B1406575600024N00855966EA0000001313
B1407025559973N00856115EA0000001304
B1407155559836N00856507EA0000001287
B1407225559758N00856720EA0000001274
B1407295559679N00856939EA0000001260
B1407345559621N00857097EA0000001254
B1407425559533N00857318EA0000001260
B1407475559479N00857452EA0000001260
B1407525559428N00857582EA0000001254
B1407585559371N00857728EA0000001258
B1408035559324N00857843EA0000001251
B1408155559234N00858167EA0000001227
B1408205559234N00858311EA0000001235
B1408275559302N00858444EA0000001237
B1408345559395N00858486EA0000001236
B1408405559471N00858415EA0000001239
B1408465559514N00858284EA0000001241
B1408515559524N00858157EA0000001240
B1408565559482N00858052EA0000001236
B1409015559404N00858037EA0000001235
B1409065559350N00858129EA0000001234
B1409115559359N00858259EA0000001224
B1409165559424N00858310EA0000001226
B1409215559477N00858235EA0000001233
B1409275559492N00858079EA0000001217
B1409325559498N00857934EA0000001213
B1409435559489N00857603EA0000001215
B1409485559485N00857454EA0000001220
B1409545559481N00857271EA0000001216
B1410005559477N00857088EA0000001214
B1410075559462N00856881EA0000001209
B1410125559461N00856739EA0000001202
B1410185559523N00856640EA0000001190
B1410235559594N00856668EA0000001176
B1410285559649N00856766EA0000001166
B1410345559662N00856934EA0000001156
B1410395559625N00857075EA0000001153
B1410445559585N00857216EA0000001154
B1410505559536N00857360EA0000001179
B1410555559464N00857381EA0000001180
B1411005559417N00857285EA0000001177
B1411055559441N00857168EA0000001168
B1411105559503N00857159EA0000001162
B1411155559533N00857260EA0000001158
B1411245559486N00857479EA0000001158
B1411305559445N00857627EA0000001158
B1411365559401N00857770EA0000001157
B1411415559368N00857894EA0000001149
B1411465559334N00858025EA0000001145
B1411545559285N00858246EA0000001145
B1412015559243N00858422EA0000001162
B1412065559204N00858533EA0000001169
B1412115559137N00858561EA0000001169
B1412165559089N00858474EA0000001168
B1412215559110N00858367EA0000001164
B1412265559174N00858363EA0000001160
B1412325559197N00858501EA0000001163
B1412375559150N00858598EA0000001169
B1412435559065N00858639EA0000001167
B1412485559021N00858743EA0000001168
B1412535558990N00858864EA0000001161
B1412585558958N00858996EA0000001142
B1413035558927N00859140EA0000001137
B1413085558894N00859282EA0000001135
B1413135558869N00859428EA0000001136
B1413215558830N00859661EA0000001132
B1413275558833N00859836EA0000001127
B1413375558856N00900136EA0000001111
B1413435558871N00900316EA0000001097
B1413485558883N00900471EA0000001087
B1413535558883N00900624EA0000001071
B1414015558851N00900875EA0000001051
B1414075558818N00901064EA0000001043
B1414155558782N00901309EA0000001030
B1414205558772N00901464EA0000001014
B1414295558764N00901748EA0000000999
B1414345558753N00901904EA0000000985
B1414395558734N00902062EA0000000973
B1414445558717N00902218EA0000000964
B1414545558686N00902518EA0000000956
B1415015558668N00902717EA0000000955
B1415065558659N00902845EA0000000951
B1415125558645N00903001EA0000000942
B1415185558633N00903158EA0000000940
B1415255558624N00903349EA0000000936
B1415355558620N00903607EA0000000945
B1415415558593N00903757EA0000000928
B1415475558615N00903913EA0000000913
B1415525558667N00904012EA0000000895
B1415575558729N00904095EA0000000886
B1416035558806N00904200EA0000000868
B1416085558882N00904251EA0000000848
B1416145558982N00904246EA0000000831
B1416195559069N00904253EA0000000812
B1416315559287N00904315EA0000000809
B1416365559372N00904343EA0000000807
B1416425559478N00904380EA0000000796
B1416505559623N00904429EA0000000780
B1416565559723N00904385EA0000000772
B1417015559793N00904295EA0000000767
B1417065559862N00904197EA0000000753
B1417145559972N00904028EA0000000743
B1417195600040N00903925EA0000000735
B1417245600109N00903820EA0000000743
B1417305600180N00903699EA0000000751
B1417355600236N00903585EA0000000747
B1417405600287N00903462EA0000000760
B1417455600329N00903337EA0000000765
B1417505600391N00903255EA0000000776
B1417555600462N00903259EA0000000785
B1418005600503N00903351EA0000000797
B1418055600482N00903467EA0000000808
B1418105600416N00903499EA0000000814
B1418155600377N00903405EA0000000824
B1418205600407N00903302EA0000000830
B1418255600471N00903281EA0000000839
B1418305600515N00903359EA0000000851
B1418355600498N00903474EA0000000855
B1418415600420N00903517EA0000000866
B1418465600375N00903430EA0000000870
B1418515600397N00903321EA0000000879
B1418565600460N00903301EA0000000893
B1419015600499N00903386EA0000000901
B1419065600475N00903498EA0000000908
B1419115600409N00903527EA0000000916
B1419165600364N00903440EA0000000922
B1419215600389N00903334EA0000000933
B1419265600450N00903314EA0000000945
B1419315600488N00903396EA0000000951
B1419365600466N00903509EA0000000953
B1419415600400N00903546EA0000000959
B1419465600351N00903467EA0000000967
B1419515600372N00903362EA0000000975
B1419565600433N00903318EA0000000984
B1420015600486N00903369EA0000000997
B1420075600482N00903499EA0000001001
B1420125600419N00903543EA0000001003
B1420175600367N00903471EA0000001009
B1420225600373N00903360EA0000001020
B1420275600420N00903301EA0000001027
B1420325600471N00903336EA0000001026
B1420375600473N00903449EA0000001021
B1420425600415N00903521EA0000001021
B1420475600349N00903477EA0000001029
B1420525600322N00903371EA0000001040
B1420575600345N00903272EA0000001047
B1421025600396N00903250EA0000001052
B1421075600432N00903322EA0000001056
B1421125600420N00903434EA0000001052
B1421175600361N00903507EA0000001052
B1421225600294N00903469EA0000001053
B1421275600280N00903354EA0000001063
B1421325600324N00903279EA0000001065
B1421375600379N00903315EA0000001071
B1421435600391N00903449EA0000001075
B1421485600337N00903530EA0000001074
B1421535600269N00903493EA0000001077
B1421585600254N00903383EA0000001082
B1422035600299N00903312EA0000001081
B1422085600354N00903347EA0000001090
B1422135600364N00903454EA0000001096
B1422185600309N00903533EA0000001096
B1422235600241N00903491EA0000001092
B1422285600231N00903377EA0000001100
B1422335600276N00903307EA0000001102
B1422385600331N00903340EA0000001108
B1422435600344N00903449EA0000001114
B1422485600295N00903538EA0000001119
B1422535600225N00903522EA0000001120
B1422585600192N00903420EA0000001118
B1423035600225N00903328EA0000001120
B1423085600282N00903346EA0000001127
B1423135600295N00903451EA0000001135
B1423185600247N00903538EA0000001139
B1423235600177N00903527EA0000001141
B1423285600142N00903428EA0000001140
B1423335600172N00903328EA0000001135
B1423385600234N00903322EA0000001141
B1423435600269N00903413EA0000001147
B1423485600242N00903517EA0000001144
B1423535600167N00903508EA0000001143
B1423585600143N00903392EA0000001147
B1424035600189N00903315EA0000001150
B1424085600246N00903349EA0000001157
B1424135600259N00903460EA0000001162
B1424185600208N00903545EA0000001166
B1424235600140N00903522EA0000001168
B1424295600118N00903394EA0000001166
B1424345600164N00903319EA0000001161
B1424395600226N00903346EA0000001169
B1424445600257N00903445EA0000001172
B1424495600246N00903562EA0000001177
B1424545600191N00903640EA0000001185
B1424595600123N00903627EA0000001189
B1425045600085N00903532EA0000001186
B1425095600104N00903429EA0000001183
B1425155600171N00903395EA0000001188
B1425205600220N00903447EA0000001190
B1425265600270N00903544EA0000001188
B1425315600301N00903641EA0000001193
B1425375600339N00903764EA0000001192
B1425425600376N00903870EA0000001184
B1425485600422N00903994EA0000001179
B1425565600480N00904168EA0000001153
B1426025600529N00904309EA0000001140
B1426085600584N00904454EA0000001120
B1426175600676N00904684EA0000001083
B1426225600728N00904819EA0000001061
B1426305600815N00905053EA0000001033
B1426355600868N00905196EA0000001032
B1426405600912N00905334EA0000001034
B1426465600958N00905475EA0000001058
B1426515601010N00905546EA0000001069
B1426565601062N00905491EA0000001064
B1427015601037N00905374EA0000001071
B1427075600951N00905396EA0000001085
B1427125600925N00905514EA0000001092
B1427175600967N00905592EA0000001092
B1427225601012N00905515EA0000001096
B1427275600977N00905411EA0000001109
B1427325600903N00905427EA0000001120
B1427385600883N00905556EA0000001127
B1427435600936N00905590EA0000001123
B1427485600957N00905485EA0000001129
B1427545600886N00905413EA0000001146
B1427595600820N00905466EA0000001149
B1428045600819N00905577EA0000001155
B1428095600874N00905586EA0000001157
B1428145600890N00905479EA0000001161
B1428205600814N00905427EA0000001178
B1428275600782N00905559EA0000001184
B1428325600833N00905593EA0000001187
B1428375600860N00905504EA0000001186
B1428425600808N00905429EA0000001195
B1428485600753N00905514EA0000001200
B1428535600786N00905592EA0000001199
B1428585600825N00905521EA0000001195
B1429035600793N00905410EA0000001203
B1429085600726N00905403EA0000001210
B1429145600711N00905519EA0000001208
B1429195600761N00905555EA0000001213
B1429245600787N00905462EA0000001208
B1429295600736N00905377EA0000001216
B1429345600672N00905415EA0000001221
B1429395600668N00905518EA0000001221
B1429445600722N00905545EA0000001227
B1429505600745N00905427EA0000001228
B1429555600687N00905370EA0000001229
B1430005600634N00905439EA0000001229
B1430055600657N00905535EA0000001232
B1430105600714N00905516EA0000001236
B1430155600717N00905409EA0000001238
B1430205600656N00905365EA0000001242
B1430255600610N00905441EA0000001244
B1430305600642N00905527EA0000001241
B1430355600698N00905504EA0000001245
B1430405600713N00905400EA0000001245
B1430455600664N00905320EA0000001250
B1430505600600N00905341EA0000001246
B1430555600584N00905452EA0000001243
B1431005600624N00905535EA0000001242
B1431075600694N00905479EA0000001245
B1431125600673N00905372EA0000001246
B1431185600594N00905354EA0000001249
B1431245600562N00905468EA0000001253
B1431295600602N00905539EA0000001256
B1431345600655N00905509EA0000001257
B1431395600665N00905403EA0000001256
B1431445600611N00905330EA0000001253
B1431495600548N00905373EA0000001261
B1431545600534N00905477EA0000001271
B1431595600575N00905539EA0000001276
B1432045600625N00905504EA0000001276
B1432095600634N00905397EA0000001273
B1432145600584N00905314EA0000001272
B1432195600515N00905338EA0000001275
B1432265600479N00905488EA0000001282
B1432315600523N00905553EA0000001286
B1432365600572N00905507EA0000001290
B1432425600559N00905378EA0000001284
B1432475600491N00905355EA0000001284
B1432535600434N00905461EA0000001294
B1432585600405N00905563EA0000001296
B1433075600364N00905768EA0000001289
B1433145600329N00905946EA0000001274
B1433225600291N00906170EA0000001252
B1433315600245N00906444EA0000001226
B1433385600202N00906671EA0000001215
B1433435600165N00906829EA0000001207
B1433485600126N00906988EA0000001193
B1433555600076N00907227EA0000001179
B1434035600016N00907502EA0000001164
B1434115559951N00907791EA0000001149
B1434165559911N00907974EA0000001143
B1434265559831N00908350EA0000001120
B1434315559788N00908526EA0000001121
B1434375559738N00908729EA0000001115
B1434425559702N00908877EA0000001118
B1434475559665N00909020EA0000001110
B1434545559605N00909213EA0000001102
B1434595559560N00909353EA0000001109
B1435045559519N00909473EA0000001116
B1435095559479N00909596EA0000001115
B1435175559410N00909791EA0000001114
B1435225559365N00909913EA0000001113
B1435275559325N00910037EA0000001109
B1435335559284N00910194EA0000001099
B1435395559241N00910351EA0000001090
B1435515559183N00910709EA0000001063
B1435585559221N00910916EA0000001054
B1436035559268N00911034EA0000001081
B1436095559312N00911141EA0000001088
B1436145559287N00911252EA0000001097
B1436195559216N00911289EA0000001089
B1436245559156N00911208EA0000001089
B1436295559159N00911083EA0000001090
B1436345559210N00911007EA0000001093
B1436405559282N00910979EA0000001104
B1436455559322N00911058EA0000001109
B1436505559299N00911170EA0000001116
B1436555559226N00911194EA0000001129
B1437005559178N00911104EA0000001126
B1437055559196N00910993EA0000001128
B1437105559252N00910979EA0000001133
B1437155559284N00911070EA0000001135
B1437205559252N00911181EA0000001148
B1437255559181N00911200EA0000001152
B1437305559133N00911102EA0000001152
B1437355559156N00910994EA0000001156
B1437405559210N00910983EA0000001163
B1437455559239N00911074EA0000001163
B1437505559205N00911181EA0000001172
B1437555559133N00911194EA0000001178
B1438005559090N00911098EA0000001177
B1438055559117N00910999EA0000001179
B1438105559172N00911012EA0000001179
B1438155559187N00911119EA0000001189
B1438205559143N00911211EA0000001196
B1438255559074N00911193EA0000001199
B1438315559052N00911059EA0000001193
B1438365559102N00910997EA0000001197
B1438415559155N00911038EA0000001202
B1438465559155N00911148EA0000001212
B1438515559086N00911173EA0000001216
B1438565559067N00911057EA0000001214
B1439015559122N00911034EA0000001226
B1439065559133N00911138EA0000001233
B1439115559066N00911181EA0000001241
B1439165559018N00911083EA0000001240
B1439215559050N00910984EA0000001246
B1439265559104N00911016EA0000001248
B1439315559096N00911130EA0000001255
B1439365559022N00911161EA0000001262
B1439415558970N00911070EA0000001267
B1439465558980N00910954EA0000001266
B1439515559035N00910929EA0000001269
B1439575559061N00911045EA0000001268
B1440025559004N00911121EA0000001276
B1440075558938N00911063EA0000001282
B1440125558934N00910943EA0000001282
B1440175558985N00910885EA0000001283
B1440225559032N00910943EA0000001284
B1440275559020N00911059EA0000001285
B1440325558974N00911160EA0000001291
B1440375558942N00911265EA0000001300
B1440425558938N00911375EA0000001292
B1440475558954N00911495EA0000001288
B1440545558916N00911677EA0000001283
B1441015558864N00911860EA0000001275
B1441085558805N00912053EA0000001253
B1441135558765N00912199EA0000001240
B1441195558728N00912375EA0000001234
B1441275558668N00912587EA0000001229
B1441395558578N00912908EA0000001220
B1441465558524N00913105EA0000001212
B1441545558460N00913335EA0000001203
B1441595558416N00913484EA0000001208
B1442065558363N00913666EA0000001216
B1442575557991N00915032EA0000001184
B1443035557957N00915193EA0000001179
B1443115557918N00915413EA0000001169
B1443165557946N00915528EA0000001161
B1443225558009N00915630EA0000001158
B1443275558020N00915757EA0000001158
B1443345557966N00915918EA0000001155
B1443405557879N00916003EA0000001148
B1443515557755N00916251EA0000001131
B1443565557717N00916385EA0000001127
B1444035557669N00916580EA0000001113
B1444105557624N00916781EA0000001103
B1444195557571N00917050EA0000001086
B1444275557523N00917298EA0000001075
B1444325557490N00917451EA0000001070
B1444395557446N00917666EA0000001056
B1444445557411N00917819EA0000001045
B1444495557379N00917973EA0000001045
B1445005557307N00918308EA0000001035
B1445055557276N00918466EA0000001027
B1445105557244N00918622EA0000001042
B1445155557215N00918757EA0000001052
B1445215557190N00918915EA0000001056
B1445285557153N00919083EA0000001063
B1445345557118N00919221EA0000001053
B1445425557071N00919430EA0000001032
B1445475557039N00919572EA0000001022
B1445585556968N00919900EA0000000995
B1446035556927N00920055EA0000000983
B1446105556845N00920251EA0000000965
B1446185556742N00920474EA0000000949
B1446275556640N00920741EA0000000931
B1446345556557N00920954EA0000000916
B1446405556485N00921136EA0000000900
B1446465556415N00921326EA0000000880
B1446575556296N00921677EA0000000858
B1447055556211N00921918EA0000000852
B1447105556149N00922062EA0000000845
B1447165556066N00922219EA0000000853
B1447265555954N00922476EA0000000884
B1447315555899N00922575EA0000000892
B1447385555815N00922488EA0000000905
B1447435555839N00922389EA0000000916
B1447485555896N00922391EA0000000919
B1447545555917N00922522EA0000000940
B1447595555867N00922609EA0000000955
B1448045555800N00922582EA0000000955
B1448095555782N00922470EA0000000959
B1448145555828N00922399EA0000000973
B1448195555880N00922449EA0000000986
B1448245555879N00922571EA0000001001
B1448295555820N00922653EA0000001016
B1448345555756N00922607EA0000001020
B1448395555752N00922492EA0000001020
B1448445555807N00922436EA0000001035
B1448495555856N00922500EA0000001051
B1448545555844N00922622EA0000001065
B1448595555780N00922686EA0000001081
B1449045555719N00922632EA0000001084
B1449095555712N00922518EA0000001086
B1449145555759N00922452EA0000001102
B1449195555811N00922496EA0000001114
B1449245555814N00922619EA0000001121
B1449305555744N00922705EA0000001139
B1449355555686N00922638EA0000001143
B1449405555691N00922524EA0000001151
B1449455555745N00922485EA0000001167
B1449505555785N00922556EA0000001175
B1449555555773N00922677EA0000001188
B1450005555710N00922736EA0000001200
B1450055555650N00922673EA0000001207
B1450105555654N00922560EA0000001212
B1450155555710N00922522EA0000001229
B1450205555757N00922587EA0000001236
B1450255555756N00922714EA0000001253
B1450305555702N00922801EA0000001267
B1450355555629N00922784EA0000001278
B1450405555596N00922679EA0000001280
B1450455555629N00922588EA0000001290
B1450505555687N00922603EA0000001303
B1450555555708N00922714EA0000001319
B1451005555668N00922822EA0000001328
B1451065555581N00922826EA0000001340
B1451115555538N00922733EA0000001346
B1451165555554N00922626EA0000001353
B1451215555610N00922585EA0000001358
B1451265555670N00922629EA0000001369
B1451315555689N00922743EA0000001383
B1451365555651N00922855EA0000001387
B1451415555579N00922874EA0000001396
B1451465555527N00922795EA0000001401
B1451515555530N00922678EA0000001403
B1451565555582N00922616EA0000001413
B1452015555641N00922652EA0000001424
B1452085555662N00922811EA0000001438
B1452135555621N00922923EA0000001439
B1452185555548N00922934EA0000001441
B1452235555505N00922843EA0000001448
B1452285555522N00922739EA0000001448
B1452335555582N00922717EA0000001456
B1452385555630N00922800EA0000001466
B1452435555630N00922930EA0000001460
B1452485555564N00923004EA0000001453
B1452535555498N00922943EA0000001453
B1452585555492N00922823EA0000001455
B1453035555537N00922736EA0000001457
B1453085555603N00922750EA0000001466
B1453135555640N00922854EA0000001469
B1453185555619N00922979EA0000001454
B1453235555544N00923009EA0000001450
B1453285555490N00922925EA0000001447
B1453335555496N00922807EA0000001451
B1453385555536N00922714EA0000001454
B1453435555602N00922736EA0000001459
B1453515555623N00922940EA0000001449
B1453565555563N00923031EA0000001440
B1454055555413N00923026EA0000001429
B1454115555310N00922995EA0000001428
B1454175555207N00922951EA0000001432
B1454295555064N00923061EA0000001424
B1454345555093N00923186EA0000001409
B1454395555090N00923333EA0000001411
B1454515554972N00923653EA0000001401
B1456275554045N00926405EA0000001326
B1456475554010N00926292EA0000001322
B1459095552681N00930528EA0000001130
B1459295552635N00930495EA0000001160
B1459345552675N00930568EA0000001169
B1459515552607N00930497EA0000001194
B1459565552651N00930554EA0000001203
B1500125552586N00930507EA0000001227
B1500325552552N00930470EA0000001250
B1500435552636N00930505EA0000001263
B1500545552540N00930370EA0000001274
B1500595552501N00930467EA0000001291
B1501055552545N00930542EA0000001301
B1501205552478N00930462EA0000001315
B1501265552517N00930546EA0000001321
B1501345552547N00930407EA0000001320
B1501445552437N00930462EA0000001341
B1501555552523N00930470EA0000001349
B1502105552397N00930461EA0000001363
B1502185552465N00930520EA0000001365
B1502245552447N00930391EA0000001369
B1502345552376N00930525EA0000001378
B1502415552449N00930521EA0000001387
B1502565552336N00930463EA0000001392
B1503075552432N00930485EA0000001405
B1503135552408N00930354EA0000001402
B1503225552323N00930452EA0000001409
B1503325552412N00930448EA0000001416
B1503465552279N00930353EA0000001406
B1503545552186N00930469EA0000001421
B1503595552118N00930426EA0000001432
B1504045552102N00930314EA0000001433
B1504095552147N00930254EA0000001434
B1504225552164N00930481EA0000001439
B1504275552094N00930507EA0000001449
B1504325552036N00930434EA0000001455
B1504375552032N00930316EA0000001453
B1504425552089N00930256EA0000001444
B1504475552155N00930294EA0000001447
B1504525552219N00930344EA0000001448
B1504595552306N00930428EA0000001439
B1505055552386N00930497EA0000001434
B1505125552477N00930577EA0000001426
B1505215552599N00930705EA0000001412
B1505265552666N00930771EA0000001406
B1505325552745N00930868EA0000001392
B1505485552960N00931168EA0000001363
B1505545553039N00931280EA0000001362
B1506135553307N00931468EA0000001338
B1506415553726N00931486EA0000001297
B1506495553858N00931486EA0000001276
B1506555553969N00931479EA0000001269
B1507075554146N00931479EA0000001303
B1507125554215N00931470EA0000001294
B1507215554344N00931471EA0000001286
B1507275554430N00931484EA0000001273
B1507325554502N00931501EA0000001267
B1507375554574N00931518EA0000001255
B1507455554687N00931588EA0000001236
B1507545554804N00931750EA0000001214
B1508035554926N00931927EA0000001196
B1508095555002N00932057EA0000001181
B1508205555150N00932286EA0000001159
B1508285555252N00932460EA0000001141
B1508365555357N00932634EA0000001137
B1508425555434N00932748EA0000001130
B1508515555552N00932932EA0000001106
B1508565555619N00933037EA0000001094
B1509025555702N00933157EA0000001078
B1509075555783N00933209EA0000001071
B1509135555882N00933198EA0000001066
B1509195555985N00933187EA0000001048
B1509275556131N00933176EA0000001031
B1509335556239N00933183EA0000001020
B1509395556344N00933203EA0000001001
B1509505556546N00933250EA0000000968
B1509565556648N00933328EA0000000951
B1510025556742N00933440EA0000000939
B1510075556820N00933525EA0000000933
B1510145556932N00933632EA0000000916
B1510195557008N00933714EA0000000923
B1510255557085N00933838EA0000000915
B1510305557152N00933949EA0000000905
B1510385557252N00934094EA0000000934
B1510435557305N00934168EA0000000943
B1510485557320N00934290EA0000000938
B1510535557277N00934412EA0000000927
B1510585557185N00934431EA0000000923
B1511035557135N00934322EA0000000942
B1511085557156N00934213EA0000000941
B1511145557227N00934214EA0000000937
B1511215557253N00934382EA0000000933
B1511265557191N00934470EA0000000935
B1511315557121N00934421EA0000000947
B1511365557110N00934307EA0000000949
B1511425557172N00934266EA0000000949
B1511475557210N00934357EA0000000943
B1511525557184N00934480EA0000000940
B1511575557108N00934517EA0000000939
B1512025557053N00934425EA0000000946
B1512075557068N00934315EA0000000948
B1512145557150N00934314EA0000000941
B1512195557168N00934428EA0000000938
B1512245557120N00934528EA0000000937
B1512295557044N00934518EA0000000936
B1512355557004N00934377EA0000000941
B1512415557031N00934252EA0000000940
B1512465557093N00934245EA0000000936
B1512515557132N00934338EA0000000934
B1512565557105N00934455EA0000000926
B1513015557028N00934479EA0000000926
B1513065556977N00934385EA0000000923
B1513115556992N00934270EA0000000917
B1513215557058N00934055EA0000000907
B1513265557058N00933913EA0000000906
B1513315557055N00933777EA0000000923
B1513365557069N00933662EA0000000927
B1513425557138N00933623EA0000000916
B1513475557173N00933722EA0000000913
B1513525557124N00933830EA0000000916
B1513575557048N00933804EA0000000917
B1514025557027N00933684EA0000000918
B1514075557065N00933588EA0000000910
B1514125557131N00933595EA0000000895
B1514185557158N00933745EA0000000883
B1514235557084N00933807EA0000000890
B1514315556987N00933642EA0000000898
B1514385556933N00933487EA0000000888
B1514455556887N00933313EA0000000872
B1514505556852N00933182EA0000000857
B1514565556800N00933024EA0000000840
B1515015556756N00932885EA0000000828
B1515085556678N00932705EA0000000821
B1515175556561N00932493EA0000000804
B1515235556481N00932356EA0000000793
B1515285556412N00932246EA0000000784
B1515415556237N00931949EA0000000757
B1515505556118N00931726EA0000000730
B1515585556013N00931505EA0000000714
B1516045555935N00931341EA0000000705
B1516105555874N00931163EA0000000694
B1516155555832N00931007EA0000000685
B1516205555775N00930868EA0000000685
B1516255555711N00930745EA0000000675
B1516315555628N00930599EA0000000660
B1516365555550N00930491EA0000000654
B1516425555455N00930367EA0000000646
B1516475555376N00930261EA0000000639
B1516535555281N00930156EA0000000634
B1516595555189N00930052EA0000000617
B1517055555100N00929942EA0000000610
B1517125555006N00929804EA0000000595
B1517185554926N00929677EA0000000591
B1517285554784N00929475EA0000000587
B1517345554697N00929364EA0000000590
B1517415554603N00929241EA0000000590
B1517465554534N00929151EA0000000583
B1517525554451N00929038EA0000000575
B1517575554383N00928944EA0000000572
B1518035554301N00928828EA0000000557
B1518085554235N00928739EA0000000555
B1518165554128N00928588EA0000000530
B1518215554055N00928493EA0000000529
B1518295553946N00928344EA0000000529
B1518345553888N00928242EA0000000524
B1518405553811N00928114EA0000000524
B1518465553736N00927986EA0000000530
B1519035553571N00927970EA0000000547
B1519135553673N00927934EA0000000556
B1519195553646N00927792EA0000000562
B1519345553516N00927905EA0000000571
B1519425553596N00927899EA0000000577
B1519595553464N00927781EA0000000587
B1520055553500N00927880EA0000000587
B1520125553559N00927786EA0000000590
B1520405553495N00927780EA0000000602
B1520455553493N00927666EA0000000605
B1520525553463N00927493EA0000000605
B1520575553448N00927367EA0000000608
B1521025553491N00927295EA0000000620
B1521075553541N00927340EA0000000619
B1521155553516N00927510EA0000000637
B1521205553443N00927506EA0000000636
B1521255553408N00927394EA0000000641
B1521305553439N00927295EA0000000647
B1521355553496N00927303EA0000000658
B1521465553470N00927503EA0000000676
B1521515553398N00927485EA0000000680
B1521575553373N00927353EA0000000689
B1522025553417N00927289EA0000000691
B1522085553459N00927373EA0000000695
B1522145553415N00927477EA0000000702
B1522195553350N00927433EA0000000705
B1522245553356N00927323EA0000000708
B1522375553403N00927463EA0000000719
B1522425553333N00927474EA0000000719
B1522475553292N00927379EA0000000731
B1522525553316N00927277EA0000000738
B1522595553384N00927312EA0000000747
B1523065553350N00927440EA0000000752
B1523115553281N00927428EA0000000751
B1523165553270N00927313EA0000000761
B1523225553332N00927290EA0000000769
B1523295553329N00927424EA0000000780
B1523345553265N00927464EA0000000777
B1523395553206N00927395EA0000000784
B1523445553208N00927284EA0000000794
B1523495553261N00927253EA0000000801
B1523545553295N00927331EA0000000811
B1523595553266N00927427EA0000000815
B1524045553195N00927432EA0000000811
B1524095553160N00927330EA0000000822
B1524145553195N00927246EA0000000832
B1524205553254N00927290EA0000000845
B1524265553236N00927408EA0000000854
B1524315553169N00927436EA0000000852
B1524365553118N00927357EA0000000857
B1524415553129N00927255EA0000000869
B1524465553181N00927228EA0000000880
B1524515553219N00927295EA0000000889
B1524565553195N00927396EA0000000893
B1525015553129N00927426EA0000000893
B1525065553071N00927360EA0000000899
B1525115553071N00927258EA0000000909
B1525165553121N00927216EA0000000919
B1525235553181N00927300EA0000000933
B1525305553151N00927442EA0000000939
B1525355553082N00927468EA0000000942
B1525405553028N00927397EA0000000945
B1525455553032N00927290EA0000000953
B1525505553080N00927232EA0000000965
B1525565553136N00927281EA0000000976
B1526015553139N00927388EA0000000974
B1526065553082N00927464EA0000000978
B1526115553012N00927429EA0000000975
B1526165552990N00927317EA0000000979
B1526215553036N00927250EA0000000991
B1526265553085N00927298EA0000001003
B1526325553076N00927425EA0000001005
B1526375553013N00927479EA0000001006
B1526425552949N00927426EA0000001002
B1526475552938N00927313EA0000001009
B1526525552980N00927238EA0000001031
B1526575553030N00927271EA0000001039
B1527025553030N00927378EA0000001041
B1527075552964N00927417EA0000001030
B1527125552938N00927303EA0000001031
B1527175552989N00927230EA0000001041
B1527225553040N00927278EA0000001053
B1527275553034N00927385EA0000001057
B1527325552970N00927425EA0000001059
B1527375552913N00927351EA0000001056
B1527425552914N00927234EA0000001057
B1527475552963N00927166EA0000001065
B1527525553016N00927201EA0000001071
B1527575553017N00927309EA0000001078
B1528025552961N00927378EA0000001078
B1528075552893N00927345EA0000001078
B1528135552865N00927207EA0000001082
B1528185552903N00927127EA0000001095
B1528235552958N00927136EA0000001105
B1528315552983N00927296EA0000001113
B1528365552932N00927378EA0000001119
B1528415552864N00927357EA0000001119
B1528465552832N00927247EA0000001121
B1528515552861N00927154EA0000001128
B1528565552916N00927155EA0000001130
B1529035552940N00927291EA0000001134
B1529085552893N00927377EA0000001139
B1529135552826N00927361EA0000001136
B1529195552803N00927226EA0000001140
B1529245552845N00927152EA0000001145
B1529365552900N00927326EA0000001159
B1529415552841N00927383EA0000001156
B1529465552776N00927337EA0000001159
B1529515552760N00927229EA0000001163
B1529565552804N00927159EA0000001164
B1530025552860N00927220EA0000001172
B1530095552835N00927359EA0000001178
B1530145552769N00927379EA0000001177
B1530205552713N00927279EA0000001179
B1530255552721N00927167EA0000001184
B1530305552773N00927121EA0000001185
B1530395552883N00927127EA0000001189
B1530445552927N00927055EA0000001189
B1530495552929N00926931EA0000001185
B1530545552924N00926807EA0000001184
B1531025552924N00926610EA0000001176
B1531075552922N00926486EA0000001170
B1531155552922N00926290EA0000001159
B1531225552935N00926117EA0000001153
B1531275552942N00925993EA0000001151
B1531335552950N00925836EA0000001141
B1531385552961N00925701EA0000001141
B1531485552992N00925445EA0000001147
B1531545552996N00925287EA0000001136
B1531595553005N00925146EA0000001126
B1532055553025N00924988EA0000001124
B1532105553039N00924851EA0000001114
B1532155553055N00924724EA0000001111
B1532205553078N00924602EA0000001098
B1532265553113N00924451EA0000001080
B1532325553157N00924301EA0000001070
B1532395553213N00924119EA0000001058
B1532455553248N00923953EA0000001052
B1532515553290N00923795EA0000001038
B1532565553336N00923672EA0000001029
B1533045553446N00923559EA0000001022
B1533095553519N00923551EA0000001021
B1533155553607N00923573EA0000001011
B1533205553681N00923582EA0000001012
B1533255553750N00923591EA0000001024
B1533315553820N00923616EA0000001033
B1533395553913N00923656EA0000001029
B1533445553977N00923674EA0000001021
B1533505554053N00923696EA0000001014
B1533575554149N00923704EA0000001000
B1534025554216N00923718EA0000000999
B1534075554282N00923734EA0000000991
B1534135554362N00923751EA0000000987
B1534245554503N00923750EA0000000978
B1534325554606N00923767EA0000000980
B1534395554693N00923800EA0000000977
B1534465554771N00923838EA0000000999
B1534545554853N00923871EA0000001003
B1534595554887N00923793EA0000000993
B1535045554841N00923705EA0000000988
B1535105554781N00923783EA0000000978
B1535165554826N00923851EA0000000981
B1535225554890N00923853EA0000000968
B1535295554969N00923870EA0000000951
B1535355555049N00923897EA0000000928
B1535405555125N00923912EA0000000918
B1535455555195N00923941EA0000000915
B1535505555267N00923976EA0000000900
B1535575555379N00924023EA0000000874
B1536025555455N00924090EA0000000875
B1536085555507N00924237EA0000000874
B1536145555530N00924402EA0000000868
B1536215555541N00924605EA0000000862
B1536265555548N00924742EA0000000868
B1536315555556N00924868EA0000000863
B1536385555555N00925055EA0000000851
B1536465555546N00925276EA0000000834
B1536545555538N00925500EA0000000818
B1537005555532N00925672EA0000000808
B1537075555526N00925876EA0000000797
B1537125555525N00926022EA0000000807
B1537185555520N00926185EA0000000807
B1537245555519N00926349EA0000000784
B1537305555536N00926541EA0000000735
B1537355555572N00926681EA0000000746
B1537425555616N00926843EA0000000743
B1537495555649N00927022EA0000000720
B1537555555662N00927187EA0000000720
B1538025555700N00927368EA0000000685
B1538095555769N00927519EA0000000689
B1538145555810N00927621EA0000000686
B1538205555859N00927741EA0000000675
B1538265555897N00927892EA0000000645
B1538325555917N00928062EA0000000648
B1538385555922N00928224EA0000000641
B1538435555878N00928342EA0000000637
B1538485555803N00928398EA0000000631
B1538535555722N00928375EA0000000627
B1538585555664N00928286EA0000000620
B1539035555634N00928165EA0000000611
B1539095555637N00928013EA0000000605
B1539155555645N00927860EA0000000597
B1539215555650N00927706EA0000000593
B1539265555654N00927582EA0000000590
B1539335555660N00927408EA0000000591
B1539395555667N00927262EA0000000581
B1539475555655N00927026EA0000000572
B1539535555641N00926853EA0000000565
B1540015555651N00926619EA0000000529
B1540075555663N00926458EA0000000529
B1540175555662N00926200EA0000000504
B1540225555646N00926064EA0000000484
B1540275555625N00925932EA0000000480
B1540335555606N00925777EA0000000474
B1540395555589N00925615EA0000000464
B1540445555577N00925475EA0000000434
B1540495555582N00925306EA0000000395
B1540565555586N00925081EA0000000431
B1541015555535N00924972EA0000000437
B1541075555440N00924947EA0000000428
B1541155555307N00924941EA0000000418
B1541205555225N00924930EA0000000409
B1541255555147N00924931EA0000000414
B1541325555035N00924938EA0000000399
B1541405554906N00924970EA0000000390
B1541455554824N00924986EA0000000385
B1541515554723N00925000EA0000000387
B1541565554640N00925016EA0000000385
B1542015554557N00925021EA0000000388
B1542075554462N00925024EA0000000387
B1542125554392N00925078EA0000000379
B1542175554352N00925185EA0000000372
B1542225554328N00925301EA0000000362
B1542305554294N00925487EA0000000356
B1542395554258N00925694EA0000000349
B1542455554240N00925837EA0000000346
B1542505554221N00925952EA0000000343
B1542575554193N00926119EA0000000345
B1543025554173N00926241EA0000000342
B1543075554151N00926365EA0000000335
B1543165554110N00926584EA0000000324
B1543225554094N00926729EA0000000313
B1543275554083N00926850EA0000000304
B1543365554067N00927069EA0000000288
B1543465554035N00927302EA0000000286
B1543525554013N00927439EA0000000284
B1543585553994N00927582EA0000000278
B1544035553998N00927700EA0000000272
B1544105554039N00927849EA0000000260
B1544165554073N00927976EA0000000259
B1544245554160N00928051EA0000000253
B1544325554256N00928106EA0000000249
B1544375554316N00928059EA0000000247
B1544435554363N00927921EA0000000235
B1544515554397N00927694EA0000000171
B1544565554416N00927537EA0000000124
B1545035554443N00927317EA0000000092
B1545105554460N00927147EA0000000087
B1545165554467N00927072EA0000000088
