AOGNOGN
HFDTE170825
HFFXA050
HFPLTPILOTINCHARGE:
HFGTYGLIDERTYPE:ASK-13
HFGIDGLIDERID:D-1355
HFDTM100GPSDATUM:WGS-1984
HFRFWFIRMWAREVERSION:
HFRHWHARDWAREVERSION:
HFFTYFRTYPE:OGN-FLIGHTBOOK
HFGPSGENERIC
HFPRSPRESSALTSENSOR:
HFCIDCOMPETITIONID:D-1
B1408195554410N00927313EA0000000091
B1408215554416N00927275EA0000000095
B1408265554430N00927148EA0000000152
B1408315554441N00927027EA0000000237
B1408365554452N00926912EA0000000300
B1408415554469N00926794EA0000000345
B1409075554515N00926209EA0000000366
B1409145554449N00926102EA0000000367
B1409345554373N00925687EA0000000336
B1409405554300N00925637EA0000000328
B1409455554242N00925709EA0000000318
B1410015554170N00926055EA0000000293
B1410075554153N00926198EA0000000280
B1410145554144N00926364EA0000000291
B1410225554126N00926532EA0000000289
B1410355554118N00926832EA0000000259
B1410435554103N00927039EA0000000250
B1410485554092N00927169EA0000000249
B1410535554085N00927305EA0000000248
B1410595554083N00927442EA0000000252
B1411055554055N00927570EA0000000241
B1411105554039N00927680EA0000000239
B1411175554076N00927815EA0000000234
B1411225554117N00927895EA0000000224
B1411285554170N00927973EA0000000214
B1411335554221N00927995EA0000000209
B1411405554299N00928021EA0000000190
B1411455554363N00928020EA0000000181
B1411505554394N00927913EA0000000167
B1411555554397N00927763EA0000000153
B1412025554414N00927580EA0000000132
B1412085554433N00927440EA0000000107
B1412145554443N00927302EA0000000089
B1412195554454N00927213EA0000000086
