AOGNOGN
HFDTE170825
HFFXA050
HFPLTPILOTINCHARGE:
HFGTYGLIDERTYPE:ASK-13
HFGIDGLIDERID:D-1355
HFDTM100GPSDATUM:WGS-1984
HFRFWFIRMWAREVERSION:
HFRHWHARDWAREVERSION:
HFFTYFRTYPE:OGN-FLIGHTBOOK
HFGPSGENERIC
HFPRSPRESSALTSENSOR:
HFCIDCOMPETITIONID:D-1
B1533285554420N00927230EA0000000108
B1533335554433N00927113EA0000000175
B1533385554446N00926999EA0000000235
B1533445554470N00926861EA0000000310
B1533495554498N00926742EA0000000361
B1534165554557N00926040EA0000000375
B1534225554517N00925911EA0000000363
B1534325554409N00925744EA0000000348
B1534385554328N00925689EA0000000328
B1534435554251N00925674EA0000000319
B1534585554096N00925933EA0000000289
B1535065554060N00926118EA0000000288
B1535115554054N00926237EA0000000287
B1535225554028N00926506EA0000000284
B1535345553985N00926825EA0000000270
B1535395553967N00926964EA0000000261
B1535455553947N00927128EA0000000265
B1535505553945N00927259EA0000000264
B1535555553950N00927388EA0000000252
B1536055553974N00927654EA0000000230
B1536115554004N00927802EA0000000223
B1536165554046N00927895EA0000000212
B1536225554105N00927993EA0000000204
B1536295554190N00928086EA0000000196
B1536355554266N00928159EA0000000197
B1536405554326N00928140EA0000000197
B1536465554349N00927988EA0000000181
B1536535554370N00927812EA0000000151
B1537025554392N00927606EA0000000116
B1537075554404N00927491EA0000000102
B1537145554423N00927336EA0000000084
B1537205554431N00927237EA0000000082
