AOGNOGN
HFDTE170825
HFFXA050
HFPLTPILOTINCHARGE:
HFGTYGLIDERTYPE:ASK-13
HFGIDGLIDERID:D-1355
HFDTM100GPSDATUM:WGS-1984
HFRFWFIRMWAREVERSION:
HFRHWHARDWAREVERSION:
HFFTYFRTYPE:OGN-FLIGHTBOOK
HFGPSGENERIC
HFPRSPRESSALTSENSOR:
HFCIDCOMPETITIONID:D-1
B1204385554428N00927258EA0000000092
B1204435554439N00927127EA0000000165
B1204495554450N00926985EA0000000244
B1204545554468N00926863EA0000000312
B1204595554482N00926732EA0000000369
B1205365554531N00925928EA0000000419
B1205415554568N00925875EA0000000401
B1205475554624N00925935EA0000000385
B1205525554668N00925984EA0000000373
B1205575554718N00926019EA0000000361
B1206025554770N00926037EA0000000360
B1206075554825N00926021EA0000000353
B1206125554884N00925999EA0000000345
B1206185554953N00926020EA0000000349
B1206255555026N00926060EA0000000349
B1206335555110N00926092EA0000000359
B1206385555120N00926007EA0000000364
B1206465555053N00926056EA0000000374
B1206535555101N00926114EA0000000382
B1206585555112N00926028EA0000000385
B1207055555045N00926027EA0000000394
B1207135555088N00926114EA0000000410
B1207185555106N00926035EA0000000408
B1207295555014N00926069EA0000000415
B1207345555051N00926127EA0000000425
B1207395555076N00926051EA0000000433
B1207485554999N00926053EA0000000443
B1207585555067N00926119EA0000000457
B1208035555055N00926021EA0000000463
B1208105554987N00926062EA0000000467
B1208195555050N00926121EA0000000475
B1208245555034N00926030EA0000000482
B1208305554980N00926083EA0000000484
B1208405555050N00926105EA0000000490
B1208455555035N00926004EA0000000498
B1208525554969N00926040EA0000000502
B1209015555034N00926089EA0000000512
B1209065555026N00925991EA0000000517
B1209145554946N00926037EA0000000524
B1209205554975N00926130EA0000000531
B1209255555012N00926076EA0000000538
B1209305554984N00925988EA0000000543
B1209385554920N00926066EA0000000552
B1209495554999N00926064EA0000000564
B1209545554965N00925977EA0000000570
B1210025554898N00926066EA0000000578
B1210115554973N00926108EA0000000585
B1210165554963N00926012EA0000000595
B1210245554884N00926057EA0000000603
B1210295554905N00926151EA0000000601
B1210395554979N00926049EA0000000610
B1210445554956N00925951EA0000000619
B1210515554905N00926040EA0000000622
B1210565554950N00926080EA0000000631
B1211015554965N00925990EA0000000645
B1211095554893N00926018EA0000000647
B1211175554953N00926051EA0000000666
B1211225554931N00925962EA0000000670
B1211305554855N00926050EA0000000680
B1211355554893N00926115EA0000000680
B1211405554928N00926050EA0000000693
B1211455554890N00925982EA0000000702
B1211505554850N00926054EA0000000710
B1211575554906N00926067EA0000000723
B1212025554883N00925980EA0000000734
B1212085554825N00926040EA0000000746
B1212145554870N00926101EA0000000748
B1212195554884N00926010EA0000000762
B1212275554811N00926052EA0000000776
B1212355554879N00926085EA0000000787
B1212405554866N00925993EA0000000802
B1212485554799N00926063EA0000000813
B1212565554867N00926069EA0000000827
B1213015554840N00925984EA0000000839
B1213085554782N00926068EA0000000846
B1213155554841N00926076EA0000000856
B1213205554816N00925981EA0000000869
B1213275554753N00926057EA0000000876
B1213365554828N00926075EA0000000884
B1213415554799N00925980EA0000000897
B1213515554736N00926111EA0000000900
B1214015554812N00926040EA0000000909
B1214065554785N00925934EA0000000921
B1214135554720N00925998EA0000000923
B1214235554799N00926009EA0000000930
B1214285554765N00925919EA0000000943
B1214365554705N00926022EA0000000944
B1214465554792N00926027EA0000000956
B1214515554774N00925929EA0000000961
B1215005554686N00925991EA0000000970
B1215115554764N00925982EA0000000981
B1215165554725N00925899EA0000000986
B1215235554669N00926002EA0000000989
B1215335554756N00926012EA0000001005
B1215385554737N00925901EA0000001010
B1215475554650N00925965EA0000001022
B1215575554728N00925975EA0000001041
B1216025554691N00925899EA0000001040
B1216075554645N00925966EA0000001044
B1216125554681N00926036EA0000001055
B1216185554721N00925972EA0000001060
B1216295554632N00925973EA0000001067
B1216405554702N00925979EA0000001079
B1216455554661N00925905EA0000001079
B1216515554608N00925989EA0000001080
B1217025554681N00925976EA0000001093
B1217145554599N00926020EA0000001095
B1217245554663N00925926EA0000001105
B1217335554583N00925958EA0000001114
B1217445554649N00925929EA0000001122
B1217495554606N00925861EA0000001134
B1217565554546N00925939EA0000001139
B1218055554609N00925927EA0000001142
B1218165554521N00925942EA0000001157
B1218255554585N00925922EA0000001156
B1218315554540N00925825EA0000001168
B1218365554492N00925883EA0000001173
B1218425554524N00925975EA0000001180
B1218495554565N00925883EA0000001183
B1218545554516N00925820EA0000001191
B1219015554464N00925923EA0000001202
B1219085554514N00925989EA0000001200
B1219135554536N00925889EA0000001197
B1219205554466N00925904EA0000001206
B1219315554536N00925885EA0000001210
B1219375554482N00925804EA0000001224
B1219455554416N00925902EA0000001216
B1219565554481N00925832EA0000001230
B1220015554429N00925784EA0000001236
B1220105554363N00925914EA0000001239
B1220185554417N00925886EA0000001231
B1220235554367N00925826EA0000001242
B1220335554311N00925996EA0000001244
B1220405554372N00925981EA0000001221
B1220495554275N00925978EA0000001233
B1220585554263N00926166EA0000001227
B1221105554366N00926090EA0000001224
B1221155554318N00926021EA0000001227
B1221205554267N00926084EA0000001231
B1221255554283N00926182EA0000001231
B1221355554339N00926056EA0000001226
B1221405554281N00926031EA0000001228
B1221465554248N00926146EA0000001233
B1221515554290N00926204EA0000001234
B1221575554323N00926105EA0000001221
B1222025554268N00926050EA0000001225
B1222105554231N00926198EA0000001222
B1222225554304N00926081EA0000001217
B1222345554207N00926184EA0000001209
B1222395554258N00926239EA0000001206
B1222495554282N00926072EA0000001203
B1222555554211N00926072EA0000001205
B1223005554186N00926172EA0000001191
B1223065554230N00926276EA0000001190
B1223115554267N00926348EA0000001188
B1223195554334N00926458EA0000001170
B1223275554420N00926530EA0000001153
B1223335554476N00926608EA0000001150
B1223385554508N00926693EA0000001155
B1223445554553N00926794EA0000001157
B1223575554618N00927008EA0000001172
B1224075554536N00926895EA0000001173
B1224135554592N00926856EA0000001169
B1224205554635N00926985EA0000001170
B1224265554667N00927095EA0000001180
B1224315554694N00927183EA0000001182
B1224385554740N00927301EA0000001181
B1224465554795N00927427EA0000001186
B1224595554797N00927722EA0000001175
B1225065554856N00927794EA0000001156
B1225245555057N00927691EA0000001140
B1225295555101N00927644EA0000001139
B1225385555173N00927537EA0000001143
B1225435555208N00927466EA0000001138
B1225485555241N00927385EA0000001132
B1225565555329N00927351EA0000001123
B1226015555383N00927397EA0000001127
B1226065555418N00927486EA0000001127
B1226115555399N00927596EA0000001130
B1226165555332N00927616EA0000001127
B1226235555277N00927490EA0000001125
B1226325555349N00927390EA0000001122
B1226385555399N00927481EA0000001114
B1226435555441N00927582EA0000001102
B1226485555481N00927683EA0000001091
B1226545555537N00927805EA0000001072
B1226595555583N00927910EA0000001067
B1227045555631N00928005EA0000001062
B1227095555683N00928096EA0000001054
B1227155555740N00928194EA0000001061
B1227235555789N00928357EA0000001041
B1227295555847N00928445EA0000001033
B1227345555904N00928415EA0000001027
B1227395555929N00928311EA0000001021
B1227465555885N00928151EA0000001011
B1227525555797N00928095EA0000001006
B1227585555709N00928066EA0000000998
B1228065555590N00928033EA0000000996
B1228115555522N00928027EA0000000995
B1228165555458N00928038EA0000000986
B1228215555396N00928057EA0000000978
B1228275555322N00928043EA0000000965
B1228355555220N00928019EA0000000942
B1228405555155N00927997EA0000000936
B1228455555085N00927977EA0000000924
B1228525554979N00927962EA0000000906
B1228595554866N00927933EA0000000899
B1229105554701N00927842EA0000000896
B1229165554613N00927792EA0000000889
B1229235554517N00927703EA0000000885
B1229285554451N00927638EA0000000884
B1229335554384N00927591EA0000000883
B1229395554307N00927543EA0000000879
B1229465554226N00927449EA0000000869
B1229545554135N00927363EA0000000858
B1230025554028N00927380EA0000000839
B1230075553960N00927383EA0000000834
B1230295553922N00926992EA0000000842
B1230405553914N00927176EA0000000828
B1230455553847N00927181EA0000000826
B1230545553730N00927181EA0000000827
B1231015553690N00927286EA0000000812
B1231465554176N00927049EA0000000774
B1232195554534N00926607EA0000000781
B1232245554583N00926581EA0000000787
B1232435554473N00926465EA0000000806
B1232485554517N00926411EA0000000806
B1232555554526N00926515EA0000000814
B1233005554465N00926515EA0000000816
B1233055554446N00926411EA0000000823
B1233105554491N00926382EA0000000819
B1233175554479N00926493EA0000000819
B1233245554385N00926461EA0000000825
B1233315554333N00926343EA0000000824
B1233365554372N00926274EA0000000816
B1233415554422N00926312EA0000000809
B1233555554385N00926580EA0000000818
B1234035554317N00926484EA0000000827
B1234165554329N00926599EA0000000829
B1234225554256N00926577EA0000000832
B1234285554277N00926474EA0000000834
B1234375554296N00926596EA0000000847
B1234455554224N00926520EA0000000846
B1234505554252N00926442EA0000000846
B1234555554295N00926484EA0000000847
B1235045554291N00926657EA0000000861
B1235155554235N00926529EA0000000869
B1235255554256N00926644EA0000000876
B1235335554184N00926553EA0000000872
B1235385554221N00926484EA0000000875
B1235455554242N00926587EA0000000885
B1235555554160N00926494EA0000000886
B1236105554194N00926593EA0000000891
B1236165554139N00926505EA0000000888
B1236215554177N00926428EA0000000886
B1236315554181N00926583EA0000000888
B1236385554106N00926497EA0000000886
B1236445554147N00926402EA0000000884
B1236515554165N00926513EA0000000884
B1236585554101N00926434EA0000000875
B1237155554085N00926433EA0000000864
B1237285554118N00926459EA0000000853
B1237365554071N00926348EA0000000848
B1237415554126N00926319EA0000000836
B1237495554208N00926274EA0000000838
B1238005554323N00926186EA0000000827
B1238055554384N00926176EA0000000817
B1238135554477N00926164EA0000000824
B1238225554571N00926168EA0000000838
B1238275554626N00926175EA0000000849
B1238335554692N00926146EA0000000860
B1238385554671N00926061EA0000000869
B1238445554623N00926130EA0000000881
B1238535554697N00926153EA0000000895
B1238585554676N00926070EA0000000900
B1239115554679N00926178EA0000000926
B1239165554666N00926093EA0000000937
B1239225554620N00926163EA0000000949
B1239315554692N00926152EA0000000967
B1239365554658N00926091EA0000000968
B1239415554625N00926167EA0000000976
B1239495554694N00926199EA0000000990
B1239545554670N00926123EA0000000992
B1240005554628N00926202EA0000000993
B1240055554643N00926305EA0000001001
B1240115554707N00926318EA0000001009
B1240165554690N00926234EA0000001009
B1240215554648N00926294EA0000001000
B1240345554737N00926324EA0000001004
B1240415554675N00926261EA0000000998
B1240545554591N00926478EA0000001016
B1240595554638N00926443EA0000001023
B1241055554582N00926380EA0000001031
B1241115554527N00926469EA0000001042
B1241195554593N00926493EA0000001052
B1241245554571N00926406EA0000001059
B1241325554500N00926498EA0000001074
B1241375554538N00926564EA0000001078
B1241475554559N00926423EA0000001101
B1241565554483N00926515EA0000001108
B1242085554557N00926479EA0000001123
B1242145554494N00926436EA0000001137
B1242205554469N00926545EA0000001140
B1242255554518N00926575EA0000001145
B1242325554510N00926456EA0000001159
B1242415554464N00926587EA0000001168
B1242515554509N00926489EA0000001185
B1242595554436N00926559EA0000001192
B1243135554467N00926497EA0000001212
B1243185554418N00926560EA0000001214
B1243255554469N00926647EA0000001221
B1243335554464N00926513EA0000001232
B1243405554397N00926580EA0000001239
B1243555554434N00926522EA0000001254
B1244015554384N00926605EA0000001256
B1244175554413N00926521EA0000001272
B1244275554356N00926658EA0000001277
B1244395554332N00926561EA0000001281
B1244455554313N00926686EA0000001286
B1245055554272N00926646EA0000001304
B1245115554323N00926719EA0000001310
B1245225554279N00926582EA0000001314
B1245275554242N00926674EA0000001315
B1245425554283N00926588EA0000001316
B1245505554220N00926704EA0000001319
B1245555554264N00926768EA0000001311
B1246105554200N00926670EA0000001316
B1246155554203N00926775EA0000001307
B1246255554311N00926737EA0000001303
B1246335554375N00926645EA0000001311
B1246455554465N00926491EA0000001289
B1246515554507N00926384EA0000001275
B1246595554565N00926245EA0000001259
B1247055554594N00926111EA0000001252
B1247165554669N00925893EA0000001234
B1247355554784N00925521EA0000001236
B1247445554847N00925380EA0000001218
B1247495554899N00925358EA0000001210
B1248125554877N00925772EA0000001220
B1248235554804N00925943EA0000001229
B1248305554737N00925850EA0000001226
B1248355554770N00925773EA0000001219
B1248405554809N00925825EA0000001217
B1248495554834N00925994EA0000001229
B1248555554805N00926099EA0000001226
B1249025554724N00926028EA0000001235
B1249095554769N00925923EA0000001231
B1249185554793N00926070EA0000001228
B1249235554724N00926093EA0000001227
B1249315554674N00925924EA0000001241
B1249475554690N00926027EA0000001238
B1250005554673N00925820EA0000001243
B1250115554641N00926008EA0000001242
B1250305554575N00926026EA0000001245
B1250415554485N00925811EA0000001247
B1250485554558N00925750EA0000001252
B1251015554518N00925974EA0000001259
B1251065554446N00925906EA0000001263
B1251115554438N00925779EA0000001258
B1251255554485N00925928EA0000001262
B1251315554391N00925894EA0000001260
B1251375554390N00925748EA0000001251
B1251505554409N00925902EA0000001261
B1251555554335N00925877EA0000001252
B1252005554329N00925754EA0000001236
B1252125554346N00925879EA0000001237
B1252245554260N00925687EA0000001218
B1252305554322N00925653EA0000001198
B1252365554384N00925733EA0000001192
B1252435554471N00925819EA0000001194
B1252525554551N00925923EA0000001232
B1252595554623N00925981EA0000001239
B1253045554681N00926019EA0000001246
B1253095554743N00926048EA0000001267
B1253185554732N00926200EA0000001277
B1253355554689N00925948EA0000001314
B1253435554687N00926072EA0000001324
B1254015554705N00925944EA0000001357
B1254085554656N00926068EA0000001360
B1254195554621N00925880EA0000001374
B1254385554558N00925873EA0000001403
B1254525554579N00925993EA0000001427
B1254575554516N00925961EA0000001447
B1255195554530N00925965EA0000001461
B1255245554465N00925929EA0000001476
B1255325554453N00925751EA0000001491
B1255495554491N00925884EA0000001498
B1255595554426N00925718EA0000001514
B1256075554474N00925529EA0000001502
B1256125554506N00925411EA0000001493
B1256195554547N00925243EA0000001489
B1256265554593N00925092EA0000001490
B1256385554670N00924841EA0000001483
B1256445554702N00924705EA0000001476
B1256545554757N00924476EA0000001478
B1257125554862N00924053EA0000001476
B1257185554889N00923897EA0000001469
B1257235554912N00923779EA0000001470
B1257315554946N00923601EA0000001472
B1257585555074N00923060EA0000001459
B1258095555142N00922852EA0000001439
B1258205555201N00922590EA0000001430
B1258345555247N00922229EA0000001421
B1258425555274N00922035EA0000001423
B1259035555526N00921871EA0000001420
B1259105555601N00921827EA0000001431
B1259155555652N00921786EA0000001449
B1259265555692N00921882EA0000001450
B1259315555623N00921932EA0000001467
B1259385555560N00921832EA0000001475
B1259505555593N00921905EA0000001501
B1259555555528N00921873EA0000001506
B1300035555554N00921722EA0000001516
B1300115555577N00921819EA0000001530
B1300175555494N00921802EA0000001545
B1300255555508N00921644EA0000001556
B1300355555532N00921775EA0000001569
B1300405555463N00921798EA0000001576
B1300485555410N00921630EA0000001584
B1300535555449N00921557EA0000001594
B1301025555479N00921675EA0000001597
B1301075555418N00921722EA0000001607
B1301125555353N00921667EA0000001607
B1301235555389N00921451EA0000001608
B1301345555408N00921643EA0000001606
B1301395555324N00921634EA0000001609
B1301465555282N00921443EA0000001611
B1301515555342N00921367EA0000001606
B1302025555342N00921575EA0000001594
B1302075555258N00921525EA0000001607
B1302195555264N00921264EA0000001612
B1302425555174N00921627EA0000001615
B1302475555183N00921723EA0000001609
B1302545555242N00921798EA0000001605
B1303015555326N00921827EA0000001614
B1303065555386N00921868EA0000001619
B1303125555458N00921908EA0000001627
B1303175555515N00921937EA0000001627
B1303225555575N00921969EA0000001606
B1303305555691N00922021EA0000001593
B1303405555840N00922063EA0000001590
B1303455555908N00922074EA0000001596
B1303555556034N00922065EA0000001594
B1304075556186N00922047EA0000001580
B1304145556281N00922045EA0000001574
B1304205556366N00922020EA0000001567
B1304275556465N00922000EA0000001557
B1304335556548N00921977EA0000001548
B1304395556631N00921961EA0000001541
B1304495556761N00921925EA0000001533
B1304565556849N00921895EA0000001530
B1305055556959N00921804EA0000001523
B1305115557026N00921770EA0000001530
B1305165557077N00921795EA0000001530
B1305245557163N00921816EA0000001521
B1305305557232N00921830EA0000001514
B1305365557305N00921832EA0000001510
B1305425557375N00921840EA0000001508
B1305475557435N00921848EA0000001501
B1305555557534N00921842EA0000001491
B1306015557609N00921831EA0000001480
B1306075557685N00921849EA0000001468
B1306165557806N00921880EA0000001448
B1306215557876N00921887EA0000001439
B1306265557951N00921914EA0000001430
B1306345558071N00921953EA0000001427
B1306425558195N00921982EA0000001423
B1306515558333N00921991EA0000001423
B1306565558407N00922000EA0000001419
B1307035558501N00921970EA0000001420
B1307085558560N00921945EA0000001412
B1307145558636N00921973EA0000001395
B1307195558703N00922004EA0000001380
B1307255558792N00922047EA0000001364
B1307315558880N00922078EA0000001365
B1307405559003N00922092EA0000001364
B1307455559068N00922100EA0000001362
B1307565559206N00922109EA0000001360
B1308055559240N00922281EA0000001366
B1308135559203N00922473EA0000001355
B1308205559183N00922672EA0000001345
B1309285558840N00924488EA0000001277
B1309375558783N00924693EA0000001282
B1309485558717N00924939EA0000001263
B1309545558689N00925069EA0000001259
B1310025558656N00925250EA0000001237
B1310075558640N00925373EA0000001225
B1310145558628N00925547EA0000001215
B1310245558612N00925799EA0000001194
B1310295558595N00925920EA0000001191
B1310375558568N00926121EA0000001172
B1310485558532N00926418EA0000001168
B1310565558522N00926631EA0000001175
B1311025558524N00926784EA0000001175
B1311095558518N00926964EA0000001183
B1311155558494N00927091EA0000001209
B1311205558433N00927074EA0000001204
B1311255558424N00926953EA0000001197
B1311345558503N00926814EA0000001207
B1311395558544N00926883EA0000001209
B1311445558531N00927003EA0000001211
B1311535558496N00927216EA0000001228
B1312025558478N00927436EA0000001240
B1312155558478N00927746EA0000001246
B1312205558475N00927872EA0000001248
B1312265558463N00928021EA0000001243
B1312315558425N00928120EA0000001242
B1312365558357N00928125EA0000001232
B1312425558286N00928008EA0000001206
B1312475558213N00927910EA0000001190
B1312565558064N00927779EA0000001170
B1313015557981N00927731EA0000001161
B1313125557796N00927645EA0000001137
B1313175557714N00927624EA0000001126
B1313235557616N00927630EA0000001112
B1313315557496N00927648EA0000001086
B1313385557389N00927699EA0000001057
B1313435557314N00927723EA0000001039
B1313515557200N00927776EA0000001008
B1314005557070N00927868EA0000000970
B1314085556959N00927968EA0000000939
B1314155556856N00928015EA0000000903
B1314215556765N00928068EA0000000870
B1314275556673N00928103EA0000000840
B1314355556548N00928102EA0000000792
B1314455556393N00928052EA0000000737
B1314515556304N00928009EA0000000707
B1314595556205N00927905EA0000000659
B1315045556171N00927794EA0000000639
B1315095556141N00927680EA0000000628
B1315165556086N00927520EA0000000605
B1315225556030N00927372EA0000000586
B1315295555948N00927212EA0000000574
B1315375555846N00927052EA0000000546
B1315465555725N00926883EA0000000524
B1315525555646N00926780EA0000000509
B1315575555579N00926707EA0000000502
B1316025555508N00926662EA0000000487
B1316085555425N00926599EA0000000471
B1316135555404N00926483EA0000000459
B1316195555448N00926385EA0000000442
B1316245555508N00926412EA0000000421
B1316295555528N00926525EA0000000402
B1316345555486N00926643EA0000000386
B1316405555405N00926747EA0000000370
B1316475555306N00926885EA0000000343
B1316545555225N00927024EA0000000331
B1317005555175N00927164EA0000000321
B1317075555125N00927342EA0000000317
B1317125555083N00927466EA0000000317
B1317185555036N00927617EA0000000308
B1317235554998N00927749EA0000000310
B1317285554960N00927872EA0000000314
B1317345554915N00928013EA0000000316
B1317395554880N00928136EA0000000310
B1317445554846N00928268EA0000000300
B1317515554750N00928379EA0000000300
B1318005554622N00928519EA0000000275
B1318055554555N00928602EA0000000277
B1318125554446N00928598EA0000000277
B1318175554365N00928567EA0000000269
B1318225554319N00928452EA0000000258
B1318285554338N00928269EA0000000245
B1318355554355N00928079EA0000000219
B1318455554381N00927843EA0000000169
B1318515554401N00927702EA0000000140
B1318565554416N00927575EA0000000122
B1319045554439N00927385EA0000000096
B1319105554452N00927277EA0000000090
