AOGNOGN
HFDTE170825
HFFXA050
HFPLTPILOTINCHARGE:
HFGTYGLIDERTYPE:LS-1 f
HFGIDGLIDERID:D-7654
HFDTM100GPSDATUM:WGS-1984
HFRFWFIRMWAREVERSION:
HFRHWHARDWAREVERSION:
HFFTYFRTYPE:OGN-FLIGHTBOOK
HFGPSGENERIC
HFPRSPRESSALTSENSOR:
HFCIDCOMPETITIONID:RS
B1054185554426N00927252EA0000000100
B1054195554432N00927224EA0000000110
B1054255554457N00927056EA0000000210
B1054305554477N00926920EA0000000286
B1054355554497N00926775EA0000000358
B1054405554519N00926622EA0000000408
B1054455554543N00926484EA0000000437
B1054505554570N00926367EA0000000436
B1054555554625N00926292EA0000000439
B1055005554677N00926347EA0000000442
B1055055554657N00926451EA0000000438
B1055105554585N00926437EA0000000438
B1055155554538N00926320EA0000000442
B1055205554520N00926188EA0000000452
B1055255554550N00926088EA0000000454
B1055305554599N00926152EA0000000457
B1055355554566N00926257EA0000000466
B1055405554498N00926203EA0000000468
B1055455554513N00926075EA0000000471
B1055505554580N00926077EA0000000474
B1055555554598N00926198EA0000000476
B1056015554518N00926257EA0000000491
B1056065554473N00926145EA0000000496
B1056115554506N00926027EA0000000497
B1056165554575N00926035EA0000000496
B1056225554593N00926172EA0000000501
B1056275554547N00926271EA0000000506
B1056325554472N00926279EA0000000508
B1056375554432N00926157EA0000000506
B1056425554473N00926042EA0000000518
B1056475554536N00926078EA0000000524
B1056525554532N00926201EA0000000527
B1056575554463N00926251EA0000000531
B1057025554406N00926154EA0000000528
B1057075554428N00926010EA0000000533
B1057125554480N00925914EA0000000539
B1057175554545N00925938EA0000000525
B1057225554575N00926044EA0000000520
B1057295554571N00926213EA0000000535
B1057345554516N00926289EA0000000530
B1057395554456N00926210EA0000000529
B1057445554472N00926074EA0000000530
B1057495554529N00925988EA0000000543
B1057545554594N00926004EA0000000543
B1058005554636N00926136EA0000000535
B1058055554640N00926268EA0000000540
B1058115554648N00926430EA0000000535
B1058165554660N00926565EA0000000528
B1058225554677N00926725EA0000000523
B1058295554701N00926904EA0000000519
B1058345554718N00927028EA0000000518
B1058395554739N00927150EA0000000513
B1058445554758N00927269EA0000000524
B1058495554773N00927372EA0000000539
B1058545554779N00927474EA0000000538
B1058595554718N00927531EA0000000529
B1059045554660N00927425EA0000000537
B1059095554682N00927285EA0000000534
B1059145554753N00927268EA0000000534
B1059195554785N00927369EA0000000547
B1059245554745N00927467EA0000000543
B1059295554667N00927475EA0000000553
B1059345554611N00927387EA0000000563
B1059405554628N00927225EA0000000558
B1059455554701N00927187EA0000000551
B1059505554760N00927248EA0000000561
B1059565554776N00927375EA0000000562
B1100015554726N00927459EA0000000565
B1100065554660N00927396EA0000000567
B1100115554671N00927255EA0000000565
B1100175554752N00927215EA0000000571
B1100225554798N00927296EA0000000571
B1100275554783N00927413EA0000000568
B1100325554713N00927472EA0000000569
B1100375554643N00927400EA0000000584
B1100425554648N00927260EA0000000589
B1100475554719N00927219EA0000000586
B1100525554765N00927302EA0000000595
B1100575554738N00927411EA0000000597
B1101025554660N00927421EA0000000598
B1101085554611N00927278EA0000000615
B1101135554656N00927179EA0000000624
B1101185554716N00927208EA0000000623
B1101235554718N00927313EA0000000627
B1101295554641N00927357EA0000000623
B1101345554575N00927267EA0000000639
B1101395554538N00927145EA0000000648
B1101445554578N00927027EA0000000645
B1101495554647N00927047EA0000000644
B1101545554665N00927163EA0000000646
B1102005554626N00927294EA0000000652
B1102055554548N00927329EA0000000648
B1102105554474N00927252EA0000000657
B1102165554464N00927081EA0000000669
B1102225554542N00927022EA0000000671
B1102285554568N00927150EA0000000681
B1102345554483N00927203EA0000000688
B1102395554438N00927071EA0000000693
B1102445554487N00926950EA0000000697
B1102495554555N00926987EA0000000705
B1102545554557N00927110EA0000000714
B1102595554492N00927179EA0000000716
B1103045554419N00927102EA0000000721
B1103095554415N00926941EA0000000718
B1103145554485N00926857EA0000000723
B1103195554548N00926914EA0000000736
B1103255554534N00927048EA0000000748
B1103315554446N00927074EA0000000748
B1103365554391N00926953EA0000000749
B1103415554416N00926804EA0000000755
B1103465554486N00926766EA0000000757
B1103525554534N00926879EA0000000766
B1103595554480N00927027EA0000000762
B1104045554389N00927033EA0000000766
B1104105554311N00926893EA0000000777
B1104155554314N00926734EA0000000775
B1104205554371N00926618EA0000000772
B1104255554447N00926602EA0000000772
B1104305554507N00926673EA0000000773
B1104355554538N00926787EA0000000788
B1104405554521N00926904EA0000000783
B1104495554387N00926961EA0000000794
B1104545554331N00926846EA0000000797
B1104595554336N00926690EA0000000796
B1105055554398N00926552EA0000000804
B1105105554464N00926492EA0000000805
B1105165554547N00926444EA0000000808
B1105225554632N00926457EA0000000796
B1105285554714N00926500EA0000000803
B1105355554802N00926574EA0000000812
B1105405554838N00926670EA0000000813
B1105455554804N00926781EA0000000812
B1105505554721N00926772EA0000000798
B1105565554687N00926590EA0000000791
B1106015554734N00926463EA0000000796
B1106075554815N00926395EA0000000811
B1106125554883N00926378EA0000000812
B1106175554947N00926427EA0000000822
B1106225554960N00926551EA0000000832
B1106275554893N00926623EA0000000836
B1106335554817N00926502EA0000000833
B1106385554829N00926355EA0000000844
B1106435554896N00926285EA0000000848
B1106485554958N00926356EA0000000867
B1106535554951N00926491EA0000000873
B1106595554858N00926544EA0000000890
B1107045554799N00926446EA0000000891
B1107105554814N00926284EA0000000900
B1107155554881N00926233EA0000000903
B1107205554934N00926319EA0000000915
B1107255554924N00926452EA0000000928
B1107305554857N00926530EA0000000937
B1107355554779N00926488EA0000000935
B1107405554743N00926347EA0000000935
B1107455554761N00926210EA0000000949
B1107505554818N00926122EA0000000939
B1107555554896N00926116EA0000000946
B1108005554964N00926177EA0000000949
B1108065554991N00926337EA0000000962
B1108115554940N00926445EA0000000969
B1108165554859N00926438EA0000000973
B1108215554810N00926335EA0000000990
B1108265554826N00926208EA0000000991
B1108315554896N00926174EA0000000998
B1108365554946N00926275EA0000001004
B1108415554922N00926419EA0000001003
B1108475554826N00926467EA0000001021
B1108525554767N00926370EA0000001034
B1108575554769N00926237EA0000001040
B1109035554845N00926186EA0000001053
B1109085554895N00926273EA0000001057
B1109135554875N00926406EA0000001065
B1109185554797N00926459EA0000001070
B1109235554726N00926386EA0000001078
B1109285554721N00926242EA0000001079
B1109335554784N00926161EA0000001096
B1109385554850N00926205EA0000001105
B1109435554868N00926337EA0000001104
B1109485554815N00926456EA0000001110
B1109535554728N00926475EA0000001116
B1109585554663N00926376EA0000001122
B1110035554663N00926231EA0000001125
B1110085554719N00926129EA0000001130
B1110135554796N00926136EA0000001143
B1110185554844N00926243EA0000001141
B1110235554832N00926390EA0000001144
B1110295554747N00926462EA0000001170
B1110345554690N00926386EA0000001175
B1110395554691N00926246EA0000001169
B1110445554755N00926164EA0000001174
B1110495554826N00926216EA0000001180
B1110545554846N00926357EA0000001177
B1110595554796N00926482EA0000001185
B1111045554714N00926507EA0000001198
B1111095554660N00926413EA0000001207
B1111145554679N00926289EA0000001209
B1111195554746N00926243EA0000001217
B1111245554805N00926331EA0000001203
B1111295554804N00926488EA0000001214
B1111345554748N00926599EA0000001220
B1111395554670N00926594EA0000001226
B1111455554641N00926442EA0000001218
B1111505554679N00926326EA0000001234
B1111555554731N00926271EA0000001245
B1112005554799N00926277EA0000001230
B1112055554867N00926355EA0000001222
B1112105554903N00926494EA0000001216
B1112175554876N00926714EA0000001194
B1112235554860N00926901EA0000001188
B1112315554929N00927097EA0000001187
B1112365554999N00927173EA0000001181
B1112435555105N00927243EA0000001174
B1112505555216N00927266EA0000001171
B1112555555289N00927258EA0000001178
B1113005555358N00927243EA0000001181
B1113055555427N00927225EA0000001187
B1113105555500N00927206EA0000001195
B1113155555556N00927276EA0000001190
B1113205555519N00927402EA0000001196
B1113255555436N00927378EA0000001196
B1113315555396N00927202EA0000001205
B1113365555415N00927062EA0000001210
B1113415555490N00927029EA0000001208
B1113465555545N00927113EA0000001226
B1113515555554N00927236EA0000001225
B1113565555506N00927347EA0000001224
B1114015555419N00927360EA0000001223
B1114065555347N00927268EA0000001229
B1114115555331N00927116EA0000001239
B1114175555369N00926965EA0000001251
B1114225555439N00926927EA0000001240
B1114275555510N00926986EA0000001234
B1114325555558N00927110EA0000001236
B1114375555583N00927253EA0000001230
B1114425555567N00927409EA0000001227
B1114485555530N00927581EA0000001243
B1114535555524N00927713EA0000001240
B1114595555578N00927828EA0000001237
B1115055555662N00927831EA0000001229
B1115105555724N00927767EA0000001224
B1115165555779N00927658EA0000001221
B1115225555816N00927521EA0000001206
B1115285555841N00927361EA0000001193
B1115335555853N00927218EA0000001187
B1115385555865N00927074EA0000001180
B1115435555868N00926930EA0000001182
B1115485555865N00926790EA0000001180
B1115535555858N00926642EA0000001171
B1115585555844N00926490EA0000001156
B1116035555833N00926339EA0000001154
B1116105555819N00926144EA0000001142
B1116165555782N00925972EA0000001127
B1116215555725N00925842EA0000001115
B1116275555625N00925742EA0000001103
B1116335555516N00925715EA0000001102
B1116385555427N00925722EA0000001084
B1116435555331N00925758EA0000001070
B1116505555212N00925883EA0000001063
B1116565555131N00926029EA0000001054
B1117015555073N00926163EA0000001045
B1117075555018N00926340EA0000001036
B1117125554978N00926493EA0000001024
B1117185554934N00926687EA0000001011
B1117245554895N00926892EA0000000994
B1117315554860N00927126EA0000000991
B1117415554821N00927457EA0000000980
B1117465554803N00927621EA0000000977
B1117535554776N00927839EA0000000981
B1117585554762N00927983EA0000001003
B1118045554745N00928126EA0000001012
B1118115554724N00928301EA0000001003
B1118175554707N00928460EA0000000996
B1118225554695N00928602EA0000000994
B1118275554682N00928731EA0000001015
B1118325554668N00928848EA0000001013
B1118375554659N00928971EA0000001010
B1118435554651N00929129EA0000001003
B1118495554634N00929291EA0000001000
B1118565554613N00929469EA0000000999
B1119015554596N00929598EA0000000990
B1119145554557N00929940EA0000000971
B1119205554538N00930103EA0000000958
B1119265554525N00930276EA0000000941
B1119315554521N00930433EA0000000925
B1119365554526N00930592EA0000000921
B1119435554537N00930802EA0000000928
B1119505554547N00930983EA0000000912
B1119555554555N00931128EA0000000901
B1120015554567N00931306EA0000000888
B1120105554584N00931575EA0000000870
B1120195554601N00931836EA0000000869
B1120255554616N00932003EA0000000868
B1120305554631N00932138EA0000000865
B1120365554651N00932293EA0000000858
B1120425554682N00932435EA0000000855
B1120505554776N00932457EA0000000843
B1120575554823N00932280EA0000000835
B1121065554831N00932030EA0000000842
B1121115554834N00931889EA0000000841
B1121165554836N00931746EA0000000834
B1121225554846N00931570EA0000000820
B1121305554885N00931336EA0000000814
B1121355554911N00931193EA0000000812
B1121415554940N00931023EA0000000818
B1121465554973N00930906EA0000000827
B1121515555033N00930930EA0000000830
B1121565555007N00931036EA0000000831
B1122025554923N00930977EA0000000831
B1122075554926N00930842EA0000000833
B1122125554989N00930781EA0000000835
B1122185555038N00930889EA0000000844
B1122235554988N00930974EA0000000847
B1122285554920N00930914EA0000000848
B1122335554912N00930777EA0000000854
B1122385554961N00930687EA0000000855
B1122435555031N00930733EA0000000853
B1122485555052N00930865EA0000000869
B1122535554994N00930951EA0000000876
B1122585554922N00930889EA0000000877
B1123035554926N00930752EA0000000878
B1123085554992N00930693EA0000000885
B1123135555052N00930761EA0000000883
B1123185555041N00930894EA0000000890
B1123235554965N00930935EA0000000899
B1123305554921N00930773EA0000000897
B1123355554979N00930694EA0000000906
B1123405555044N00930672EA0000000915
B1123455555106N00930686EA0000000914
B1123505555161N00930747EA0000000916
B1123565555193N00930878EA0000000927
B1124015555152N00930977EA0000000931
B1124065555085N00930962EA0000000926
B1124115555044N00930856EA0000000932
B1124165555070N00930745EA0000000934
B1124215555137N00930765EA0000000935
B1124265555147N00930905EA0000000943
B1124315555100N00931009EA0000000947
B1124365555020N00930992EA0000000938
B1124415554969N00930884EA0000000940
B1124465554943N00930764EA0000000951
B1124515554940N00930651EA0000000962
B1124565554976N00930559EA0000000958
B1125025555059N00930541EA0000000951
B1125075555126N00930554EA0000000951
B1125135555199N00930631EA0000000937
B1125185555251N00930727EA0000000949
B1125245555308N00930839EA0000000961
B1125295555338N00930952EA0000000965
B1125345555307N00931070EA0000000962
B1125395555233N00931077EA0000000955
B1125445555181N00930992EA0000000950
B1125495555175N00930868EA0000000951
B1125545555221N00930781EA0000000972
B1125595555291N00930796EA0000000974
B1126045555310N00930926EA0000000980
B1126095555246N00931004EA0000000974
B1126155555164N00930923EA0000000974
B1126215555136N00930784EA0000000990
B1126265555181N00930682EA0000000990
B1126325555268N00930735EA0000000996
B1126375555259N00930886EA0000000999
B1126425555185N00930956EA0000001003
B1126475555111N00930917EA0000001014
B1126525555075N00930820EA0000001024
B1126575555094N00930702EA0000001022
B1127025555160N00930635EA0000001018
B1127095555262N00930691EA0000001039
B1127145555280N00930821EA0000001040
B1127195555225N00930917EA0000001041
B1127245555149N00930897EA0000001044
B1127305555118N00930750EA0000001050
B1127355555169N00930657EA0000001057
B1127405555243N00930697EA0000001064
B1127455555262N00930823EA0000001077
B1127505555208N00930909EA0000001069
B1127555555130N00930878EA0000001070
B1128005555075N00930787EA0000001088
B1128065555053N00930653EA0000001077
B1128115555112N00930565EA0000001069
B1128175555204N00930552EA0000001078
B1128225555272N00930610EA0000001088
B1128285555286N00930768EA0000001089
B1128335555223N00930854EA0000001088
B1128385555142N00930832EA0000001093
B1128435555103N00930721EA0000001107
B1128505555169N00930603EA0000001093
B1128555555248N00930619EA0000001106
B1129005555309N00930702EA0000001108
B1129055555313N00930846EA0000001106
B1129105555246N00930924EA0000001094
B1129155555160N00930892EA0000001090
B1129215555079N00930820EA0000001107
B1129265555024N00930741EA0000001107
B1129315554981N00930645EA0000001111
B1129365554945N00930542EA0000001109
B1129425554913N00930401EA0000001095
B1129485554901N00930248EA0000001082
B1129545554905N00930090EA0000001071
B1130015554919N00929905EA0000001060
B1130075554929N00929758EA0000001064
B1130145554932N00929587EA0000001053
B1130205554935N00929460EA0000001055
B1130295554953N00929233EA0000001037
B1130345554969N00929100EA0000001031
B1130395554989N00928969EA0000001031
B1130455555017N00928820EA0000001030
B1130505555041N00928700EA0000001022
B1130575555077N00928534EA0000001012
B1131045555109N00928364EA0000001004
B1131105555126N00928209EA0000000999
B1131185555130N00927988EA0000000982
B1131245555132N00927820EA0000000973
B1131305555142N00927650EA0000000961
B1131365555156N00927483EA0000000950
B1131415555169N00927342EA0000000938
B1131485555188N00927143EA0000000922
B1131545555215N00926967EA0000000902
B1132025555264N00926737EA0000000888
B1132075555300N00926602EA0000000875
B1132145555360N00926425EA0000000861
B1132205555419N00926288EA0000000855
B1132255555469N00926177EA0000000861
B1132305555506N00926086EA0000000889
B1132355555490N00925978EA0000000881
B1132405555415N00925984EA0000000887
B1132455555412N00926114EA0000000895
B1132505555475N00926123EA0000000908
B1132555555483N00926011EA0000000905
B1133005555411N00925965EA0000000912
B1133055555366N00926078EA0000000921
B1133105555410N00926172EA0000000927
B1133155555464N00926107EA0000000935
B1133205555434N00925998EA0000000941
B1133255555357N00926020EA0000000942
B1133305555337N00926145EA0000000957
B1133365555404N00926207EA0000000956
B1133415555433N00926097EA0000000965
B1133465555376N00926006EA0000000965
B1133515555299N00926060EA0000000971
B1133565555287N00926195EA0000000979
B1134035555370N00926241EA0000000983
B1134085555394N00926133EA0000000996
B1134135555350N00926041EA0000001000
B1134185555272N00926079EA0000000994
B1134235555249N00926212EA0000001004
B1134285555289N00926315EA0000001007
B1134335555355N00926307EA0000000999
B1134385555388N00926187EA0000000992
B1134435555355N00926054EA0000001000
B1134485555279N00925998EA0000001014
B1134535555204N00926051EA0000001018
B1134595555180N00926206EA0000001015
B1135045555222N00926303EA0000001022
B1135095555286N00926297EA0000001015
B1135145555322N00926184EA0000001008
B1135195555305N00926047EA0000001021
B1135245555248N00925963EA0000001037
B1135305555168N00926027EA0000001025
B1135365555156N00926195EA0000001035
B1135415555197N00926288EA0000001038
B1135475555272N00926249EA0000001026
B1135535555305N00926091EA0000001027
B1135595555292N00925926EA0000001042
B1136045555219N00925868EA0000001052
B1136095555164N00925965EA0000001063
B1136145555204N00926066EA0000001064
B1136195555269N00926011EA0000001069
B1136245555262N00925888EA0000001090
B1136295555186N00925857EA0000001092
B1136345555137N00925971EA0000001101
B1136395555175N00926081EA0000001105
B1136445555245N00926053EA0000001107
B1136495555260N00925931EA0000001117
B1136545555198N00925852EA0000001128
B1136595555121N00925909EA0000001133
B1137045555108N00926040EA0000001145
B1137095555159N00926114EA0000001147
B1137145555216N00926052EA0000001149
B1137195555199N00925923EA0000001148
B1137245555118N00925904EA0000001156
B1137295555064N00926019EA0000001161
B1137355555095N00926164EA0000001163
B1137415555172N00926135EA0000001157
B1137465555181N00926001EA0000001153
B1137515555121N00925899EA0000001155
B1137565555038N00925880EA0000001166
B1138015554972N00925962EA0000001165
B1138065554954N00926092EA0000001169
B1138115554995N00926192EA0000001166
B1138165555065N00926185EA0000001159
B1138215555099N00926071EA0000001158
B1138265555062N00925954EA0000001160
B1138315554984N00925946EA0000001162
B1138365554930N00926056EA0000001160
B1138415554943N00926191EA0000001162
B1138465555007N00926253EA0000001156
B1138525555083N00926186EA0000001151
B1138575555123N00926083EA0000001158
B1139025555134N00925949EA0000001151
B1139075555089N00925824EA0000001153
B1139125555009N00925775EA0000001167
B1139185554915N00925824EA0000001180
B1139235554874N00925937EA0000001179
B1139295554926N00926046EA0000001179
B1139345554992N00925987EA0000001169
B1139395555006N00925852EA0000001181
B1139445554956N00925756EA0000001187
B1139505554861N00925800EA0000001181
B1139555554839N00925947EA0000001188
B1140005554867N00926071EA0000001198
B1140055554926N00926133EA0000001193
B1140105554990N00926106EA0000001197
B1140155555029N00926013EA0000001194
B1140205555023N00925884EA0000001184
B1140255554958N00925807EA0000001189
B1140305554881N00925830EA0000001199
B1140355554829N00925930EA0000001201
B1140405554833N00926061EA0000001199
B1140455554892N00926120EA0000001198
B1140505554950N00926066EA0000001199
B1140565554965N00925915EA0000001187
B1141015554903N00925817EA0000001190
B1141065554818N00925827EA0000001194
B1141115554762N00925941EA0000001190
B1141175554744N00926120EA0000001190
B1141225554758N00926261EA0000001184
B1141285554786N00926428EA0000001178
B1141355554798N00926624EA0000001184
B1141425554824N00926811EA0000001176
B1141475554853N00926947EA0000001160
B1141525554884N00927088EA0000001156
B1141575554916N00927216EA0000001170
B1142025554948N00927336EA0000001158
B1142095555009N00927506EA0000001147
B1142185555089N00927723EA0000001141
B1142255555152N00927888EA0000001133
B1142305555195N00928009EA0000001131
B1142355555238N00928134EA0000001122
B1142425555298N00928321EA0000001107
B1142485555350N00928484EA0000001094
B1142555555404N00928679EA0000001088
B1143005555431N00928824EA0000001082
B1143055555447N00928973EA0000001077
B1143125555461N00929187EA0000001069
B1143195555472N00929400EA0000001063
B1143245555468N00929551EA0000001053
B1143295555460N00929701EA0000001048
B1143415555434N00930057EA0000001027
B1143465555414N00930207EA0000001021
B1143535555381N00930411EA0000001016
B1143585555358N00930556EA0000001014
B1144035555337N00930701EA0000001014
B1144085555320N00930846EA0000001025
B1144135555326N00930974EA0000001032
B1144185555390N00930984EA0000001019
B1144245555388N00930827EA0000001010
B1144295555321N00930763EA0000001023
B1144345555250N00930799EA0000001029
B1144395555235N00930918EA0000001031
B1144445555293N00930977EA0000001035
B1144495555343N00930915EA0000001033
B1144545555312N00930805EA0000001024
B1144595555235N00930808EA0000001034
B1145055555172N00930911EA0000001049
B1145105555186N00931019EA0000001043
B1145155555247N00930970EA0000001037
B1145205555227N00930851EA0000001056
B1145265555148N00930862EA0000001057
B1145315555126N00930978EA0000001069
B1145365555086N00931077EA0000001066
B1145415555012N00931039EA0000001061
B1145465555003N00930908EA0000001066
B1145515555058N00930842EA0000001066
B1145565555124N00930883EA0000001069
B1146015555160N00930991EA0000001075
B1146065555170N00931111EA0000001082
B1146125555169N00931249EA0000001074
B1146175555166N00931382EA0000001060
B1146225555161N00931516EA0000001060
B1146285555150N00931678EA0000001052
B1146335555138N00931822EA0000001048
B1146385555122N00931965EA0000001050
B1146435555109N00932102EA0000001054
B1146495555090N00932255EA0000001047
B1146555555076N00932421EA0000001035
B1147005555070N00932563EA0000001036
B1147075555051N00932762EA0000001035
B1147125555032N00932893EA0000001050
B1147175554970N00932965EA0000001044
B1147225554904N00932884EA0000001044
B1147285554890N00932721EA0000001046
B1147335554940N00932625EA0000001043
B1147385555009N00932645EA0000001041
B1147435555057N00932748EA0000001045
B1147505555080N00932919EA0000001055
B1147555555057N00933038EA0000001051
B1148005555013N00933147EA0000001040
B1148055554956N00933254EA0000001035
B1148125554888N00933418EA0000001031
B1148185554843N00933572EA0000001021
B1148305554785N00933910EA0000000998
B1148355554766N00934051EA0000001001
B1148415554750N00934209EA0000000995
B1148465554745N00934346EA0000000987
B1148545554742N00934572EA0000000986
B1149005554744N00934737EA0000001012
B1149055554772N00934831EA0000001016
B1149125554815N00934711EA0000001017
B1149175554753N00934670EA0000001012
B1149235554715N00934807EA0000001035
B1149305554791N00934874EA0000001040
B1149355554820N00934767EA0000001033
B1149405554765N00934672EA0000001031
B1149455554691N00934704EA0000001045
B1149505554666N00934829EA0000001052
B1149555554713N00934924EA0000001054
B1150005554779N00934873EA0000001058
B1150055554777N00934746EA0000001056
B1150115554686N00934694EA0000001058
B1150165554611N00934744EA0000001080
B1150215554575N00934857EA0000001084
B1150265554618N00934965EA0000001075
B1150315554693N00934935EA0000001086
B1150365554711N00934820EA0000001109
B1150415554676N00934720EA0000001113
B1150465554597N00934713EA0000001110
B1150515554555N00934846EA0000001120
B1150565554604N00934957EA0000001124
B1151015554672N00934898EA0000001136
B1151065554652N00934777EA0000001156
B1151115554575N00934787EA0000001158
B1151165554555N00934926EA0000001164
B1151235554645N00934974EA0000001166
B1151285554658N00934844EA0000001172
B1151335554594N00934777EA0000001184
B1151385554531N00934857EA0000001192
B1151435554546N00934989EA0000001199
B1151495554622N00934973EA0000001205
B1151545554618N00934858EA0000001210
B1151595554552N00934816EA0000001209
B1152045554495N00934911EA0000001222
B1152095554522N00935029EA0000001220
B1152145554591N00935009EA0000001224
B1152195554622N00934906EA0000001223
B1152255554562N00934797EA0000001211
B1152315554468N00934842EA0000001224
B1152365554415N00934943EA0000001237
B1152415554433N00935065EA0000001229
B1152465554507N00935077EA0000001227
B1152515554557N00934991EA0000001239
B1152575554539N00934861EA0000001234
B1153025554462N00934824EA0000001229
B1153075554390N00934909EA0000001238
B1153135554342N00935070EA0000001244
B1153185554326N00935214EA0000001237
B1153235554316N00935367EA0000001228
B1153325554315N00935645EA0000001206
B1153385554312N00935834EA0000001195
B1153445554304N00936030EA0000001176
B1153515554291N00936259EA0000001173
B1153565554282N00936423EA0000001173
B1154015554273N00936581EA0000001169
B1154075554267N00936771EA0000001158
B1154155554257N00937025EA0000001142
B1154205554244N00937182EA0000001145
B1154275554230N00937398EA0000001132
B1154325554220N00937551EA0000001124
B1154375554208N00937704EA0000001117
B1154475554182N00938014EA0000001108
B1154525554168N00938163EA0000001113
B1155005554146N00938399EA0000001097
B1155085554129N00938640EA0000001082
B1155165554126N00938884EA0000001069
B1155215554120N00939039EA0000001066
B1155265554109N00939191EA0000001065
B1155325554092N00939371EA0000001073
B1155375554078N00939504EA0000001078
B1155445554059N00939685EA0000001069
B1155515554039N00939877EA0000001055
B1155575554021N00940048EA0000001050
B1156025554005N00940195EA0000001042
B1156085553991N00940366EA0000001041
B1156155553979N00940557EA0000001035
B1156225553968N00940749EA0000001028
B1156285553958N00940910EA0000001024
B1156335553948N00941043EA0000001017
B1156425553925N00941287EA0000001001
B1156515553891N00941532EA0000000990
B1156595553865N00941754EA0000000976
B1157055553844N00941919EA0000000967
B1157105553797N00942035EA0000000962
B1157165553714N00942134EA0000000950
B1157225553667N00942271EA0000000937
B1157275553671N00942401EA0000000921
B1157325553683N00942534EA0000000912
B1157375553697N00942667EA0000000913
B1157475553726N00942928EA0000000903
B1157535553737N00943087EA0000000887
B1158025553767N00943336EA0000000876
B1158075553787N00943472EA0000000867
B1158135553805N00943638EA0000000870
B1158195553817N00943763EA0000000903
B1158255553796N00943899EA0000000890
B1158305553715N00943861EA0000000880
B1158355553701N00943705EA0000000899
B1158415553769N00943615EA0000000900
B1158485553844N00943717EA0000000911
B1158555553873N00943888EA0000000914
B1159015553850N00944036EA0000000921
B1159075553759N00944029EA0000000934
B1159125553734N00943903EA0000000937
B1159175553776N00943807EA0000000941
B1159225553840N00943806EA0000000952
B1159275553882N00943900EA0000000949
B1159335553847N00944049EA0000000962
B1159385553774N00944045EA0000000973
B1159435553739N00943931EA0000000974
B1159485553775N00943825EA0000000990
B1159535553838N00943835EA0000000997
B1200005553845N00943993EA0000001009
B1200055553778N00944046EA0000001012
B1200105553720N00943971EA0000001020
B1200155553725N00943853EA0000001027
B1200205553784N00943822EA0000001038
B1200255553826N00943909EA0000001039
B1200315553806N00944049EA0000001047
B1200365553740N00944092EA0000001052
B1200415553676N00944041EA0000001043
B1200475553646N00943895EA0000001041
B1200525553658N00943780EA0000001049
B1200575553682N00943675EA0000001055
B1201035553748N00943621EA0000001054
B1201085553795N00943690EA0000001064
B1201135553781N00943806EA0000001065
B1201195553697N00943850EA0000001071
B1201245553641N00943774EA0000001084
B1201315553643N00943616EA0000001082
B1201365553703N00943561EA0000001080
B1201425553778N00943578EA0000001095
B1201475553827N00943649EA0000001097
B1201525553837N00943759EA0000001105
B1201575553798N00943848EA0000001092
B1202025553738N00943920EA0000001091
B1202075553698N00944025EA0000001091
B1202135553720N00944171EA0000001089
B1202195553779N00944268EA0000001091
B1202245553831N00944353EA0000001073
B1202295553869N00944473EA0000001060
B1202345553891N00944607EA0000001051
B1202395553907N00944746EA0000001040
B1202455553919N00944925EA0000001035
B1202515553929N00945112EA0000001031
B1202575553938N00945300EA0000001026
B1203025553944N00945458EA0000001022
B1203085553951N00945641EA0000001025
B1203135553961N00945781EA0000001020
B1203195553976N00945950EA0000001006
B1203265553996N00946153EA0000001003
B1203335554021N00946333EA0000001014
B1203425554066N00946555EA0000001013
B1203495554103N00946737EA0000001018
B1203565554133N00946906EA0000001032
B1204025554160N00947043EA0000001030
B1204075554188N00947159EA0000001034
B1204155554243N00947324EA0000001032
B1204235554316N00947461EA0000001025
B1204285554365N00947551EA0000001012
B1204335554415N00947643EA0000000999
B1204395554475N00947766EA0000000985
B1204485554552N00947956EA0000000989
B1204575554629N00948134EA0000000971
B1205035554687N00948254EA0000000967
B1205115554756N00948422EA0000000966
B1205165554804N00948534EA0000000954
B1205225554859N00948678EA0000000952
B1205285554905N00948823EA0000000967
B1205345554928N00948953EA0000000978
B1205405554868N00949057EA0000000970
B1205475554764N00948992EA0000000966
B1205525554735N00948879EA0000000974
B1205575554753N00948775EA0000000983
B1206035554809N00948727EA0000000989
B1206095554874N00948736EA0000000984
B1206145554932N00948770EA0000000979
B1206195554992N00948817EA0000000976
B1206255555055N00948907EA0000000968
B1206325555095N00949061EA0000000958
B1206405555122N00949248EA0000000961
B1206455555114N00949367EA0000000960
B1206515555048N00949479EA0000000947
B1206575554950N00949489EA0000000936
B1207035554870N00949402EA0000000931
B1207085554825N00949289EA0000000929
B1207145554812N00949135EA0000000923
B1207225554788N00948919EA0000000911
B1207275554773N00948777EA0000000914
B1207355554741N00948569EA0000000924
B1207435554696N00948366EA0000000918
B1207485554662N00948238EA0000000916
B1207555554604N00948055EA0000000916
B1208025554540N00947878EA0000000913
B1208105554458N00947668EA0000000903
B1208175554380N00947484EA0000000893
B1208225554322N00947357EA0000000886
B1208305554239N00947160EA0000000895
B1208365554179N00947031EA0000000892
B1208465554062N00946825EA0000000861
B1208525553987N00946684EA0000000852
B1208585553921N00946534EA0000000841
B1209075553853N00946290EA0000000833
B1209155553812N00946091EA0000000850
B1209205553797N00945960EA0000000858
B1209255553830N00945857EA0000000863
B1209305553892N00945886EA0000000863
B1209355553899N00946004EA0000000865
B1209405553845N00946060EA0000000868
B1209475553768N00945966EA0000000870
B1209535553777N00945817EA0000000874
B1209595553845N00945777EA0000000874
B1210045553895N00945857EA0000000874
B1210095553911N00945977EA0000000878
B1210145553878N00946081EA0000000869
B1210195553809N00946085EA0000000876
B1210245553762N00945980EA0000000876
B1210325553753N00945771EA0000000892
B1210375553695N00945707EA0000000872
B1210435553645N00945838EA0000000870
B1210485553674N00945945EA0000000859
B1210545553754N00945950EA0000000859
B1210595553799N00945853EA0000000865
B1211055553810N00945710EA0000000873
B1211125553738N00945639EA0000000864
B1211175553697N00945748EA0000000865
B1211225553734N00945839EA0000000861
B1211285553805N00945751EA0000000860
B1211335553810N00945617EA0000000871
B1211395553783N00945477EA0000000870
B1211455553749N00945333EA0000000876
B1211505553736N00945209EA0000000877
B1211585553720N00945018EA0000000893
B1212035553745N00944916EA0000000886
B1212105553831N00944948EA0000000897
B1212155553835N00945073EA0000000891
B1212205553767N00945161EA0000000878
B1212265553665N00945134EA0000000896
B1212325553593N00945052EA0000000908
B1212375553550N00944962EA0000000916
B1212475553537N00944717EA0000000897
B1212595553543N00944399EA0000000888
B1213065553543N00944215EA0000000875
B1213125553538N00944063EA0000000873
B1213175553522N00943928EA0000000871
B1213235553505N00943768EA0000000882
B1213305553521N00943619EA0000000884
B1213355553540N00943508EA0000000874
B1213435553524N00943299EA0000000863
B1213485553487N00943166EA0000000857
B1213555553423N00942980EA0000000853
B1214015553366N00942827EA0000000862
B1214075553303N00942671EA0000000854
B1214165553195N00942446EA0000000848
B1214215553138N00942322EA0000000853
B1214265553082N00942200EA0000000859
B1214325553023N00942063EA0000000881
B1214375552977N00941946EA0000000885
B1214425552936N00941822EA0000000885
B1214495552888N00941634EA0000000878
B1214555552860N00941460EA0000000865
B1215005552849N00941310EA0000000860
B1215095552850N00941050EA0000000862
B1215145552858N00940903EA0000000866
B1215205552880N00940735EA0000000879
B1215255552914N00940614EA0000000889
B1215305552981N00940583EA0000000887
B1215355553022N00940682EA0000000876
B1215405552990N00940802EA0000000874
B1215455552919N00940849EA0000000871
B1215505552845N00940802EA0000000871
B1215565552786N00940669EA0000000887
B1216015552774N00940544EA0000000896
B1216075552810N00940422EA0000000893
B1216145552882N00940360EA0000000886
B1216195552934N00940301EA0000000866
B1216245552954N00940174EA0000000857
B1216315552955N00939973EA0000000837
B1216375552960N00939794EA0000000821
B1216425552964N00939642EA0000000813
B1216535552971N00939292EA0000000796
B1216585552977N00939136EA0000000791
B1217035552984N00938987EA0000000788
B1217105552995N00938780EA0000000781
B1217165553008N00938609EA0000000778
B1217225553023N00938440EA0000000780
B1217285553043N00938272EA0000000786
B1217365553071N00938068EA0000000807
B1217415553110N00937983EA0000000813
B1217475553171N00938042EA0000000803
B1217535553150N00938187EA0000000787
B1217585553075N00938242EA0000000783
B1218035553001N00938215EA0000000786
B1218085552951N00938118EA0000000789
B1218145552922N00937977EA0000000812
B1218205552871N00937867EA0000000803
B1218275552801N00937985EA0000000805
B1218345552869N00938074EA0000000801
B1218395552918N00938005EA0000000816
B1218455552875N00937875EA0000000815
B1218525552793N00937972EA0000000822
B1218575552819N00938074EA0000000826
B1219025552880N00938072EA0000000832
B1219095552885N00937917EA0000000849
B1219165552793N00937961EA0000000855
B1219215552820N00938065EA0000000857
B1219275552886N00938021EA0000000882
B1219335552855N00937891EA0000000873
B1219405552758N00937957EA0000000881
B1219455552781N00938064EA0000000897
B1219505552840N00938048EA0000000901
B1220005552781N00937864EA0000000906
B1220055552724N00937959EA0000000915
B1220125552789N00938036EA0000000922
B1220175552819N00937923EA0000000939
B1220235552752N00937822EA0000000945
B1220285552687N00937894EA0000000943
B1220335552708N00938008EA0000000951
B1220405552785N00937977EA0000000962
B1220455552778N00937846EA0000000961
B1220505552705N00937793EA0000000968
B1220555552642N00937871EA0000000957
B1221005552649N00937999EA0000000968
B1221055552693N00938074EA0000000979
B1221105552761N00938060EA0000000967
B1221165552827N00937941EA0000000971
B1221225552870N00937799EA0000000963
B1221295552912N00937602EA0000000942
B1221355552937N00937406EA0000000938
B1221415552946N00937232EA0000000937
B1221465552955N00937086EA0000000922
B1221535552980N00936876EA0000000892
B1222025553015N00936584EA0000000874
B1222075553036N00936429EA0000000863
B1222125553055N00936283EA0000000863
B1222175553074N00936145EA0000000858
B1222235553090N00935975EA0000000846
B1222285553111N00935829EA0000000833
B1222345553134N00935645EA0000000821
B1222425553162N00935380EA0000000799
B1222485553184N00935171EA0000000789
B1222545553217N00934963EA0000000771
B1222595553249N00934792EA0000000758
B1223045553281N00934625EA0000000743
B1223105553316N00934421EA0000000728
B1223155553344N00934248EA0000000715
B1223235553400N00933974EA0000000708
B1223295553446N00933794EA0000000715
B1223395553521N00933506EA0000000700
B1223445553554N00933357EA0000000696
B1223525553604N00933117EA0000000681
B1223575553632N00932970EA0000000668
B1224025553661N00932820EA0000000657
B1224075553690N00932672EA0000000651
B1224125553715N00932531EA0000000646
B1224175553731N00932391EA0000000649
B1224225553747N00932248EA0000000642
B1224275553758N00932102EA0000000637
B1224325553768N00931954EA0000000627
B1224375553793N00931806EA0000000617
B1224425553818N00931656EA0000000610
B1224485553851N00931478EA0000000606
B1224535553880N00931342EA0000000607
B1224585553912N00931216EA0000000602
B1225035553947N00931094EA0000000591
B1225085553979N00930965EA0000000577
B1225135554014N00930828EA0000000562
B1225195554056N00930660EA0000000549
B1225245554088N00930521EA0000000538
B1225295554121N00930385EA0000000535
B1225345554152N00930248EA0000000538
B1225395554182N00930110EA0000000527
B1225455554223N00929946EA0000000519
B1225505554255N00929811EA0000000512
B1225575554302N00929626EA0000000500
B1226025554330N00929494EA0000000495
B1226095554360N00929306EA0000000494
B1226145554385N00929179EA0000000487
B1226195554417N00929062EA0000000483
B1226245554448N00928947EA0000000480
B1226295554481N00928830EA0000000474
B1226345554515N00928714EA0000000467
B1226395554549N00928602EA0000000457
B1226445554586N00928492EA0000000449
B1226495554627N00928385EA0000000441
B1226545554667N00928277EA0000000431
B1227015554718N00928112EA0000000414
B1227095554765N00927901EA0000000408
B1227145554782N00927760EA0000000403
B1227205554803N00927585EA0000000402
B1227265554831N00927425EA0000000422
B1227315554876N00927344EA0000000418
B1227365554934N00927384EA0000000408
B1227425554952N00927514EA0000000411
B1227475554908N00927597EA0000000412
B1227525554837N00927584EA0000000409
B1227575554791N00927481EA0000000415
B1228025554804N00927363EA0000000418
B1228085554876N00927352EA0000000414
B1228135554914N00927439EA0000000419
B1228185554902N00927539EA0000000417
B1228245554820N00927573EA0000000409
B1228295554755N00927508EA0000000408
B1228345554729N00927385EA0000000417
B1228405554730N00927239EA0000000431
B1228455554779N00927165EA0000000430
B1228505554828N00927221EA0000000433
B1228565554794N00927338EA0000000433
B1229015554726N00927321EA0000000440
B1229065554698N00927214EA0000000452
B1229125554745N00927106EA0000000451
B1229175554799N00927144EA0000000459
B1229225554801N00927247EA0000000460
B1229275554744N00927296EA0000000459
B1229325554678N00927231EA0000000458
B1229375554659N00927098EA0000000467
B1229425554693N00926995EA0000000477
B1229475554753N00926982EA0000000480
B1229525554794N00927061EA0000000483
B1229575554776N00927165EA0000000482
B1230025554711N00927200EA0000000481
B1230075554652N00927122EA0000000486
B1230135554624N00926981EA0000000496
B1230185554643N00926868EA0000000500
B1230255554703N00926751EA0000000510
B1230315554779N00926736EA0000000507
B1230365554823N00926819EA0000000514
B1230415554808N00926931EA0000000512
B1230465554744N00926988EA0000000513
B1230515554678N00926939EA0000000522
B1230565554653N00926816EA0000000523
B1231025554661N00926668EA0000000536
B1231075554688N00926563EA0000000534
B1231125554749N00926514EA0000000528
B1231175554811N00926551EA0000000536
B1231225554839N00926649EA0000000536
B1231275554804N00926753EA0000000531
B1231325554729N00926766EA0000000524
B1231385554660N00926652EA0000000532
B1231435554653N00926525EA0000000540
B1231485554703N00926443EA0000000534
B1231535554771N00926472EA0000000536
B1231585554804N00926571EA0000000542
B1232035554785N00926686EA0000000539
B1232085554719N00926722EA0000000538
B1232135554666N00926631EA0000000538
B1232185554674N00926497EA0000000535
B1232235554738N00926425EA0000000538
B1232285554813N00926434EA0000000549
B1232335554873N00926483EA0000000555
B1232385554894N00926606EA0000000549
B1232435554848N00926716EA0000000558
B1232485554774N00926709EA0000000557
B1232535554730N00926601EA0000000556
B1232595554754N00926436EA0000000546
B1233045554827N00926372EA0000000556
B1233095554900N00926430EA0000000559
B1233145554927N00926564EA0000000568
B1233195554875N00926670EA0000000571
B1233245554791N00926631EA0000000563
B1233295554763N00926484EA0000000571
B1233345554810N00926370EA0000000575
B1233395554884N00926340EA0000000594
B1233445554955N00926368EA0000000590
B1233495555013N00926462EA0000000573
B1233555555043N00926620EA0000000574
B1234025555037N00926811EA0000000570
B1234075555027N00926944EA0000000584
B1234135555008N00927086EA0000000572
B1234185554981N00927218EA0000000564
B1234235554968N00927334EA0000000577
B1234295554981N00927460EA0000000555
B1234345555010N00927573EA0000000535
B1234405555062N00927705EA0000000516
B1234455555122N00927787EA0000000509
B1234515555195N00927864EA0000000502
B1234575555278N00927899EA0000000491
B1235075555424N00927821EA0000000483
B1235125555477N00927724EA0000000488
B1235175555505N00927600EA0000000486
B1235225555518N00927470EA0000000474
B1235285555527N00927301EA0000000465
B1235345555511N00927125EA0000000474
B1235395555505N00926984EA0000000477
B1235445555548N00926878EA0000000478
B1235495555619N00926862EA0000000484
B1235545555667N00926955EA0000000488
B1235595555652N00927092EA0000000492
B1236045555590N00927172EA0000000504
B1236095555518N00927130EA0000000502
B1236145555488N00927006EA0000000502
B1236195555518N00926878EA0000000505
B1236245555578N00926815EA0000000521
B1236295555640N00926824EA0000000518
B1236345555681N00926929EA0000000501
B1236405555672N00927092EA0000000498
B1236455555624N00927191EA0000000498
B1236505555550N00927214EA0000000496
B1236565555476N00927100EA0000000489
B1237015555469N00926957EA0000000493
B1237075555525N00926830EA0000000504
B1237125555593N00926829EA0000000508
B1237175555630N00926945EA0000000496
B1237225555603N00927082EA0000000492
B1237275555532N00927156EA0000000494
B1237325555455N00927127EA0000000497
B1237375555403N00927020EA0000000504
B1237425555394N00926894EA0000000513
B1237475555416N00926779EA0000000521
B1237525555461N00926696EA0000000528
B1237575555524N00926681EA0000000529
B1238025555576N00926741EA0000000531
B1238075555593N00926853EA0000000521
B1238125555557N00926967EA0000000513
B1238175555482N00927001EA0000000516
B1238225555414N00926942EA0000000528
B1238275555387N00926822EA0000000531
B1238325555425N00926705EA0000000531
B1238375555497N00926700EA0000000534
B1238425555538N00926807EA0000000533
B1238475555521N00926946EA0000000524
B1238525555453N00927026EA0000000529
B1238575555376N00927030EA0000000544
B1239025555311N00926957EA0000000535
B1239075555287N00926820EA0000000538
B1239135555328N00926691EA0000000547
B1239185555398N00926663EA0000000551
B1239255555487N00926705EA0000000563
B1239305555523N00926803EA0000000552
B1239355555503N00926926EA0000000556
B1239405555443N00927004EA0000000557
B1239455555361N00927004EA0000000550
B1239505555291N00926925EA0000000563
B1239555555259N00926815EA0000000573
B1240005555265N00926694EA0000000576
B1240065555316N00926579EA0000000584
B1240165555452N00926504EA0000000578
B1240245555545N00926571EA0000000584
B1240295555569N00926672EA0000000583
B1240345555558N00926787EA0000000588
B1240395555534N00926894EA0000000575
B1240455555479N00927042EA0000000559
B1240515555405N00927168EA0000000570
B1240565555332N00927232EA0000000579
B1241015555251N00927226EA0000000587
B1241065555180N00927150EA0000000587
B1241115555131N00927026EA0000000584
B1241165555121N00926890EA0000000588
B1241215555148N00926776EA0000000590
B1241285555214N00926658EA0000000590
B1241335555278N00926643EA0000000598
B1241395555333N00926725EA0000000606
B1241445555353N00926828EA0000000610
B1241565555359N00927098EA0000000621
B1242035555346N00927264EA0000000623
B1242095555324N00927413EA0000000613
B1242155555290N00927557EA0000000621
B1242205555262N00927668EA0000000618
B1242255555230N00927793EA0000000600
B1242305555197N00927933EA0000000591
B1242365555159N00928102EA0000000582
B1242425555122N00928260EA0000000575
B1242475555090N00928384EA0000000567
B1242525555052N00928501EA0000000560
B1242595554988N00928648EA0000000555
B1243045554928N00928734EA0000000547
B1243105554846N00928805EA0000000543
B1243155554773N00928832EA0000000532
B1243205554701N00928813EA0000000524
B1243265554633N00928722EA0000000515
B1243325554606N00928590EA0000000507
B1243395554616N00928441EA0000000497
B1243465554647N00928304EA0000000482
B1243515554676N00928210EA0000000469
B1243575554716N00928087EA0000000448
B1244035554755N00927957EA0000000443
B1244085554781N00927848EA0000000436
B1244175554817N00927645EA0000000419
B1244245554843N00927480EA0000000417
B1244295554861N00927368EA0000000419
B1244345554874N00927254EA0000000417
B1244415554891N00927090EA0000000409
B1244495554907N00926894EA0000000400
B1244545554917N00926769EA0000000403
B1244595554931N00926655EA0000000410
B1245055554994N00926593EA0000000408
B1245105555044N00926650EA0000000421
B1245155555041N00926746EA0000000432
B1245205554994N00926800EA0000000433
B1245255554925N00926793EA0000000423
B1245305554868N00926712EA0000000428
B1245355554857N00926594EA0000000434
B1245405554882N00926493EA0000000439
B1245455554920N00926406EA0000000444
B1245505554965N00926323EA0000000445
B1245555555028N00926332EA0000000440
B1246005555052N00926446EA0000000443
B1246055555001N00926541EA0000000457
B1246115554925N00926540EA0000000481
B1246165554877N00926446EA0000000472
B1246215554893N00926318EA0000000479
B1246265554957N00926275EA0000000478
B1246315555009N00926357EA0000000482
B1246365554999N00926484EA0000000491
B1246425554919N00926538EA0000000509
B1246485554859N00926422EA0000000515
B1246535554882N00926302EA0000000525
B1246585554941N00926263EA0000000530
B1247045554987N00926363EA0000000536
B1247095554956N00926477EA0000000545
B1247145554888N00926510EA0000000555
B1247205554819N00926389EA0000000559
B1247265554836N00926233EA0000000572
B1247315554908N00926201EA0000000572
B1247365554959N00926295EA0000000584
B1247415554937N00926415EA0000000592
B1247465554858N00926422EA0000000598
B1247535554828N00926245EA0000000612
B1247585554884N00926159EA0000000624
B1248035554948N00926181EA0000000632
B1248095554974N00926316EA0000000645
B1248145554934N00926412EA0000000658
B1248195554864N00926434EA0000000668
B1248245554806N00926349EA0000000676
B1248295554814N00926221EA0000000688
B1248345554872N00926145EA0000000695
B1248395554935N00926171EA0000000711
B1248445554951N00926277EA0000000726
B1248495554902N00926350EA0000000735
B1248545554838N00926301EA0000000746
B1248595554828N00926174EA0000000756
B1249045554876N00926075EA0000000767
B1249095554940N00926084EA0000000780
B1249155554962N00926214EA0000000782
B1249205554915N00926315EA0000000795
B1249255554840N00926314EA0000000812
B1249305554802N00926211EA0000000829
B1249355554833N00926106EA0000000833
B1249405554900N00926106EA0000000846
B1249455554936N00926206EA0000000858
B1249505554908N00926323EA0000000870
B1249565554824N00926364EA0000000888
B1250025554771N00926246EA0000000903
B1250075554804N00926132EA0000000912
B1250125554874N00926127EA0000000927
B1250175554911N00926223EA0000000941
B1250225554885N00926338EA0000000950
B1250275554814N00926395EA0000000960
B1250325554729N00926357EA0000000961
B1250375554676N00926237EA0000000980
B1250425554697N00926101EA0000000989
B1250475554771N00926053EA0000001004
B1250525554829N00926132EA0000001020
B1250585554812N00926287EA0000001038
B1251035554737N00926323EA0000001053
B1251085554677N00926242EA0000001069
B1251135554673N00926115EA0000001082
B1251185554726N00926017EA0000001087
B1251235554799N00926025EA0000001100
B1251285554833N00926138EA0000001118
B1251335554801N00926251EA0000001134
B1251385554725N00926268EA0000001139
B1251435554677N00926155EA0000001149
B1251485554710N00926035EA0000001164
B1251535554780N00926037EA0000001175
B1251595554802N00926187EA0000001182
B1252045554735N00926266EA0000001199
B1252105554653N00926192EA0000001212
B1252155554652N00926053EA0000001219
B1252205554714N00925975EA0000001233
B1252255554774N00926047EA0000001238
B1252315554741N00926195EA0000001262
B1252365554666N00926176EA0000001270
B1252415554645N00926040EA0000001274
B1252465554695N00925937EA0000001281
B1252525554777N00925972EA0000001291
B1252585554780N00926126EA0000001304
B1253035554721N00926208EA0000001317
B1253095554643N00926167EA0000001332
B1253145554630N00926042EA0000001331
B1253195554677N00925947EA0000001348
B1253245554742N00925932EA0000001355
B1253305554794N00926043EA0000001354
B1253355554784N00926170EA0000001360
B1253405554760N00926310EA0000001339
B1253475554751N00926538EA0000001320
B1253535554770N00926739EA0000001302
B1253595554802N00926931EA0000001290
B1254045554842N00927083EA0000001276
B1254095554892N00927218EA0000001282
B1254165554969N00927394EA0000001266
B1254225555044N00927542EA0000001254
B1254275555113N00927653EA0000001251
B1254335555198N00927773EA0000001250
B1254385555264N00927863EA0000001244
B1254435555334N00927947EA0000001234
B1254485555407N00928031EA0000001220
B1254545555491N00928145EA0000001211
B1254595555561N00928240EA0000001212
B1255055555639N00928346EA0000001219
B1255125555722N00928465EA0000001214
B1255185555790N00928565EA0000001212
B1255265555879N00928690EA0000001205
B1255325555945N00928790EA0000001202
B1255405556040N00928936EA0000001185
B1255455556104N00929034EA0000001192
B1255505556160N00929124EA0000001208
B1255555556195N00929228EA0000001219
B1256015556144N00929358EA0000001209
B1256065556059N00929338EA0000001214
B1256115556015N00929220EA0000001223
B1256165556028N00929096EA0000001234
B1256215556081N00929025EA0000001245
B1256265556147N00929027EA0000001249
B1256335556227N00929096EA0000001266
B1256385556279N00929148EA0000001264
B1256435556334N00929206EA0000001256
B1256495556403N00929280EA0000001237
B1256585556508N00929394EA0000001226
B1257035556566N00929454EA0000001222
B1257085556625N00929511EA0000001213
B1257135556685N00929572EA0000001206
B1257185556744N00929635EA0000001198
B1257255556830N00929722EA0000001192
B1257305556892N00929775EA0000001184
B1257375556978N00929859EA0000001175
B1257455557070N00929975EA0000001169
B1257505557123N00930050EA0000001165
B1257575557198N00930158EA0000001152
B1258035557260N00930255EA0000001152
B1258085557313N00930333EA0000001157
B1258135557359N00930411EA0000001163
B1258195557418N00930497EA0000001162
B1258245557465N00930581EA0000001161
B1258295557506N00930676EA0000001165
B1258345557544N00930771EA0000001172
B1258395557577N00930862EA0000001177
B1258455557612N00930973EA0000001171
B1258505557641N00931083EA0000001159
B1258575557670N00931260EA0000001142
B1259035557677N00931414EA0000001136
B1259095557661N00931559EA0000001127
B1259145557631N00931690EA0000001107
B1259205557577N00931847EA0000001108
B1259255557517N00931942EA0000001110
B1259305557444N00932016EA0000001113
B1259355557369N00932103EA0000001115
B1259405557295N00932183EA0000001122
B1259465557208N00932272EA0000001116
B1259515557124N00932339EA0000001103
B1300005556973N00932472EA0000001104
B1300055556896N00932545EA0000001102
B1300105556822N00932621EA0000001097
B1300155556752N00932700EA0000001094
B1300205556682N00932770EA0000001088
B1300265556593N00932827EA0000001089
B1300325556503N00932831EA0000001095
B1300385556403N00932826EA0000001055
B1300455556285N00932898EA0000001076
B1300525556206N00932994EA0000001076
B1300585556147N00933114EA0000001064
B1301035556113N00933243EA0000001060
B1301095556087N00933409EA0000001059
B1301155556065N00933579EA0000001050
B1301215556042N00933755EA0000001040
B1301265556023N00933913EA0000001025
B1301325556012N00934121EA0000001011
B1301375556020N00934288EA0000001009
B1301465556086N00934551EA0000000991
B1301545556158N00934769EA0000000968
B1301595556202N00934893EA0000000973
B1302065556277N00935019EA0000000963
B1302115556341N00935067EA0000000962
B1302165556406N00935089EA0000000958
B1302225556487N00935058EA0000000941
B1302285556549N00934955EA0000000933
B1302335556575N00934828EA0000000931
B1302395556564N00934665EA0000000937
B1302445556528N00934554EA0000000934
B1302495556473N00934456EA0000000926
B1302555556401N00934344EA0000000918
B1303005556344N00934249EA0000000905
B1303055556295N00934139EA0000000901
B1303105556260N00934023EA0000000903
B1303165556232N00933879EA0000000887
B1303235556191N00933723EA0000000890
B1303285556165N00933615EA0000000893
B1303335556139N00933497EA0000000898
B1303385556109N00933384EA0000000901
B1303435556078N00933275EA0000000909
B1303485556051N00933164EA0000000912
B1303535556027N00933049EA0000000908
B1303595556011N00932901EA0000000909
B1304055556007N00932754EA0000000909
B1304105556003N00932633EA0000000904
B1304165556009N00932468EA0000000874
B1304215556028N00932322EA0000000871
B1304275556051N00932186EA0000000890
B1304345556083N00932061EA0000000879
B1304395556113N00931960EA0000000869
B1304445556147N00931867EA0000000870
B1304495556179N00931783EA0000000863
B1304545556212N00931690EA0000000840
B1305005556276N00931583EA0000000825
B1305075556364N00931536EA0000000809
B1305125556427N00931569EA0000000802
B1305195556502N00931642EA0000000797
B1305265556576N00931722EA0000000781
B1305315556630N00931788EA0000000770
B1305365556687N00931848EA0000000761
B1305425556767N00931914EA0000000734
B1305505556871N00931998EA0000000732
B1305565556932N00932072EA0000000731
B1306015556979N00932129EA0000000724
B1306075557041N00932201EA0000000713
B1306125557096N00932254EA0000000709
B1306175557158N00932295EA0000000699
B1306225557227N00932317EA0000000697
B1306305557329N00932307EA0000000704
B1306375557414N00932242EA0000000700
B1306425557436N00932126EA0000000698
B1306475557399N00932014EA0000000703
B1306525557334N00931964EA0000000694
B1306575557259N00931979EA0000000688
B1307025557193N00932034EA0000000686
B1307095557131N00932156EA0000000685
B1307145557126N00932270EA0000000677
B1307205557177N00932384EA0000000677
B1307255557244N00932403EA0000000682
B1307315557317N00932333EA0000000688
B1307375557372N00932236EA0000000691
B1307425557400N00932136EA0000000688
B1307495557380N00931963EA0000000681
B1307555557334N00931828EA0000000678
B1308005557288N00931708EA0000000667
B1308085557212N00931508EA0000000663
B1308135557164N00931393EA0000000656
B1308205557096N00931227EA0000000644
B1308265557045N00931086EA0000000657
B1308315557018N00930968EA0000000655
B1308375557053N00930851EA0000000635
B1308425557112N00930863EA0000000625
B1308475557147N00930964EA0000000608
B1308525557142N00931099EA0000000598
B1308575557095N00931208EA0000000597
B1309045556999N00931279EA0000000589
B1309095556922N00931273EA0000000587
B1309155556842N00931251EA0000000601
B1309205556783N00931272EA0000000598
B1309255556783N00931386EA0000000599
B1309305556843N00931392EA0000000608
B1309355556854N00931276EA0000000605
B1309415556779N00931223EA0000000617
B1309485556752N00931366EA0000000619
B1309535556814N00931377EA0000000623
B1309585556836N00931261EA0000000624
B1310035556783N00931188EA0000000634
B1310085556727N00931247EA0000000637
B1310135556736N00931367EA0000000631
B1310195556812N00931391EA0000000636
B1310245556844N00931297EA0000000630
B1310295556813N00931190EA0000000616
B1310345556744N00931156EA0000000618
B1310405556656N00931232EA0000000616
B1310455556636N00931356EA0000000621
B1310515556691N00931447EA0000000626
B1310565556755N00931433EA0000000627
B1311015556790N00931344EA0000000617
B1311075556767N00931202EA0000000614
B1311125556722N00931116EA0000000630
B1311185556643N00931109EA0000000628
B1311235556643N00931219EA0000000636
B1311285556702N00931201EA0000000630
B1311335556702N00931081EA0000000640
B1311385556639N00931044EA0000000647
B1311435556599N00931142EA0000000642
B1311485556641N00931221EA0000000652
B1311535556692N00931161EA0000000649
B1311585556692N00931036EA0000000655
B1312035556657N00930932EA0000000658
B1312085556587N00930902EA0000000644
B1312135556533N00930992EA0000000640
B1312195556541N00931126EA0000000646
B1312245556585N00931186EA0000000644
B1312295556645N00931169EA0000000642
B1312355556686N00931054EA0000000639
B1312405556662N00930939EA0000000633
B1312455556592N00930885EA0000000613
B1312505556523N00930934EA0000000616
B1312555556494N00931038EA0000000615
B1313005556519N00931141EA0000000604
B1313055556582N00931171EA0000000606
B1313105556639N00931115EA0000000615
B1313155556647N00930998EA0000000613
B1313205556602N00930898EA0000000605
B1313255556530N00930858EA0000000592
B1313305556449N00930873EA0000000581
B1313395556302N00930837EA0000000586
B1313445556235N00930760EA0000000583
B1313495556179N00930660EA0000000589
B1313555556159N00930516EA0000000596
B1314005556214N00930451EA0000000590
B1314055556266N00930527EA0000000600
B1314105556244N00930646EA0000000602
B1314165556143N00930660EA0000000600
B1314215556088N00930548EA0000000614
B1314265556092N00930409EA0000000619
B1314325556171N00930354EA0000000624
B1314375556210N00930449EA0000000639
B1314425556170N00930551EA0000000640
B1314475556090N00930530EA0000000647
B1314525556065N00930408EA0000000662
B1314575556113N00930324EA0000000663
B1315025556171N00930372EA0000000671
B1315075556164N00930488EA0000000676
B1315125556089N00930535EA0000000672
B1315175556021N00930451EA0000000686
B1315225556028N00930321EA0000000696
B1315275556094N00930304EA0000000696
B1315325556115N00930415EA0000000708
B1315375556059N00930489EA0000000713
B1315425555986N00930449EA0000000723
B1315475555954N00930331EA0000000733
B1315525555984N00930219EA0000000737
B1315585556062N00930211EA0000000741
B1316035556092N00930300EA0000000755
B1316085556057N00930396EA0000000749
B1316135555979N00930419EA0000000754
B1316195555903N00930348EA0000000776
B1316245555872N00930238EA0000000774
B1316295555890N00930117EA0000000775
B1316345555941N00930056EA0000000783
B1316405556002N00930116EA0000000783
B1316455555994N00930225EA0000000790
B1316505555932N00930280EA0000000792
B1316565555861N00930184EA0000000794
B1317015555876N00930054EA0000000797
B1317065555938N00929999EA0000000800
B1317115555993N00930049EA0000000806
B1317165555997N00930156EA0000000812
B1317215555944N00930234EA0000000808
B1317265555868N00930226EA0000000818
B1317315555818N00930135EA0000000825
B1317365555820N00930012EA0000000830
B1317415555871N00929951EA0000000833
B1317465555921N00930001EA0000000834
B1317515555926N00930112EA0000000834
B1317565555883N00930201EA0000000838
B1318015555816N00930220EA0000000849
B1318065555753N00930160EA0000000844
B1318125555733N00930001EA0000000842
B1318175555779N00929901EA0000000852
B1318225555840N00929907EA0000000855
B1318275555879N00929997EA0000000854
B1318325555867N00930113EA0000000854
B1318385555803N00930211EA0000000855
B1318435555732N00930255EA0000000862
B1318485555658N00930258EA0000000870
B1318545555579N00930192EA0000000872
B1318595555536N00930089EA0000000883
B1319045555534N00929966EA0000000876
B1319105555599N00929895EA0000000879
B1319155555649N00929975EA0000000874
B1319205555638N00930109EA0000000876
B1319255555578N00930182EA0000000884
B1319305555503N00930181EA0000000894
B1319365555428N00930101EA0000000910
B1319415555409N00929979EA0000000907
B1319465555445N00929879EA0000000914
B1319525555522N00929877EA0000000916
B1319575555564N00929976EA0000000912
B1320025555537N00930105EA0000000909
B1320085555446N00930153EA0000000927
B1320135555375N00930101EA0000000931
B1320185555341N00929985EA0000000933
B1320235555362N00929865EA0000000931
B1320295555431N00929782EA0000000936
B1320345555496N00929768EA0000000939
B1320405555565N00929845EA0000000932
B1320455555571N00929985EA0000000929
B1320505555512N00930091EA0000000928
B1320565555405N00930100EA0000000934
B1321025555307N00930068EA0000000950
B1321075555232N00930033EA0000000961
B1321125555162N00929986EA0000000963
B1321195555076N00929888EA0000000962
B1321265555011N00929757EA0000000962
B1321315554984N00929644EA0000000952
B1321375554981N00929499EA0000000946
B1321445555001N00929338EA0000000936
B1321495555014N00929225EA0000000931
B1321545555029N00929110EA0000000925
B1322005555045N00928974EA0000000921
B1322055555055N00928860EA0000000912
B1322125555058N00928685EA0000000902
B1322185555076N00928529EA0000000906
B1322235555111N00928431EA0000000906
B1322285555164N00928369EA0000000900
B1322345555238N00928312EA0000000895
B1322395555296N00928288EA0000000902
B1322455555360N00928250EA0000000887
B1322505555411N00928179EA0000000872
B1322555555454N00928080EA0000000865
B1323005555496N00927983EA0000000854
B1323055555550N00927909EA0000000840
B1323135555663N00927941EA0000000811
B1323185555733N00928007EA0000000798
B1323255555813N00928108EA0000000809
B1323305555857N00928180EA0000000802
B1323355555909N00928248EA0000000788
B1323415555978N00928334EA0000000774
B1323465556036N00928410EA0000000766
B1323515556095N00928488EA0000000755
B1323585556181N00928594EA0000000743
B1324045556266N00928641EA0000000725
B1324095556342N00928617EA0000000711
B1324145556404N00928523EA0000000695
B1324195556435N00928390EA0000000689
B1324245556438N00928253EA0000000681
B1324305556422N00928086EA0000000668
B1324355556401N00927943EA0000000654
B1324415556372N00927767EA0000000642
B1324525556302N00927451EA0000000627
B1324575556266N00927310EA0000000630
B1325035556218N00927140EA0000000621
B1325125556115N00926913EA0000000600
B1325175556039N00926816EA0000000595
B1325265555888N00926695EA0000000588
B1325325555780N00926657EA0000000585
B1325375555691N00926679EA0000000592
B1325425555629N00926784EA0000000591
B1325475555611N00926925EA0000000593
B1325535555596N00927094EA0000000580
B1325585555584N00927242EA0000000567
B1326035555568N00927392EA0000000561
B1326105555540N00927595EA0000000561
B1326155555513N00927737EA0000000555
B1326215555484N00927922EA0000000537
B1326265555462N00928082EA0000000524
B1326315555435N00928239EA0000000515
B1326375555405N00928423EA0000000497
B1326445555374N00928640EA0000000476
B1326495555347N00928797EA0000000464
B1326565555303N00929013EA0000000454
B1327025555252N00929190EA0000000449
B1327085555187N00929345EA0000000459
B1327135555123N00929465EA0000000456
B1327185555050N00929555EA0000000473
B1327255554941N00929490EA0000000483
B1327315554859N00929380EA0000000478
B1327365554824N00929244EA0000000466
B1327415554818N00929099EA0000000463
B1327475554816N00928919EA0000000456
B1327525554830N00928767EA0000000460
B1327575554855N00928619EA0000000454
B1328055554896N00928388EA0000000445
B1328125554921N00928178EA0000000428
B1328175554940N00928023EA0000000416
B1328245554961N00927802EA0000000402
B1328295554972N00927648EA0000000395
B1328345554983N00927498EA0000000384
B1328405554991N00927324EA0000000386
B1328455555026N00927233EA0000000390
B1328515555101N00927206EA0000000368
B1328565555171N00927164EA0000000355
B1329015555239N00927100EA0000000345
B1329075555299N00926965EA0000000338
B1329125555358N00926897EA0000000346
B1329175555379N00926996EA0000000344
B1329225555318N00927079EA0000000347
B1329275555237N00927064EA0000000342
B1329325555170N00926977EA0000000337
B1329375555114N00926870EA0000000324
B1329445555027N00926722EA0000000312
B1329495554945N00926729EA0000000314
B1329545554908N00926842EA0000000309
B1330015554899N00927024EA0000000295
B1330075554888N00927181EA0000000286
B1330145554867N00927355EA0000000282
B1330255554841N00927632EA0000000274
B1330325554821N00927810EA0000000265
B1330375554781N00927922EA0000000257
B1330445554707N00928064EA0000000239
B1330525554602N00928214EA0000000219
B1330575554519N00928272EA0000000213
B1331025554441N00928232EA0000000210
B1331075554379N00928134EA0000000196
B1331125554368N00927992EA0000000188
B1331175554383N00927858EA0000000160
B1331225554401N00927727EA0000000144
B1331275554417N00927601EA0000000129
B1331365554443N00927368EA0000000096
B1331425554459N00927235EA0000000092
