AOGNOGN
HFDTE190725
HFFXA050
HFPLTPILOTINCHARGE:
HFGTYGLIDERTYPE:ASK-21
HFGIDGLIDERID:OY-XKO
HFDTM100GPSDATUM:WGS-1984
HFRFWFIRMWAREVERSION:
HFRHWHARDWAREVERSION:
HFFTYFRTYPE:OGN-FLIGHTBOOK
HFGPSGENERIC
HFPRSPRESSALTSENSOR:
HFCIDCOMPETITIONID:R2
B0929325515093N01203433EA0000000042
B0929325515093N01203433EA0000000042
B0929425515096N01203671EA0000000181
B0929475515098N01203787EA0000000263
B0929525515087N01203918EA0000000337
B0929585515074N01204092EA0000000390
B0930035515068N01204250EA0000000403
B0930115515050N01204481EA0000000420
B0930165515013N01204574EA0000000436
B0930215514957N01204574EA0000000447
B0930275514944N01204433EA0000000438
B0930325515015N01204401EA0000000432
B0930375515019N01204507EA0000000441
B0930425514957N01204492EA0000000440
B0930485514963N01204339EA0000000446
B0930545515046N01204327EA0000000439
B0930595515055N01204430EA0000000447
B0931045515001N01204463EA0000000443
B0931135514896N01204311EA0000000445
B0931185514858N01204198EA0000000453
B0931235514906N01204102EA0000000466
B0931285514965N01204161EA0000000470
B0931345514931N01204273EA0000000476
B0931395514868N01204236EA0000000488
B0931445514855N01204114EA0000000503
B0931505514915N01203996EA0000000510
B0931555514970N01204059EA0000000509
B0932005514936N01204165EA0000000504
B0932065514853N01204095EA0000000517
B0932115514858N01203946EA0000000516
B0932165514938N01203914EA0000000527
B0932225514978N01204043EA0000000530
B0932275514923N01204122EA0000000529
B0932325514858N01204045EA0000000540
B0932385514868N01203867EA0000000538
B0932435514951N01203839EA0000000542
B0932485514983N01203961EA0000000540
B0932545514897N01204022EA0000000538
B0932595514853N01203879EA0000000544
B0933045514887N01203720EA0000000547
B0933105514989N01203717EA0000000549
B0933155514992N01203850EA0000000551
B0933205514909N01203860EA0000000551
B0933265514887N01203682EA0000000556
B0933315514957N01203587EA0000000560
B0933365515036N01203623EA0000000560
B0933425515078N01203774EA0000000547
B0933475515025N01203873EA0000000558
B0933525514949N01203824EA0000000560
B0933585514896N01203666EA0000000565
B0934045514849N01203516EA0000000570
B0934105514809N01203368EA0000000569
B0934165514778N01203211EA0000000569
B0934245514739N01202989EA0000000569
B0934335514709N01202716EA0000000582
B0934385514709N01202569EA0000000587
B0934435514766N01202464EA0000000573
B0934495514826N01202567EA0000000559
B0934545514768N01202663EA0000000563
B0935035514645N01202552EA0000000583
B0935085514661N01202417EA0000000578
B0935135514738N01202409EA0000000571
B0935205514736N01202566EA0000000575
B0935265514650N01202545EA0000000580
B0935315514616N01202418EA0000000595
B0935375514666N01202286EA0000000587
B0935445514722N01202405EA0000000580
B0935555514591N01202371EA0000000594
B0936005514596N01202225EA0000000584
B0936065514684N01202191EA0000000586
B0936125514708N01202313EA0000000592
B0936175514661N01202396EA0000000586
B0936245514552N01202354EA0000000592
B0936295514499N01202244EA0000000599
B0936345514522N01202109EA0000000605
B0936395514596N01202063EA0000000592
B0936445514651N01202150EA0000000592
B0936495514621N01202250EA0000000598
B0936545514550N01202254EA0000000601
B0936595514501N01202136EA0000000599
B0937045514532N01201986EA0000000598
B0937125514653N01201947EA0000000599
B0937175514684N01202063EA0000000585
B0937225514639N01202167EA0000000594
B0937275514562N01202164EA0000000598
B0937365514473N01201945EA0000000602
B0937425514520N01201796EA0000000591
B0937475514594N01201834EA0000000591
B0937525514595N01201947EA0000000584
B0937585514520N01202019EA0000000578
B0938055514417N01202050EA0000000582
B0938115514325N01202049EA0000000596
B0938165514254N01202021EA0000000605
B0938215514197N01202067EA0000000605
B0938285514229N01202206EA0000000590
B0938335514312N01202210EA0000000580
B0938435514357N01201907EA0000000571
B0938485514298N01201786EA0000000594
B0938545514209N01201757EA0000000595
B0938595514156N01201840EA0000000587
B0939045514160N01201963EA0000000585
B0939145514304N01202019EA0000000585
B0939225514446N01202025EA0000000593
B0939325514593N01202092EA0000000599
B0939375514661N01202045EA0000000604
B0939425514678N01201901EA0000000599
B0939475514613N01201798EA0000000604
B0939545514525N01201887EA0000000615
B0939595514551N01202005EA0000000631
B0940045514627N01202012EA0000000634
B0940155514667N01201724EA0000000644
B0940205514596N01201659EA0000000645
B0940275514518N01201749EA0000000660
B0940325514544N01201864EA0000000662
B0940395514656N01201866EA0000000680
B0940445514699N01201741EA0000000697
B0940505514676N01201578EA0000000689
B0940555514606N01201511EA0000000691
B0941005514543N01201552EA0000000691
B0941055514524N01201667EA0000000692
B0941115514563N01201804EA0000000698
B0941265514672N01201522EA0000000702
B0941315514601N01201456EA0000000703
B0941365514541N01201534EA0000000698
B0941425514578N01201682EA0000000710
B0941475514664N01201683EA0000000719
B0942015514723N01201337EA0000000730
B0942065514664N01201260EA0000000730
B0942115514596N01201263EA0000000725
B0942165514546N01201334EA0000000725
B0942235514528N01201477EA0000000736
B0942445514689N01201260EA0000000750
B0942535514582N01201243EA0000000740
B0943025514635N01201397EA0000000758
B0943135514745N01201207EA0000000749
B0943185514697N01201089EA0000000742
B0943305514641N01201295EA0000000748
B0943355514683N01201383EA0000000754
B0943435514770N01201480EA0000000763
B0943485514836N01201463EA0000000769
B0943535514892N01201382EA0000000757
B0943595514912N01201210EA0000000748
B0944045514863N01201101EA0000000750
B0944095514794N01201098EA0000000749
B0944145514744N01201168EA0000000743
B0944265514737N01201423EA0000000752
B0944315514776N01201506EA0000000751
B0944455514917N01201744EA0000000766
B0944565515029N01201599EA0000000757
B0945015514991N01201489EA0000000763
B0945105514874N01201451EA0000000772
B0945165514822N01201548EA0000000776
B0945285514887N01201796EA0000000787
B0945475514915N01201409EA0000000795
B0945555514879N01201227EA0000000801
B0946015514939N01201144EA0000000799
B0946075514981N01201236EA0000000791
B0946125514951N01201328EA0000000795
B0946185514892N01201396EA0000000810
B0946235514834N01201432EA0000000812
B0946315514766N01201313EA0000000809
B0946395514851N01201220EA0000000808
B0946445514922N01201264EA0000000814
B0946525515025N01201344EA0000000824
B0946575515017N01201440EA0000000826
B0947135514966N01201128EA0000000836
B0947205515049N01201043EA0000000839
B0947285515079N01201186EA0000000832
B0947335515020N01201207EA0000000835
B0947505515002N01200794EA0000000834
B0948045515155N01200773EA0000000812
B0948105515197N01200877EA0000000811
B0948295515326N01201225EA0000000784
B0948355515349N01201341EA0000000794
B0948405515366N01201440EA0000000786
B0948475515390N01201603EA0000000776
B0948545515408N01201767EA0000000775
B0948595515421N01201880EA0000000778
B0949085515437N01202079EA0000000797
B0949155515501N01202175EA0000000794
B0949225515583N01202047EA0000000775
B0949295515526N01201883EA0000000773
B0949385515429N01202008EA0000000798
B0949435515430N01202118EA0000000802
B0949585515594N01202017EA0000000784
B0950035515573N01201888EA0000000778
B0950085515507N01201820EA0000000786
B0950165515416N01201898EA0000000799
B0950215515421N01202010EA0000000800
B0950355515569N01201925EA0000000780
B0950405515539N01201799EA0000000780
B0950525515402N01201844EA0000000795
B0950575515404N01201957EA0000000785
B0951135515551N01201790EA0000000782
B0951185515507N01201695EA0000000784
B0951235515442N01201663EA0000000796
B0951295515369N01201641EA0000000799
B0951355515306N01201681EA0000000783
B0951415515338N01201788EA0000000770
B0951595515523N01201563EA0000000768
B0952075515477N01201368EA0000000778
B0952155515403N01201225EA0000000798
B0952205515386N01201099EA0000000777
B0952255515463N01201070EA0000000769
B0952305515464N01201179EA0000000789
B0952355515403N01201159EA0000000798
B0952405515401N01201028EA0000000793
B0952455515471N01201011EA0000000789
B0952505515466N01201109EA0000000788
B0953005515378N01200940EA0000000803
B0953065515454N01200898EA0000000784
B0953115515426N01200998EA0000000799
B0953185515337N01200923EA0000000821
B0953245515336N01200783EA0000000802
B0953375515401N01200944EA0000000803
B0953425515336N01200990EA0000000807
B0954045515301N01200566EA0000000764
B0954095515365N01200513EA0000000751
B0954265515501N01200816EA0000000766
B0954315515483N01200909EA0000000766
B0954425515426N01200722EA0000000766
B0954475515492N01200692EA0000000769
B0954595515605N01200871EA0000000774
B0955145515730N01201147EA0000000777
B0955205515785N01201270EA0000000769
B0955275515854N01201407EA0000000757
B0955345515916N01201546EA0000000754
B0955445516011N01201747EA0000000748
B0955575516151N01201984EA0000000750
B0956025516196N01202078EA0000000745
B0956085516217N01202213EA0000000741
B0956145516238N01202349EA0000000741
B0956195516257N01202459EA0000000739
B0956255516263N01202589EA0000000738
B0956395516246N01202876EA0000000736
B0956445516236N01202972EA0000000730
B0956495516258N01203068EA0000000716
B0957065516512N01203024EA0000000697
B0957295516834N01202815EA0000000706
B0957525517141N01202583EA0000000674
B0958225517537N01202316EA0000000679
B0958325517590N01202468EA0000000672
B0958395517517N01202532EA0000000659
B0958455517437N01202533EA0000000649
B0959205516947N01202331EA0000000615
B0959265516871N01202297EA0000000608
B0959315516803N01202274EA0000000603
B0959385516714N01202230EA0000000619
B0959465516649N01202345EA0000000622
B0959545516746N01202436EA0000000623
B0959595516794N01202326EA0000000628
B1000045516769N01202199EA0000000634
B1000115516684N01202118EA0000000649
B1000165516621N01202127EA0000000654
B1000215516589N01202220EA0000000652
B1000265516623N01202319EA0000000649
B1000315516694N01202312EA0000000652
B1000365516740N01202213EA0000000658
B1000415516736N01202092EA0000000663
B1000465516682N01202008EA0000000656
B1000545516584N01202092EA0000000632
B1001075516753N01202178EA0000000641
B1001125516806N01202059EA0000000649
B1001185516818N01201888EA0000000653
B1001265516723N01201770EA0000000640
B1001325516657N01201866EA0000000636
B1001375516654N01201990EA0000000639
B1001445516717N01202114EA0000000648
B1001535516844N01202104EA0000000655
B1001585516888N01201987EA0000000658
B1002065516832N01201801EA0000000646
B1002125516751N01201879EA0000000630
B1002195516814N01202049EA0000000632
B1002245516910N01202020EA0000000645
B1002305516963N01201859EA0000000666
B1002375516916N01201691EA0000000661
B1002465516803N01201727EA0000000655
B1002535516817N01201893EA0000000652
B1002585516879N01201969EA0000000658
B1003045516959N01202027EA0000000672
B1003095517004N01202113EA0000000681
B1003145516969N01202207EA0000000675
B1003195516904N01202142EA0000000683
B1003255516933N01202002EA0000000681
B1003305517000N01202041EA0000000682
B1003385517020N01202231EA0000000695
B1003435516955N01202260EA0000000693
B1003485516920N01202146EA0000000703
B1003535516963N01202042EA0000000701
B1004015517036N01202127EA0000000705
B1004075516995N01202227EA0000000702
B1004125516926N01202213EA0000000708
B1004185516849N01202165EA0000000717
B1004235516793N01202091EA0000000727
B1004295516824N01201955EA0000000726
B1004355516878N01202039EA0000000719
B1004405516828N01202106EA0000000726
B1004465516740N01202099EA0000000731
B1004515516675N01202044EA0000000738
B1004565516684N01201917EA0000000728
B1005015516758N01201902EA0000000728
B1005085516801N01202042EA0000000732
B1005135516809N01202152EA0000000748
B1005185516798N01202252EA0000000763
B1005305516708N01202092EA0000000750
B1005365516794N01202035EA0000000749
B1005425516836N01202144EA0000000755
B1005515516798N01202338EA0000000754
B1005565516736N01202395EA0000000750
B1006145516704N01202012EA0000000748
B1006195516774N01201971EA0000000746
B1006245516805N01202061EA0000000734
B1006295516748N01202119EA0000000744
B1006355516664N01202078EA0000000745
B1006435516556N01201983EA0000000743
B1006515516450N01201885EA0000000731
B1006595516339N01201824EA0000000728
B1007055516254N01201814EA0000000722
B1007115516173N01201831EA0000000715
B1007175516087N01201851EA0000000703
B1007285515922N01201903EA0000000693
B1007365515808N01201955EA0000000693
B1007445515699N01201988EA0000000688
B1007505515615N01202009EA0000000682
B1007555515545N01202019EA0000000678
B1008015515461N01202017EA0000000675
B1008085515366N01202009EA0000000671
B1008165515256N01202003EA0000000667
B1008235515157N01202008EA0000000662
B1008285515084N01202012EA0000000653
B1008355514980N01202024EA0000000647
B1008405514909N01202033EA0000000644
B1008475514812N01202018EA0000000639
B1008525514746N01201982EA0000000637
B1008585514671N01201930EA0000000629
B1009065514565N01201880EA0000000626
B1009145514464N01201820EA0000000612
B1009225514349N01201762EA0000000595
B1009285514260N01201746EA0000000593
B1009345514176N01201733EA0000000588
B1009395514108N01201723EA0000000581
B1009445514039N01201712EA0000000576
B1009515513945N01201693EA0000000572
B1009585513873N01201765EA0000000568
B1010185514071N01201986EA0000000574
B1010285514118N01201761EA0000000548
B1010335514057N01201692EA0000000546
B1010435513941N01201757EA0000000552
B1010495513887N01201848EA0000000552
B1010555513888N01201973EA0000000553
B1011135514004N01201731EA0000000534
B1011195513921N01201684EA0000000537
B1011245513857N01201724EA0000000527
B1011295513836N01201833EA0000000529
B1011355513865N01201952EA0000000535
B1011435513981N01202002EA0000000495
B1011515514129N01201905EA0000000489
B1011595514259N01201847EA0000000486
B1012045514329N01201864EA0000000484
B1012105514404N01201925EA0000000472
B1012175514493N01202018EA0000000460
B1012245514586N01202094EA0000000472
B1012325514692N01202176EA0000000466
B1012435514833N01202306EA0000000454
B1012495514909N01202368EA0000000446
B1012545514965N01202437EA0000000441
B1013075515079N01202640EA0000000450
B1013245515184N01202966EA0000000430
B1013295515209N01203059EA0000000424
B1013365515227N01203193EA0000000411
B1013425515239N01203323EA0000000403
B1013485515250N01203464EA0000000392
B1013555515261N01203642EA0000000386
B1014035515269N01203835EA0000000384
B1014095515276N01203976EA0000000375
B1014145515282N01204098EA0000000372
B1014195515296N01204216EA0000000375
B1014255515312N01204352EA0000000382
B1014305515319N01204464EA0000000381
B1014365515313N01204596EA0000000371
B1014445515288N01204765EA0000000367
B1014495515247N01204836EA0000000362
B1014545515187N01204805EA0000000366
B1015025515115N01204662EA0000000361
B1015085515065N01204551EA0000000356
B1015135515026N01204445EA0000000343
B1015185514986N01204334EA0000000336
B1015275514917N01204136EA0000000329
B1015345514873N01203975EA0000000319
B1015395514834N01203858EA0000000311
B1015485514778N01203637EA0000000309
B1015535514755N01203520EA0000000300
B1015585514697N01203449EA0000000279
B1016045514612N01203460EA0000000273
B1016105514543N01203521EA0000000281
B1016165514524N01203642EA0000000281
B1016275514574N01203891EA0000000258
B1016365514605N01204110EA0000000242
B1016415514656N01204197EA0000000245
B1016485514765N01204138EA0000000220
B1016545514796N01203965EA0000000220
B1017005514776N01203801EA0000000209
B1017065514750N01203644EA0000000205
B1017135514698N01203495EA0000000195
B1017225514634N01203278EA0000000179
B1017285514621N01203118EA0000000183
B1017335514644N01202988EA0000000171
B1017385514700N01202895EA0000000163
B1017445514802N01202881EA0000000147
B1017495514879N01202937EA0000000138
B1017555514935N01203072EA0000000112
B1018005514970N01203194EA0000000089
B1018095515016N01203425EA0000000047
B1018155515047N01203566EA0000000037
