AOGNOGN
HFDTE290625
HFFXA050
HFPLTPILOTINCHARGE:
HFGTYGLIDERTYPE:ASW-28 18
HFGIDGLIDERID:OY-XTT
HFDTM100GPSDATUM:WGS-1984
HFRFWFIRMWAREVERSION:
HFRHWHARDWAREVERSION:
HFFTYFRTYPE:OGN-FLIGHTBOOK
HFGPSGENERIC
HFPRSPRESSALTSENSOR:
HFCIDCOMPETITIONID:TT
B1256255600688N00901552EA0000000048
B1256285600686N00901500EA0000000047
B1256355600682N00901333EA0000000048
B1256405600674N00901192EA0000000063
B1256455600660N00901061EA0000000092
B1256525600643N00900890EA0000000117
B1256575600632N00900768EA0000000131
B1257075600626N00900514EA0000000160
B1257145600620N00900338EA0000000191
B1257205600595N00900188EA0000000207
B1257275600568N00900006EA0000000230
B1257335600560N00859850EA0000000256
B1257385600549N00859730EA0000000281
B1257445600530N00859591EA0000000296
B1257505600516N00859441EA0000000317
B1257575600509N00859263EA0000000351
B1258025600517N00859142EA0000000382
B1258105600536N00858959EA0000000417
B1258155600564N00858845EA0000000435
B1258205600608N00858747EA0000000466
B1258265600683N00858662EA0000000496
B1258335600790N00858633EA0000000522
B1258385600854N00858607EA0000000525
B1258445600875N00858518EA0000000524
B1258495600837N00858452EA0000000518
B1258545600759N00858461EA0000000526
B1258595600690N00858583EA0000000541
B1259045600673N00858759EA0000000549
B1259095600709N00858910EA0000000549
B1259145600775N00858978EA0000000549
B1259195600834N00858968EA0000000543
B1259245600856N00858896EA0000000534
B1259305600813N00858797EA0000000522
B1259355600726N00858803EA0000000522
B1259405600642N00858930EA0000000529
B1259465600539N00859023EA0000000553
B1259515600482N00858963EA0000000562
B1259565600484N00858878EA0000000571
B1300025600555N00858880EA0000000568
B1300075600609N00859002EA0000000583
B1300125600618N00859176EA0000000594
B1300185600559N00859370EA0000000596
B1300235600477N00859454EA0000000602
B1300285600391N00859457EA0000000615
B1300335600334N00859391EA0000000618
B1300385600330N00859306EA0000000612
B1300435600377N00859266EA0000000607
B1300485600440N00859309EA0000000613
B1300545600508N00859449EA0000000615
B1300595600578N00859505EA0000000623
B1301045600626N00859457EA0000000625
B1301095600622N00859364EA0000000624
B1301145600560N00859304EA0000000634
B1301195600473N00859354EA0000000645
B1301245600417N00859513EA0000000652
B1301295600427N00859691EA0000000648
B1301345600491N00859801EA0000000653
B1301395600560N00859801EA0000000654
B1301445600580N00859717EA0000000656
B1301495600527N00859645EA0000000655
B1301545600435N00859701EA0000000664
B1302015600409N00859939EA0000000670
B1302065600470N00900039EA0000000679
B1302115600531N00900032EA0000000681
B1302165600549N00859959EA0000000686
B1302215600507N00859894EA0000000688
B1302265600423N00859932EA0000000683
B1302315600366N00900086EA0000000690
B1302365600375N00900262EA0000000690
B1302425600453N00900377EA0000000685
B1302475600514N00900341EA0000000689
B1302525600530N00900254EA0000000695
B1302585600514N00900152EA0000000706
B1303035600459N00900107EA0000000715
B1303085600386N00900182EA0000000722
B1303155600386N00900420EA0000000719
B1303205600455N00900478EA0000000716
B1303255600489N00900410EA0000000718
B1303335600462N00900265EA0000000724
B1303395600384N00900223EA0000000728
B1303445600309N00900340EA0000000740
B1303495600307N00900523EA0000000746
B1303545600373N00900613EA0000000757
B1304025600401N00900515EA0000000773
B1304075600322N00900517EA0000000766
B1304125600255N00900654EA0000000786
B1304175600268N00900828EA0000000791
B1304235600347N00900899EA0000000797
B1304285600379N00900835EA0000000801
B1304345600322N00900760EA0000000796
B1304395600236N00900826EA0000000809
B1304445600204N00901000EA0000000819
B1304505600264N00901146EA0000000827
B1304565600323N00901103EA0000000830
B1305015600301N00901024EA0000000837
B1305065600231N00901010EA0000000840
B1305115600158N00901115EA0000000846
B1305165600154N00901289EA0000000851
B1305225600231N00901375EA0000000852
B1305275600262N00901311EA0000000856
B1305325600224N00901242EA0000000854
B1305385600127N00901264EA0000000855
B1305435600062N00901395EA0000000857
B1305485600050N00901571EA0000000865
B1305545600103N00901724EA0000000880
B1306015600187N00901742EA0000000875
B1306065600210N00901665EA0000000877
B1306125600197N00901561EA0000000874
B1306175600180N00901470EA0000000869
B1306225600156N00901378EA0000000871
B1306295600113N00901256EA0000000883
B1306365600063N00901146EA0000000876
B1306435600010N00901025EA0000000867
B1306515559949N00900869EA0000000855
B1306585559904N00900723EA0000000851
B1307085559884N00900506EA0000000851
B1307175559897N00900326EA0000000848
B1307245559941N00900221EA0000000840
B1307305600000N00900164EA0000000841
B1307355600047N00900123EA0000000842
B1307405600092N00900079EA0000000838
B1307455600133N00900028EA0000000839
B1307525600178N00859955EA0000000845
B1307575600207N00859901EA0000000843
B1308025600235N00859843EA0000000840
B1308085600267N00859770EA0000000835
B1308155600311N00859689EA0000000822
B1308215600355N00859627EA0000000817
B1308325600451N00859553EA0000000815
B1308395600522N00859515EA0000000815
B1308445600572N00859482EA0000000818
B1308525600651N00859427EA0000000823
B1308575600702N00859390EA0000000826
B1309045600771N00859332EA0000000847
B1309095600773N00859258EA0000000848
B1309145600707N00859227EA0000000825
B1309195600619N00859315EA0000000807
B1309255600585N00859527EA0000000809
B1309325600649N00859712EA0000000820
B1309385600722N00859807EA0000000826
B1309445600767N00859757EA0000000819
B1309495600731N00859687EA0000000805
B1309545600645N00859709EA0000000789
B1309595600586N00859866EA0000000791
B1310045600603N00900031EA0000000801
B1310115600679N00900191EA0000000795
B1310165600747N00900255EA0000000786
B1310235600837N00900239EA0000000764
B1310325600942N00900178EA0000000761
B1310385601005N00900132EA0000000760
B1310435601052N00900071EA0000000760
B1310485601099N00900008EA0000000764
B1310535601138N00859941EA0000000765
B1310585601113N00859860EA0000000769
B1311035601031N00859886EA0000000766
B1311085600973N00900042EA0000000763
B1311145600994N00900259EA0000000769
B1311195601056N00900375EA0000000777
B1311245601122N00900386EA0000000772
B1311305601158N00900297EA0000000755
B1311365601195N00900192EA0000000754
B1311435601254N00900100EA0000000762
B1311485601292N00900039EA0000000758
B1311535601332N00859981EA0000000761
B1311595601377N00859912EA0000000767
B1312055601414N00859844EA0000000760
B1312175601468N00859690EA0000000751
B1312265601512N00859568EA0000000743
B1312315601537N00859499EA0000000745
B1312375601564N00859415EA0000000743
B1312425601584N00859338EA0000000736
B1312475601603N00859263EA0000000734
B1312525601620N00859193EA0000000733
B1313015601653N00859065EA0000000724
B1313065601670N00858994EA0000000720
B1313125601688N00858907EA0000000709
B1313185601706N00858810EA0000000707
B1313265601711N00858677EA0000000698
B1313325601698N00858563EA0000000691
B1313385601705N00858449EA0000000683
B1313445601717N00858339EA0000000674
B1313495601730N00858246EA0000000663
B1313545601730N00858149EA0000000660
B1314005601702N00858032EA0000000647
B1314065601668N00857914EA0000000637
B1314125601634N00857803EA0000000635
B1314185601599N00857696EA0000000629
B1314235601565N00857598EA0000000624
B1314295601525N00857494EA0000000634
B1314355601483N00857387EA0000000628
B1314405601489N00857298EA0000000628
B1314455601544N00857288EA0000000627
B1314505601592N00857395EA0000000624
B1314565601567N00857592EA0000000612
B1315015601489N00857713EA0000000611
B1315065601434N00857873EA0000000618
B1315115601444N00858041EA0000000616
B1315165601498N00858143EA0000000613
B1315235601578N00858150EA0000000615
B1315285601614N00858101EA0000000616
B1315335601626N00858025EA0000000604
B1315385601575N00857961EA0000000596
B1315435601487N00857999EA0000000591
B1315485601422N00858145EA0000000597
B1315535601423N00858320EA0000000598
B1315585601483N00858387EA0000000602
B1316035601517N00858321EA0000000601
B1316085601484N00858235EA0000000598
B1316135601404N00858217EA0000000597
B1316185601319N00858295EA0000000591
B1316235601270N00858454EA0000000587
B1316285601274N00858628EA0000000580
B1316345601344N00858728EA0000000582
B1316395601389N00858683EA0000000594
B1316445601406N00858607EA0000000595
B1316505601346N00858533EA0000000585
B1316555601257N00858562EA0000000578
B1317005601193N00858695EA0000000566
B1317055601195N00858872EA0000000555
B1317105601253N00858967EA0000000555
B1317155601303N00858950EA0000000544
B1317205601320N00858870EA0000000533
B1317255601297N00858777EA0000000530
B1317315601209N00858732EA0000000522
B1317365601123N00858797EA0000000514
B1317415601044N00858912EA0000000500
B1317475600945N00859059EA0000000484
B1317545600837N00859250EA0000000469
B1318005600744N00859420EA0000000454
B1318075600635N00859621EA0000000439
B1318155600515N00859865EA0000000417
B1318225600414N00900096EA0000000398
B1318285600344N00900312EA0000000398
B1318345600288N00900542EA0000000393
B1318395600254N00900742EA0000000384
B1318445600249N00900944EA0000000379
B1318505600287N00901152EA0000000372
B1318555600336N00901303EA0000000368
B1319025600418N00901492EA0000000357
B1319075600482N00901619EA0000000352
B1319145600581N00901773EA0000000344
B1319195600656N00901835EA0000000337
B1319265600758N00901860EA0000000328
B1319325600842N00901854EA0000000326
B1319395600921N00901815EA0000000334
B1319445600964N00901770EA0000000335
B1319495600973N00901693EA0000000331
B1319545600926N00901640EA0000000338
B1319595600849N00901678EA0000000336
B1320045600784N00901809EA0000000339
B1320095600784N00901984EA0000000347
B1320145600838N00902040EA0000000356
B1320195600848N00901986EA0000000344
B1320245600785N00901952EA0000000339
B1320295600708N00902039EA0000000348
B1320345600683N00902206EA0000000345
B1320395600729N00902342EA0000000341
B1320455600786N00902323EA0000000351
B1320505600817N00902269EA0000000350
B1320555600806N00902195EA0000000349
B1321005600732N00902192EA0000000354
B1321055600671N00902322EA0000000357
B1321105600681N00902489EA0000000355
B1321155600745N00902541EA0000000366
B1321225600806N00902478EA0000000373
B1321275600803N00902398EA0000000374
B1321325600732N00902387EA0000000382
B1321375600674N00902519EA0000000383
B1321425600687N00902681EA0000000393
B1321495600761N00902723EA0000000405
B1321545600804N00902689EA0000000397
B1321595600786N00902612EA0000000395
B1322045600708N00902618EA0000000402
B1322105600645N00902789EA0000000420
B1322155600671N00902935EA0000000426
B1322205600721N00902947EA0000000429
B1322265600696N00902863EA0000000429
B1322315600616N00902894EA0000000446
B1322365600569N00903044EA0000000454
B1322415600595N00903195EA0000000456
B1322465600647N00903213EA0000000464
B1322515600644N00903137EA0000000470
B1322565600570N00903118EA0000000482
B1323015600498N00903229EA0000000488
B1323065600482N00903411EA0000000480
B1323115600533N00903520EA0000000485
B1323165600578N00903487EA0000000486
B1323225600606N00903390EA0000000501
B1323275600575N00903310EA0000000514
B1323325600490N00903342EA0000000530
B1323375600439N00903489EA0000000527
B1323425600462N00903653EA0000000521
B1323485600531N00903684EA0000000541
B1323535600560N00903625EA0000000548
B1323595600498N00903550EA0000000560
B1324045600412N00903633EA0000000564
B1324095600382N00903812EA0000000563
B1324145600427N00903937EA0000000580
B1324205600498N00903964EA0000000589
B1324255600533N00903908EA0000000595
B1324305600490N00903831EA0000000599
B1324355600402N00903868EA0000000612
B1324405600344N00904022EA0000000615
B1324455600357N00904189EA0000000630
B1324505600410N00904258EA0000000642
B1324555600449N00904211EA0000000643
B1325015600402N00904114EA0000000659
B1325065600317N00904150EA0000000670
B1325115600261N00904302EA0000000673
B1325165600275N00904458EA0000000685
B1325225600341N00904509EA0000000692
B1325275600365N00904436EA0000000698
B1325325600313N00904370EA0000000712
B1325385600209N00904432EA0000000718
B1325435600153N00904585EA0000000717
B1325485600168N00904745EA0000000721
B1325545600230N00904798EA0000000728
B1325595600243N00904724EA0000000726
B1326065600141N00904672EA0000000739
B1326115600056N00904779EA0000000735
B1326175600032N00904987EA0000000727
B1326225600075N00905103EA0000000731
B1326275600124N00905102EA0000000728
B1326355600170N00904995EA0000000734
B1326415600176N00904889EA0000000743
B1326465600104N00904849EA0000000759
B1326515600021N00904952EA0000000757
B1326565559997N00905127EA0000000750
B1327015600038N00905257EA0000000756
B1327065600088N00905263EA0000000767
B1327145600129N00905142EA0000000778
B1327205600101N00905036EA0000000791
B1327255600014N00905039EA0000000794
B1327305559937N00905162EA0000000787
B1327355559918N00905338EA0000000781
B1327405559957N00905461EA0000000784
B1327455600009N00905476EA0000000792
B1327505600055N00905457EA0000000806
B1327555600067N00905391EA0000000810
B1328005600014N00905328EA0000000825
B1328055559930N00905370EA0000000826
B1328105559872N00905520EA0000000821
B1328155559878N00905688EA0000000821
B1328215559942N00905766EA0000000828
B1328265559993N00905768EA0000000831
B1328315600030N00905712EA0000000838
B1328365600014N00905630EA0000000853
B1328415559942N00905616EA0000000865
B1328465559862N00905710EA0000000861
B1328515559823N00905882EA0000000862
B1328565559845N00906040EA0000000863
B1329015559901N00906108EA0000000875
B1329065559945N00906073EA0000000881
B1329115559941N00905986EA0000000887
B1329165559886N00905922EA0000000901
B1329215559800N00905959EA0000000907
B1329265559732N00906104EA0000000899
B1329315559723N00906296EA0000000899
B1329385559789N00906460EA0000000921
B1329435559841N00906464EA0000000928
B1329495559851N00906374EA0000000928
B1329555559774N00906330EA0000000944
B1330005559697N00906436EA0000000949
B1330065559678N00906650EA0000000950
B1330115559732N00906745EA0000000958
B1330165559772N00906703EA0000000958
B1330215559758N00906609EA0000000958
B1330265559735N00906512EA0000000968
B1330335559710N00906373EA0000000972
B1330425559677N00906200EA0000000983
B1330475559656N00906107EA0000000975
B1330545559631N00905976EA0000000965
B1331035559630N00905803EA0000000954
B1331115559629N00905641EA0000000946
B1331215559630N00905440EA0000000933
B1331275559626N00905313EA0000000928
B1331335559612N00905186EA0000000920
B1331385559606N00905081EA0000000909
B1331445559596N00904953EA0000000900
B1331495559590N00904847EA0000000891
B1331555559575N00904717EA0000000886
B1332005559563N00904611EA0000000874
B1332055559556N00904500EA0000000866
B1332105559550N00904388EA0000000864
B1332155559544N00904278EA0000000861
B1332205559539N00904169EA0000000853
B1332265559528N00904040EA0000000844
B1332315559518N00903929EA0000000835
B1332385559502N00903778EA0000000834
B1332435559494N00903683EA0000000840
B1332485559488N00903594EA0000000837
B1332535559483N00903510EA0000000832
B1332595559476N00903398EA0000000821
B1333045559473N00903294EA0000000814
B1333115559472N00903134EA0000000815
B1333185559476N00902987EA0000000839
B1333325559476N00902726EA0000000844
B1333415559478N00902575EA0000000850
B1333475559477N00902462EA0000000864
B1333525559477N00902366EA0000000873
B1333595559469N00902231EA0000000891
B1334045559464N00902140EA0000000895
B1334105559459N00902032EA0000000906
B1334155559460N00901938EA0000000917
B1334205559470N00901845EA0000000928
B1334265559501N00901751EA0000000938
B1334315559525N00901681EA0000000946
B1334365559494N00901601EA0000000957
B1334425559393N00901605EA0000000976
B1334475559308N00901707EA0000000984
B1334525559256N00901867EA0000000999
B1334575559256N00902037EA0000001016
B1335025559304N00902148EA0000001022
B1335075559350N00902138EA0000001031
B1335125559343N00902056EA0000001028
B1335185559318N00901930EA0000001024
B1335265559291N00901730EA0000001028
B1335355559259N00901506EA0000001030
B1335415559266N00901369EA0000001024
B1335465559274N00901256EA0000001019
B1335535559285N00901107EA0000001011
B1336025559290N00900913EA0000001002
B1336085559294N00900786EA0000001003
B1336155559304N00900652EA0000001007
B1336245559320N00900495EA0000001003
B1336305559326N00900388EA0000001007
B1336365559326N00900287EA0000001004
B1336415559329N00900200EA0000001002
B1336485559334N00900084EA0000000996
B1336545559346N00859981EA0000000993
B1337005559372N00859885EA0000000984
B1337055559392N00859808EA0000000982
B1337125559417N00859689EA0000000968
B1337195559446N00859568EA0000000954
B1337275559480N00859428EA0000000953
B1337335559498N00859329EA0000000955
B1337385559512N00859244EA0000000953
B1337435559524N00859158EA0000000951
B1337505559540N00859035EA0000000948
B1337565559508N00858933EA0000000947
B1338015559428N00858918EA0000000949
B1338065559344N00858999EA0000000944
B1338115559299N00859157EA0000000935
B1338165559318N00859319EA0000000923
B1338215559377N00859405EA0000000915
B1338265559439N00859468EA0000000913
B1338315559488N00859450EA0000000906
B1338395559531N00859331EA0000000902
B1338465559576N00859228EA0000000901
B1338515559623N00859192EA0000000907
B1338565559679N00859265EA0000000920
B1339015559703N00859416EA0000000927
B1339085559669N00859663EA0000000923
B1339145559608N00859864EA0000000918
B1339195559555N00900038EA0000000916
B1339255559500N00900260EA0000000906
B1339305559463N00900455EA0000000905
B1339355559427N00900649EA0000000907
B1339425559373N00900917EA0000000908
B1339495559321N00901180EA0000000910
B1339545559289N00901365EA0000000915
B1340025559244N00901674EA0000000910
B1340105559192N00901999EA0000000908
B1340185559132N00902320EA0000000935
B1340245559115N00902552EA0000000951
B1340295559164N00902674EA0000000966
B1340345559222N00902679EA0000000961
B1340395559235N00902595EA0000000956
B1340445559173N00902538EA0000000962
B1340495559082N00902599EA0000000968
B1340545559016N00902751EA0000000985
B1340595559007N00902924EA0000001000
B1341045559060N00903016EA0000001008
B1341095559107N00902979EA0000001005
B1341145559087N00902897EA0000001015
B1341195559010N00902901EA0000001028
B1341245558942N00903020EA0000001035
B1341295558926N00903192EA0000001040
B1341345558967N00903311EA0000001055
B1341395559020N00903311EA0000001054
B1341445559022N00903235EA0000001058
B1341495558958N00903204EA0000001063
B1341545558871N00903266EA0000001066
B1341595558782N00903355EA0000001066
B1342065558659N00903506EA0000001079
B1342125558574N00903692EA0000001082
B1342175558500N00903849EA0000001082
B1342225558429N00904007EA0000001082
B1342305558330N00904266EA0000001075
B1342355558294N00904453EA0000001072
B1342405558268N00904643EA0000001063
B1342465558224N00904874EA0000001053
B1342535558180N00905145EA0000001051
B1343015558138N00905449EA0000001046
B1343065558117N00905638EA0000001051
B1343115558103N00905827EA0000001053
B1343165558091N00906016EA0000001056
B1343215558088N00906204EA0000001071
B1343265558110N00906376EA0000001077
B1343315558167N00906483EA0000001070
B1343375558242N00906507EA0000001066
B1343425558281N00906452EA0000001068
B1343475558290N00906367EA0000001069
B1343525558294N00906274EA0000001065
B1343595558277N00906129EA0000001060
B1344045558245N00906025EA0000001056
B1344095558213N00905918EA0000001053
B1344185558138N00905751EA0000001050
B1344235558087N00905664EA0000001037
B1344295558025N00905556EA0000001033
B1344345557980N00905467EA0000001030
B1344405557927N00905364EA0000001025
B1344465557873N00905256EA0000001010
B1344525557822N00905150EA0000001011
B1344575557814N00905064EA0000001008
B1345025557853N00905012EA0000001004
B1345105557916N00904937EA0000001003
B1345165557941N00904858EA0000000994
B1345245557980N00904746EA0000000986
B1345295558026N00904729EA0000000982
B1345385558127N00904880EA0000000964
B1345445558170N00905068EA0000000956
B1345495558182N00905254EA0000000952
B1345545558175N00905453EA0000000963
B1345595558162N00905650EA0000000979
B1346045558164N00905843EA0000000995
B1346095558213N00905975EA0000001008
B1346145558277N00906006EA0000001017
B1346195558312N00905950EA0000001012
B1346245558297N00905861EA0000000998
B1346305558210N00905823EA0000001000
B1346355558122N00905930EA0000001021
B1346425558045N00906175EA0000001050
B1346475558000N00906350EA0000001059
B1346535557957N00906571EA0000001067
B1347025557918N00906911EA0000001082
B1347085557898N00907143EA0000001090
B1347165557885N00907465EA0000001091
B1347215557880N00907670EA0000001097
B1347295557838N00907985EA0000001103
B1347395557754N00908397EA0000001098
B1347475557687N00908730EA0000001099
B1347525557637N00908931EA0000001100
B1347575557592N00909138EA0000001101
B1348025557592N00909346EA0000001101
B1348085557652N00909541EA0000001102
B1348135557714N00909665EA0000001107
B1348205557793N00909837EA0000001103
B1348255557852N00909948EA0000001095
B1348345557959N00910163EA0000001080
B1348395558021N00910281EA0000001074
B1348445558085N00910393EA0000001065
B1348525558192N00910563EA0000001056
B1348585558271N00910676EA0000001050
B1349065558382N00910827EA0000001035
B1349135558478N00910947EA0000001031
B1349205558571N00911066EA0000001017
B1349275558666N00911179EA0000001009
B1349355558775N00911281EA0000001003
B1349415558855N00911353EA0000001001
B1349485558951N00911424EA0000000992
B1349545559036N00911470EA0000000979
B1349595559109N00911502EA0000000974
B1350065559208N00911536EA0000000971
B1350115559275N00911557EA0000000961
B1350175559355N00911574EA0000000949
B1350225559420N00911576EA0000000948
B1350305559518N00911548EA0000000952
B1350365559569N00911476EA0000000965
B1350425559600N00911393EA0000000975
B1350475559620N00911311EA0000000981
B1350525559631N00911230EA0000000996
B1351005559642N00911085EA0000000994
B1351065559644N00910957EA0000001005
B1351115559649N00910850EA0000001013
B1351165559654N00910746EA0000001026
B1351215559659N00910642EA0000001025
B1351265559669N00910535EA0000001024
B1351325559681N00910411EA0000001022
B1351405559689N00910241EA0000001014
B1351465559692N00910114EA0000001023
B1351525559704N00910000EA0000001028
B1352015559730N00909828EA0000001040
B1352085559745N00909697EA0000001056
B1352145559762N00909593EA0000001076
B1352205559776N00909495EA0000001093
B1352265559788N00909388EA0000001107
B1352315559798N00909294EA0000001115
B1352405559802N00909128EA0000001140
B1352455559797N00909042EA0000001138
B1352505559797N00908948EA0000001136
B1352565559804N00908836EA0000001143
B1353015559820N00908744EA0000001146
B1353065559835N00908654EA0000001148
B1353115559846N00908563EA0000001144
B1353195559865N00908420EA0000001134
B1353265559879N00908285EA0000001126
B1353325559876N00908176EA0000001130
B1353405559888N00908043EA0000001121
B1353475559908N00907928EA0000001115
B1353545559923N00907814EA0000001111
B1353595559937N00907736EA0000001103
B1354055559955N00907633EA0000001092
B1354125559975N00907510EA0000001087
B1354195559991N00907383EA0000001087
B1354275600013N00907243EA0000001080
B1354325600025N00907155EA0000001072
B1354375600020N00907057EA0000001070
B1354435559985N00906941EA0000001073
B1354485559961N00906852EA0000001069
B1354555559947N00906722EA0000001044
B1355005559940N00906624EA0000001033
B1355075559935N00906497EA0000001023
B1355155559943N00906349EA0000001006
B1355215559954N00906241EA0000000995
B1355305559967N00906070EA0000000982
B1355375559981N00905934EA0000001000
B1355435559993N00905830EA0000001020
B1355495600005N00905736EA0000001041
B1355545600013N00905659EA0000001041
B1355595600021N00905573EA0000001023
B1356135600026N00905293EA0000001008
B1356215600028N00905127EA0000001008
B1356275600026N00905012EA0000001000
B1356345600020N00904872EA0000000996
B1356435600021N00904701EA0000000994
B1356505600037N00904566EA0000000987
B1356555600052N00904475EA0000000990
B1357005600073N00904388EA0000000993
B1357065600093N00904291EA0000001002
B1357135600109N00904171EA0000001003
B1357185600117N00904088EA0000001007
B1357255600119N00903969EA0000001009
B1357315600115N00903862EA0000001017
B1357385600108N00903751EA0000001022
B1357445600111N00903652EA0000001012
B1357515600127N00903535EA0000001010
B1357575600143N00903434EA0000001005
B1358025600187N00903374EA0000000995
B1358075600259N00903419EA0000000986
B1358135600340N00903544EA0000001004
B1358185600410N00903575EA0000001011
B1358235600451N00903502EA0000001016
B1358285600418N00903412EA0000001032
B1358335600335N00903419EA0000001039
B1358395600273N00903587EA0000001058
B1358445600303N00903716EA0000001061
B1358495600357N00903702EA0000001061
B1358545600337N00903613EA0000001080
B1358595600260N00903621EA0000001089
B1359045600201N00903758EA0000001096
B1359095600228N00903889EA0000001103
B1359145600281N00903865EA0000001105
B1359245600285N00903658EA0000001116
B1359305600285N00903525EA0000001110
B1359365600287N00903389EA0000001115
B1359475600283N00903157EA0000001092
B1359545600280N00903010EA0000001088
B1400025600279N00902850EA0000001084
B1400135600265N00902633EA0000001094
B1400225600261N00902460EA0000001113
B1400325600279N00902281EA0000001113
B1400375600289N00902186EA0000001116
B1400425600301N00902097EA0000001123
B1400475600312N00902009EA0000001130
B1400525600324N00901921EA0000001139
B1400585600333N00901820EA0000001144
B1401045600339N00901713EA0000001143
B1401095600346N00901616EA0000001144
B1401145600354N00901521EA0000001142
B1401195600362N00901428EA0000001141
B1401275600376N00901282EA0000001157
B1401355600375N00901125EA0000001156
B1401455600374N00900924EA0000001148
B1401525600366N00900781EA0000001152
B1401575600362N00900688EA0000001143
B1402025600364N00900592EA0000001136
B1402095600375N00900453EA0000001129
B1402195600396N00900256EA0000001123
B1402245600407N00900153EA0000001120
B1402325600428N00859986EA0000001110
B1402395600444N00859832EA0000001103
B1402455600452N00859700EA0000001102
B1402535600459N00859534EA0000001104
B1402585600467N00859434EA0000001097
B1403035600483N00859334EA0000001093
B1403145600549N00859130EA0000001082
B1403235600613N00858972EA0000001079
B1403305600662N00858851EA0000001071
B1403355600695N00858764EA0000001070
B1403435600742N00858631EA0000001071
B1403485600771N00858545EA0000001067
B1403545600807N00858444EA0000001063
B1404015600851N00858346EA0000001086
B1404065600880N00858281EA0000001085
B1404145600927N00858163EA0000001092
B1404225600976N00858048EA0000001092
B1404295601012N00857944EA0000001092
B1404375601046N00857824EA0000001080
B1404425601059N00857749EA0000001074
B1404475601068N00857669EA0000001070
B1404595601070N00857457EA0000001052
B1405065601083N00857324EA0000001059
B1405165601087N00857166EA0000001060
B1405285601070N00856970EA0000001044
B1405355601058N00856846EA0000001037
B1405405601085N00856778EA0000001031
B1405455601144N00856764EA0000001022
B1405545601273N00856811EA0000001006
B1406025601391N00856851EA0000000997
B1406105601507N00856873EA0000000994
B1406165601588N00856883EA0000000990
B1406245601697N00856904EA0000000983
B1406295601763N00856913EA0000000980
B1406375601866N00856921EA0000000968
B1406435601941N00856926EA0000000965
B1406495602015N00856929EA0000000955
B1406555602092N00856936EA0000000945
B1407015602170N00856934EA0000000939
B1407145602341N00856932EA0000000921
B1407195602406N00856928EA0000000913
B1407265602497N00856916EA0000000903
B1407325602579N00856895EA0000000892
B1407375602650N00856876EA0000000897
B1407435602723N00856867EA0000000919
B1407485602752N00856821EA0000000933
B1407535602718N00856749EA0000000933
B1407585602638N00856728EA0000000933
B1408035602548N00856805EA0000000930
B1408085602487N00856967EA0000000921
B1408135602485N00857156EA0000000914
B1408185602540N00857280EA0000000925
B1408255602625N00857361EA0000000929
B1408305602679N00857343EA0000000915
B1408355602686N00857254EA0000000924
B1408405602619N00857199EA0000000937
B1408455602529N00857248EA0000000939
B1408505602461N00857399EA0000000931
B1408555602448N00857594EA0000000930
B1409015602499N00857761EA0000000927
B1409065602562N00857789EA0000000925
B1409115602614N00857754EA0000000934
B1409165602674N00857773EA0000000939
B1409215602719N00857914EA0000000934
B1409265602702N00858099EA0000000954
B1409315602628N00858189EA0000000974
B1409365602565N00858150EA0000000984
B1409415602553N00858057EA0000000995
B1409465602600N00858028EA0000001008
B1409515602656N00858126EA0000001025
B1409565602661N00858299EA0000001021
B1410015602597N00858435EA0000001037
B1410065602521N00858432EA0000001052
B1410125602496N00858331EA0000001066
B1410175602540N00858298EA0000001080
B1410245602625N00858298EA0000001082
B1410295602672N00858256EA0000001086
B1410345602711N00858182EA0000001097
B1410405602746N00858078EA0000001102
B1410465602765N00857968EA0000001106
B1410525602783N00857860EA0000001101
B1411015602814N00857692EA0000001091
B1411075602830N00857575EA0000001087
B1411135602845N00857464EA0000001083
B1411215602866N00857321EA0000001075
B1411275602902N00857231EA0000001069
B1411345602965N00857149EA0000001062
B1411425603024N00857040EA0000001055
B1411475603051N00856957EA0000001053
B1411545603095N00856850EA0000001049
B1411595603139N00856789EA0000001045
B1412045603191N00856741EA0000001046
B1412115603255N00856661EA0000001057
B1412185603319N00856575EA0000001073
B1412245603376N00856497EA0000001082
B1412295603423N00856431EA0000001084
B1412365603497N00856352EA0000001090
B1412415603553N00856292EA0000001094
B1412465603566N00856188EA0000001094
B1412515603531N00856080EA0000001091
B1412565603451N00856026EA0000001100
B1413015603353N00856052EA0000001106
B1413065603267N00856180EA0000001107
B1413115603254N00856380EA0000001100
B1413165603303N00856545EA0000001102
B1413225603356N00856756EA0000001109
B1413275603380N00856962EA0000001107
B1413335603405N00857208EA0000001113
B1413405603453N00857455EA0000001104
B1413455603493N00857620EA0000001096
B1413525603549N00857860EA0000001086
B1413575603583N00858044EA0000001075
B1414035603628N00858273EA0000001064
B1414085603687N00858405EA0000001062
B1414135603749N00858403EA0000001049
B1414185603790N00858336EA0000001041
B1414245603838N00858258EA0000001037
B1414315603892N00858167EA0000001031
B1414385603942N00858076EA0000001027
B1414445603982N00857999EA0000001023
B1414505604020N00857920EA0000001019
B1414555604043N00857845EA0000001015
B1415015604062N00857749EA0000001011
B1415105604091N00857604EA0000000996
B1415155604100N00857519EA0000000990
B1415205604060N00857434EA0000000980
B1415285603929N00857380EA0000000971
B1415335603835N00857411EA0000000967
B1415395603719N00857474EA0000000958
B1415465603589N00857467EA0000000944
B1415535603473N00857407EA0000000934
B1416025603327N00857313EA0000000911
B1416095603218N00857225EA0000000899
B1416155603128N00857147EA0000000898
B1416245602993N00857035EA0000000898
B1416295602918N00856975EA0000000910
B1416345602850N00856921EA0000000921
B1416395602791N00856847EA0000000921
B1416445602780N00856761EA0000000933
B1416515602840N00856725EA0000000935
B1416565602894N00856818EA0000000946
B1417025602907N00857007EA0000000944
B1417075602857N00857172EA0000000935
B1417125602768N00857261EA0000000948
B1417175602688N00857238EA0000000953
B1417225602655N00857150EA0000000955
B1417275602680N00857089EA0000000969
B1417325602731N00857108EA0000000974
B1417375602779N00857212EA0000000973
B1417435602794N00857406EA0000000970
B1417485602758N00857583EA0000000959
B1417545602659N00857721EA0000000974
B1418005602561N00857734EA0000000995
B1418055602501N00857678EA0000000996
B1418105602493N00857601EA0000000993
B1418155602544N00857610EA0000000989
B1418205602579N00857751EA0000000999
B1418265602542N00857965EA0000001009
B1418315602461N00858098EA0000001018
B1418365602367N00858188EA0000001026
B1418415602292N00858330EA0000001022
B1418475602250N00858558EA0000001000
B1418525602229N00858763EA0000001000
B1418595602200N00859055EA0000001010
B1419055602161N00859299EA0000001031
B1419115602099N00859523EA0000001042
B1419165602057N00859713EA0000001044
B1419215602025N00859904EA0000001043
B1419265601998N00900095EA0000001037
B1419325601963N00900329EA0000001025
B1419375601938N00900532EA0000001026
B1419425601917N00900735EA0000001029
B1419475601894N00900936EA0000001037
B1419525601873N00901135EA0000001038
B1419575601850N00901328EA0000001042
B1420025601824N00901518EA0000001052
B1420085601798N00901751EA0000001052
B1420145601778N00901993EA0000001058
B1420205601741N00902227EA0000001069
B1420265601696N00902462EA0000001081
B1420315601661N00902659EA0000001085
B1420365601619N00902852EA0000001079
B1420445601554N00903200EA0000001046
B1420525601488N00903564EA0000001051
B1420595601426N00903873EA0000001040
B1421045601379N00904091EA0000001041
B1421125601299N00904429EA0000001037
B1421185601243N00904680EA0000001034
B1421235601192N00904883EA0000001033
B1421315601098N00905186EA0000001030
B1421365601037N00905368EA0000001026
B1421465600927N00905729EA0000001018
B1421545600846N00906019EA0000001022
B1421595600802N00906200EA0000001046
B1422115600709N00906594EA0000001080
B1422185600656N00906834EA0000001098
B1422265600601N00907116EA0000001101
B1422375600517N00907520EA0000001097
B1422425600487N00907700EA0000001119
B1422495600447N00907951EA0000001110
B1422545600412N00908144EA0000001113
B1423005600365N00908366EA0000001123
B1423075600310N00908618EA0000001127
B1423125600280N00908804EA0000001118
B1423175600298N00908982EA0000001121
B1423225600357N00909073EA0000001113
B1423275600410N00909042EA0000001101
B1423345600419N00908903EA0000001084
B1423415600425N00908752EA0000001064
B1423495600438N00908584EA0000001069
B1423545600446N00908481EA0000001050
B1424025600464N00908306EA0000001045
B1424095600476N00908162EA0000001047
B1424155600480N00908040EA0000001037
B1424255600483N00907814EA0000001050
B1424315600494N00907708EA0000001063
B1424385600516N00907583EA0000001056
B1424475600536N00907416EA0000001048
B1424535600547N00907295EA0000001034
B1425005600556N00907142EA0000001006
B1425065600559N00906988EA0000000991
B1425115600566N00906855EA0000000983
B1425165600573N00906734EA0000000997
B1425215600586N00906622EA0000000990
B1425265600607N00906508EA0000000981
B1425325600633N00906392EA0000000998
B1425375600651N00906307EA0000000992
B1425445600682N00906182EA0000000986
B1425515600709N00906043EA0000000978
B1425575600726N00905915EA0000000974
B1426045600742N00905778EA0000000998
B1426105600755N00905668EA0000000996
B1426175600769N00905538EA0000000994
B1426245600780N00905408EA0000000987
B1426335600787N00905238EA0000000982
B1426395600800N00905124EA0000000974
B1426445600811N00905022EA0000000964
B1426515600831N00904874EA0000000949
B1426565600847N00904761EA0000000943
B1427015600849N00904640EA0000000942
B1427075600843N00904502EA0000000974
B1427145600842N00904360EA0000000975
B1427205600838N00904231EA0000000983
B1427255600833N00904130EA0000000984
B1427315600829N00904005EA0000000972
B1427375600818N00903869EA0000000983
B1427425600813N00903756EA0000000988
B1427475600808N00903640EA0000000991
B1427525600803N00903524EA0000000995
B1427575600796N00903404EA0000001001
B1428055600791N00903217EA0000001000
B1428115600793N00903071EA0000000992
B1428215600792N00902834EA0000001010
B1428285600789N00902690EA0000001017
B1428355600790N00902552EA0000001016
B1428405600797N00902456EA0000001016
B1428455600807N00902361EA0000001011
B1428515600796N00902247EA0000001028
B1428595600783N00902105EA0000001020
B1429125600784N00901886EA0000001016
B1429175600786N00901797EA0000001014
B1429275600793N00901615EA0000001003
B1429345600804N00901483EA0000000993
B1429425600818N00901322EA0000000983
B1429475600828N00901219EA0000000981
B1429545600849N00901084EA0000000975
B1430005600876N00900970EA0000000970
B1430085600895N00900808EA0000000966
B1430215600893N00900547EA0000000959
B1430265600883N00900436EA0000000950
B1430315600873N00900321EA0000000942
B1430365600834N00900208EA0000000931
B1430425600746N00900104EA0000000929
B1430485600660N00900013EA0000000930
B1430535600591N00859932EA0000000922
B1430585600526N00859847EA0000000918
B1431045600454N00859729EA0000000903
B1431105600380N00859604EA0000000897
B1431165600299N00859490EA0000000899
B1431215600232N00859399EA0000000898
B1431275600156N00859290EA0000000894
B1431335600084N00859175EA0000000885
B1431395600015N00859053EA0000000880
B1431515559877N00858824EA0000000868
B1431565559815N00858726EA0000000864
B1432015559754N00858630EA0000000867
B1432065559698N00858538EA0000000886
B1432115559640N00858471EA0000000910
B1432165559556N00858483EA0000000907
B1432215559483N00858627EA0000000912
B1432265559469N00858804EA0000000917
B1432315559506N00858939EA0000000905
B1432365559570N00858976EA0000000911
B1432415559603N00858919EA0000000922
B1432465559585N00858836EA0000000933
B1432515559517N00858798EA0000000934
B1432565559430N00858861EA0000000931
B1433015559369N00859016EA0000000927
B1433065559367N00859196EA0000000932
B1433115559420N00859299EA0000000930
B1433165559473N00859278EA0000000934
B1433225559450N00859173EA0000000946
B1433275559366N00859170EA0000000954
B1433325559285N00859287EA0000000957
B1433375559258N00859470EA0000000953
B1433425559303N00859603EA0000000954
B1433475559362N00859606EA0000000961
B1433545559380N00859492EA0000000971
B1434005559376N00859387EA0000000968
B1434055559382N00859302EA0000000946
B1434115559437N00859222EA0000000925
B1434175559498N00859152EA0000000924
B1434235559552N00859079EA0000000908
B1434315559613N00858958EA0000000905
B1434385559645N00858847EA0000000897
B1434435559677N00858768EA0000000896
B1434485559722N00858708EA0000000907
B1434575559771N00858582EA0000000928
B1435025559796N00858508EA0000000926
B1435085559822N00858410EA0000000922
B1435145559845N00858307EA0000000912
B1435205559867N00858197EA0000000907
B1435265559890N00858095EA0000000908
B1435325559919N00858005EA0000000899
B1435405559967N00857891EA0000000907
B1435525600032N00857730EA0000000896
B1436005600069N00857607EA0000000884
B1436075600093N00857488EA0000000876
B1436125600104N00857405EA0000000876
B1436185600103N00857302EA0000000869
B1436245600075N00857185EA0000000863
B1436315600043N00857048EA0000000855
B1436385600010N00856910EA0000000849
B1436455559961N00856784EA0000000851
B1436505559918N00856700EA0000000854
B1436555559878N00856623EA0000000858
B1437015559834N00856526EA0000000853
B1437065559792N00856440EA0000000854
B1437125559737N00856334EA0000000846
B1437175559680N00856258EA0000000843
B1437225559585N00856274EA0000000835
B1437275559501N00856393EA0000000833
B1437345559439N00856656EA0000000826
B1437425559425N00856970EA0000000815
B1437475559408N00857172EA0000000798
B1437525559388N00857383EA0000000793
B1437575559369N00857590EA0000000791
B1438025559347N00857795EA0000000806
B1438075559323N00857981EA0000000816
B1438165559285N00858322EA0000000817
B1438245559260N00858618EA0000000821
B1438295559250N00858802EA0000000826
B1438345559283N00858949EA0000000831
B1438395559341N00859004EA0000000824
B1438445559403N00859040EA0000000811
B1438495559435N00859200EA0000000805
B1438555559394N00859427EA0000000794
B1439005559349N00859619EA0000000786
B1439085559281N00859930EA0000000778
B1439145559226N00900146EA0000000787
B1439215559161N00900391EA0000000778
B1439315559099N00900772EA0000000758
B1439405559047N00901129EA0000000746
B1439465559009N00901366EA0000000736
B1439565558938N00901771EA0000000717
B1440025558895N00902014EA0000000710
B1440085558854N00902262EA0000000708
B1440165558804N00902584EA0000000702
B1440225558771N00902827EA0000000699
B1440275558781N00903014EA0000000697
B1440345558860N00903176EA0000000694
B1440395558922N00903255EA0000000690
B1440445558987N00903331EA0000000686
B1440505559066N00903410EA0000000682
B1440565559146N00903487EA0000000673
B1441015559212N00903540EA0000000671
B1441065559275N00903582EA0000000677
B1441115559333N00903615EA0000000687
B1441165559366N00903579EA0000000686
B1441215559343N00903500EA0000000678
B1441265559266N00903477EA0000000679
B1441315559177N00903561EA0000000673
B1441365559125N00903727EA0000000682
B1441415559118N00903900EA0000000686
B1441465559155N00904024EA0000000686
B1441515559204N00904049EA0000000692
B1441565559220N00903990EA0000000688
B1442015559175N00903918EA0000000678
B1442065559083N00903927EA0000000682
B1442115559003N00904046EA0000000687
B1442175558987N00904255EA0000000686
B1442225559030N00904360EA0000000690
B1442275559074N00904363EA0000000693
B1442325559076N00904294EA0000000686
B1442375559025N00904226EA0000000683
B1442435558917N00904238EA0000000685
B1442505558805N00904411EA0000000694
B1442555558769N00904579EA0000000689
B1443005558793N00904722EA0000000686
B1443065558853N00904783EA0000000694
B1443125558904N00904781EA0000000699
B1443185558918N00904711EA0000000695
B1443235558865N00904653EA0000000691
B1443285558774N00904688EA0000000693
B1443335558711N00904838EA0000000692
B1443385558719N00905006EA0000000682
B1443445558782N00905055EA0000000680
B1443525558838N00904979EA0000000677
B1443585558875N00904916EA0000000670
B1444035558908N00904861EA0000000658
B1444085558941N00904804EA0000000649
B1444145558981N00904731EA0000000633
B1444195559025N00904664EA0000000610
B1444255559095N00904570EA0000000574
B1444325559167N00904480EA0000000587
B1444375559210N00904430EA0000000575
B1444435559269N00904368EA0000000546
B1444505559350N00904284EA0000000523
B1444555559397N00904236EA0000000537
B1445045559474N00904174EA0000000514
B1445115559549N00904119EA0000000469
B1445165559619N00904058EA0000000432
B1445225559692N00903995EA0000000455
B1445275559735N00903964EA0000000458
B1445355559805N00903925EA0000000443
B1445415559854N00903899EA0000000435
B1445515559930N00903849EA0000000406
B1445585559989N00903807EA0000000384
B1446085600076N00903746EA0000000375
B1446155600139N00903709EA0000000364
B1446215600191N00903660EA0000000358
B1446265600230N00903620EA0000000358
B1446335600289N00903570EA0000000353
B1446425600379N00903524EA0000000335
B1446475600425N00903490EA0000000326
B1446535600472N00903431EA0000000315
B1446595600528N00903398EA0000000309
B1447055600600N00903386EA0000000285
B1447115600685N00903393EA0000000271
B1447185600793N00903409EA0000000265
B1447245600883N00903421EA0000000275
B1447305600969N00903427EA0000000275
B1447355601017N00903374EA0000000272
B1447405601007N00903267EA0000000251
B1447465600973N00903119EA0000000223
B1447555600949N00902879EA0000000197
B1448005600926N00902755EA0000000198
B1448075600896N00902602EA0000000169
B1448125600882N00902485EA0000000155
B1448185600861N00902342EA0000000145
B1448245600839N00902206EA0000000137
B1448295600819N00902094EA0000000128
B1448355600790N00901956EA0000000109
B1448415600764N00901809EA0000000091
B1448475600747N00901659EA0000000071
B1448525600731N00901533EA0000000064
B1448575600706N00901408EA0000000054
B1449035600679N00901252EA0000000040
B1449115600646N00901063EA0000000041
B1449175600618N00900983EA0000000041
