AOGNOGN
HFDTE290625
HFFXA050
HFPLTPILOTINCHARGE:
HFGTYGLIDERTYPE:LS-1 d
HFGIDGLIDERID:OY-JUX
HFDTM100GPSDATUM:WGS-1984
HFRFWFIRMWAREVERSION:
HFRHWHARDWAREVERSION:
HFFTYFRTYPE:OGN-FLIGHTBOOK
HFGPSGENERIC
HFPRSPRESSALTSENSOR:
HFCIDCOMPETITIONID:60
B1106175600708N00901545EA0000000045
B1106205600704N00901491EA0000000046
B1106265600695N00901350EA0000000053
B1106315600683N00901231EA0000000080
B1106365600668N00901114EA0000000105
B1106425600649N00900990EA0000000135
B1106495600635N00900853EA0000000160
B1106565600631N00900709EA0000000166
B1107025600640N00900564EA0000000181
B1107105600642N00900365EA0000000230
B1107155600660N00900250EA0000000253
B1107225600724N00900134EA0000000290
B1107275600785N00900087EA0000000313
B1107355600902N00900077EA0000000349
B1107405600980N00900095EA0000000368
B1107465601072N00900091EA0000000379
B1107565601207N00900034EA0000000416
B1108025601291N00859986EA0000000439
B1108075601360N00859943EA0000000461
B1108145601458N00859888EA0000000485
B1108195601531N00859860EA0000000493
B1108245601602N00859834EA0000000513
B1108305601686N00859799EA0000000554
B1108355601751N00859763EA0000000593
B1108405601755N00859690EA0000000620
B1108455601688N00859682EA0000000630
B1108505601614N00859787EA0000000627
B1108555601574N00859950EA0000000633
B1109025601590N00900162EA0000000641
B1109075601644N00900252EA0000000655
B1109125601688N00900248EA0000000672
B1109175601664N00900192EA0000000685
B1109225601592N00900214EA0000000694
B1109285601514N00900360EA0000000702
B1109345601487N00900555EA0000000713
B1109395601514N00900674EA0000000727
B1109445601567N00900686EA0000000727
B1109495601604N00900626EA0000000744
B1109545601583N00900564EA0000000766
B1109595601507N00900603EA0000000774
B1110045601449N00900742EA0000000779
B1110105601465N00900906EA0000000799
B1110155601518N00900936EA0000000808
B1110205601542N00900877EA0000000823
B1110265601482N00900826EA0000000842
B1110315601406N00900914EA0000000842
B1110365601372N00901083EA0000000848
B1110425601404N00901242EA0000000859
B1110525601508N00901253EA0000000878
B1110585601515N00901164EA0000000890
B1111035601456N00901134EA0000000908
B1111085601385N00901233EA0000000910
B1111145601359N00901431EA0000000918
B1111195601389N00901563EA0000000929
B1111245601442N00901615EA0000000934
B1111305601499N00901586EA0000000948
B1111355601493N00901515EA0000000967
B1111405601423N00901517EA0000000979
B1111465601366N00901684EA0000000988
B1111515601401N00901818EA0000001001
B1111565601455N00901845EA0000001014
B1112025601444N00901764EA0000001033
B1112075601368N00901782EA0000001048
B1112135601311N00901950EA0000001060
B1112185601337N00902089EA0000001067
B1112235601395N00902135EA0000001072
B1112285601437N00902094EA0000001082
B1112345601421N00902008EA0000001092
B1112395601356N00901988EA0000001104
B1112445601285N00902069EA0000001118
B1112525601307N00902289EA0000001124
B1112575601367N00902318EA0000001137
B1113025601372N00902258EA0000001143
B1113075601302N00902265EA0000001153
B1113125601258N00902397EA0000001163
B1113185601307N00902511EA0000001179
B1113235601339N00902472EA0000001188
B1113285601304N00902407EA0000001187
B1113335601225N00902436EA0000001201
B1113385601177N00902567EA0000001213
B1113455601225N00902740EA0000001218
B1113505601274N00902832EA0000001231
B1113555601269N00902983EA0000001227
B1114005601227N00903141EA0000001228
B1114075601146N00903342EA0000001245
B1114135601087N00903510EA0000001249
B1114195601029N00903682EA0000001257
B1114265600950N00903870EA0000001256
B1114335600886N00904078EA0000001243
B1114405600820N00904304EA0000001241
B1114455600773N00904458EA0000001251
B1114515600712N00904642EA0000001256
B1115025600571N00904954EA0000001256
B1115105600451N00905139EA0000001256
B1115155600367N00905205EA0000001256
B1115205600288N00905225EA0000001249
B1115255600213N00905223EA0000001247
B1115315600170N00905148EA0000001240
B1115375600208N00905086EA0000001233
B1115425600262N00905072EA0000001225
B1115485600336N00905088EA0000001221
B1115545600410N00905090EA0000001213
B1116035600512N00905048EA0000001194
B1116095600572N00904992EA0000001188
B1116145600627N00904962EA0000001185
B1116215600695N00904900EA0000001181
B1116275600742N00904826EA0000001176
B1116325600774N00904753EA0000001180
B1116375600805N00904681EA0000001184
B1116435600852N00904606EA0000001197
B1116485600894N00904548EA0000001205
B1116545600932N00904461EA0000001226
B1117025600988N00904361EA0000001234
B1117095601015N00904249EA0000001246
B1117155601043N00904159EA0000001248
B1117205601072N00904095EA0000001253
B1117255601111N00904043EA0000001252
B1117325601161N00903948EA0000001255
B1117395601190N00903842EA0000001272
B1117455601210N00903754EA0000001289
B1117545601234N00903612EA0000001299
B1118035601236N00903451EA0000001293
B1118105601217N00903327EA0000001303
B1118185601186N00903200EA0000001303
B1118235601159N00903124EA0000001310
B1118295601135N00903031EA0000001310
B1118345601130N00902956EA0000001301
B1118395601134N00902878EA0000001292
B1118495601178N00902751EA0000001283
B1118555601226N00902660EA0000001260
B1119015601276N00902571EA0000001279
B1119145601373N00902378EA0000001277
B1119215601424N00902262EA0000001261
B1119265601460N00902171EA0000001259
B1119325601504N00902065EA0000001252
B1119375601539N00901977EA0000001252
B1119425601575N00901887EA0000001263
B1119485601631N00901837EA0000001293
B1119535601670N00901800EA0000001301
B1120025601743N00901739EA0000001294
B1120085601774N00901662EA0000001277
B1120145601789N00901544EA0000001266
B1120215601787N00901399EA0000001266
B1120265601778N00901300EA0000001257
B1120315601768N00901212EA0000001250
B1120375601758N00901099EA0000001247
B1120435601738N00900977EA0000001274
B1120485601697N00900874EA0000001264
B1120555601621N00900704EA0000001236
B1121015601552N00900561EA0000001233
B1121085601467N00900411EA0000001233
B1121145601387N00900290EA0000001227
B1121195601325N00900185EA0000001222
B1121275601224N00900036EA0000001230
B1121385601101N00859825EA0000001220
B1121435601052N00859717EA0000001222
B1121525601090N00859558EA0000001220
B1121575601138N00859482EA0000001199
B1122025601207N00859426EA0000001195
B1122105601315N00859315EA0000001185
B1122175601386N00859188EA0000001188
B1122225601433N00859094EA0000001196
B1122295601509N00859009EA0000001200
B1122385601598N00858875EA0000001201
B1122435601638N00858794EA0000001204
B1122485601677N00858702EA0000001191
B1122535601702N00858592EA0000001192
B1122585601720N00858483EA0000001202
B1123035601710N00858385EA0000001206
B1123085601691N00858291EA0000001206
B1123185601685N00858120EA0000001223
B1123235601684N00858036EA0000001222
B1123305601704N00857926EA0000001225
B1123365601751N00857837EA0000001196
B1123445601831N00857696EA0000001206
B1123495601879N00857611EA0000001197
B1123545601931N00857524EA0000001196
B1124025602019N00857357EA0000001166
B1124085602085N00857226EA0000001166
B1124155602159N00857074EA0000001153
B1124205602215N00856960EA0000001139
B1124275602291N00856800EA0000001124
B1124345602366N00856639EA0000001123
B1124405602430N00856509EA0000001118
B1124485602507N00856321EA0000001101
B1124555602567N00856137EA0000001084
B1125015602598N00855973EA0000001085
B1125065602617N00855840EA0000001078
B1125115602623N00855704EA0000001069
B1125195602630N00855498EA0000001085
B1125255602660N00855369EA0000001102
B1125325602702N00855240EA0000001109
B1125385602742N00855137EA0000001119
B1125435602765N00855046EA0000001134
B1125515602802N00854889EA0000001130
B1125595602860N00854754EA0000001122
B1126045602895N00854651EA0000001118
B1126115602924N00854493EA0000001126
B1126195602932N00854302EA0000001125
B1126245602929N00854173EA0000001117
B1126315602921N00853973EA0000001103
B1126365602916N00853819EA0000001113
B1126435602920N00853635EA0000001134
B1126495602935N00853493EA0000001127
B1126595602978N00853274EA0000001145
B1127045603007N00853188EA0000001143
B1127095603028N00853094EA0000001134
B1127195603077N00852865EA0000001102
B1127305603168N00852626EA0000001095
B1127355603213N00852526EA0000001091
B1127405603260N00852420EA0000001075
B1127465603324N00852280EA0000001058
B1128045603534N00851870EA0000001035
B1128105603589N00851730EA0000001032
B1128195603642N00851506EA0000001050
B1128245603672N00851391EA0000001057
B1128345603701N00851158EA0000001047
B1128465603705N00850778EA0000000994
B1128515603700N00850612EA0000000991
B1128585603689N00850382EA0000000980
B1129065603670N00850123EA0000000967
B1129145603662N00849865EA0000000959
B1129225603668N00849606EA0000000934
B1129295603704N00849391EA0000000937
B1129515603858N00848825EA0000000970
B1130235604148N00848229EA0000000936
B1130295604225N00848125EA0000000935
B1130365604315N00848006EA0000000940
B1130525604503N00847727EA0000000950
B1130585604539N00847613EA0000000958
B1131035604564N00847507EA0000000937
B1131085604593N00847383EA0000000922
B1131155604640N00847197EA0000000901
B1131215604681N00847030EA0000000892
B1132135605158N00845823EA0000000885
B1132195605183N00845695EA0000000889
B1132275605188N00845521EA0000000893
B1133185605011N00845583EA0000000969
B1133285605022N00845467EA0000000975
B1133595605066N00845091EA0000000904
B1134055605019N00844961EA0000000899
B1134115604972N00844826EA0000000898
B1134185604915N00844669EA0000000891
B1134265604855N00844507EA0000000891
B1134315604824N00844410EA0000000896
B1134385604783N00844263EA0000000876
B1134465604749N00844064EA0000000873
B1134525604739N00843917EA0000000857
B1134585604728N00843765EA0000000857
B1135045604721N00843615EA0000000859
B1135105604702N00843476EA0000000869
B1135185604653N00843305EA0000000872
B1135255604594N00843164EA0000000886
B1135325604496N00843106EA0000000909
B1135385604403N00843232EA0000000911
B1135445604381N00843434EA0000000903
B1135595604494N00843463EA0000000896
B1136075604491N00843316EA0000000905
B1136145604454N00843183EA0000000906
B1136225604374N00843053EA0000000887
B1136275604311N00842986EA0000000876
B1136325604240N00842927EA0000000877
B1136395604140N00842856EA0000000884
B1136525603965N00842731EA0000000877
B1137035603837N00842602EA0000000864
B1137095603780N00842518EA0000000861
B1137145603739N00842440EA0000000858
B1137205603694N00842344EA0000000855
B1137285603647N00842198EA0000000855
B1137355603615N00842058EA0000000850
B1137435603582N00841896EA0000000844
B1137485603574N00841795EA0000000841
B1137575603588N00841626EA0000000846
B1138035603625N00841546EA0000000844
B1138085603667N00841495EA0000000843
B1138135603711N00841446EA0000000841
B1138215603777N00841356EA0000000841
B1138365603912N00841209EA0000000859
B1138445603937N00841098EA0000000867
B1138495603909N00841027EA0000000878
B1138545603837N00841039EA0000000878
B1138595603770N00841167EA0000000874
B1139085603717N00841469EA0000000877
B1139155603741N00841681EA0000000875
B1139205603798N00841746EA0000000873
B1139425603939N00841487EA0000000880
B1139475603974N00841432EA0000000878
B1139565604058N00841378EA0000000878
B1140045604148N00841391EA0000000878
B1140095604201N00841481EA0000000874
B1140145604215N00841640EA0000000872
B1140195604173N00841793EA0000000859
B1140365603892N00842044EA0000000851
B1140415603819N00842143EA0000000854
B1140485603730N00842308EA0000000857
B1140545603653N00842451EA0000000859
B1141015603574N00842641EA0000000865
B1141065603537N00842793EA0000000872
B1141115603560N00842935EA0000000870
B1141185603627N00842942EA0000000860
B1141235603614N00842864EA0000000861
B1141285603547N00842852EA0000000873
B1141335603482N00842963EA0000000879
B1141385603499N00843107EA0000000879
B1141455603558N00843083EA0000000889
B1141505603517N00843024EA0000000896
B1141555603445N00843088EA0000000898
B1142105603491N00843251EA0000000913
B1142155603425N00843240EA0000000920
B1142215603353N00843381EA0000000926
B1142285603394N00843545EA0000000925
B1142375603454N00843479EA0000000940
B1142435603391N00843450EA0000000935
B1143265603194N00844019EA0000000956
B1143365603078N00844189EA0000000949
B1143465603093N00844102EA0000000948
B1144025603197N00844441EA0000000947
B1144075603153N00844592EA0000000946
B1144125603095N00844737EA0000000947
B1144195603018N00844950EA0000000947
B1144305602941N00845321EA0000000948
B1144355602914N00845494EA0000000951
B1144415602877N00845700EA0000000969
B1144465602808N00845770EA0000000979
B1144565602786N00845670EA0000000961
B1145025602851N00845730EA0000000968
B1145075602877N00845877EA0000000974
B1145125602848N00846032EA0000000989
B1145175602778N00846052EA0000000993
B1145245602786N00845977EA0000001001
B1145305602838N00846067EA0000001006
B1145365602819N00846252EA0000001012
B1145415602746N00846287EA0000001015
B1145525602773N00846274EA0000001025
B1146215602705N00846650EA0000001037
B1146275602616N00846703EA0000001044
B1146385602609N00846592EA0000001050
B1146445602658N00846704EA0000001055
B1146495602653N00846881EA0000001044
B1146565602610N00847144EA0000001054
B1147015602573N00847332EA0000001049
B1147065602529N00847524EA0000001051
B1147125602455N00847700EA0000001083
B1147175602391N00847825EA0000001091
B1147235602317N00847986EA0000001099
B1147305602230N00848168EA0000001097
B1147365602144N00848364EA0000001071
B1147435602040N00848616EA0000001076
B1147495601960N00848833EA0000001076
B1147555601900N00849055EA0000001076
B1148035601833N00849383EA0000001048
B1148125601748N00849788EA0000001038
B1148185601691N00850053EA0000001046
B1148255601619N00850345EA0000001054
B1148385601455N00850769EA0000001070
B1148465601360N00851043EA0000001061
B1148555601231N00851344EA0000001054
B1149005601164N00851536EA0000001048
B1149065601090N00851791EA0000001020
B1149115601047N00852021EA0000001010
B1149175600979N00852275EA0000001000
B1149225600905N00852482EA0000000969
B1149285600813N00852739EA0000000964
B1149335600741N00852947EA0000000963
B1149405600639N00853248EA0000000954
B1149475600542N00853549EA0000000946
B1149545600452N00853855EA0000000945
B1149595600388N00854056EA0000000973
B1150075600286N00854332EA0000000992
B1150155600217N00854622EA0000001000
B1150205600168N00854795EA0000000998
B1150265600107N00855021EA0000000968
B1150325600045N00855292EA0000000957
B1150385559994N00855575EA0000000964
B1150445559944N00855855EA0000000961
B1150495559901N00856093EA0000000953
B1150555559836N00856373EA0000000969
B1151005559775N00856589EA0000000978
B1151055559711N00856792EA0000000988
B1151105559638N00856969EA0000000989
B1151165559550N00857182EA0000000986
B1151235559452N00857432EA0000000991
B1151285559398N00857613EA0000001011
B1151345559361N00857831EA0000001023
B1151425559299N00858114EA0000001040
B1151495559252N00858355EA0000001045
B1151585559231N00858669EA0000001056
B1152035559201N00858834EA0000001058
B1152085559171N00859001EA0000001058
B1152135559151N00859178EA0000001039
B1152185559126N00859392EA0000001009
B1152255559060N00859690EA0000001007
B1152305559006N00859906EA0000000980
B1152355558944N00900129EA0000000975
B1152455558802N00900487EA0000000980
B1152525558719N00900738EA0000000995
B1152585558651N00900942EA0000001017
B1153075558538N00901210EA0000001047
B1153155558473N00901469EA0000001056
B1153235558413N00901715EA0000001057
B1153285558395N00901880EA0000001048
B1153335558380N00902073EA0000001022
B1153395558361N00902343EA0000001020
B1153455558338N00902617EA0000001031
B1153505558317N00902836EA0000001046
B1153565558289N00903100EA0000001048
B1154025558242N00903351EA0000001046
B1154115558159N00903722EA0000001028
B1154195558075N00904049EA0000001025
B1154305557964N00904474EA0000001014
B1154365557892N00904685EA0000001000
B1154425557807N00904869EA0000000990
B1154485557728N00905056EA0000000991
B1155005557644N00905469EA0000000979
B1155165557659N00906111EA0000000943
B1155215557671N00906315EA0000000930
B1155325557705N00906799EA0000000910
B1155405557713N00907125EA0000000915
B1155475557720N00907391EA0000000920
B1155565557697N00907724EA0000000933
B1156035557638N00907957EA0000000949
B1156085557581N00908089EA0000000946
B1156235557379N00908481EA0000000908
B1156395557164N00908960EA0000000942
B1156445557095N00909087EA0000000957
B1156535556981N00909340EA0000000975
B1156585556912N00909452EA0000000999
B1157045556850N00909403EA0000001003
B1157095556877N00909339EA0000001004
B1157145556932N00909352EA0000001000
B1157195556973N00909495EA0000001019
B1157255556940N00909681EA0000001035
B1157315556866N00909674EA0000001037
B1157385556901N00909607EA0000001043
B1157435556952N00909716EA0000001061
B1157495556941N00909927EA0000001057
B1157545556901N00910096EA0000001067
B1157595556837N00910220EA0000001087
B1158045556780N00910209EA0000001099
B1158105556810N00910144EA0000001107
B1158155556864N00910221EA0000001110
B1158265556858N00910582EA0000001118
B1158325556803N00910763EA0000001113
B1158375556743N00910916EA0000001111
B1158425556665N00911042EA0000001125
B1158475556583N00911174EA0000001127
B1158525556508N00911318EA0000001138
B1159085556309N00911798EA0000001167
B1159185556180N00912091EA0000001177
B1159285556081N00912428EA0000001166
B1159335556025N00912606EA0000001139
B1159385555954N00912813EA0000001100
B1159465555834N00913159EA0000001096
B1159535555737N00913442EA0000001102
B1159585555666N00913636EA0000001097
B1200075555538N00914004EA0000001068
B1200135555446N00914271EA0000001062
B1200195555360N00914538EA0000001064
B1200255555286N00914805EA0000001063
B1200315555250N00915060EA0000001078
B1200365555227N00915264EA0000001077
B1200415555197N00915467EA0000001078
B1200485555177N00915752EA0000001077
B1200575555180N00916126EA0000001058
B1201065555187N00916504EA0000001051
B1201115555193N00916716EA0000001036
B1201165555192N00916938EA0000001029
B1201235555175N00917244EA0000001033
B1201365555141N00917796EA0000001011
B1201415555131N00918016EA0000001010
B1202025555060N00918863EA0000001036
B1202285554987N00919943EA0000001028
B1202355554969N00920241EA0000001030
B1202515554942N00920897EA0000001023
B1202585554968N00921150EA0000001021
B1204205556073N00922253EA0000000974
B1204285556184N00922296EA0000000964
B1204375556302N00922314EA0000000948
B1204445556364N00922253EA0000000946
B1204505556403N00922175EA0000000940
B1204585556461N00922070EA0000000937
B1205035556507N00922017EA0000000937
B1205125556599N00921919EA0000000937
B1205185556662N00921860EA0000000938
B1205235556717N00921810EA0000000934
B1205295556780N00921746EA0000000934
B1205395556874N00921645EA0000000958
B1205455556865N00921549EA0000000963
B1206005556687N00921732EA0000000984
B1206055556719N00921878EA0000000984
B1206105556780N00921916EA0000000986
B1206165556840N00921880EA0000000990
B1206245556882N00921774EA0000000995
B1206345556927N00921635EA0000001002
B1206465556915N00921448EA0000001004
B1206515556890N00921369EA0000001001
B1206565556863N00921286EA0000001000
B1207015556828N00921207EA0000001000
B1207085556773N00921077EA0000000973
B1207145556717N00920936EA0000000963
B1207205556665N00920796EA0000000960
B1207255556635N00920686EA0000000963
B1207315556606N00920554EA0000000956
B1207365556583N00920438EA0000000954
B1207415556563N00920327EA0000000960
B1207485556532N00920187EA0000000970
B1207535556510N00920092EA0000000979
B1208035556503N00919917EA0000000981
B1208115556523N00919766EA0000000983
B1208215556565N00919629EA0000000984
B1208265556584N00919565EA0000000983
B1208315556603N00919491EA0000000981
B1208365556618N00919412EA0000000989
B1208415556629N00919330EA0000000993
B1208515556639N00919156EA0000000992
B1208565556643N00919077EA0000000992
B1209015556645N00918991EA0000000977
B1209065556642N00918895EA0000000964
B1209125556633N00918776EA0000000958
B1209255556600N00918517EA0000000953
B1209355556605N00918326EA0000000958
B1209435556644N00918203EA0000000952
B1209485556676N00918142EA0000000948
B1209545556728N00918098EA0000000954
B1209595556775N00918062EA0000000946
B1210045556822N00918016EA0000000945
B1210135556907N00917907EA0000000944
B1210195556964N00917826EA0000000949
B1210275557055N00917799EA0000000984
B1210405557013N00918140EA0000000998
B1210465556927N00918150EA0000001009
B1210535556927N00918043EA0000001019
B1210585556977N00918076EA0000001031
B1211115556858N00918263EA0000001051
B1211175556872N00918180EA0000001060
B1211235556932N00918232EA0000001075
B1211325556910N00918484EA0000001096
B1211385556829N00918516EA0000001098
B1211435556816N00918432EA0000001108
B1211485556857N00918415EA0000001123
B1211575556820N00918647EA0000001136
B1212035556749N00918623EA0000001139
B1212115556813N00918598EA0000001161
B1212195556807N00918819EA0000001180
B1212255556720N00918847EA0000001182
B1212305556682N00918765EA0000001191
B1212355556705N00918708EA0000001206
B1212455556700N00918943EA0000001223
B1212505556629N00918947EA0000001229
B1212555556637N00918862EA0000001230
B1213005556695N00918879EA0000001236
B1213125556638N00919151EA0000001260
B1213175556624N00919080EA0000001262
B1213305556755N00919184EA0000001232
B1213435556731N00919595EA0000001244
B1213515556632N00919809EA0000001253
B1213565556565N00919943EA0000001268
B1216455555157N00926121EA0000001307
B1216575555155N00926586EA0000001289
B1217035555162N00926823EA0000001281
B1217085555171N00927017EA0000001275
B1217155555185N00927278EA0000001269
B1217245555215N00927604EA0000001247
B1217445555101N00928072EA0000001273
B1217495555097N00928002EA0000001280
B1217595555192N00928108EA0000001266
B1222375553376N00937900EA0000001295
B1222435553366N00938123EA0000001306
B1222525553372N00938438EA0000001318
B1223005553385N00938696EA0000001308
B1223065553395N00938907EA0000001285
B1223125553412N00939126EA0000001281
B1223175553424N00939307EA0000001278
B1223225553430N00939483EA0000001291
B1224215552918N00939914EA0000001218
B1224325552959N00939647EA0000001183
B1225245553384N00938736EA0000001193
B1225445553575N00938249EA0000001174
B1225495553605N00938108EA0000001158
B1225565553658N00937883EA0000001128
B1226285553874N00936975EA0000001128
B1227015554097N00936066EA0000001101
B1227125554138N00935736EA0000001126
B1227245554132N00935445EA0000001144
B1227325554135N00935206EA0000001119
B1227375554138N00935046EA0000001110
B1227465554142N00934753EA0000001082
B1228055554184N00934151EA0000001056
B1228145554228N00933866EA0000001038
B1229245555304N00933226EA0000000956
B1229315555440N00933199EA0000000931
B1229385555563N00933141EA0000000921
B1231155556312N00931583EA0000000985
B1232025556764N00930774EA0000001010
B1232095556820N00930629EA0000000988
B1232225556915N00930342EA0000001025
B1232285556936N00930211EA0000001029
B1232345556968N00930077EA0000001000
B1232395556998N00929935EA0000000979
B1232455557007N00929752EA0000000997
B1232505557011N00929598EA0000000980
B1232555557020N00929452EA0000000987
B1233005557032N00929316EA0000000989
B1233145557138N00929038EA0000000974
B1234035557627N00927875EA0000000923
B1234085557679N00927758EA0000000890
B1234595558112N00926501EA0000000890
B1235355558282N00925462EA0000000862
B1235465558262N00925109EA0000000882
B1235525558226N00924944EA0000000899
B1235585558187N00924796EA0000000904
B1236045558161N00924651EA0000000910
B1236125558112N00924470EA0000000892
B1236185558064N00924302EA0000000842
B1236235558044N00924157EA0000000850
B1236295558030N00923983EA0000000844
B1236355558021N00923792EA0000000814
B1236405558016N00923627EA0000000808
B1236465558010N00923442EA0000000812
B1236565558011N00923144EA0000000790
B1237015558021N00922998EA0000000798
B1237065558051N00922878EA0000000788
B1237185558148N00922569EA0000000773
B1237255558213N00922395EA0000000758
B1237305558267N00922277EA0000000777
B1237395558345N00922081EA0000000801
B1237455558375N00921950EA0000000798
B1237515558387N00921809EA0000000794
B1237575558387N00921657EA0000000766
B1238045558394N00921459EA0000000744
B1238125558418N00921227EA0000000728
B1238175558427N00921098EA0000000729
B1238225558435N00920969EA0000000704
B1238315558450N00920757EA0000000708
B1238395558480N00920604EA0000000687
B1238535558586N00920389EA0000000672
B1239035558652N00920231EA0000000674
B1239105558684N00920108EA0000000695
B1239315558613N00920405EA0000000720
B1239365558581N00920325EA0000000731
B1239435558625N00920296EA0000000756
B1239585558530N00920571EA0000000764
B1240045558509N00920481EA0000000779
B1240095558554N00920513EA0000000793
B1240165558515N00920715EA0000000810
B1240215558432N00920740EA0000000817
B1240265558416N00920667EA0000000820
B1240315558460N00920663EA0000000839
B1240405558423N00920898EA0000000863
B1240455558352N00920890EA0000000870
B1240505558355N00920818EA0000000879
B1240555558396N00920847EA0000000892
B1241015558385N00921018EA0000000897
B1241065558306N00921069EA0000000907
B1241115558286N00921001EA0000000910
B1241175558346N00921019EA0000000917
B1241255558338N00921234EA0000000920
B1241305558255N00921282EA0000000938
B1241355558232N00921217EA0000000946
B1241415558271N00921158EA0000000937
B1241485558338N00921085EA0000000931
B1241545558402N00921026EA0000000939
B1241595558454N00920973EA0000000932
B1242045558514N00920909EA0000000907
B1242105558589N00920815EA0000000908
B1242205558685N00920658EA0000000916
B1242275558738N00920539EA0000000926
B1242335558775N00920448EA0000000937
B1242385558806N00920365EA0000000938
B1242455558863N00920273EA0000000951
B1242505558897N00920209EA0000000949
B1242585558937N00920057EA0000000928
B1243035558958N00919940EA0000000924
B1243105558989N00919775EA0000000919
B1243155559011N00919656EA0000000920
B1243215559047N00919488EA0000000891
B1243265559081N00919346EA0000000898
B1243315559117N00919210EA0000000893
B1243375559172N00919055EA0000000889
B1243445559247N00918888EA0000000885
B1243495559303N00918769EA0000000866
B1243565559383N00918587EA0000000854
B1244035559462N00918433EA0000000854
B1244105559546N00918309EA0000000848
B1244195559630N00918133EA0000000845
B1244255559681N00918010EA0000000833
B1244315559733N00917871EA0000000802
B1244395559804N00917658EA0000000770
B1244505559894N00917394EA0000000754
B1244555559939N00917300EA0000000761
B1245015559988N00917192EA0000000751
B1245065600021N00917100EA0000000751
B1245165600082N00916918EA0000000733
B1245245600115N00916769EA0000000730
B1245325600112N00916613EA0000000721
B1245395600087N00916474EA0000000726
B1245455600092N00916363EA0000000733
B1245525600137N00916289EA0000000766
B1246055600171N00916642EA0000000771
B1246115600075N00916719EA0000000783
B1246165600015N00916675EA0000000788
B1246225559996N00916575EA0000000805
B1246345600044N00916829EA0000000838
B1246395559972N00916901EA0000000848
B1246445559922N00916848EA0000000856
B1246505559951N00916807EA0000000877
B1246585559979N00917013EA0000000889
B1247035559909N00917070EA0000000898
B1247105559871N00916973EA0000000911
B1247155559907N00916949EA0000000917
B1247265559888N00917245EA0000000915
B1247355559784N00917238EA0000000928
B1247415559838N00917194EA0000000931
B1247465559854N00917124EA0000000937
B1247525559840N00917015EA0000000940
B1247585559818N00916849EA0000000889
B1248065559788N00916588EA0000000910
B1248115559779N00916430EA0000000915
B1248165559775N00916283EA0000000914
B1248225559767N00916086EA0000000900
B1248275559761N00915917EA0000000901
B1248355559754N00915655EA0000000915
B1248415559751N00915479EA0000000912
B1248485559769N00915263EA0000000899
B1248565559807N00915005EA0000000870
B1249045559836N00914768EA0000000898
B1249105559854N00914588EA0000000880
B1249175559877N00914363EA0000000861
B1249225559896N00914199EA0000000851
B1249285559931N00914021EA0000000847
B1249335559961N00913870EA0000000827
B1249385559998N00913719EA0000000817
B1249435600036N00913558EA0000000794
B1249495600083N00913368EA0000000813
B1249575600130N00913138EA0000000806
B1250045600173N00912906EA0000000786
B1250115600215N00912673EA0000000794
B1250165600243N00912502EA0000000792
B1250225600272N00912297EA0000000811
B1250295600300N00912077EA0000000829
B1250345600322N00911914EA0000000818
B1250405600345N00911725EA0000000819
B1250475600367N00911496EA0000000803
B1250585600411N00911143EA0000000793
B1251045600444N00910968EA0000000797
B1251095600469N00910837EA0000000801
B1251145600501N00910714EA0000000799
B1251195600534N00910591EA0000000801
B1251245600583N00910501EA0000000830
B1251305600644N00910419EA0000000845
B1251355600690N00910347EA0000000860
B1251415600745N00910270EA0000000887
B1251465600790N00910203EA0000000891
B1251515600834N00910129EA0000000872
B1251575600891N00910034EA0000000878
B1252025600935N00909958EA0000000883
B1252075600974N00909884EA0000000864
B1252155601054N00909697EA0000000842
B1252255601152N00909452EA0000000843
B1252365601249N00909166EA0000000829
B1252415601287N00909034EA0000000829
B1252475601332N00908885EA0000000824
B1252535601372N00908719EA0000000814
B1252595601407N00908544EA0000000809
B1253045601428N00908382EA0000000802
B1253115601451N00908151EA0000000810
B1253195601481N00907897EA0000000820
B1253245601506N00907751EA0000000825
B1253305601534N00907582EA0000000809
B1253365601558N00907391EA0000000805
B1253415601571N00907253EA0000000832
B1253485601586N00907081EA0000000830
B1253555601607N00906889EA0000000808
B1254005601629N00906747EA0000000807
B1254065601657N00906578EA0000000809
B1254115601679N00906436EA0000000813
B1254165601714N00906312EA0000000829
B1254235601764N00906151EA0000000838
B1254295601805N00906006EA0000000836
B1254365601846N00905828EA0000000823
B1254425601880N00905677EA0000000825
B1254495601914N00905498EA0000000814
B1254555601939N00905342EA0000000822
B1255005601959N00905221EA0000000813
B1255065601977N00905061EA0000000779
B1255165601989N00904758EA0000000730
B1255215601975N00904609EA0000000736
B1255265601953N00904461EA0000000710
B1255335601934N00904245EA0000000691
B1255425601935N00903978EA0000000679
B1255475601936N00903838EA0000000678
B1255535601941N00903676EA0000000658
B1256025601947N00903422EA0000000635
B1256095601949N00903257EA0000000632
B1256165601965N00903111EA0000000618
B1256245601993N00902946EA0000000601
B1256305602015N00902820EA0000000594
B1256385602038N00902651EA0000000601
B1256465602073N00902500EA0000000616
B1256525602107N00902389EA0000000617
B1256575602132N00902275EA0000000605
B1257025602153N00902150EA0000000624
B1257075602154N00902043EA0000000655
B1257125602088N00902016EA0000000663
B1257175602029N00902132EA0000000656
B1257225602036N00902295EA0000000654
B1257275602092N00902388EA0000000659
B1257335602170N00902406EA0000000680
B1257385602171N00902341EA0000000689
B1257435602095N00902333EA0000000701
B1257485602025N00902436EA0000000722
B1257555602031N00902641EA0000000732
B1258005602087N00902661EA0000000740
B1258055602091N00902586EA0000000760
B1258105602022N00902581EA0000000777
B1258155601963N00902713EA0000000793
B1258205601989N00902841EA0000000798
B1258265602048N00902821EA0000000810
B1258315602019N00902756EA0000000833
B1258365601941N00902810EA0000000848
B1258425601930N00902974EA0000000864
B1258475601971N00902962EA0000000875
B1258525601915N00902920EA0000000902
B1258585601843N00903038EA0000000916
B1259035601862N00903165EA0000000919
B1259085601912N00903191EA0000000935
B1259155601952N00903105EA0000000914
B1259225602018N00902938EA0000000887
B1259275602064N00902809EA0000000900
B1259325602110N00902677EA0000000877
B1259395602173N00902487EA0000000868
B1259445602232N00902394EA0000000870
B1259495602299N00902313EA0000000856
B1259555602385N00902198EA0000000836
B1300005602457N00902102EA0000000825
B1300065602543N00901979EA0000000816
B1300115602610N00901860EA0000000809
B1300165602676N00901741EA0000000812
B1300225602748N00901611EA0000000817
B1300295602837N00901457EA0000000797
B1300345602911N00901351EA0000000808
B1300395602977N00901248EA0000000817
B1300455603057N00901118EA0000000809
B1300505603123N00901020EA0000000804
B1300565603210N00900936EA0000000809
B1301015603284N00900862EA0000000789
B1301065603342N00900770EA0000000800
B1301135603408N00900616EA0000000778
B1301185603466N00900497EA0000000767
B1301245603541N00900363EA0000000762
B1301305603613N00900242EA0000000753
B1301355603674N00900150EA0000000739
B1301405603735N00900066EA0000000733
B1301465603807N00859971EA0000000734
B1301515603864N00859895EA0000000732
B1301575603933N00859800EA0000000736
B1302025603988N00859724EA0000000748
B1302105604063N00859619EA0000000761
B1302175604139N00859544EA0000000738
B1302235604191N00859461EA0000000739
B1302285604231N00859396EA0000000735
B1302355604277N00859297EA0000000734
B1302425604301N00859181EA0000000733
B1302485604324N00859102EA0000000723
B1302535604344N00859027EA0000000713
B1302595604317N00858928EA0000000699
B1303045604264N00858841EA0000000670
B1303165604080N00858675EA0000000673
B1303225604013N00858587EA0000000698
B1303285604037N00858532EA0000000719
B1303335604085N00858624EA0000000730
B1303385604081N00858792EA0000000734
B1303435604024N00858909EA0000000744
B1303485603962N00858891EA0000000752
B1303535603963N00858830EA0000000761
B1304005604018N00858946EA0000000773
B1304055603974N00859096EA0000000772
B1304105603894N00859137EA0000000780
B1304155603840N00859090EA0000000793
B1304215603887N00859072EA0000000806
B1304265603905N00859210EA0000000814
B1304315603836N00859306EA0000000815
B1304375603788N00859227EA0000000839
B1304425603819N00859202EA0000000850
B1304475603855N00859316EA0000000850
B1304525603816N00859467EA0000000856
B1304575603742N00859482EA0000000865
B1305025603729N00859399EA0000000876
B1305085603786N00859421EA0000000887
B1305135603801N00859573EA0000000892
B1305185603735N00859681EA0000000903
B1305245603695N00859619EA0000000901
B1305295603746N00859611EA0000000908
B1305345603805N00859692EA0000000921
B1305395603816N00859855EA0000000931
B1305445603749N00859959EA0000000927
B1305495603692N00859919EA0000000926
B1305545603699N00859845EA0000000932
B1306035603789N00859865EA0000000949
B1306105603869N00859944EA0000000972
B1306155603928N00859973EA0000000972
B1306215603997N00859987EA0000000963
B1306285604073N00859989EA0000000951
B1306365604165N00859980EA0000000948
B1306435604237N00859959EA0000000953
B1306485604293N00859938EA0000000951
B1306535604348N00859934EA0000000962
B1306595604422N00859951EA0000000929
B1307065604509N00900010EA0000000956
B1307145604610N00900114EA0000000930
B1307205604691N00900201EA0000000919
B1307255604755N00900238EA0000000907
B1307305604820N00900271EA0000000899
B1307355604885N00900304EA0000000893
B1307405604948N00900333EA0000000886
B1307465605022N00900357EA0000000875
B1307525605099N00900369EA0000000867
B1307575605153N00900399EA0000000871
B1308045605237N00900419EA0000000837
B1308095605303N00900422EA0000000814
B1308195605452N00900411EA0000000790
B1308265605541N00900358EA0000000779
B1308315605593N00900304EA0000000780
B1308365605637N00900250EA0000000780
B1308455605700N00900139EA0000000779
B1308505605726N00900073EA0000000781
B1309005605778N00859941EA0000000774
B1309065605816N00859869EA0000000775
B1309135605861N00859788EA0000000779
B1309205605900N00859700EA0000000782
B1309255605932N00859642EA0000000791
B1309325605989N00859599EA0000000814
B1309395606023N00859793EA0000000833
B1309445605963N00859918EA0000000844
B1309505605883N00859907EA0000000852
B1309585605918N00859868EA0000000867
B1310035605944N00900011EA0000000883
B1310085605898N00900151EA0000000888
B1310135605821N00900181EA0000000893
B1310195605792N00900109EA0000000909
B1310265605857N00900150EA0000000912
B1310335605867N00900362EA0000000934
B1310385605796N00900432EA0000000935
B1310435605749N00900373EA0000000943
B1310495605773N00900321EA0000000952
B1310555605817N00900469EA0000000957
B1311005605774N00900620EA0000000970
B1311055605699N00900647EA0000000972
B1311115605680N00900564EA0000000984
B1311175605706N00900488EA0000000979
B1311225605734N00900420EA0000000976
B1311275605769N00900322EA0000000950
B1311355605812N00900115EA0000000964
B1311415605835N00859973EA0000000967
B1311465605865N00859866EA0000000973
B1311545605940N00859736EA0000000973
B1312005605990N00859613EA0000000955
B1312055606031N00859485EA0000000936
B1312105606069N00859345EA0000000932
B1312165606117N00859172EA0000000911
B1312225606165N00859000EA0000000921
B1312305606239N00858787EA0000000912
B1312365606292N00858621EA0000000908
B1312415606338N00858494EA0000000921
B1312495606434N00858355EA0000000941
B1312555606477N00858238EA0000000953
B1313035606523N00858081EA0000000946
B1313085606540N00857952EA0000000918
B1313225606504N00857521EA0000000919
B1313275606486N00857381EA0000000935
B1313325606468N00857236EA0000000908
B1313425606443N00856903EA0000000914
B1313505606450N00856655EA0000000922
B1313565606487N00856505EA0000000942
B1314015606530N00856412EA0000000952
B1314065606566N00856315EA0000000965
B1314115606597N00856216EA0000000974
B1314195606655N00856077EA0000000983
B1314245606685N00855984EA0000000991
B1314295606699N00855882EA0000001001
B1314345606712N00855765EA0000000995
B1314395606721N00855619EA0000001001
B1314475606679N00855410EA0000001017
B1314535606656N00855265EA0000001022
B1314585606642N00855149EA0000001034
B1315045606640N00855030EA0000001039
B1315105606647N00854893EA0000000998
B1315175606668N00854680EA0000000979
B1315255606695N00854416EA0000000960
B1315315606723N00854224EA0000000967
B1315365606746N00854084EA0000000978
B1315435606776N00853909EA0000000993
B1315505606822N00853765EA0000001000
B1315585606877N00853618EA0000001010
B1316045606915N00853520EA0000001018
B1316095606944N00853444EA0000001022
B1316185606913N00853283EA0000001025
B1316395606772N00852718EA0000000937
B1316445606753N00852579EA0000000943
B1316525606739N00852358EA0000000900
B1316595606726N00852148EA0000000899
B1317045606715N00852013EA0000000880
B1317115606699N00851820EA0000000856
B1317165606696N00851683EA0000000850
B1317245606731N00851495EA0000000841
B1317295606747N00851379EA0000000839
B1317345606759N00851264EA0000000833
B1317415606782N00851106EA0000000828
B1317495606818N00850934EA0000000821
B1317545606839N00850829EA0000000821
B1318025606865N00850670EA0000000815
B1318105606885N00850514EA0000000813
B1318175606892N00850380EA0000000818
B1318325606903N00850085EA0000000812
B1318375606916N00849992EA0000000821
B1318465606939N00849823EA0000000831
B1318515606940N00849733EA0000000843
B1318565606883N00849689EA0000000862
B1319015606801N00849769EA0000000867
B1319075606782N00849980EA0000000876
B1319125606835N00850075EA0000000873
B1319175606894N00850081EA0000000870
B1319235606953N00850031EA0000000878
B1319285606971N00849951EA0000000886
B1319395606918N00849763EA0000000905
B1319445606842N00849790EA0000000930
B1319495606813N00849945EA0000000949
B1319575606885N00850040EA0000000971
B1320025606881N00849971EA0000000984
B1320075606811N00849983EA0000001000
B1320125606769N00850126EA0000001018
B1320215606839N00850245EA0000001038
B1320275606819N00850161EA0000001055
B1320345606725N00850222EA0000001072
B1320405606722N00850404EA0000001091
B1320485606795N00850434EA0000001109
B1320545606822N00850363EA0000001125
B1320595606839N00850301EA0000001132
B1321045606857N00850229EA0000001130
B1321095606876N00850137EA0000001109
B1321155606912N00849991EA0000001114
B1321235606962N00849801EA0000001098
B1321295606980N00849627EA0000001095
B1321345606987N00849493EA0000001113
B1321395606995N00849377EA0000001113
B1321455607002N00849236EA0000001109
B1321505607011N00849133EA0000001106
B1321555607023N00849031EA0000001100
B1322045607043N00848862EA0000001094
B1322135607069N00848715EA0000001088
B1322185607088N00848639EA0000001081
B1322235607110N00848564EA0000001073
B1322345607162N00848408EA0000001058
B1322405607193N00848324EA0000001057
B1322485607236N00848218EA0000001054
B1322585607283N00848060EA0000001041
B1323045607314N00847934EA0000001012
B1323105607369N00847788EA0000000988
B1323265607546N00847405EA0000000964
B1323365607637N00847138EA0000000969
B1323525607742N00846813EA0000001018
B1323585607767N00846677EA0000001013
B1324075607823N00846459EA0000001028
B1324445607985N00845337EA0000000991
B1324505607998N00845136EA0000000973
B1324585608001N00844862EA0000000957
B1325035607978N00844693EA0000000952
B1325095607947N00844501EA0000000950
B1325165607910N00844291EA0000000942
B1325235607874N00844090EA0000000922
B1325315607842N00843865EA0000000937
B1325385607821N00843671EA0000000900
B1325435607807N00843503EA0000000903
B1325495607796N00843313EA0000000913
B1325545607792N00843166EA0000000901
B1326025607811N00842927EA0000000918
B1326075607849N00842803EA0000000919
B1330075608613N00841496EA0000000929
B1330205608608N00841378EA0000000942
B1330265608659N00841518EA0000000940
B1330335608601N00841748EA0000000952
B1330395608542N00841931EA0000000950
B1330485608423N00842203EA0000000944
B1330545608314N00842359EA0000000923
B1330595608216N00842501EA0000000912
B1331075608074N00842742EA0000000935
B1331145607976N00842969EA0000000925
B1331215607887N00843226EA0000000906
B1331285607805N00843503EA0000000894
B1331335607752N00843704EA0000000896
B1331385607698N00843890EA0000000906
B1331445607639N00844117EA0000000905
B1331515607577N00844382EA0000000917
B1331565607525N00844546EA0000000929
B1332025607440N00844648EA0000000942
B1332125607423N00844567EA0000000958
B1332195607448N00844743EA0000000962
B1332245607398N00844878EA0000000968
B1332295607323N00844908EA0000000970
B1332395607319N00844818EA0000000991
B1332445607358N00844932EA0000000997
B1332525607277N00845102EA0000001008
B1333045607306N00845120EA0000001023
B1333095607290N00845295EA0000000997
B1333155607210N00845561EA0000000951
B1333225607103N00845886EA0000000943
B1333275607030N00846120EA0000000925
B1333325606963N00846360EA0000000921
B1333415606901N00846798EA0000000904
B1334035606689N00847807EA0000000906
B1334085606617N00847982EA0000000933
B1334145606531N00848171EA0000000944
B1334215606435N00848402EA0000000967
B1334285606346N00848638EA0000000974
B1334335606291N00848816EA0000000989
B1334425606228N00849145EA0000000994
B1334475606197N00849357EA0000000965
B1334525606174N00849608EA0000000959
B1334585606156N00849923EA0000000951
B1335045606143N00850244EA0000000946
B1335115606131N00850616EA0000000923
B1335175606095N00850921EA0000000904
B1335245606054N00851298EA0000000899
B1335315606024N00851645EA0000000913
B1335365606006N00851882EA0000000904
B1335465605963N00852374EA0000000892
B1335515605938N00852620EA0000000899
B1335565605901N00852848EA0000000917
B1336025605856N00853085EA0000000928
B1336105605829N00853398EA0000000929
B1336165605789N00853624EA0000000917
B1336215605744N00853813EA0000000910
B1336265605693N00853992EA0000000907
B1336345605609N00854268EA0000000901
B1336415605530N00854491EA0000000902
B1336485605446N00854701EA0000000904
B1336545605368N00854869EA0000000907
B1337035605261N00855129EA0000000923
B1337085605213N00855293EA0000000920
B1337155605132N00855557EA0000000904
B1337205605060N00855735EA0000000904
B1337275604965N00855996EA0000000907
B1337385604833N00856417EA0000000896
B1337435604774N00856608EA0000000897
B1337485604695N00856752EA0000000889
B1337545604588N00856934EA0000000878
B1337595604500N00857077EA0000000881
B1338075604380N00857332EA0000000885
B1338165604256N00857649EA0000000881
B1338225604170N00857870EA0000000879
B1338285604081N00858079EA0000000899
B1338335604002N00858232EA0000000900
B1338385603936N00858397EA0000000895
B1338445603865N00858636EA0000000864
B1338495603814N00858858EA0000000869
B1338565603760N00859190EA0000000852
B1339025603732N00859480EA0000000845
B1339075603713N00859723EA0000000850
B1339155603687N00900098EA0000000850
B1339235603657N00900489EA0000000842
B1339315603582N00900851EA0000000858
B1339395603504N00901216EA0000000831
B1339465603447N00901565EA0000000831
B1339515603418N00901808EA0000000849
B1339575603369N00902062EA0000000875
B1340025603334N00902265EA0000000884
B1340085603306N00902509EA0000000893
B1340155603271N00902784EA0000000897
B1340225603248N00903072EA0000000862
B1340305603242N00903474EA0000000846
B1340375603239N00903822EA0000000841
B1340445603228N00904179EA0000000817
B1340505603221N00904475EA0000000807
B1340575603217N00904821EA0000000783
B1341025603221N00905052EA0000000805
B1341105603221N00905393EA0000000813
B1341165603203N00905647EA0000000813
B1341225603181N00905894EA0000000842
B1341345603170N00906310EA0000000880
B1341415603139N00906552EA0000000902
B1341505603089N00906859EA0000000921
B1341585603045N00907124EA0000000939
B1342045603008N00907321EA0000000939
B1342105602959N00907539EA0000000910
B1342155602908N00907771EA0000000900
B1342205602862N00908000EA0000000924
B1342265602802N00908233EA0000000963
B1342375602694N00908607EA0000000988
B1342435602634N00908802EA0000001005
B1342505602589N00909049EA0000001025
B1342555602560N00909228EA0000001034
B1343005602531N00909406EA0000001032
B1343055602490N00909597EA0000000992
B1343155602402N00910073EA0000000984
B1343205602369N00910319EA0000000959
B1343255602336N00910592EA0000000944
B1343325602303N00910954EA0000000966
B1343395602273N00911279EA0000000973
B1343475602199N00911597EA0000000996
B1343525602131N00911755EA0000000995
B1343585602056N00911962EA0000000961
B1344035601978N00912182EA0000000928
B1344115601856N00912547EA0000000925
B1344195601744N00912900EA0000000917
B1344265601635N00913194EA0000000897
B1344315601556N00913415EA0000000883
B1344385601457N00913749EA0000000867
B1344435601405N00913992EA0000000881
B1344515601312N00914327EA0000000921
B1344565601264N00914512EA0000000922
B1345135601178N00915322EA0000000838
B1345255601195N00915896EA0000000853
B1345525600986N00916925EA0000000926
B1345575600955N00916854EA0000000939
B1346025601000N00916847EA0000000962
B1346155212827N00812618EA0000001005
B1346205212894N00812596EA0000001016
B1346265600914N00917053EA0000001045
B1346475600853N00917235EA0000001102
B1347015600803N00917506EA0000001149
B1347075600766N00917431EA0000001162
B1347265600712N00917855EA0000001162
B1347375600513N00918299EA0000001129
B1347565600251N00919093EA0000001187
B1348085600352N00919392EA0000001201
B1348145600418N00919414EA0000001203
B1348195600439N00919345EA0000001189
B1348245600381N00919251EA0000001183
B1348345600167N00919289EA0000001185
B1348455559893N00919429EA0000001136
B1348555559618N00919611EA0000001121
B1349025559464N00919841EA0000001098
B1349125559237N00920207EA0000001071
B1349245558980N00920650EA0000001051
B1349315558824N00920897EA0000001021
B1349365558704N00921075EA0000001006
B1349435558542N00921330EA0000000991
B1349545558333N00921776EA0000000990
B1350025558241N00922141EA0000000994
B1350075558164N00922349EA0000000967
B1350165557992N00922747EA0000000954
B1350275557788N00923203EA0000000978
B1350555557327N00924162EA0000000990
B1351025557219N00924451EA0000000997
B1351075557136N00924660EA0000000988
B1352425555472N00928352EA0000000962
B1352485555514N00928338EA0000000979
B1353045555407N00928666EA0000001006
B1353095555398N00928605EA0000001009
B1353145555446N00928638EA0000001020
B1353425555404N00928971EA0000001052
B1355265554241N00931961EA0000001095
B1355315554254N00931912EA0000001103
B1355495554164N00932222EA0000001150
B1355545554188N00932202EA0000001152
B1356075554046N00932349EA0000001186
B1356145554105N00932452EA0000001194
B1359205552057N00938776EA0000001098
B1359265552053N00938606EA0000001109
B1359525552060N00937865EA0000001081
B1400115552108N00937262EA0000001062
B1404225555109N00932797EA0000000914
B1404405555218N00932457EA0000000878
B1404485555270N00932307EA0000000881
B1405015555343N00932070EA0000000880
B1405065555369N00931981EA0000000870
B1405155555399N00931762EA0000000843
B1405225555409N00931595EA0000000850
B1405295555418N00931442EA0000000859
B1405345555433N00931343EA0000000874
B1405395555436N00931248EA0000000898
B1405455555432N00931156EA0000000925
B1405515555437N00931073EA0000000934
B1406045555474N00930768EA0000000900
B1406135555505N00930504EA0000000916
B1406185555517N00930375EA0000000936
B1406245555541N00930205EA0000000910
B1406315555572N00929981EA0000000936
B1406385555615N00929813EA0000000973
B1406455555654N00929693EA0000000968
B1406515555686N00929554EA0000000931
B1406585555723N00929365EA0000000933
B1407035555749N00929238EA0000000938
B1407105555790N00929067EA0000000927
B1407155555815N00928931EA0000000913
B1407225555848N00928724EA0000000894
B1407275555870N00928561EA0000000892
B1407325555890N00928403EA0000000918
B1407385555908N00928246EA0000000935
B1407445555926N00928078EA0000000919
B1407505555953N00927908EA0000000938
B1407555555977N00927787EA0000000947
B1408005556007N00927673EA0000000972
B1408075556066N00927560EA0000000977
B1408145556114N00927409EA0000000944
B1408215556157N00927218EA0000000965
B1408265556180N00927090EA0000000956
B1408355556218N00926805EA0000000923
B1408405556236N00926636EA0000000913
B1408455556251N00926468EA0000000910
B1408505556264N00926301EA0000000895
B1408555556276N00926139EA0000000894
B1409015556286N00925952EA0000000886
B1409065556291N00925792EA0000000871
B1409115556301N00925628EA0000000867
B1409175556325N00925462EA0000000875
B1409225556344N00925325EA0000000865
B1409295556366N00925117EA0000000843
B1409355556381N00924928EA0000000841
B1409485556384N00924532EA0000000862
B1410015556382N00924118EA0000000849
B1410085556378N00923893EA0000000846
B1410155556374N00923685EA0000000861
B1410235556380N00923473EA0000000858
B1410305556395N00923285EA0000000854
B1410395556373N00923075EA0000000876
B1410445556364N00922963EA0000000856
B1410515556373N00922781EA0000000833
B1410565556383N00922628EA0000000815
B1411095556406N00922214EA0000000814
B1411155556414N00922029EA0000000813
B1411205556422N00921872EA0000000814
B1411255556430N00921715EA0000000804
B1411305556437N00921553EA0000000801
B1411355556446N00921400EA0000000809
B1411425556468N00921198EA0000000802
B1411485556495N00921029EA0000000795
B1411535556519N00920889EA0000000804
B1412005556561N00920742EA0000000837
B1412085556609N00920619EA0000000858
B1412155556644N00920522EA0000000879
B1412205556672N00920464EA0000000891
B1412295556710N00920339EA0000000915
B1412365556726N00920235EA0000000920
B1412415556740N00920150EA0000000923
B1412495556773N00920028EA0000000931
B1412545556796N00919952EA0000000919
B1413005556828N00919817EA0000000879
B1413065556865N00919642EA0000000886
B1413115556894N00919521EA0000000922
B1413185556896N00919398EA0000000975
B1413265556893N00919281EA0000000988
B1413325556887N00919196EA0000000974
B1413385556919N00919092EA0000000954
B1413445556958N00918950EA0000000938
B1413525556988N00918735EA0000000945
B1413575557003N00918578EA0000000927
B1414035557016N00918372EA0000000939
B1414105557026N00918146EA0000000963
B1414165557065N00918018EA0000000999
B1414245557090N00917858EA0000001003
B1414295557083N00917754EA0000000972
B1414355557080N00917580EA0000000922
B1414405557082N00917415EA0000000912
B1414495557085N00917202EA0000000953
B1414565557093N00917050EA0000000941
B1415035557110N00916892EA0000000941
B1415125557130N00916703EA0000000948
B1415175557142N00916576EA0000000927
B1415225557152N00916439EA0000000951
B1415305557156N00916241EA0000000937
B1415385557146N00916031EA0000000915
B1415435557116N00915908EA0000000909
B1415485557084N00915781EA0000000890
B1415535557050N00915638EA0000000864
B1416025557018N00915365EA0000000857
B1416085557018N00915195EA0000000850
B1416135557025N00915050EA0000000841
B1416185557037N00914906EA0000000841
B1416245557070N00914753EA0000000839
B1416295557100N00914620EA0000000834
B1416345557128N00914481EA0000000827
B1416405557159N00914310EA0000000817
B1416465557188N00914125EA0000000804
B1416525557217N00913937EA0000000792
B1416575557245N00913786EA0000000790
B1417025557273N00913643EA0000000781
B1417085557313N00913471EA0000000778
B1417135557347N00913337EA0000000782
B1417195557384N00913171EA0000000788
B1417265557418N00912973EA0000000780
B1417325557435N00912800EA0000000791
B1417385557453N00912658EA0000000818
B1417435557496N00912648EA0000000848
B1417515557459N00912861EA0000000865
B1417565557386N00912859EA0000000870
B1418015557388N00912800EA0000000871
B1418065557433N00912875EA0000000881
B1418135557381N00913060EA0000000897
B1418195557312N00913027EA0000000899
B1418245557342N00913000EA0000000903
B1418295557374N00913105EA0000000918
B1418355557325N00913262EA0000000920
B1418405557258N00913244EA0000000922
B1418475557247N00913133EA0000000924
B1418525557261N00913058EA0000000926
B1418595557294N00912958EA0000000932
B1419065557341N00912866EA0000000951
B1419115557388N00912916EA0000000976
B1419165557364N00913067EA0000000988
B1419215557290N00913090EA0000001000
B1419265557287N00913028EA0000001014
B1419315557334N00913100EA0000001028
B1419365557302N00913248EA0000001038
B1419415557230N00913249EA0000001053
B1419465557234N00913185EA0000001063
B1419515557283N00913245EA0000001080
B1419575557256N00913424EA0000001090
B1420025557185N00913436EA0000001105
B1420115557239N00913347EA0000001107
B1420195557354N00913280EA0000001089
B1420245557429N00913234EA0000001111
B1420295557471N00913225EA0000001127
B1420355557547N00913161EA0000001064
B1420445557701N00913037EA0000001061
B1420525557829N00912950EA0000001064
B1420575557907N00912905EA0000001047
B1421045558019N00912839EA0000001046
B1421115558121N00912772EA0000001040
B1421185558214N00912707EA0000001040
B1421245558293N00912644EA0000001014
B1421305558386N00912573EA0000000983
B1421365558492N00912497EA0000000958
B1421415558582N00912428EA0000000947
B1421495558724N00912314EA0000000922
B1421545558810N00912225EA0000000912
B1421595558894N00912133EA0000000901
B1422045558979N00912037EA0000000899
B1422105559070N00911905EA0000000890
B1422175559170N00911736EA0000000908
B1422225559236N00911638EA0000000932
B1422275559301N00911573EA0000000942
B1422325559348N00911498EA0000000959
B1422385559394N00911396EA0000000965
B1422445559444N00911271EA0000000933
B1422495559487N00911130EA0000000923
B1422555559533N00910959EA0000000917
B1423005559568N00910808EA0000000890
B1423065559620N00910603EA0000000842
B1423125559677N00910389EA0000000828
B1423205559750N00910118EA0000000810
B1423265559801N00909929EA0000000813
B1423325559854N00909727EA0000000772
B1423395559924N00909486EA0000000769
B1423445559974N00909329EA0000000780
B1423495559997N00909175EA0000000795
B1423565600020N00908971EA0000000808
B1424025600048N00908796EA0000000785
B1424075600076N00908631EA0000000782
B1424135600117N00908428EA0000000769
B1424205600178N00908186EA0000000788
B1424265600225N00907978EA0000000785
B1424325600269N00907770EA0000000793
B1424435600347N00907402EA0000000807
B1424485600381N00907233EA0000000803
B1424555600429N00906991EA0000000792
B1425005600455N00906811EA0000000768
B1425065600465N00906597EA0000000778
B1425115600473N00906427EA0000000767
B1425175600503N00906246EA0000000777
B1425235600539N00906074EA0000000763
B1425295600577N00905900EA0000000748
B1425345600608N00905746EA0000000731
B1425395600640N00905587EA0000000712
B1425445600676N00905441EA0000000734
B1425505600711N00905313EA0000000757
B1425555600731N00905213EA0000000771
B1426015600705N00905118EA0000000798
B1426065600632N00905190EA0000000825
B1426115600628N00905357EA0000000839
B1426165600678N00905448EA0000000850
B1426215600716N00905431EA0000000863
B1426265600707N00905367EA0000000861
B1426325600703N00905255EA0000000829
B1426375600713N00905100EA0000000801
B1426425600723N00904936EA0000000806
B1426495600723N00904736EA0000000830
B1426565600725N00904538EA0000000852
B1427025600741N00904418EA0000000883
B1427075600751N00904334EA0000000899
B1427125600754N00904259EA0000000900
B1427185600749N00904123EA0000000858
B1427235600702N00903999EA0000000882
B1427285600643N00903901EA0000000887
B1427335600581N00903788EA0000000856
B1427405600488N00903598EA0000000830
B1427465600411N00903434EA0000000824
B1427525600340N00903288EA0000000832
B1427575600281N00903171EA0000000799
B1428045600184N00902960EA0000000747
B1428095600117N00902795EA0000000741
B1428155600049N00902608EA0000000757
B1428215559992N00902445EA0000000782
B1428275559974N00902323EA0000000829
B1428345559965N00902219EA0000000845
B1428405559947N00902133EA0000000842
B1428465559908N00902020EA0000000795
B1428525559854N00901861EA0000000768
B1428575559810N00901701EA0000000736
B1429025559766N00901533EA0000000730
B1429075559730N00901384EA0000000738
B1429135559689N00901201EA0000000703
B1429195559651N00901027EA0000000725
B1429255559626N00900875EA0000000741
B1429305559609N00900764EA0000000755
B1429385559547N00900642EA0000000781
B1429435559526N00900564EA0000000775
B1429485559517N00900473EA0000000742
B1429545559532N00900326EA0000000725
B1429595559597N00900391EA0000000740
B1430065559638N00900666EA0000000716
B1430135559638N00900985EA0000000728
B1430185559631N00901212EA0000000735
B1430235559627N00901431EA0000000748
B1430285559601N00901616EA0000000772
B1430335559576N00901800EA0000000731
B1430385559557N00902047EA0000000687
B1430445559514N00902335EA0000000708
B1430495559479N00902554EA0000000709
B1430545559518N00902691EA0000000731
B1430595559546N00902648EA0000000743
B1431045559520N00902578EA0000000750
B1431095559488N00902502EA0000000735
B1431145559459N00902404EA0000000708
B1431215559430N00902211EA0000000665
B1431345559389N00901819EA0000000669
B1431415559370N00901635EA0000000700
B1431475559365N00901506EA0000000711
B1431525559368N00901408EA0000000718
B1431595559370N00901287EA0000000726
B1432045559375N00901191EA0000000705
B1432105559390N00901029EA0000000676
B1432165559409N00900854EA0000000681
B1432225559430N00900698EA0000000671
B1432275559454N00900559EA0000000651
B1432345559475N00900358EA0000000658
B1432415559489N00900155EA0000000645
B1432485559501N00859950EA0000000638
B1432545559508N00859775EA0000000621
B1433005559501N00859582EA0000000607
B1433075559494N00859373EA0000000607
B1433125559497N00859229EA0000000607
B1433185559519N00859065EA0000000604
B1433245559550N00858913EA0000000585
B1433295559587N00858792EA0000000582
B1433385559669N00858657EA0000000588
B1433435559705N00858587EA0000000593
B1433505559748N00858482EA0000000575
B1434005559788N00858314EA0000000596
B1434055559815N00858267EA0000000608
B1434105559844N00858220EA0000000616
B1434185559879N00858150EA0000000622
B1434235559896N00858092EA0000000610
B1434285559917N00857993EA0000000573
B1434385559954N00857769EA0000000576
B1434435559971N00857664EA0000000580
B1434485559990N00857564EA0000000584
B1434535600003N00857466EA0000000587
B1434585600015N00857368EA0000000589
B1435035600021N00857277EA0000000597
B1435095600017N00857182EA0000000600
B1435145600024N00857105EA0000000587
B1435195600035N00857020EA0000000579
B1435245600046N00856925EA0000000557
B1435315600081N00856809EA0000000556
B1435395600123N00856696EA0000000543
B1435465600142N00856599EA0000000548
B1435565600143N00856445EA0000000531
B1436095600106N00856217EA0000000517
B1436145600054N00856160EA0000000525
B1436195559976N00856198EA0000000532
B1436255559906N00856191EA0000000553
B1436305559916N00856150EA0000000557
B1436365559975N00856174EA0000000554
B1436415600033N00856230EA0000000566
B1436465600071N00856340EA0000000566
B1436515600051N00856497EA0000000568
B1436565559982N00856602EA0000000567
B1437015559906N00856594EA0000000554
B1437075559892N00856492EA0000000569
B1437125559932N00856472EA0000000582
B1437175559973N00856583EA0000000585
B1437235559940N00856762EA0000000587
B1437285559869N00856783EA0000000584
B1437345559845N00856696EA0000000589
B1437395559846N00856618EA0000000595
B1437445559821N00856546EA0000000605
B1437495559751N00856566EA0000000604
B1437555559714N00856743EA0000000604
B1438015559753N00856895EA0000000609
B1438085559824N00857016EA0000000621
B1438135559851N00856989EA0000000613
B1438185559784N00856957EA0000000622
B1438235559722N00857063EA0000000642
B1438285559741N00857195EA0000000640
B1438335559788N00857205EA0000000646
B1438385559774N00857147EA0000000653
B1438435559702N00857176EA0000000659
B1438485559671N00857330EA0000000667
B1438535559710N00857430EA0000000667
B1438595559756N00857408EA0000000678
B1439045559725N00857350EA0000000678
B1439095559649N00857397EA0000000680
B1439145559610N00857542EA0000000695
B1439195559640N00857657EA0000000681
B1439255559680N00857617EA0000000691
B1439305559663N00857552EA0000000694
B1439365559576N00857570EA0000000695
B1439415559523N00857699EA0000000710
B1439465559531N00857848EA0000000712
B1439515559581N00857897EA0000000703
B1439565559577N00857819EA0000000702
B1440025559495N00857781EA0000000714
B1440085559405N00857872EA0000000721
B1440135559393N00858025EA0000000730
B1440185559439N00858086EA0000000729
B1440235559437N00858023EA0000000730
B1440285559361N00858050EA0000000739
B1440345559330N00858229EA0000000747
B1440395559376N00858299EA0000000748
B1440445559397N00858249EA0000000751
B1440525559361N00858131EA0000000757
B1440595559328N00858029EA0000000754
B1441045559308N00857946EA0000000741
B1441115559292N00857803EA0000000723
B1441225559295N00857575EA0000000703
B1441275559298N00857480EA0000000703
B1441385559300N00857284EA0000000696
B1441435559315N00857198EA0000000693
B1441505559349N00857087EA0000000691
B1441575559388N00856982EA0000000708
B1442045559424N00856903EA0000000708
B1442105559472N00856823EA0000000689
B1442175559523N00856726EA0000000697
B1442245559571N00856656EA0000000696
B1442295559608N00856603EA0000000683
B1442345559653N00856530EA0000000657
B1442425559719N00856391EA0000000676
B1442485559755N00856307EA0000000682
B1442545559789N00856227EA0000000690
B1443025559806N00856122EA0000000699
B1443085559827N00856050EA0000000709
B1443185559864N00855936EA0000000728
B1443235559880N00855880EA0000000727
B1443285559899N00855828EA0000000726
B1443355559940N00855758EA0000000709
B1443445600006N00855663EA0000000699
B1443525600069N00855572EA0000000705
B1443595600121N00855498EA0000000712
B1444045600153N00855441EA0000000710
B1444095600185N00855387EA0000000713
B1444185600239N00855288EA0000000711
B1444245600276N00855229EA0000000701
B1444305600318N00855163EA0000000685
B1444355600361N00855085EA0000000666
B1444425600430N00854972EA0000000658
B1444485600500N00854923EA0000000665
B1444535600549N00854883EA0000000664
B1444585600589N00854834EA0000000660
B1445045600629N00854761EA0000000645
B1445095600664N00854679EA0000000634
B1445205600718N00854496EA0000000630
B1445315600759N00854316EA0000000617
B1445425600795N00854147EA0000000617
B1445475600812N00854076EA0000000614
B1445545600833N00853975EA0000000611
B1445595600848N00853906EA0000000604
B1446105600881N00853728EA0000000588
B1446155600893N00853650EA0000000572
B1446215600915N00853543EA0000000567
B1446265600931N00853462EA0000000572
B1446325600949N00853371EA0000000580
B1446375600967N00853303EA0000000583
B1446445600998N00853211EA0000000589
B1446515601027N00853116EA0000000603
B1446565600990N00853060EA0000000615
B1447015600910N00853095EA0000000622
B1447065600855N00853232EA0000000635
B1447115600866N00853383EA0000000642
B1447195600927N00853405EA0000000665
B1447245600900N00853350EA0000000672
B1447325600786N00853463EA0000000680
B1447385600798N00853630EA0000000697
B1447435600842N00853637EA0000000711
B1447485600834N00853571EA0000000719
B1447545600751N00853571EA0000000720
B1448025600710N00853808EA0000000732
B1448115600761N00853799EA0000000753
B1448165600704N00853765EA0000000760
B1448215600631N00853849EA0000000762
B1448265600610N00854006EA0000000772
B1448315600644N00854121EA0000000784
B1448375600684N00854114EA0000000793
B1448425600651N00854053EA0000000796
B1448475600576N00854088EA0000000804
B1448525600524N00854235EA0000000801
B1448575600544N00854395EA0000000807
B1449035600602N00854421EA0000000819
B1449085600562N00854355EA0000000821
B1449135600484N00854434EA0000000835
B1449185600478N00854594EA0000000843
B1449255600535N00854614EA0000000849
B1449305600503N00854547EA0000000857
B1449355600427N00854595EA0000000868
B1449405600396N00854751EA0000000871
B1449455600436N00854847EA0000000880
B1449505600462N00854796EA0000000875
B1449555600442N00854703EA0000000869
B1450015600413N00854565EA0000000829
B1450065600384N00854420EA0000000812
B1450135600343N00854217EA0000000812
B1450195600312N00854042EA0000000814
B1450275600275N00853807EA0000000832
B1450405600245N00853454EA0000000851
B1450455600254N00853332EA0000000843
B1450535600296N00853130EA0000000841
B1450585600325N00853014EA0000000857
B1451035600354N00852906EA0000000866
B1451085600386N00852808EA0000000896
B1451155600433N00852708EA0000000914
B1451215600490N00852627EA0000000903
B1451275600551N00852532EA0000000922
B1451345600627N00852447EA0000000948
B1451405600695N00852372EA0000000937
B1451465600783N00852281EA0000000906
B1451535600904N00852167EA0000000903
B1452005601007N00852041EA0000000919
B1452065601065N00851935EA0000000953
B1452125601119N00851852EA0000000959
B1452185601157N00851754EA0000000960
B1452245601195N00851639EA0000000940
B1452325601227N00851474EA0000000952
B1452375601244N00851362EA0000000956
B1452435601273N00851217EA0000000942
B1452505601321N00851043EA0000000953
B1452565601360N00850916EA0000000961
B1453035601415N00850763EA0000000953
B1453085601448N00850651EA0000000974
B1453165601486N00850494EA0000000979
B1453235601527N00850351EA0000000996
B1453305601586N00850276EA0000001018
B1454145601825N00849114EA0000000947
B1454225601862N00848858EA0000000996
B1454325601960N00848675EA0000001036
B1454405602024N00848530EA0000001066
B1454595602139N00848058EA0000001035
B1455075602170N00847858EA0000001048
B1455215602240N00847466EA0000001043
B1455285602269N00847254EA0000001063
B1455335602302N00847141EA0000001085
B1455395602327N00847028EA0000001102
B1456245602544N00845895EA0000001051
B1456345602384N00845884EA0000001039
B1456395602280N00846056EA0000000976
B1456465602183N00846407EA0000000981
B1456525602122N00846703EA0000000980
B1457005602038N00847106EA0000000948
B1457075601950N00847460EA0000000971
B1457135601865N00847713EA0000001013
B1457205601774N00847983EA0000001023
B1457275601691N00848289EA0000000958
B1457335601616N00848603EA0000000933
B1457405601543N00848957EA0000000939
B1457465601483N00849270EA0000000905
B1457515601439N00849547EA0000000916
B1457585601382N00849908EA0000000943
B1458035601338N00850151EA0000000956
B1458085601263N00850338EA0000000980
B1458135601190N00850520EA0000000983
B1458265601009N00851023EA0000000983
B1458325600926N00851265EA0000000982
B1458395600821N00851541EA0000000988
B1458445600757N00851736EA0000001005
B1458515600655N00851960EA0000001019
B1458585600569N00852189EA0000001016
B1459035600513N00852381EA0000000957
B1459095600444N00852699EA0000000940
B1459145600396N00852952EA0000000961
B1459205600342N00853232EA0000000955
B1459265600288N00853529EA0000000947
B1459315600254N00853774EA0000000964
B1459365600220N00854013EA0000000959
B1459425600182N00854327EA0000000945
B1459485600146N00854615EA0000000974
B1459545600114N00854895EA0000000944
B1500025600024N00855285EA0000000934
B1500075559952N00855511EA0000000927
B1500135559855N00855783EA0000000892
B1500215559716N00856162EA0000000858
B1500285559589N00856516EA0000000821
B1500385559405N00857019EA0000000810
B1500435559315N00857272EA0000000783
B1500485559222N00857528EA0000000772
B1500565559070N00857914EA0000000762
B1501045558913N00858282EA0000000752
B1501115558783N00858536EA0000000785
B1501165558716N00858698EA0000000803
B1501225558686N00858925EA0000000793
B1501275558717N00859128EA0000000733
B1501325558799N00859291EA0000000725
B1501385558914N00859384EA0000000701
B1501455559071N00859426EA0000000638
B1501505559194N00859465EA0000000627
B1501565559334N00859564EA0000000611
B1502015559451N00859663EA0000000606
B1502075559572N00859795EA0000000611
B1502155559712N00859994EA0000000609
B1502215559805N00900179EA0000000599
B1502265559865N00900363EA0000000596
B1502315559903N00900578EA0000000589
B1502375559930N00900860EA0000000555
B1502435559960N00901158EA0000000534
B1502485559980N00901414EA0000000513
B1502535600000N00901681EA0000000495
B1502585600019N00901946EA0000000487
B1503035600033N00902214EA0000000461
B1503085600046N00902495EA0000000435
B1503145600054N00902798EA0000000460
B1503195600061N00903024EA0000000470
B1503255600075N00903271EA0000000476
B1503305600083N00903465EA0000000482
B1503365600083N00903694EA0000000486
B1503415600109N00903850EA0000000512
B1503465600159N00903851EA0000000529
B1503515600129N00903777EA0000000548
B1503565600050N00903825EA0000000564
B1504025600042N00904000EA0000000577
B1504075600088N00904010EA0000000594
B1504125600054N00903946EA0000000614
B1504185559978N00904060EA0000000629
B1504235559995N00904192EA0000000643
B1504285600033N00904188EA0000000665
B1504345600031N00904102EA0000000663
B1504405600034N00903951EA0000000636
B1504465600030N00903752EA0000000635
B1504535600010N00903529EA0000000642
B1504585559986N00903372EA0000000639
B1505035559957N00903207EA0000000642
B1505085559949N00903050EA0000000611
B1505135559947N00902847EA0000000561
B1505185559957N00902667EA0000000625
B1505235559955N00902561EA0000000687
B1505285559942N00902468EA0000000660
B1505335559920N00902342EA0000000667
B1505385559902N00902234EA0000000665
B1505435559880N00902124EA0000000629
B1505495559854N00901992EA0000000615
B1505545559835N00901892EA0000000584
B1506035559832N00901700EA0000000521
B1506115559843N00901517EA0000000469
B1506175559856N00901378EA0000000437
B1506275559878N00901144EA0000000372
B1506325559893N00901034EA0000000353
B1506375559911N00900932EA0000000330
B1506425559930N00900847EA0000000314
B1506475559948N00900771EA0000000297
B1506525559968N00900700EA0000000292
B1506595600001N00900609EA0000000280
B1507055600032N00900532EA0000000261
B1507115600089N00900504EA0000000263
B1507175600158N00900568EA0000000257
B1507265600242N00900767EA0000000248
B1507325600279N00900945EA0000000241
B1507405600311N00901218EA0000000243
B1507475600331N00901461EA0000000247
B1507535600345N00901665EA0000000232
B1507595600364N00901871EA0000000212
B1508045600397N00902027EA0000000196
B1508095600445N00902156EA0000000180
B1508145600508N00902233EA0000000176
B1508205600591N00902298EA0000000169
B1508275600678N00902327EA0000000165
B1508325600733N00902291EA0000000150
B1508375600760N00902196EA0000000140
B1508435600755N00902056EA0000000125
B1508485600747N00901938EA0000000107
B1508535600737N00901822EA0000000091
B1509005600731N00901671EA0000000070
B1509065600722N00901529EA0000000052
B1509135600698N00901361EA0000000037
B1509205600656N00901236EA0000000039
B1509255600633N00901171EA0000000037
