AOGNOGN
HFDTE290625
HFFXA050
HFPLTPILOTINCHARGE:
HFGTYGLIDERTYPE:ASK-21
HFGIDGLIDERID:OY-XPC
HFDTM100GPSDATUM:WGS-1984
HFRFWFIRMWAREVERSION:
HFRHWHARDWAREVERSION:
HFFTYFRTYPE:OGN-FLIGHTBOOK
HFGPSGENERIC
HFPRSPRESSALTSENSOR:
HFCIDCOMPETITIONID:PC
B1452105600716N00901298EA0000000043
B1452105600716N00901298EA0000000043
B1452155600704N00901166EA0000000136
B1452205600690N00901063EA0000000234
B1452255600681N00900956EA0000000314
B1452305600671N00900853EA0000000382
B1452355600661N00900751EA0000000431
B1452405600651N00900653EA0000000461
B1452455600639N00900565EA0000000467
B1452515600630N00900461EA0000000451
B1452565600639N00900372EA0000000447
B1453015600673N00900312EA0000000452
B1453065600732N00900311EA0000000447
B1453115600799N00900318EA0000000445
B1453165600872N00900355EA0000000446
B1453235600966N00900449EA0000000444
B1453295601040N00900556EA0000000424
B1453345601106N00900664EA0000000412
B1453405601176N00900818EA0000000415
B1453475601260N00900987EA0000000424
B1453525601326N00901024EA0000000432
B1453595601360N00900917EA0000000427
B1454065601379N00900789EA0000000425
B1454125601399N00900689EA0000000421
B1454185601436N00900607EA0000000415
B1454265601488N00900490EA0000000398
B1454335601534N00900387EA0000000389
B1454385601570N00900313EA0000000382
B1454435601612N00900252EA0000000377
B1454495601657N00900180EA0000000375
B1455005601692N00900022EA0000000354
B1455055601693N00859933EA0000000345
B1455105601661N00859849EA0000000346
B1455155601600N00859792EA0000000350
B1455205601522N00859762EA0000000360
B1455255601443N00859831EA0000000373
B1455315601404N00900020EA0000000352
B1455365601442N00900170EA0000000357
B1455415601509N00900228EA0000000371
B1455465601561N00900197EA0000000381
B1455515601571N00900111EA0000000383
B1455585601509N00859995EA0000000391
B1456035601455N00859908EA0000000399
B1456095601390N00859802EA0000000410
B1456145601317N00859759EA0000000421
B1456195601234N00859831EA0000000410
B1456245601185N00900014EA0000000397
B1456315601198N00900285EA0000000397
B1456365601247N00900424EA0000000385
B1456415601317N00900508EA0000000389
B1456465601386N00900514EA0000000412
B1456515601422N00900431EA0000000419
B1456575601443N00900307EA0000000430
B1457025601452N00900211EA0000000427
B1457075601418N00900114EA0000000426
B1457125601332N00900079EA0000000425
B1457175601255N00900188EA0000000458
B1457225601240N00900355EA0000000466
B1457275601282N00900467EA0000000458
B1457325601329N00900443EA0000000442
B1457375601330N00900326EA0000000442
B1457425601294N00900213EA0000000462
B1457475601217N00900170EA0000000477
B1457525601133N00900269EA0000000473
B1457575601107N00900464EA0000000475
B1458025601148N00900610EA0000000490
B1458075601204N00900622EA0000000503
B1458125601214N00900527EA0000000507
B1458175601148N00900463EA0000000527
B1458225601059N00900527EA0000000535
B1458275601006N00900696EA0000000533
B1458325601015N00900887EA0000000534
B1458375601073N00900985EA0000000541
B1458425601121N00900952EA0000000535
B1458475601106N00900844EA0000000552
B1458525601047N00900774EA0000000571
B1458585600942N00900832EA0000000586
B1459035600884N00900996EA0000000589
B1459085600888N00901172EA0000000600
B1459145600950N00901281EA0000000601
B1459195600996N00901238EA0000000596
B1459265601001N00901099EA0000000625
B1459315600994N00901010EA0000000640
B1459365600993N00900931EA0000000648
B1459425601003N00900839EA0000000645
B1459485601013N00900734EA0000000661
B1459535601023N00900656EA0000000680
B1459585601036N00900585EA0000000689
B1500035601054N00900508EA0000000699
B1500085601073N00900428EA0000000704
B1500135601093N00900349EA0000000697
B1500195601119N00900241EA0000000686
B1500255601151N00900127EA0000000697
B1500315601177N00900039EA0000000711
B1500365601195N00859973EA0000000707
B1500425601219N00859878EA0000000691
B1500485601247N00859772EA0000000685
B1500535601269N00859681EA0000000678
B1500595601298N00859569EA0000000668
B1501115601362N00859361EA0000000652
B1501175601398N00859259EA0000000642
B1501225601429N00859173EA0000000634
B1501275601458N00859087EA0000000630
B1501335601488N00858986EA0000000625
B1501385601508N00858900EA0000000619
B1501435601521N00858810EA0000000613
B1501495601539N00858709EA0000000601
B1501585601575N00858555EA0000000569
B1502045601606N00858444EA0000000552
B1502095601631N00858347EA0000000543
B1502155601660N00858225EA0000000534
B1502215601687N00858107EA0000000533
B1502265601705N00858009EA0000000531
B1502315601721N00857906EA0000000522
B1502395601739N00857736EA0000000518
B1502455601750N00857612EA0000000514
B1502505601761N00857516EA0000000514
B1502555601777N00857427EA0000000511
B1503005601791N00857337EA0000000506
B1503055601757N00857245EA0000000499
B1503105601665N00857235EA0000000488
B1503155601578N00857354EA0000000483
B1503235601512N00857663EA0000000473
B1503315601455N00857994EA0000000467
B1503365601419N00858209EA0000000454
B1503465601332N00858635EA0000000447
B1503515601279N00858829EA0000000440
B1504025601159N00859273EA0000000407
B1504095601078N00859548EA0000000404
B1504185600968N00859876EA0000000393
B1504235600907N00900056EA0000000393
B1504295600832N00900267EA0000000386
B1504385600719N00900579EA0000000389
B1504465600607N00900828EA0000000389
B1504525600529N00901011EA0000000405
B1504575600469N00901156EA0000000431
B1505055600392N00901383EA0000000439
B1505115600344N00901575EA0000000454
B1505165600321N00901731EA0000000471
B1505215600343N00901866EA0000000459
B1505265600397N00901865EA0000000446
B1505315600410N00901773EA0000000444
B1505365600349N00901696EA0000000442
B1505415600257N00901751EA0000000455
B1505465600220N00901912EA0000000472
B1505515600247N00902054EA0000000468
B1505565600303N00902067EA0000000463
B1506045600307N00901914EA0000000458
B1506105600271N00901790EA0000000464
B1506155600211N00901728EA0000000481
B1506205600125N00901771EA0000000483
B1506255600062N00901927EA0000000476
B1506305600065N00902106EA0000000481
B1506355600120N00902212EA0000000489
B1506405600172N00902176EA0000000497
B1506455600153N00902081EA0000000501
B1506505600067N00902086EA0000000506
B1506555600014N00902244EA0000000517
B1507005600045N00902390EA0000000526
B1507055600104N00902393EA0000000528
B1507105600095N00902297EA0000000528
B1507155600019N00902273EA0000000547
B1507205559948N00902385EA0000000553
B1507255559946N00902556EA0000000562
B1507305600003N00902639EA0000000568
B1507355600049N00902595EA0000000563
B1507405600037N00902494EA0000000568
B1507475559930N00902453EA0000000578
B1507525559859N00902572EA0000000592
B1507575559850N00902744EA0000000602
B1508025559901N00902859EA0000000609
B1508075559962N00902859EA0000000605
B1508125559985N00902771EA0000000605
B1508185559921N00902676EA0000000616
B1508235559833N00902698EA0000000628
B1508285559764N00902814EA0000000632
B1508345559740N00903021EA0000000644
B1508395559786N00903144EA0000000650
B1508445559848N00903144EA0000000650
B1508505559864N00903039EA0000000663
B1508555559815N00902967EA0000000667
B1509005559730N00902969EA0000000676
B1509065559633N00903088EA0000000680
B1509115559608N00903260EA0000000685
B1509165559644N00903406EA0000000696
B1509215559707N00903448EA0000000702
B1509265559747N00903387EA0000000707
B1509315559728N00903288EA0000000713
B1509365559650N00903247EA0000000717
B1509415559558N00903299EA0000000730
B1509465559503N00903449EA0000000726
B1509515559523N00903614EA0000000734
B1509575559603N00903668EA0000000749
B1510025559637N00903587EA0000000765
B1510075559611N00903484EA0000000763
B1510135559505N00903450EA0000000771
B1510185559415N00903547EA0000000779
B1510235559370N00903720EA0000000780
B1510285559398N00903882EA0000000782
B1510335559465N00903956EA0000000794
B1510395559525N00903898EA0000000808
B1510445559515N00903801EA0000000817
B1510495559453N00903738EA0000000830
B1510545559361N00903755EA0000000828
B1510595559279N00903871EA0000000832
B1511045559246N00904049EA0000000826
B1511095559271N00904218EA0000000831
B1511145559329N00904330EA0000000837
B1511195559398N00904349EA0000000843
B1511255559423N00904241EA0000000857
B1511305559380N00904150EA0000000863
B1511355559295N00904144EA0000000866
B1511405559215N00904249EA0000000863
B1511455559183N00904423EA0000000858
B1511505559209N00904582EA0000000863
B1511555559271N00904658EA0000000873
B1512025559357N00904644EA0000000881
B1512075559385N00904569EA0000000889
B1512125559358N00904482EA0000000890
B1512175559278N00904457EA0000000897
B1512225559190N00904525EA0000000914
B1512275559130N00904665EA0000000907
B1512325559115N00904843EA0000000901
B1512375559147N00905006EA0000000906
B1512425559211N00905087EA0000000914
B1512475559273N00905060EA0000000913
B1512525559319N00904988EA0000000905
B1512575559362N00904905EA0000000896
B1513035559411N00904790EA0000000884
B1513105559474N00904654EA0000000878
B1513155559526N00904567EA0000000873
B1513235559610N00904429EA0000000860
B1513285559652N00904329EA0000000860
B1513335559671N00904209EA0000000852
B1513395559684N00904060EA0000000845
B1513445559703N00903944EA0000000840
B1513505559731N00903806EA0000000841
B1513565559762N00903673EA0000000845
B1514015559785N00903567EA0000000855
B1514065559806N00903472EA0000000861
B1514135559841N00903353EA0000000860
B1514185559866N00903278EA0000000868
B1514235559888N00903213EA0000000867
B1514285559910N00903151EA0000000865
B1514335559937N00903094EA0000000858
B1514395559976N00903024EA0000000852
B1514445600016N00902972EA0000000843
B1514505600059N00902897EA0000000837
B1514565600103N00902804EA0000000836
B1515015600134N00902714EA0000000840
B1515065600161N00902633EA0000000852
B1515135600188N00902533EA0000000866
B1515195600212N00902458EA0000000865
B1515255600237N00902383EA0000000863
B1515335600263N00902267EA0000000857
B1515385600279N00902178EA0000000853
B1515445600302N00902057EA0000000859
B1515505600334N00901948EA0000000887
B1515555600356N00901879EA0000000893
B1516015600388N00901799EA0000000885
B1516085600430N00901681EA0000000868
B1516135600469N00901591EA0000000876
B1516185600513N00901520EA0000000900
B1516235600552N00901466EA0000000918
B1516285600587N00901417EA0000000926
B1516335600623N00901366EA0000000920
B1516385600662N00901309EA0000000901
B1516465600740N00901199EA0000000873
B1516535600813N00901100EA0000000869
B1516585600869N00901026EA0000000874
B1517035600917N00900962EA0000000891
B1517085600960N00900909EA0000000905
B1517165601022N00900831EA0000000907
B1517255601084N00900718EA0000000907
B1517305601118N00900645EA0000000901
B1517365601161N00900548EA0000000894
B1517435601206N00900430EA0000000889
B1517535601278N00900253EA0000000871
B1517585601309N00900156EA0000000873
B1518075601361N00859980EA0000000869
B1518135601395N00859878EA0000000881
B1518185601419N00859808EA0000000911
B1518265601444N00859714EA0000000903
B1518345601467N00859577EA0000000875
B1518395601481N00859472EA0000000862
B1518445601497N00859358EA0000000850
B1518495601514N00859249EA0000000847
B1518555601534N00859129EA0000000835
B1519015601554N00859012EA0000000818
B1519085601577N00858873EA0000000798
B1519145601592N00858749EA0000000791
B1519205601602N00858626EA0000000785
B1519275601613N00858477EA0000000772
B1519325601621N00858367EA0000000766
B1519395601634N00858219EA0000000765
B1519475601650N00858063EA0000000757
B1519525601685N00857990EA0000000752
B1519575601749N00857987EA0000000745
B1520025601822N00858073EA0000000733
B1520075601869N00858248EA0000000726
B1520145601865N00858540EA0000000727
B1520195601847N00858746EA0000000729
B1520245601829N00858955EA0000000715
B1520295601813N00859194EA0000000658
B1520345601802N00859482EA0000000629
B1520395601793N00859535EA0000000760
B1520445601783N00859595EA0000000736
B1520495601759N00859911EA0000000672
B1520545601746N00900132EA0000000734
B1521005601731N00900367EA0000000738
B1521075601719N00900653EA0000000730
B1521125601711N00900854EA0000000724
B1521185601700N00901092EA0000000705
B1521245601682N00901329EA0000000688
B1521295601666N00901523EA0000000669
B1521345601725N00901568EA0000000550
B1521395601623N00901440EA0000000484
B1521445601538N00901683EA0000000484
B1521495601648N00901751EA0000000473
B1521545601636N00901574EA0000000460
B1521595601501N00901606EA0000000444
B1522045601517N00901829EA0000000430
B1522095601556N00901725EA0000000417
B1522145601443N00901733EA0000000418
B1522195601457N00901926EA0000000422
B1522245601504N00901871EA0000000423
B1522295601487N00901771EA0000000427
B1522365601454N00901635EA0000000413
B1522425601422N00901520EA0000000411
B1522495601370N00901397EA0000000415
B1522545601306N00901332EA0000000409
B1522595601223N00901281EA0000000402
B1523045601132N00901226EA0000000403
B1523095601042N00901172EA0000000381
B1523145600951N00901122EA0000000342
B1523195600860N00901066EA0000000306
B1523255600756N00901003EA0000000271
B1523315600655N00900936EA0000000237
B1523365600565N00900874EA0000000228
B1523415600467N00900869EA0000000239
B1523465600379N00900965EA0000000239
B1523515600327N00901144EA0000000218
B1523565600315N00901357EA0000000205
B1524025600320N00901612EA0000000191
B1524075600337N00901823EA0000000184
B1524155600397N00902122EA0000000196
B1524205600461N00902245EA0000000186
B1524255600540N00902283EA0000000171
B1524305600605N00902236EA0000000156
B1524375600660N00902095EA0000000138
B1524425600692N00901980EA0000000130
B1524475600719N00901865EA0000000110
B1524525600728N00901740EA0000000078
B1524575600725N00901603EA0000000038
B1525025600717N00901472EA0000000033
B1525095600712N00901360EA0000000033
