AOGNOGN
HFDTE290625
HFFXA050
HFPLTPILOTINCHARGE:
HFGTYGLIDERTYPE:Discus 2t
HFGIDGLIDERID:OY-XUP
HFDTM100GPSDATUM:WGS-1984
HFRFWFIRMWAREVERSION:
HFRHWHARDWAREVERSION:
HFFTYFRTYPE:OGN-FLIGHTBOOK
HFGPSGENERIC
HFPRSPRESSALTSENSOR:
HFCIDCOMPETITIONID:AA
B1016055600697N00901539EA0000000044
B1016095600693N00901463EA0000000044
B1016155600683N00901316EA0000000047
B1016225600668N00901134EA0000000074
B1016275600655N00901007EA0000000089
B1016345600632N00900826EA0000000118
B1016395600614N00900705EA0000000139
B1016465600586N00900540EA0000000162
B1016525600560N00900396EA0000000191
B1016585600533N00900239EA0000000213
B1017065600497N00900022EA0000000249
B1017115600478N00859898EA0000000272
B1017175600459N00859755EA0000000293
B1017385600417N00859251EA0000000360
B1017465600416N00859043EA0000000392
B1017545600415N00858832EA0000000433
B1018005600412N00858675EA0000000466
B1018065600417N00858526EA0000000496
B1018125600444N00858391EA0000000529
B1018175600462N00858284EA0000000543
B1018225600405N00858206EA0000000544
B1018275600323N00858175EA0000000547
B1018325600228N00858228EA0000000536
B1018375600140N00858215EA0000000521
B1018425600081N00858121EA0000000517
B1018475600014N00858043EA0000000526
B1018525559924N00858153EA0000000533
B1018585559923N00858408EA0000000530
B1019035600008N00858502EA0000000541
B1019085600068N00858429EA0000000547
B1019145600001N00858332EA0000000556
B1019195559914N00858442EA0000000552
B1019245559905N00858661EA0000000554
B1019305559997N00858795EA0000000570
B1019365600045N00858687EA0000000580
B1019415559973N00858618EA0000000583
B1019465559888N00858745EA0000000592
B1019515559894N00858962EA0000000593
B1019565559980N00859062EA0000000607
B1020035600050N00858944EA0000000613
B1020085600017N00858821EA0000000616
B1020135559923N00858816EA0000000625
B1020185559851N00858988EA0000000628
B1020235559882N00859183EA0000000640
B1020285559967N00859187EA0000000651
B1020365559915N00859031EA0000000662
B1020415559824N00859147EA0000000675
B1020465559822N00859360EA0000000684
B1020525559920N00859450EA0000000701
B1020575559960N00859349EA0000000711
B1021025559908N00859245EA0000000710
B1021075559804N00859295EA0000000728
B1021125559745N00859484EA0000000734
B1021175559781N00859684EA0000000731
B1021225559876N00859729EA0000000743
B1021275559919N00859618EA0000000754
B1021325559861N00859514EA0000000764
B1021385559742N00859607EA0000000784
B1021435559716N00859821EA0000000788
B1021485559785N00859966EA0000000800
B1021545559879N00859922EA0000000810
B1022005559866N00859772EA0000000816
B1022055559770N00859746EA0000000834
B1022105559676N00859877EA0000000848
B1022155559662N00900092EA0000000854
B1022205559738N00900210EA0000000860
B1022265559813N00900114EA0000000872
B1022315559771N00900000EA0000000884
B1022365559670N00900028EA0000000894
B1022425559603N00900253EA0000000900
B1022475559656N00900426EA0000000911
B1022525559741N00900442EA0000000923
B1022585559772N00900307EA0000000933
B1023035559707N00900211EA0000000940
B1023085559602N00900244EA0000000940
B1023135559524N00900417EA0000000930
B1023185559530N00900634EA0000000932
B1023235559602N00900772EA0000000950
B1023285559679N00900766EA0000000962
B1023335559684N00900649EA0000000972
B1023385559598N00900603EA0000000979
B1023435559510N00900736EA0000000986
B1023505559530N00901008EA0000001003
B1023555559611N00901048EA0000001014
B1024005559655N00900957EA0000001026
B1024055559613N00900849EA0000001038
B1024105559513N00900862EA0000001040
B1024155559429N00901023EA0000001037
B1024205559426N00901237EA0000001040
B1024255559499N00901354EA0000001058
B1024305559571N00901318EA0000001071
B1024355559581N00901201EA0000001084
B1024405559514N00901128EA0000001087
B1024455559410N00901209EA0000001080
B1024505559346N00901402EA0000001085
B1024555559345N00901616EA0000001095
B1025005559398N00901771EA0000001103
B1025065559485N00901775EA0000001101
B1025115559493N00901653EA0000001109
B1025165559422N00901571EA0000001121
B1025225559299N00901636EA0000001127
B1025275559224N00901814EA0000001126
B1025345559209N00902121EA0000001126
B1025415559224N00902428EA0000001128
B1025485559244N00902733EA0000001111
B1025535559243N00902978EA0000001101
B1025595559216N00903272EA0000001111
B1026065559169N00903602EA0000001106
B1026135559117N00903930EA0000001101
B1026225559045N00904346EA0000001081
B1026295558986N00904680EA0000001061
B1026355558932N00904971EA0000001051
B1026425558868N00905316EA0000001031
B1026485558814N00905609EA0000001015
B1026545558759N00905904EA0000000999
B1026595558711N00906148EA0000000995
B1027085558625N00906573EA0000001002
B1027145558570N00906842EA0000001001
B1027195558521N00907065EA0000000994
B1027255558458N00907330EA0000000986
B1027305558402N00907550EA0000000972
B1027385558314N00907906EA0000000972
B1027435558252N00908123EA0000000963
B1027485558187N00908335EA0000000966
B1027545558117N00908593EA0000000962
B1028005558064N00908859EA0000000953
B1028095558019N00909271EA0000000943
B1028155558007N00909541EA0000000947
B1028205558063N00909706EA0000000948
B1028255558147N00909728EA0000000951
B1028315558203N00909624EA0000000947
B1028365558227N00909510EA0000000945
B1028455558287N00909319EA0000000935
B1028505558306N00909202EA0000000934
B1028555558244N00909112EA0000000927
B1029025558099N00909225EA0000000922
B1029075558067N00909447EA0000000916
B1029125558137N00909594EA0000000900
B1029175558215N00909550EA0000000895
B1029225558241N00909428EA0000000886
B1029275558250N00909300EA0000000872
B1029325558244N00909161EA0000000860
B1029385558229N00908986EA0000000843
B1029445558211N00908816EA0000000835
B1029525558188N00908595EA0000000832
B1029575558174N00908460EA0000000831
B1030025558163N00908321EA0000000826
B1030085558153N00908151EA0000000823
B1030135558124N00908029EA0000000842
B1030195558054N00907906EA0000000827
B1030245558051N00907779EA0000000816
B1030295558071N00907652EA0000000801
B1030365558106N00907471EA0000000795
B1030425558146N00907325EA0000000792
B1030485558188N00907195EA0000000789
B1030535558229N00907091EA0000000772
B1030585558278N00906987EA0000000755
B1031065558359N00906813EA0000000747
B1031155558450N00906606EA0000000722
B1031215558514N00906463EA0000000712
B1031265558571N00906351EA0000000715
B1031315558625N00906249EA0000000723
B1031365558670N00906139EA0000000726
B1031415558630N00906025EA0000000727
B1031465558525N00906058EA0000000737
B1031515558467N00906255EA0000000738
B1031565558514N00906451EA0000000741
B1032025558617N00906482EA0000000754
B1032085558655N00906361EA0000000751
B1032135558645N00906240EA0000000756
B1032185558558N00906215EA0000000765
B1032235558478N00906358EA0000000777
B1032285558480N00906556EA0000000777
B1032345558572N00906653EA0000000782
B1032395558623N00906577EA0000000780
B1032445558631N00906452EA0000000782
B1032505558637N00906299EA0000000788
B1032555558582N00906207EA0000000801
B1033015558475N00906318EA0000000809
B1033065558470N00906519EA0000000810
B1033115558542N00906626EA0000000809
B1033165558610N00906571EA0000000817
B1033225558572N00906440EA0000000833
B1033275558478N00906473EA0000000851
B1033325558426N00906652EA0000000858
B1033385558484N00906836EA0000000866
B1033435558560N00906825EA0000000873
B1033485558563N00906709EA0000000879
B1033545558459N00906660EA0000000888
B1033595558372N00906799EA0000000907
B1034045558364N00906997EA0000000914
B1034105558452N00907116EA0000000922
B1034155558514N00907052EA0000000926
B1034205558493N00906922EA0000000930
B1034265558375N00906893EA0000000945
B1034315558294N00907045EA0000000955
B1034365558301N00907243EA0000000957
B1034435558412N00907321EA0000000965
B1034485558450N00907222EA0000000978
B1034535558397N00907121EA0000000985
B1034595558277N00907195EA0000000995
B1035045558246N00907396EA0000001001
B1035095558300N00907547EA0000001003
B1035145558382N00907547EA0000001009
B1035195558408N00907437EA0000001016
B1035255558326N00907330EA0000001020
B1035315558207N00907451EA0000001034
B1035365558192N00907654EA0000001034
B1035415558258N00907778EA0000001034
B1035465558325N00907741EA0000001040
B1035515558311N00907621EA0000001039
B1035565558219N00907581EA0000001045
B1036025558110N00907746EA0000001054
B1036075558114N00907947EA0000001056
B1036125558186N00908045EA0000001053
B1036185558250N00907958EA0000001056
B1036235558210N00907835EA0000001062
B1036285558105N00907830EA0000001074
B1036345558011N00908028EA0000001082
B1036395558029N00908221EA0000001086
B1036445558102N00908303EA0000001092
B1036495558159N00908250EA0000001095
B1036545558143N00908127EA0000001100
B1036595558047N00908081EA0000001100
B1037045557944N00908201EA0000001115
B1037105557914N00908452EA0000001112
B1037155557961N00908630EA0000001115
B1037205558034N00908723EA0000001129
B1037265558125N00908786EA0000001136
B1037315558207N00908844EA0000001115
B1037375558319N00908911EA0000001099
B1037425558412N00908973EA0000001090
B1037475558509N00909035EA0000001077
B1037535558630N00909117EA0000001062
B1037585558730N00909185EA0000001060
B1038035558832N00909251EA0000001047
B1038085558937N00909325EA0000001046
B1038135559039N00909400EA0000001033
B1038185559139N00909460EA0000001033
B1038235559233N00909507EA0000001036
B1038305559361N00909562EA0000001024
B1038365559472N00909594EA0000001027
B1038425559580N00909626EA0000001029
B1038525559756N00909699EA0000001043
B1038575559844N00909758EA0000001045
B1039025559927N00909790EA0000001050
B1039075559952N00909689EA0000001047
B1039125559880N00909612EA0000001049
B1039175559771N00909683EA0000001056
B1039225559713N00909880EA0000001048
B1039275559759N00910062EA0000001051
B1039355559892N00910205EA0000001051
B1039425600013N00910287EA0000001049
B1039485600117N00910319EA0000001038
B1039555600236N00910345EA0000001035
B1040005600322N00910354EA0000001022
B1040065600426N00910349EA0000001032
B1040115600506N00910334EA0000001037
B1040165600581N00910303EA0000001036
B1040225600655N00910216EA0000001040
B1040285600718N00910102EA0000001047
B1040335600766N00910004EA0000001046
B1040395600819N00909876EA0000001047
B1040465600867N00909722EA0000001054
B1040575600945N00909503EA0000001066
B1041025600983N00909409EA0000001060
B1041095601039N00909283EA0000001057
B1041165601097N00909135EA0000001050
B1041225601142N00908994EA0000001059
B1041295601190N00908828EA0000001069
B1041365601240N00908667EA0000001095
B1041415601268N00908549EA0000001107
B1041495601298N00908352EA0000001113
B1041545601317N00908226EA0000001112
B1041595601327N00908076EA0000001102
B1042045601341N00907921EA0000001109
B1042105601345N00907742EA0000001114
B1042155601343N00907598EA0000001106
B1042235601336N00907372EA0000001087
B1042295601325N00907197EA0000001074
B1042345601317N00907058EA0000001084
B1042395601310N00906929EA0000001083
B1042455601303N00906772EA0000001078
B1042505601297N00906638EA0000001090
B1042585601312N00906435EA0000001090
B1043075601343N00906199EA0000001075
B1043125601370N00906070EA0000001069
B1043185601432N00905943EA0000001056
B1043245601510N00905831EA0000001050
B1043295601579N00905752EA0000001045
B1043375601692N00905627EA0000001027
B1043445601797N00905531EA0000001019
B1043495601878N00905486EA0000001012
B1043545601963N00905444EA0000000999
B1044025602094N00905367EA0000000983
B1044075602175N00905306EA0000000970
B1044125602245N00905223EA0000000961
B1044175602297N00905112EA0000000956
B1044265602357N00904879EA0000000937
B1044315602381N00904743EA0000000932
B1044395602391N00904520EA0000000921
B1044505602391N00904225EA0000000932
B1044575602392N00904043EA0000000921
B1045035602402N00903885EA0000000919
B1045085602410N00903749EA0000000916
B1045135602416N00903615EA0000000920
B1045205602428N00903414EA0000000896
B1045265602442N00903245EA0000000916
B1045315602458N00903122EA0000000924
B1045385602475N00902954EA0000000911
B1045435602484N00902839EA0000000906
B1045485602497N00902713EA0000000882
B1045545602513N00902543EA0000000868
B1046005602524N00902376EA0000000882
B1046065602539N00902224EA0000000885
B1046125602550N00902069EA0000000873
B1046195602550N00901884EA0000000867
B1046245602541N00901747EA0000000868
B1046325602518N00901513EA0000000874
B1046385602503N00901339EA0000000887
B1046455602486N00901129EA0000000900
B1046555602484N00900853EA0000000930
B1047015602494N00900691EA0000000925
B1047065602488N00900553EA0000000948
B1047115602400N00900506EA0000000967
B1047165602307N00900636EA0000000967
B1047215602287N00900855EA0000000967
B1047275602368N00900980EA0000000975
B1047325602430N00900919EA0000000980
B1047375602440N00900795EA0000000997
B1047435602419N00900645EA0000001004
B1047485602398N00900522EA0000001006
B1047555602380N00900354EA0000001012
B1048015602380N00900215EA0000001012
B1048105602409N00900013EA0000001005
B1048165602419N00859871EA0000001019
B1048225602316N00859816EA0000001024
B1048275602219N00859973EA0000001008
B1048325602215N00900191EA0000000990
B1048375602286N00900313EA0000000997
B1048425602347N00900274EA0000001004
B1048475602372N00900168EA0000001016
B1048525602378N00900059EA0000001035
B1048575602311N00859987EA0000001034
B1049025602207N00900064EA0000001026
B1049075602166N00900258EA0000001026
B1049125602214N00900414EA0000001010
B1049175602292N00900424EA0000001015
B1049235602332N00900306EA0000001034
B1049285602343N00900194EA0000001061
B1049355602347N00900054EA0000001080
B1049415602350N00859943EA0000001085
B1049465602354N00859844EA0000001080
B1049515602363N00859735EA0000001074
B1049575602375N00859586EA0000001072
B1050025602385N00859460EA0000001066
B1050075602405N00859325EA0000001053
B1050155602429N00859106EA0000001049
B1050205602450N00858974EA0000001045
B1050305602502N00858738EA0000001062
B1050355602512N00858621EA0000001088
B1050405602437N00858549EA0000001093
B1050455602332N00858643EA0000001089
B1050505602304N00858852EA0000001088
B1050555602367N00858968EA0000001081
B1051005602431N00858911EA0000001084
B1051055602447N00858785EA0000001098
B1051125602445N00858595EA0000001115
B1051185602447N00858438EA0000001108
B1051245602451N00858277EA0000001089
B1051295602455N00858140EA0000001082
B1051365602463N00857957EA0000001108
B1051435602470N00857792EA0000001111
B1051575602474N00857446EA0000001091
B1052025602473N00857319EA0000001085
B1052085602463N00857169EA0000001077
B1052145602442N00857006EA0000001055
B1052195602418N00856866EA0000001040
B1052255602385N00856693EA0000001032
B1052315602351N00856514EA0000001016
B1052385602313N00856296EA0000000993
B1052435602278N00856139EA0000000985
B1052505602234N00855946EA0000001014
B1052575602226N00855763EA0000001022
B1053025602259N00855646EA0000001027
B1053085602361N00855641EA0000001029
B1053135602433N00855816EA0000001029
B1053185602406N00856051EA0000001032
B1053235602300N00856174EA0000001029
B1053285602188N00856176EA0000001037
B1053335602118N00856075EA0000001051
B1053385602126N00855952EA0000001045
B1053435602205N00855927EA0000001043
B1053485602284N00856052EA0000001049
B1053545602309N00856309EA0000001064
B1053595602263N00856514EA0000001061
B1054045602163N00856624EA0000001059
B1054105602070N00856553EA0000001073
B1054165602082N00856412EA0000001074
B1054215602159N00856391EA0000001072
B1054265602227N00856534EA0000001085
B1054315602217N00856749EA0000001085
B1054365602126N00856882EA0000001077
B1054425602028N00856817EA0000001088
B1054475602039N00856698EA0000001087
B1054525602121N00856691EA0000001085
B1054585602196N00856894EA0000001097
B1055035602182N00857117EA0000001109
B1055095602082N00857292EA0000001102
B1055145601984N00857279EA0000001087
B1055215601955N00857109EA0000001098
B1055265602016N00857032EA0000001096
B1055325602122N00857028EA0000001101
B1055375602150N00856914EA0000001109
B1055425602075N00856833EA0000001120
B1055475601976N00856916EA0000001120
B1055545601945N00857206EA0000001106
B1055595602011N00857344EA0000001108
B1056045602091N00857337EA0000001115
B1056115602172N00857231EA0000001123
B1056205602270N00857083EA0000001136
B1056255602324N00857004EA0000001143
B1056315602391N00856904EA0000001144
B1056375602461N00856810EA0000001137
B1056435602536N00856716EA0000001144
B1056505602622N00856612EA0000001155
B1057005602743N00856466EA0000001165
B1057075602826N00856357EA0000001162
B1057125602885N00856269EA0000001155
B1057175602943N00856184EA0000001140
B1057235603011N00856074EA0000001129
B1057335603121N00855893EA0000001117
B1057405603200N00855772EA0000001116
B1057465603261N00855662EA0000001100
B1057535603336N00855509EA0000001074
B1058005603416N00855340EA0000001069
B1058055603470N00855215EA0000001062
B1058105603528N00855097EA0000001063
B1058155603587N00854979EA0000001061
B1058245603697N00854769EA0000001043
B1058295603759N00854656EA0000001036
B1058355603835N00854523EA0000001029
B1058425603920N00854370EA0000001022
B1058475603976N00854258EA0000001016
B1058545604052N00854102EA0000001007
B1058595604105N00853992EA0000001009
B1059045604153N00853883EA0000001007
B1059145604242N00853664EA0000000993
B1059205604297N00853538EA0000000988
B1059265604352N00853407EA0000000988
B1059325604406N00853273EA0000000983
B1059435604510N00853031EA0000000989
B1059485604521N00852911EA0000000992
B1059535604447N00852839EA0000000994
B1059585604342N00852910EA0000000987
B1100035604270N00853094EA0000000983
B1100085604260N00853303EA0000000978
B1100135604314N00853454EA0000000978
B1100195604402N00853449EA0000000974
B1100255604457N00853345EA0000000973
B1100305604496N00853257EA0000000981
B1100385604558N00853105EA0000000973
B1100445604603N00852988EA0000000974
B1100505604644N00852862EA0000000969
B1100585604695N00852692EA0000000963
B1101045604734N00852573EA0000000955
B1101105604775N00852446EA0000000953
B1101165604816N00852306EA0000000947
B1101235604865N00852138EA0000000958
B1101325604912N00851928EA0000000963
B1101385604941N00851787EA0000000959
B1101475604984N00851570EA0000000952
B1101545605016N00851402EA0000000954
B1101595605023N00851278EA0000000961
B1102045604957N00851203EA0000000965
B1102105604837N00851306EA0000000964
B1102155604790N00851508EA0000000963
B1102205604825N00851699EA0000000959
B1102265604915N00851739EA0000000956
B1102335604958N00851588EA0000000953
B1102395604973N00851445EA0000000956
B1102475604984N00851248EA0000000948
B1102545604989N00851056EA0000000944
B1102595604994N00850917EA0000000945
B1103055604998N00850757EA0000000958
B1103125604984N00850579EA0000000966
B1103175604960N00850455EA0000000960
B1103245604918N00850280EA0000000965
B1103305604881N00850129EA0000000952
B1103415604797N00849856EA0000000941
B1103475604750N00849715EA0000000932
B1103525604715N00849591EA0000000923
B1103575604684N00849463EA0000000915
B1104025604659N00849330EA0000000907
B1104095604637N00849140EA0000000917
B1104145604575N00849059EA0000000926
B1104195604476N00849120EA0000000935
B1104245604418N00849309EA0000000944
B1104295604448N00849505EA0000000954
B1104345604530N00849579EA0000000960
B1104395604590N00849518EA0000000959
B1104445604582N00849405EA0000000962
B1104505604488N00849366EA0000000961
B1104555604397N00849484EA0000000964
B1105005604369N00849689EA0000000975
B1105065604434N00849877EA0000000984
B1105115604512N00849893EA0000000990
B1105165604550N00849811EA0000000988
B1105225604511N00849694EA0000000988
B1105275604422N00849684EA0000000987
B1105325604335N00849799EA0000000992
B1105385604318N00850039EA0000000997
B1105435604388N00850162EA0000001005
B1105485604461N00850145EA0000001008
B1105565604558N00850044EA0000000995
B1106055604673N00849925EA0000000982
B1106105604738N00849856EA0000000960
B1106155604811N00849778EA0000000940
B1106225604921N00849661EA0000000921
B1106275605000N00849574EA0000000907
B1106365605150N00849428EA0000000895
B1106425605253N00849336EA0000000888
B1106505605390N00849212EA0000000876
B1106565605489N00849121EA0000000883
B1107085605667N00848955EA0000000872
B1107135605738N00848871EA0000000863
B1107205605835N00848748EA0000000856
B1107255605899N00848656EA0000000861
B1107305605952N00848570EA0000000880
B1107365606010N00848458EA0000000881
B1107415605997N00848337EA0000000891
B1107465605906N00848319EA0000000903
B1107515605822N00848455EA0000000908
B1107565605806N00848654EA0000000909
B1108025605879N00848814EA0000000916
B1108075605951N00848793EA0000000920
B1108125605967N00848680EA0000000922
B1108185605885N00848582EA0000000933
B1108235605782N00848644EA0000000932
B1108285605706N00848815EA0000000930
B1108345605711N00849054EA0000000935
B1108405605807N00849143EA0000000939
B1108455605858N00849055EA0000000947
B1108505605830N00848936EA0000000963
B1108565605723N00848909EA0000000965
B1109015605634N00849026EA0000000965
B1109065605593N00849213EA0000000957
B1109125605600N00849457EA0000000952
B1109195605625N00849743EA0000000964
B1109245605680N00849896EA0000000963
B1109305605773N00849902EA0000000953
B1109355605787N00849785EA0000000955
B1109415605690N00849715EA0000000967
B1109465605596N00849825EA0000000980
B1109515605554N00850017EA0000000992
B1109595605555N00850343EA0000000980
B1110045605544N00850549EA0000000974
B1110115605458N00850801EA0000000959
B1110185605344N00851025EA0000000945
B1110245605239N00851222EA0000000931
B1110305605127N00851421EA0000000919
B1110385604973N00851673EA0000000912
B1110435604876N00851820EA0000000905
B1110515604719N00852054EA0000000896
B1110585604582N00852267EA0000000878
B1111035604478N00852432EA0000000850
B1111085604371N00852589EA0000000860
B1111145604258N00852772EA0000000868
B1111195604172N00852928EA0000000874
B1111275604040N00853190EA0000000865
B1111335603943N00853405EA0000000850
B1111385603866N00853594EA0000000842
B1111445603781N00853834EA0000000839
B1111515603687N00854121EA0000000842
B1111595603587N00854440EA0000000845
B1112045603533N00854639EA0000000855
B1112095603554N00854835EA0000000861
B1112145603633N00854909EA0000000864
B1112195603686N00854843EA0000000858
B1112245603658N00854737EA0000000847
B1112295603558N00854758EA0000000836
B1112345603479N00854932EA0000000843
B1112405603437N00855189EA0000000852
B1112465603408N00855447EA0000000850
B1112515603387N00855667EA0000000849
B1112585603362N00855979EA0000000864
B1113035603399N00856163EA0000000869
B1113085603480N00856188EA0000000858
B1113135603503N00856084EA0000000845
B1113185603433N00856010EA0000000836
B1113235603331N00856073EA0000000842
B1113285603264N00856250EA0000000852
B1113365603257N00856584EA0000000848
B1113435603251N00856882EA0000000842
B1113485603199N00857070EA0000000823
B1113545603073N00857133EA0000000798
B1113595602965N00857130EA0000000784
B1114045602854N00857117EA0000000763
B1114105602717N00857096EA0000000762
B1114155602612N00857083EA0000000756
B1114205602505N00857076EA0000000753
B1114265602378N00857071EA0000000764
B1114345602217N00857053EA0000000765
B1114405602094N00857040EA0000000755
B1114465601970N00857023EA0000000747
B1114525601850N00857007EA0000000765
B1114585601736N00857057EA0000000771
B1115035601683N00857240EA0000000773
B1115085601713N00857425EA0000000778
B1115145601804N00857478EA0000000763
B1115205601833N00857357EA0000000759
B1115255601774N00857276EA0000000755
B1115325601639N00857284EA0000000757
B1115375601536N00857325EA0000000753
B1115425601432N00857374EA0000000747
B1115475601350N00857514EA0000000741
B1115525601343N00857737EA0000000728
B1115575601409N00857904EA0000000720
B1116025601502N00857990EA0000000715
B1116075601596N00858073EA0000000708
B1116145601729N00858171EA0000000699
B1116195601819N00858197EA0000000701
B1116275601955N00858149EA0000000677
B1116325602052N00858111EA0000000673
B1116375602131N00858046EA0000000681
B1116435602192N00857925EA0000000693
B1116485602238N00857830EA0000000701
B1116535602279N00857730EA0000000697
B1116585602347N00857675EA0000000690
B1117035602441N00857728EA0000000680
B1117085602522N00857889EA0000000670
B1117135602547N00858115EA0000000662
B1117185602493N00858321EA0000000651
B1117235602385N00858449EA0000000654
B1117285602286N00858572EA0000000687
B1117345602175N00858730EA0000000682
B1117405602066N00858890EA0000000695
B1117465601955N00859039EA0000000687
B1117545601797N00859119EA0000000689
B1118015601672N00859082EA0000000661
B1118075601579N00858994EA0000000639
B1118145601503N00858856EA0000000615
B1118205601470N00858726EA0000000600
B1118265601479N00858588EA0000000578
B1118315601533N00858502EA0000000560
B1118365601620N00858489EA0000000539
B1118425601729N00858586EA0000000527
B1118475601788N00858746EA0000000524
B1118535601801N00858989EA0000000506
B1118585601774N00859200EA0000000498
B1119035601730N00859403EA0000000501
B1119095601652N00859612EA0000000503
B1119145601609N00859817EA0000000487
B1119195601643N00900030EA0000000480
B1119245601727N00900158EA0000000469
B1119305601823N00900101EA0000000461
B1119355601818N00859972EA0000000462
B1119405601752N00859876EA0000000454
B1119465601653N00859802EA0000000415
B1119515601548N00859859EA0000000382
B1119565601471N00900041EA0000000371
B1120035601440N00900359EA0000000359
B1120095601444N00900628EA0000000349
B1120145601464N00900845EA0000000356
B1120195601489N00901046EA0000000349
B1120245601516N00901248EA0000000344
B1120295601539N00901445EA0000000346
B1120355601544N00901689EA0000000339
B1120405601511N00901895EA0000000312
B1120455601438N00902074EA0000000308
B1120505601352N00902218EA0000000292
B1120565601244N00902369EA0000000268
B1121015601142N00902476EA0000000245
B1121065601037N00902537EA0000000222
B1121115600935N00902512EA0000000209
B1121165600863N00902422EA0000000195
B1121235600820N00902233EA0000000170
B1121285600801N00902095EA0000000153
B1121345600779N00901925EA0000000125
B1121425600748N00901686EA0000000080
B1121495600721N00901467EA0000000047
B1121545600699N00901326EA0000000044
B1121595600672N00901213EA0000000043
B1122045600645N00901139EA0000000043
