AOGNOGN
HFDTE170725
HFFXA050
HFPLTPILOTINCHARGE:
HFGTYGLIDERTYPE:PA-25 Pawnee
HFGIDGLIDERID:OY-CYP
HFDTM100GPSDATUM:WGS-1984
HFRFWFIRMWAREVERSION:
HFRHWHARDWAREVERSION:
HFFTYFRTYPE:OGN-FLIGHTBOOK
HFGPSGENERIC
HFPRSPRESSALTSENSOR:
HFCIDCOMPETITIONID:YP
B1313495553117N01213507EA0000000014
B1313495553117N01213507EA0000000014
B1313575553092N01213701EA0000000015
B1314035553070N01213884EA0000000022
B1314105553052N01214115EA0000000039
B1314195553038N01214394EA0000000072
B1314255553029N01214582EA0000000089
B1314325553046N01214793EA0000000111
B1314375553093N01214911EA0000000125
B1314435553177N01214996EA0000000149
B1314485553258N01215038EA0000000169
B1314535553335N01215084EA0000000186
B1315005553443N01215157EA0000000200
B1315055553523N01215208EA0000000208
B1315105553603N01215260EA0000000220
B1315175553714N01215327EA0000000240
B1315275553873N01215430EA0000000271
B1315325553957N01215476EA0000000295
B1315375554041N01215514EA0000000323
B1315455554173N01215558EA0000000356
B1315515554276N01215571EA0000000362
B1315565554364N01215576EA0000000368
B1316015554453N01215551EA0000000387
B1316075554549N01215442EA0000000410
B1316135554631N01215287EA0000000425
B1316185554699N01215156EA0000000443
B1316285554813N01214875EA0000000469
B1316355554840N01214622EA0000000475
B1316415554823N01214388EA0000000484
B1316525554744N01213976EA0000000513
B1316575554708N01213791EA0000000531
B1317055554657N01213497EA0000000563
B1317135554605N01213202EA0000000585
B1317285554514N01212634EA0000000639
B1317375554508N01212287EA0000000635
B1317435554625N01212209EA0000000618
B1317485554701N01212306EA0000000605
B1317535554717N01212466EA0000000589
B1318005554646N01212660EA0000000546
B1318055554541N01212697EA0000000522
B1318135554399N01212498EA0000000494
B1318205554339N01212225EA0000000462
B1318265554295N01211985EA0000000432
B1318315554250N01211797EA0000000408
B1318365554176N01211654EA0000000381
B1318415554077N01211599EA0000000357
B1318515553868N01211687EA0000000305
B1319055553605N01211929EA0000000224
B1319105553511N01212027EA0000000200
B1319185553373N01212211EA0000000159
B1319255553278N01212411EA0000000124
B1319315553217N01212593EA0000000090
B1319385553181N01212808EA0000000057
B1319485553149N01213107EA0000000019
B1319545553138N01213264EA0000000014
B1319595553132N01213366EA0000000014
B1320075553122N01213470EA0000000013
