AOGNOGN
HFDTE170725
HFFXA050
HFPLTPILOTINCHARGE:
HFGTYGLIDERTYPE:ASK-21
HFGIDGLIDERID:OY-XKI
HFDTM100GPSDATUM:WGS-1984
HFRFWFIRMWAREVERSION:
HFRHWHARDWAREVERSION:
HFFTYFRTYPE:OGN-FLIGHTBOOK
HFGPSGENERIC
HFPRSPRESSALTSENSOR:
HFCIDCOMPETITIONID:KI
B1412165553140N01213465EA0000000014
B1412195553132N01213530EA0000000015
B1412255553114N01213685EA0000000017
B1412325553088N01213894EA0000000027
B1412385553068N01214080EA0000000041
B1412455553044N01214293EA0000000067
B1412535553016N01214529EA0000000094
B1413025552986N01214799EA0000000120
B1413085552960N01214985EA0000000138
B1413145552932N01215169EA0000000161
B1413205552915N01215353EA0000000190
B1413275552886N01215569EA0000000211
B1413345552834N01215779EA0000000230
B1413425552719N01215972EA0000000254
B1413485552607N01216060EA0000000282
B1413575552430N01216106EA0000000319
B1414055552275N01216153EA0000000335
B1414115552157N01216198EA0000000353
B1414205551979N01216257EA0000000376
B1414275551834N01216241EA0000000391
B1414355551677N01216117EA0000000406
B1414405551601N01215978EA0000000421
B1414485551509N01215719EA0000000438
B1414535551446N01215559EA0000000449
B1414595551369N01215358EA0000000455
B1415055551294N01215152EA0000000469
B1415105551234N01214986EA0000000484
B1415155551177N01214816EA0000000493
B1415235551132N01214514EA0000000508
B1415315551138N01214207EA0000000528
B1415365551149N01214019EA0000000540
B1415495551169N01213531EA0000000568
B1415565551178N01213275EA0000000598
B1416045551183N01212974EA0000000629
B1416095551180N01212789EA0000000659
B1416145551122N01212705EA0000000680
B1416195551069N01212760EA0000000682
B1416255551064N01212863EA0000000691
B1416385551162N01213006EA0000000696
B1416475551254N01213061EA0000000709
B1416565551366N01213034EA0000000718
B1417105551308N01212738EA0000000711
B1417155551240N01212763EA0000000707
B1417225551203N01212898EA0000000720
B1417395551345N01212940EA0000000733
B1417505551267N01212690EA0000000722
B1417555551196N01212692EA0000000727
B1418005551148N01212768EA0000000733
B1418055551139N01212866EA0000000742
B1418205551288N01212866EA0000000755
B1418315551211N01212621EA0000000742
B1418375551121N01212645EA0000000764
B1418425551074N01212713EA0000000773
B1418475551066N01212811EA0000000772
B1419025551220N01212867EA0000000795
B1419075551277N01212786EA0000000806
B1419155551368N01212657EA0000000813
B1419215551434N01212567EA0000000813
B1419285551515N01212456EA0000000795
B1419375551624N01212299EA0000000768
B1419425551684N01212210EA0000000758
B1419505551785N01212064EA0000000741
B1419585551892N01211919EA0000000733
B1420045551968N01211821EA0000000732
B1420105552045N01211719EA0000000726
B1420165552116N01211608EA0000000725
B1420235552201N01211480EA0000000723
B1420295552271N01211365EA0000000724
B1420345552328N01211264EA0000000726
B1420445552435N01211058EA0000000732
B1420515552507N01210905EA0000000748
B1420565552569N01210849EA0000000755
B1421095552626N01211075EA0000000760
B1421145552561N01211135EA0000000761
B1421195552484N01211108EA0000000771
B1421265552440N01210937EA0000000790
B1421315552479N01210811EA0000000803
B1421385552553N01210669EA0000000811
B1421545552615N01210206EA0000000797
B1422055552637N01209869EA0000000789
B1422165552632N01209529EA0000000781
B1422565552562N01208230EA0000000753
B1423435552598N01206807EA0000000742
B1423485552671N01206814EA0000000744
B1423545552752N01206808EA0000000755
B1424135552810N01206289EA0000000748
B1424215552741N01206045EA0000000748
B1424265552692N01205895EA0000000746
B1424315552642N01205751EA0000000749
B1424375552578N01205584EA0000000748
B1424435552507N01205425EA0000000745
B1424495552429N01205278EA0000000742
B1424595552293N01205056EA0000000728
B1425205552002N01204638EA0000000747
B1425325551888N01204835EA0000000741
B1425565551940N01205476EA0000000755
B1426025551957N01205628EA0000000774
B1426095551984N01205787EA0000000786
B1426175552020N01205962EA0000000790
B1426505552242N01206639EA0000000789
B1426575552300N01206771EA0000000789
B1427065552373N01206940EA0000000780
B1427115552415N01207034EA0000000778
B1427195552491N01207172EA0000000766
B1427285552573N01207332EA0000000764
B1427365552643N01207475EA0000000759
B1428025552561N01208034EA0000000727
B1428105552549N01208210EA0000000713
B1428165552583N01208329EA0000000703
B1428345552505N01208722EA0000000678
B1429005552353N01209285EA0000000642
B1429065552317N01209419EA0000000636
B1429405552119N01210189EA0000000605
B1429515552054N01210418EA0000000598
B1430015551996N01210625EA0000000588
B1430065551967N01210727EA0000000586
B1430155551915N01210912EA0000000575
B1430215551881N01211045EA0000000577
B1430295551838N01211215EA0000000584
B1430385551802N01211426EA0000000593
B1430435551792N01211547EA0000000598
B1430495551844N01211637EA0000000599
B1430555551922N01211571EA0000000598
B1431015551956N01211405EA0000000599
B1431135551839N01211101EA0000000598
B1431185551759N01211082EA0000000603
B1431235551683N01211131EA0000000607
B1431295551621N01211253EA0000000604
B1431345551616N01211381EA0000000608
B1431435551693N01211505EA0000000627
B1431485551752N01211440EA0000000622
B1432045551691N01211020EA0000000631
B1432095551604N01211010EA0000000639
B1432145551545N01211093EA0000000639
B1432215551539N01211257EA0000000641
B1432295551631N01211324EA0000000643
B1432365551706N01211189EA0000000649
B1432475551640N01210932EA0000000664
B1432535551546N01210953EA0000000669
B1432585551504N01211055EA0000000665
B1433035551513N01211173EA0000000673
B1433135551637N01211219EA0000000671
B1433185551686N01211111EA0000000680
B1433235551685N01210968EA0000000692
B1433315551588N01210831EA0000000705
B1433365551515N01210868EA0000000707
B1433455551475N01211062EA0000000712
B1433555551593N01211177EA0000000712
B1434015551656N01211072EA0000000714
B1434075551640N01210899EA0000000726
B1434125551575N01210819EA0000000738
B1434185551492N01210853EA0000000740
B1434275551454N01211048EA0000000741
B1434325551494N01211141EA0000000740
B1434375551558N01211160EA0000000741
B1434425551618N01211090EA0000000734
B1434485551640N01210923EA0000000733
B1434545551584N01210779EA0000000740
B1434595551505N01210756EA0000000751
B1435045551442N01210812EA0000000757
B1435105551406N01210937EA0000000748
B1435155551419N01211058EA0000000742
B1435235551522N01211114EA0000000739
B1435285551582N01211033EA0000000737
B1435455551486N01210617EA0000000749
B1435505551412N01210640EA0000000756
B1435555551365N01210739EA0000000757
B1436015551372N01210875EA0000000758
B1436095551468N01210939EA0000000745
B1436145551537N01210878EA0000000745
B1436195551573N01210753EA0000000747
B1436295551497N01210487EA0000000737
B1436345551411N01210479EA0000000748
B1436395551357N01210564EA0000000760
B1436445551351N01210677EA0000000755
B1436545551465N01210783EA0000000752
B1436595551531N01210735EA0000000751
B1437045551571N01210617EA0000000748
B1437125551532N01210393EA0000000748
B1437175551457N01210329EA0000000748
B1437225551387N01210362EA0000000758
B1437275551358N01210462EA0000000760
B1437325551380N01210568EA0000000759
B1437375551439N01210619EA0000000756
B1437435551524N01210564EA0000000750
B1437555551533N01210237EA0000000748
B1438005551460N01210155EA0000000747
B1438055551382N01210169EA0000000751
B1438105551336N01210258EA0000000755
B1438165551351N01210394EA0000000756
B1438215551414N01210442EA0000000756
B1438265551484N01210410EA0000000758
B1438335551534N01210245EA0000000751
B1438385551505N01210096EA0000000748
B1438445551416N01210002EA0000000746
B1438495551347N01210042EA0000000753
B1438555551327N01210173EA0000000743
B1439005551371N01210264EA0000000742
B1439065551458N01210285EA0000000736
B1439115551522N01210209EA0000000740
B1439165551547N01210073EA0000000736
B1439315551387N01209775EA0000000720
B1439455551324N01210049EA0000000706
B1439505551330N01210164EA0000000705
B1439575551337N01210330EA0000000700
B1440065551343N01210537EA0000000682
B1440405551400N01211461EA0000000629
B1440515551424N01211747EA0000000619
B1441055551450N01212118EA0000000587
B1441105551465N01212256EA0000000579
B1441165551485N01212419EA0000000569
B1441225551511N01212591EA0000000555
B1441295551542N01212793EA0000000543
B1441355551571N01212961EA0000000539
B1441405551594N01213097EA0000000535
B1441455551616N01213232EA0000000529
B1441535551648N01213460EA0000000514
B1442005551679N01213664EA0000000499
B1442055551700N01213814EA0000000490
B1442135551730N01214049EA0000000477
B1442215551768N01214288EA0000000460
B1442265551793N01214435EA0000000456
B1442345551834N01214662EA0000000439
B1442405551866N01214832EA0000000434
B1442475551926N01214994EA0000000435
B1442525552002N01214991EA0000000430
B1443005552116N01214864EA0000000416
B1443075552219N01214736EA0000000406
B1443125552291N01214640EA0000000396
B1443215552417N01214461EA0000000384
B1443265552488N01214367EA0000000377
B1443325552575N01214254EA0000000370
B1443385552661N01214133EA0000000359
B1443445552748N01214015EA0000000348
B1443495552821N01213917EA0000000345
B1443555552848N01213754EA0000000347
B1444025552798N01213578EA0000000349
B1444125552712N01213349EA0000000322
B1444215552625N01213148EA0000000302
B1444295552541N01212984EA0000000295
B1444375552448N01212845EA0000000290
B1444465552323N01212747EA0000000287
B1444525552241N01212748EA0000000277
B1444575552182N01212796EA0000000269
B1445025552147N01212886EA0000000265
B1445075552134N01212988EA0000000258
B1445155552186N01213122EA0000000245
B1445275552311N01213264EA0000000219
B1445335552376N01213348EA0000000218
B1445395552432N01213436EA0000000217
B1445455552474N01213550EA0000000198
B1445505552500N01213664EA0000000196
B1445555552557N01213687EA0000000192
B1446025552616N01213533EA0000000179
B1446075552644N01213408EA0000000173
B1446145552690N01213220EA0000000156
B1446205552722N01213043EA0000000146
B1446275552743N01212829EA0000000137
B1446325552759N01212678EA0000000128
B1446385552829N01212551EA0000000118
B1446445552911N01212441EA0000000115
B1446505552998N01212390EA0000000117
B1447015553164N01212384EA0000000103
B1447065553210N01212477EA0000000098
B1447115553200N01212617EA0000000081
B1447215553176N01212903EA0000000033
B1447295553150N01213120EA0000000016
B1447365553134N01213264EA0000000016
