AOGNOGN
HFDTE170725
HFFXA050
HFPLTPILOTINCHARGE:
HFGTYGLIDERTYPE:ASK-21
HFGIDGLIDERID:OY-XKI
HFDTM100GPSDATUM:WGS-1984
HFRFWFIRMWAREVERSION:
HFRHWHARDWAREVERSION:
HFFTYFRTYPE:OGN-FLIGHTBOOK
HFGPSGENERIC
HFPRSPRESSALTSENSOR:
HFCIDCOMPETITIONID:KI
B1322485553136N01213450EA0000000013
B1322525553126N01213540EA0000000013
B1322595553105N01213738EA0000000015
B1323055553090N01213934EA0000000027
B1323115553080N01214124EA0000000055
B1323185553069N01214325EA0000000081
B1323245553064N01214499EA0000000099
B1323315553015N01214695EA0000000119
B1323365552946N01214804EA0000000129
B1323425552837N01214880EA0000000140
B1323485552723N01214936EA0000000153
B1323565552570N01215018EA0000000172
B1324025552457N01215085EA0000000192
B1324075552361N01215141EA0000000201
B1324145552231N01215238EA0000000224
B1324275552000N01215415EA0000000281
B1324375551832N01215571EA0000000322
B1324475551644N01215629EA0000000343
B1324545551504N01215544EA0000000353
B1325015551384N01215367EA0000000368
B1325095551289N01215101EA0000000390
B1325155551257N01214874EA0000000403
B1325215551249N01214648EA0000000419
B1325265551245N01214464EA0000000433
B1325325551243N01214247EA0000000449
B1325395551240N01213994EA0000000480
B1325465551237N01213733EA0000000492
B1325555551260N01213407EA0000000510
B1326015551276N01213193EA0000000537
B1326085551291N01212941EA0000000559
B1326165551320N01212665EA0000000597
B1326225551349N01212452EA0000000622
B1326305551400N01212185EA0000000654
B1326355551389N01212041EA0000000664
B1326435551281N01211918EA0000000649
B1326485551210N01211957EA0000000644
B1326545551163N01212068EA0000000640
B1326595551135N01212165EA0000000631
B1327045551109N01212267EA0000000625
B1327105551080N01212398EA0000000615
B1327195551045N01212613EA0000000600
B1327265551022N01212785EA0000000604
B1327365550997N01213014EA0000000620
B1327415551008N01213123EA0000000622
B1328035551271N01213418EA0000000578
B1328185551496N01213643EA0000000557
B1328245551588N01213729EA0000000578
B1328365551731N01213851EA0000000599
B1328515551913N01214046EA0000000577
B1328585551996N01214149EA0000000572
B1329035552057N01214220EA0000000565
B1329085552118N01214290EA0000000556
B1329135552181N01214364EA0000000547
B1329185552244N01214442EA0000000531
B1329235552310N01214530EA0000000510
B1329285552383N01214628EA0000000492
B1329355552490N01214769EA0000000464
B1329405552570N01214873EA0000000441
B1329485552707N01215036EA0000000431
B1329535552792N01215127EA0000000432
B1329595552893N01215219EA0000000450
B1330045552973N01215275EA0000000468
B1330095553051N01215309EA0000000475
B1330145553122N01215251EA0000000475
B1330205553145N01215078EA0000000467
B1330265553085N01214929EA0000000465
B1330315553011N01214905EA0000000468
B1330365552956N01214968EA0000000474
B1330455552931N01215161EA0000000485
B1330505552948N01215257EA0000000484
B1330555553009N01215227EA0000000470
B1331015553002N01215068EA0000000465
B1331065552935N01215035EA0000000471
B1331115552880N01215096EA0000000472
B1331175552818N01215196EA0000000476
B1331225552771N01215292EA0000000479
B1331285552703N01215377EA0000000476
B1331345552613N01215314EA0000000460
B1331395552538N01215305EA0000000453
B1331445552530N01215402EA0000000440
B1331515552599N01215461EA0000000437
B1331565552656N01215454EA0000000423
B1332035552744N01215348EA0000000399
B1332115552845N01215163EA0000000364
B1332195552956N01214951EA0000000339
B1332275552953N01214692EA0000000342
B1332345552873N01214504EA0000000344
B1332435552785N01214262EA0000000357
B1332495552785N01214096EA0000000367
B1332545552834N01214016EA0000000369
B1332595552889N01214031EA0000000368
B1333045552918N01214117EA0000000375
B1333095552901N01214216EA0000000373
B1333165552818N01214299EA0000000377
B1333215552748N01214258EA0000000374
B1333265552715N01214123EA0000000379
B1333325552748N01213986EA0000000387
B1333375552805N01213970EA0000000393
B1333425552839N01214044EA0000000395
B1333495552798N01214176EA0000000400
B1333545552726N01214194EA0000000399
B1333595552656N01214120EA0000000404
B1334065552630N01213935EA0000000412
B1334125552676N01213823EA0000000414
B1334175552734N01213824EA0000000416
B1334235552761N01213933EA0000000420
B1334285552718N01214029EA0000000418
B1334335552639N01214040EA0000000420
B1334405552558N01213901EA0000000439
B1334455552563N01213772EA0000000443
B1334505552615N01213687EA0000000437
B1334575552706N01213707EA0000000432
B1335035552734N01213837EA0000000437
B1335085552698N01213926EA0000000456
B1335145552618N01213922EA0000000456
B1335195552568N01213812EA0000000455
B1335245552575N01213679EA0000000467
B1335315552654N01213614EA0000000479
B1335365552689N01213685EA0000000476
B1335415552671N01213779EA0000000486
B1335485552582N01213788EA0000000478
B1335535552527N01213676EA0000000484
B1335585552514N01213537EA0000000497
B1336075552601N01213447EA0000000507
B1336135552624N01213551EA0000000516
B1336185552578N01213624EA0000000515
B1336235552502N01213605EA0000000520
B1336285552453N01213493EA0000000527
B1336335552472N01213364EA0000000535
B1336405552550N01213343EA0000000541
B1336455552577N01213428EA0000000546
B1336505552562N01213530EA0000000544
B1336565552496N01213609EA0000000534
B1337015552415N01213584EA0000000533
B1337065552360N01213462EA0000000539
B1337145552396N01213254EA0000000541
B1337205552474N01213245EA0000000547
B1337255552514N01213340EA0000000558
B1337305552505N01213455EA0000000571
B1337375552410N01213512EA0000000573
B1337425552346N01213422EA0000000580
B1337485552337N01213251EA0000000579
B1337535552391N01213153EA0000000583
B1338055552512N01213274EA0000000606
B1338105552489N01213379EA0000000603
B1338165552403N01213410EA0000000605
B1338215552342N01213318EA0000000612
B1338265552335N01213178EA0000000615
B1338315552383N01213080EA0000000628
B1338415552477N01213186EA0000000631
B1338465552454N01213289EA0000000638
B1338525552371N01213325EA0000000638
B1338575552304N01213243EA0000000644
B1339045552278N01213058EA0000000652
B1339095552306N01212939EA0000000657
B1339145552366N01212886EA0000000668
B1339215552426N01212971EA0000000664
B1339265552405N01213081EA0000000665
B1339315552341N01213125EA0000000671
B1339365552266N01213080EA0000000671
B1339415552214N01212965EA0000000675
B1339475552201N01212793EA0000000679
B1339525552235N01212682EA0000000694
B1339575552292N01212639EA0000000704
B1340025552344N01212673EA0000000704
B1340075552361N01212770EA0000000693
B1340125552323N01212869EA0000000693
B1340205552204N01212876EA0000000699
B1340255552148N01212762EA0000000699
B1340305552136N01212613EA0000000706
B1340365552185N01212508EA0000000726
B1340425552219N01212596EA0000000727
B1340475552169N01212681EA0000000736
B1340535552081N01212617EA0000000735
B1340585552059N01212470EA0000000736
B1341035552093N01212354EA0000000746
B1341115552178N01212347EA0000000752
B1341165552194N01212447EA0000000748
B1341225552148N01212567EA0000000752
B1341315552017N01212532EA0000000754
B1341365551981N01212389EA0000000752
B1341445552023N01212176EA0000000766
B1341495552068N01212083EA0000000766
B1341555552128N01211975EA0000000765
B1342015552193N01211859EA0000000743
B1342075552261N01211723EA0000000715
B1342185552420N01211428EA0000000669
B1342265552529N01211225EA0000000701
B1342325552596N01211101EA0000000700
B1342425552714N01210894EA0000000679
B1342525552837N01210685EA0000000658
B1342585552912N01210553EA0000000647
B1343045552992N01210417EA0000000625
B1343095553059N01210292EA0000000611
B1343165553152N01210103EA0000000596
B1343215553208N01209984EA0000000629
B1343265553252N01209886EA0000000636
B1343345553326N01209714EA0000000644
B1343435553414N01209518EA0000000661
B1344015553578N01209089EA0000000658
B1344075553632N01208954EA0000000676
B1344145553696N01208803EA0000000681
B1344395553911N01208187EA0000000690
B1344515554003N01207913EA0000000708
B1344565554049N01207822EA0000000715
B1345015554093N01207721EA0000000725
B1346335554666N01205355EA0000000673
B1346385554601N01205257EA0000000661
B1346445554508N01205282EA0000000653
B1346495554469N01205381EA0000000648
B1346545554441N01205491EA0000000638
B1346595554411N01205600EA0000000629
B1347065554364N01205751EA0000000617
B1347165554296N01205974EA0000000594
B1347235554237N01206147EA0000000575
B1347305554157N01206320EA0000000562
B1347365554095N01206481EA0000000551
B1347445554033N01206718EA0000000537
B1347525553975N01206956EA0000000535
B1347575553943N01207102EA0000000545
B1348045553899N01207285EA0000000556
B1348145553828N01207538EA0000000542
B1348205553784N01207697EA0000000550
B1348255553746N01207812EA0000000554
B1348315553750N01207938EA0000000555
B1348365553788N01208020EA0000000553
B1348415553790N01208134EA0000000546
B1348495553743N01208325EA0000000544
B1348545553713N01208450EA0000000531
B1349095553609N01208836EA0000000524
B1349165553556N01209001EA0000000510
B1349225553509N01209138EA0000000502
B1349285553457N01209273EA0000000492
B1349365553376N01209449EA0000000482
B1349435553307N01209604EA0000000472
B1349525553239N01209815EA0000000470
B1350015553196N01210017EA0000000471
B1350105553159N01210214EA0000000459
B1350155553132N01210329EA0000000451
B1350205553107N01210451EA0000000451
B1350275553072N01210610EA0000000455
B1350355553023N01210782EA0000000452
B1350415552974N01210907EA0000000448
B1350495552904N01211066EA0000000450
B1350545552864N01211159EA0000000444
B1351045552770N01211342EA0000000411
B1351095552706N01211429EA0000000396
B1351225552576N01211695EA0000000388
B1351285552540N01211837EA0000000383
B1351335552518N01211960EA0000000385
B1351405552491N01212133EA0000000389
B1351495552460N01212351EA0000000379
B1351575552473N01212554EA0000000369
B1352045552534N01212388EA0000000365
B1352125552596N01212180EA0000000361
B1352175552661N01212139EA0000000357
B1352245552706N01212260EA0000000350
B1352325552649N01212432EA0000000340
B1352425552567N01212649EA0000000325
B1352495552511N01212796EA0000000313
B1352555552471N01212925EA0000000298
B1353005552448N01213043EA0000000285
B1353055552435N01213165EA0000000272
B1353115552417N01213320EA0000000253
B1353165552405N01213450EA0000000257
B1353215552402N01213572EA0000000257
B1353265552400N01213693EA0000000249
B1353395552412N01214007EA0000000221
B1353445552442N01214105EA0000000218
B1353495552505N01214135EA0000000209
B1353555552578N01214033EA0000000190
B1354005552630N01213907EA0000000182
B1354125552717N01213566EA0000000178
B1354185552742N01213382EA0000000170
B1354245552754N01213191EA0000000155
B1354295552771N01213029EA0000000141
B1354345552794N01212866EA0000000133
B1354405552820N01212675EA0000000134
B1354465552885N01212528EA0000000127
B1354525552964N01212404EA0000000127
B1354575553026N01212307EA0000000124
B1355025553098N01212299EA0000000117
B1355075553158N01212359EA0000000109
B1355125553212N01212434EA0000000101
B1355185553210N01212581EA0000000092
B1355275553189N01212799EA0000000056
B1355325553174N01212920EA0000000036
B1355385553156N01213071EA0000000015
B1355475553132N01213252EA0000000014
