AOGNOGN
HFDTE210625
HFFXA050
HFPLTPILOTINCHARGE:
HFGTYGLIDERTYPE:EC 135
HFGIDGLIDERID:LN-OUC
HFDTM100GPSDATUM:WGS-1984
HFRFWFIRMWAREVERSION:
HFRHWHARDWAREVERSION:
HFFTYFRTYPE:OGN-FLIGHTBOOK
HFGPSGENERIC
HFPRSPRESSALTSENSOR:
HFCIDCOMPETITIONID:NLA
B1101465610854N00902165EA0000000066
B1101465610854N00902165EA0000000066
B1101525610851N00902020EA0000000073
B1101575610835N00901889EA0000000085
B1102025610891N00901818EA0000000091
B1102095610962N00901945EA0000000097
B1102155610988N00902140EA0000000099
B1102265611022N00902596EA0000000108
B1102315611043N00902806EA0000000123
B1102395611052N00903152EA0000000137
B1102455611058N00903427EA0000000143
B1102515611067N00903718EA0000000160
B1102585611074N00904072EA0000000184
B1103035611077N00904321EA0000000213
B1103115611081N00904717EA0000000258
B1103185611084N00905065EA0000000300
B1103245611087N00905362EA0000000335
B1103295611090N00905612EA0000000364
B1103345611093N00905860EA0000000395
B1103415611097N00906208EA0000000428
B1103475611101N00906519EA0000000437
B1103585611112N00907150EA0000000440
B1104055611122N00907582EA0000000439
B1104105611128N00907901EA0000000441
B1104165611134N00908282EA0000000457
B1104255611139N00908855EA0000000479
B1104325611142N00909307EA0000000494
B1104415611145N00909891EA0000000519
B1104485611149N00910354EA0000000535
B1104535611152N00910686EA0000000549
B1104585611154N00911019EA0000000563
B1105065611160N00911557EA0000000581
B1105135611165N00912031EA0000000599
B1105195611169N00912437EA0000000612
B1105265611174N00912920EA0000000618
B1105315611179N00913272EA0000000619
B1105385611186N00913777EA0000000620
B1105435611192N00914144EA0000000620
B1105495611199N00914588EA0000000618
B1105545611203N00914957EA0000000619
B1106015611208N00915474EA0000000619
B1106085611213N00915990EA0000000619
B1106185611222N00916720EA0000000620
B1106235611225N00917085EA0000000620
B1106285611228N00917454EA0000000619
B1106385611234N00918194EA0000000618
B1106485611240N00918928EA0000000619
B1106565611245N00919510EA0000000617
B1107035611249N00920019EA0000000618
B1107125611252N00920679EA0000000617
B1107185611257N00921120EA0000000618
B1107265611264N00921705EA0000000617
B1107345611269N00922285EA0000000621
B1107435611275N00922936EA0000000622
B1107485611278N00923297EA0000000624
B1107545611284N00923731EA0000000618
B1108035611289N00924379EA0000000619
B1108185611297N00925463EA0000000618
B1108235611300N00925824EA0000000620
B1108315611305N00926405EA0000000621
B1108365611309N00926774EA0000000618
B1108465611319N00927520EA0000000617
B1108535611325N00928043EA0000000615
B1108585611329N00928415EA0000000613
B1109045611333N00928859EA0000000615
B1109115611336N00929380EA0000000617
B1109195611342N00929978EA0000000616
B1109255611347N00930426EA0000000614
B1109315611353N00930872EA0000000615
B1109365611356N00931240EA0000000619
B1109415611358N00931607EA0000000615
B1109475611361N00932048EA0000000616
B1109535611364N00932491EA0000000615
B1109595611369N00932931EA0000000615
B1110065611373N00933439EA0000000614
B1110125611376N00933871EA0000000615
B1110185611379N00934304EA0000000617
B1110235611381N00934666EA0000000616
B1110365611389N00935614EA0000000615
B1110455611394N00936274EA0000000614
B1110515611397N00936713EA0000000616
B1110575611401N00937154EA0000000612
B1111045611403N00937671EA0000000613
B1111125611408N00938260EA0000000615
B1111175611411N00938630EA0000000612
B1111235611414N00939075EA0000000614
B1111285611418N00939447EA0000000613
B1111365611424N00940041EA0000000614
B1111505611433N00941072EA0000000609
B1111595611437N00941732EA0000000611
B1112085611441N00942391EA0000000612
B1112205611445N00943273EA0000000612
B1112255611447N00943640EA0000000614
B1112315611448N00944084EA0000000613
B1112425611454N00944892EA0000000613
B1112485611457N00945330EA0000000614
B1112545611460N00945770EA0000000615
B1113055611466N00946586EA0000000612
B1113135611472N00947176EA0000000616
B1113205611476N00947692EA0000000599
B1113255611484N00948061EA0000000585
B1113315611505N00948503EA0000000571
B1113375611535N00948943EA0000000557
B1113475611582N00949672EA0000000531
B1113575611629N00950396EA0000000506
B1114055611667N00950971EA0000000487
B1114115611695N00951404EA0000000473
B1114215611742N00952137EA0000000446
B1114285611775N00952651EA0000000427
B1114355611809N00953160EA0000000410
B1114425611841N00953669EA0000000394
B1114495611874N00954174EA0000000375
B1114565611907N00954672EA0000000358
B1115015611929N00955022EA0000000344
B1115075611956N00955444EA0000000323
B1115165611996N00956083EA0000000305
B1115245612034N00956662EA0000000288
B1115295612058N00957019EA0000000275
B1115345612081N00957377EA0000000263
B1115435612122N00958022EA0000000244
B1115505612153N00958520EA0000000239
B1115575612185N00959010EA0000000240
B1116045612214N00959501EA0000000242
B1116125612250N01000073EA0000000239
B1116185612279N01000505EA0000000236
B1116245612306N01000934EA0000000240
B1116325612343N01001514EA0000000229
B1116375612367N01001876EA0000000217
B1116435612395N01002308EA0000000208
B1116515612429N01002882EA0000000209
B1116575612456N01003313EA0000000209
B1117075612496N01004039EA0000000207
B1117125612493N01004402EA0000000206
B1117195612447N01004899EA0000000209
B1117285612380N01005535EA0000000208
B1117345612332N01005961EA0000000204
B1117415612276N01006455EA0000000207
B1117475612228N01006871EA0000000205
B1117535612181N01007288EA0000000207
B1118015612117N01007847EA0000000207
B1118085612067N01008319EA0000000211
B1118165612006N01008824EA0000000215
B1118215611967N01009117EA0000000216
B1118285611915N01009476EA0000000215
B1118355611870N01009770EA0000000207
B1118405611839N01009942EA0000000189
B1118455611795N01010085EA0000000175
B1118545611683N01010224EA0000000163
B1235405611516N01009939EA0000000174
B1235465611411N01009947EA0000000195
B1235585611192N01010156EA0000000234
B1236045611086N01010308EA0000000247
B1236105610974N01010471EA0000000258
B1236155610875N01010608EA0000000271
B1236215610741N01010766EA0000000285
B1236275610599N01010929EA0000000292
B1236335610456N01011099EA0000000302
B1236385610330N01011234EA0000000309
B1236455610143N01011413EA0000000313
B1236535609917N01011620EA0000000311
B1237015609680N01011839EA0000000309
B1237065609529N01011978EA0000000301
B1237125609349N01012135EA0000000307
B1237215609073N01012378EA0000000312
B1237305608787N01012640EA0000000304
B1237395608496N01012900EA0000000307
B1237445608331N01013047EA0000000304
B1237505608131N01013219EA0000000307
B1237555607961N01013353EA0000000307
B1238005607789N01013480EA0000000303
B1238055607617N01013596EA0000000305
B1238115607409N01013734EA0000000307
B1238175607201N01013883EA0000000302
B1238255606925N01014075EA0000000306
B1238305606753N01014194EA0000000308
B1238365606543N01014340EA0000000308
B1238425606328N01014495EA0000000302
B1238555605870N01014821EA0000000310
B1239415604239N01015516EA0000000303
B1242095601358N01009682EA0000000308
B1242205601210N01009126EA0000000308
B1242255601143N01008875EA0000000311
B1242345601020N01008423EA0000000309
B1242455600872N01007874EA0000000310
B1242525600776N01007524EA0000000312
B1243015600649N01007066EA0000000309
B1243085600549N01006707EA0000000308
B1243155600449N01006344EA0000000310
B1243205600379N01006083EA0000000309
B1243315600221N01005513EA0000000309
B1243365600150N01005257EA0000000310
B1243415600079N01005007EA0000000309
B1243495559969N01004616EA0000000304
B1243555559892N01004326EA0000000311
B1244015559814N01004029EA0000000311
B1244085559717N01003676EA0000000308
B1244155559617N01003320EA0000000307
B1244215559534N01003016EA0000000308
B1244275559451N01002715EA0000000307
B1244345559357N01002363EA0000000309
B1244425559247N01001962EA0000000309
B1244515559122N01001510EA0000000308
B1244585559026N01001160EA0000000310
B1245045558944N01000860EA0000000311
B1245125558833N01000448EA0000000309
B1245185558747N01000138EA0000000309
B1245285558603N00959618EA0000000309
B1245425558402N00958900EA0000000313
B1245485558318N00958594EA0000000309
B1245555558219N00958241EA0000000310
B1246025558123N00957890EA0000000311
B1246085558041N00957584EA0000000315
B1246165557925N00957168EA0000000311
B1246265557780N00956644EA0000000309
B1246385557609N00956025EA0000000310
B1246485557468N00955510EA0000000311
B1247045557243N00954682EA0000000311
B1247105557156N00954371EA0000000311
B1247175557055N00954012EA0000000309
B1247265556928N00953557EA0000000309
B1247355556805N00953108EA0000000311
B1247415556723N00952806EA0000000314
B1247465556653N00952548EA0000000315
B1247545556536N00952126EA0000000310
B1248005556448N00951809EA0000000310
B1248105556302N00951275EA0000000311
B1248175556198N00950898EA0000000309
B1248225556123N00950628EA0000000307
B1248275556047N00950357EA0000000309
B1248335555955N00950035EA0000000311
B1248425555822N00949558EA0000000312
B1248475555748N00949294EA0000000310
B1248525555673N00949035EA0000000309
B1248585555589N00948726EA0000000314
B1249085555447N00948210EA0000000310
B1249155555347N00947850EA0000000312
B1250425554094N00943342EA0000000309
B1251125553649N00941756EA0000000313
B1252145552741N00938514EA0000000313
B1252315552491N00937625EA0000000307
B1252415552349N00937109EA0000000310
B1253245551727N00934892EA0000000309
B1253395551507N00934113EA0000000313
B1254555550430N00930301EA0000000393
B1255005550344N00930074EA0000000404
B1255315549660N00928828EA0000000477
B1255405549459N00928474EA0000000498
B1255485549283N00928165EA0000000519
B1255565549108N00927860EA0000000536
B1256035548959N00927597EA0000000554
B1256155548707N00927148EA0000000581
B1256325548346N00926517EA0000000615
B1256445548082N00926056EA0000000620
B1256535547881N00925701EA0000000622
B1257065547584N00925180EA0000000621
B1257195547282N00924645EA0000000620
B1257275547088N00924307EA0000000621
B1257345546917N00924005EA0000000621
B1257405546767N00923746EA0000000617
B1257525546473N00923230EA0000000621
B1258145545946N00922302EA0000000622
B1258245545705N00921884EA0000000623
B1258315545537N00921589EA0000000623
B1258365545417N00921377EA0000000625
B1258445545218N00921035EA0000000620
B1258545544976N00920606EA0000000619
B1258595544871N00920378EA0000000619
B1259055544791N00920069EA0000000622
B1259125544746N00919686EA0000000623
B1259195544724N00919292EA0000000622
B1259285544705N00918772EA0000000586
B1259345544693N00918424EA0000000552
B1259395544686N00918136EA0000000524
B1259525544669N00917395EA0000000461
B1300025544653N00916822EA0000000426
B1300095544641N00916414EA0000000406
B1300145544633N00916122EA0000000392
B1408555543245N00909032EA0000000368
B1409005543158N00908927EA0000000396
B1409075543037N00908783EA0000000432
B1409145542906N00908632EA0000000438
B1409245542696N00908389EA0000000437
B1409295542600N00908220EA0000000437
B1409365542509N00907910EA0000000438
B1409425542451N00907607EA0000000440
B1409515542372N00907131EA0000000430
B1409565542335N00906860EA0000000432
B1410095542249N00906137EA0000000431
B1410225542164N00905389EA0000000432
B1410295542117N00904985EA0000000431
B1410385542058N00904468EA0000000433
B1410515541968N00903727EA0000000435
B1410575541927N00903393EA0000000433
B1411045541880N00903000EA0000000434
B1411145541809N00902432EA0000000436
B1411215541758N00902030EA0000000421
B1411275541712N00901686EA0000000407
B1411335541668N00901341EA0000000399
B1411425541603N00900829EA0000000376
B1411495541549N00900430EA0000000363
B1411595541473N00859847EA0000000341
B1412055541428N00859498EA0000000326
B1412165541346N00858863EA0000000306
B1412215541308N00858580EA0000000296
B1412275541265N00858243EA0000000282
B1412335541221N00857901EA0000000267
B1412395541177N00857557EA0000000257
B1412445541139N00857270EA0000000251
B1412535541072N00856752EA0000000231
B1413265540822N00854858EA0000000185
B1415185539981N00848492EA0000000184
B1416115539587N00845529EA0000000184
B1416165539550N00845248EA0000000182
B1416215539514N00844966EA0000000183
B1416505539290N00843355EA0000000174
B1416565539246N00843053EA0000000178
B1417025539205N00842763EA0000000177
B1417245539058N00841796EA0000000150
B1417355538977N00841455EA0000000145
B1418195539006N00841465EA0000000074
