AOGNOGN
HFDTE210625
HFFXA050
HFPLTPILOTINCHARGE:
HFGTYGLIDERTYPE:Duo Discus
HFGIDGLIDERID:OY-TVX
HFDTM100GPSDATUM:WGS-1984
HFRFWFIRMWAREVERSION:
HFRHWHARDWAREVERSION:
HFFTYFRTYPE:OGN-FLIGHTBOOK
HFGPSGENERIC
HFPRSPRESSALTSENSOR:
HFCIDCOMPETITIONID:Z
B1339095537899N00845710EA0000000032
B1340025537859N00844578EA0000000403
B1340025537859N00844578EA0000000403
B1340275537630N00844338EA0000000386
B1340415537766N00844237EA0000000390
B1340565537744N00844571EA0000000399
B1341075537674N00844438EA0000000405
B1341125537720N00844365EA0000000407
B1341175537795N00844365EA0000000406
B1341245537876N00844491EA0000000410
B1341495537732N00844575EA0000000415
B1342045537916N00844476EA0000000417
B1342225537798N00844695EA0000000413
B1342365537715N00844439EA0000000418
B1342535537877N00844183EA0000000425
B1343025537936N00844022EA0000000442
B1343105537841N00844054EA0000000429
B1343155537847N00844209EA0000000438
B1343305537987N00844071EA0000000446
B1343355537930N00844024EA0000000440
B1343405537877N00844133EA0000000433
B1343485537962N00844260EA0000000429
B1343585538065N00844107EA0000000436
B1344035538102N00844029EA0000000439
B1344205538036N00843766EA0000000403
B1344255538042N00843669EA0000000404
B1344365538159N00843549EA0000000388
B1344415538222N00843502EA0000000371
B1344485538341N00843507EA0000000362
B1345215538331N00843234EA0000000357
B1345335538317N00843048EA0000000348
B1345495538479N00843273EA0000000343
B1346005538370N00843486EA0000000341
B1346055538312N00843467EA0000000337
B1346105538323N00843378EA0000000330
B1346155538399N00843406EA0000000325
B1346205538431N00843537EA0000000336
B1346365538397N00843501EA0000000322
B1346445538495N00843635EA0000000329
B1346495538535N00843763EA0000000327
B1346545538539N00843912EA0000000322
B1347045538430N00844117EA0000000321
B1347105538412N00844288EA0000000329
B1347165538493N00844360EA0000000309
B1347215538509N00844264EA0000000313
B1347325538391N00844414EA0000000329
B1347485538477N00844454EA0000000302
B1348155538270N00844976EA0000000299
B1348465538288N00845958EA0000000273
B1348515538232N00846019EA0000000280
B1348595538183N00845901EA0000000274
B1349045538235N00845828EA0000000285
B1349155538378N00845908EA0000000281
B1349295538288N00845968EA0000000271
B1349365538327N00845830EA0000000261
B1349415538328N00845723EA0000000248
B1349475538275N00845629EA0000000246
B1349535538188N00845630EA0000000247
B1349585538126N00845704EA0000000249
B1350095538161N00845984EA0000000239
B1350205538301N00845894EA0000000240
B1350255538341N00845813EA0000000232
B1350325538365N00845677EA0000000222
B1350475538345N00845387EA0000000198
B1350535538268N00845415EA0000000184
B1350585538242N00845572EA0000000164
B1351065538231N00845858EA0000000159
B1351165538177N00846161EA0000000158
B1351255538064N00846362EA0000000152
B1351305537996N00846463EA0000000154
B1351435537811N00846522EA0000000149
B1352015537843N00846127EA0000000093
B1352065537851N00846008EA0000000078
B1352165537862N00845757EA0000000041
B1352225537869N00845618EA0000000036
B1352355537872N00845477EA0000000035
