AOGNOGN
HFDTE210625
HFFXA050
HFPLTPILOTINCHARGE:
HFGTYGLIDERTYPE:LS-4
HFGIDGLIDERID:OY-XNV
HFDTM100GPSDATUM:WGS-1984
HFRFWFIRMWAREVERSION:
HFRHWHARDWAREVERSION:
HFFTYFRTYPE:OGN-FLIGHTBOOK
HFGPSGENERIC
HFPRSPRESSALTSENSOR:
HFCIDCOMPETITIONID:V8
B1046535537905N00845663EA0000000033
B1046565537914N00845592EA0000000077
B1047015537922N00845480EA0000000196
B1047105537927N00845271EA0000000354
B1047315537956N00844788EA0000000400
B1047385538055N00844730EA0000000384
B1047505538187N00844923EA0000000395
B1047595538078N00844925EA0000000399
B1048135538194N00844977EA0000000410
B1048395538227N00845081EA0000000412
B1050535538216N00845702EA0000000405
B1050585538178N00845626EA0000000402
B1051245538166N00845768EA0000000393
B1051295538197N00845678EA0000000383
B1051525538262N00846137EA0000000379
B1052065538229N00845875EA0000000352
B1052125538290N00845769EA0000000358
B1052185538355N00845695EA0000000370
B1052235538405N00845638EA0000000377
B1052285538415N00845546EA0000000372
B1052345538341N00845531EA0000000362
B1052395538310N00845659EA0000000374
B1052445538341N00845774EA0000000372
B1052495538411N00845780EA0000000367
B1052545538440N00845688EA0000000374
B1053045538350N00845704EA0000000361
B1053105538380N00845857EA0000000366
B1053165538461N00845852EA0000000366
B1053215538479N00845761EA0000000370
B1053395538316N00845541EA0000000351
B1053455538305N00845412EA0000000356
B1053505538345N00845335EA0000000353
B1053595538463N00845265EA0000000333
B1054045538497N00845175EA0000000327
B1054115538441N00845067EA0000000318
B1054165538384N00845019EA0000000317
B1054215538383N00844925EA0000000313
B1054275538466N00844913EA0000000306
B1054335538485N00845075EA0000000294
B1054425538368N00845224EA0000000275
B1054475538310N00845325EA0000000262
B1054525538283N00845472EA0000000251
B1054585538273N00845664EA0000000231
B1055195538188N00846348EA0000000212
B1055245538142N00846479EA0000000200
B1056145537857N00845854EA0000000057
B1056285537876N00845582EA0000000030
