AOGNOGN
HFDTE210625
HFFXA050
HFPLTPILOTINCHARGE:
HFGTYGLIDERTYPE:ASK-21
HFGIDGLIDERID:OY-XDB
HFDTM100GPSDATUM:WGS-1984
HFRFWFIRMWAREVERSION:
HFRHWHARDWAREVERSION:
HFFTYFRTYPE:OGN-FLIGHTBOOK
HFGPSGENERIC
HFPRSPRESSALTSENSOR:
HFCIDCOMPETITIONID:V1
B0948525537921N00845694EA0000000034
B0948535537922N00845672EA0000000039
B0948585537931N00845562EA0000000130
B0949055537932N00845412EA0000000269
B0949145537929N00845169EA0000000398
B0949295537904N00844789EA0000000461
B0949395537887N00844586EA0000000449
B0949485537984N00844481EA0000000437
B0949565538113N00844569EA0000000441
B0950015538189N00844620EA0000000434
B0950115538344N00844721EA0000000422
B0950365538717N00844926EA0000000390
B0950445538816N00845108EA0000000381
B0950585538807N00845546EA0000000362
B0951035538762N00845677EA0000000356
B0951085538696N00845760EA0000000354
B0951155538602N00845871EA0000000352
B0951255538489N00845879EA0000000356
B0951305538522N00845781EA0000000353
B0951355538597N00845807EA0000000359
B0951415538607N00845973EA0000000364
B0951505538507N00845968EA0000000371
B0951585538588N00845924EA0000000371
B0952045538596N00846090EA0000000382
B0952095538532N00846131EA0000000386
B0952155538515N00846031EA0000000390
B0952225538604N00846040EA0000000389
B0952285538611N00846198EA0000000398
B0952345538541N00846239EA0000000404
B0952405538527N00846137EA0000000406
B0952465538603N00846141EA0000000402
B0952525538613N00846297EA0000000406
B0952575538552N00846338EA0000000410
B0953035538549N00846239EA0000000404
B0953085538617N00846255EA0000000404
B0953165538614N00846457EA0000000404
B0953235538527N00846459EA0000000404
B0953295538521N00846343EA0000000406
B0953425538658N00846461EA0000000397
B0953485538658N00846619EA0000000400
B0954015538625N00846526EA0000000396
B0954095538652N00846714EA0000000403
B0954405538683N00846968EA0000000413
B0955215538764N00847091EA0000000422
B0955265538732N00847211EA0000000421
B0955545538530N00846849EA0000000418
B0956045538526N00846643EA0000000401
B0956095538562N00846544EA0000000390
B0956165538620N00846416EA0000000385
B0956225538669N00846315EA0000000378
B0956295538729N00846182EA0000000366
B0956365538782N00846049EA0000000355
B0956415538819N00845947EA0000000348
B0956475538850N00845821EA0000000339
B0956545538883N00845661EA0000000326
B0957025538915N00845481EA0000000324
B0957095538923N00845328EA0000000310
B0957145538917N00845222EA0000000308
B0957205538909N00845095EA0000000304
B0957295538985N00844966EA0000000292
B0957355539049N00845130EA0000000283
B0957405538991N00845264EA0000000270
B0957465538912N00845172EA0000000262
B0957525538956N00845027EA0000000275
B0957575538984N00844922EA0000000281
B0958045538935N00844784EA0000000275
B0958115538848N00844701EA0000000280
B0958185538749N00844649EA0000000276
B0958235538681N00844615EA0000000273
B0958415538467N00844758EA0000000260
B0958465538455N00844903EA0000000248
B0958525538444N00845084EA0000000239
B0959005538423N00845323EA0000000232
B0959055538412N00845477EA0000000228
B0959105538404N00845638EA0000000226
B0959165538395N00845827EA0000000229
B0959265538365N00846124EA0000000215
B0959325538335N00846298EA0000000198
B0959425538223N00846519EA0000000193
B0959515538103N00846672EA0000000173
B0959565538024N00846689EA0000000166
B1000065537867N00846707EA0000000159
B1000415537873N00845967EA0000000064
B1000465537888N00845855EA0000000050
B1000515537901N00845741EA0000000037
B1000585537918N00845593EA0000000027
B1001045537926N00845506EA0000000026
