AOGNOGN
HFDTE210625
HFFXA050
HFPLTPILOTINCHARGE:
HFGTYGLIDERTYPE:ASK-21
HFGIDGLIDERID:OY-XDB
HFDTM100GPSDATUM:WGS-1984
HFRFWFIRMWAREVERSION:
HFRHWHARDWAREVERSION:
HFFTYFRTYPE:OGN-FLIGHTBOOK
HFGPSGENERIC
HFPRSPRESSALTSENSOR:
HFCIDCOMPETITIONID:V1
B1404255537913N00845487EA0000000176
B1405435538310N00844404EA0000000372
B1405505538251N00844595EA0000000358
B1405505538251N00844595EA0000000358
B1405555538176N00844611EA0000000347
B1406005538146N00844512EA0000000331
B1406145538233N00844226EA0000000307
B1406325538208N00844494EA0000000269
B1407055538504N00843962EA0000000213
B1407105538579N00844047EA0000000204
B1407365538520N00844854EA0000000182
B1407435538443N00845014EA0000000183
B1407485538391N00845120EA0000000182
B1407535538335N00845229EA0000000169
B1407595538282N00845387EA0000000164
B1408165538177N00845895EA0000000139
B1408375537984N00846395EA0000000149
B1408425537938N00846508EA0000000138
B1409125537838N00846083EA0000000070
B1409445537882N00845530EA0000000030
