AOGNOGN
HFDTE180625
HFFXA050
HFPLTPILOTINCHARGE:
HFGTYGLIDERTYPE:LS-4
HFGIDGLIDERID:OY-PNX
HFDTM100GPSDATUM:WGS-1984
HFRFWFIRMWAREVERSION:
HFRHWHARDWAREVERSION:
HFFTYFRTYPE:OGN-FLIGHTBOOK
HFGPSGENERIC
HFPRSPRESSALTSENSOR:
HFCIDCOMPETITIONID:5M
B0857365554424N00927320EA0000000094
B0857395554430N00927266EA0000000097
B0857445554443N00927160EA0000000170
B0857495554452N00927073EA0000000264
B0857545554460N00926990EA0000000346
B0858065554495N00926746EA0000000504
B0858135554523N00926584EA0000000536
B0858185554538N00926483EA0000000553
B0858235554575N00926412EA0000000548
B0858295554648N00926509EA0000000551
B0858345554618N00926662EA0000000557
B0858395554552N00926665EA0000000565
B0858455554502N00926577EA0000000557
B0858525554445N00926447EA0000000548
B0858575554401N00926362EA0000000551
B0859045554332N00926259EA0000000550
B0859095554282N00926188EA0000000552
B0859145554234N00926118EA0000000554
B0859195554197N00926043EA0000000554
B0859245554192N00925958EA0000000553
B0859315554229N00925857EA0000000547
B0859395554286N00925761EA0000000533
B0859465554351N00925689EA0000000515
B0859525554414N00925622EA0000000504
B0859575554475N00925580EA0000000501
B0900025554551N00925594EA0000000497
B0900085554644N00925669EA0000000503
B0900135554707N00925776EA0000000512
B0900195554687N00925968EA0000000508
B0900245554601N00925997EA0000000510
B0900295554572N00925895EA0000000519
B0900345554632N00925856EA0000000531
B0900395554676N00925984EA0000000538
B0900445554628N00926122EA0000000529
B0900505554536N00926085EA0000000534
B0900555554540N00925983EA0000000543
B0901005554614N00926009EA0000000541
B0901055554643N00926179EA0000000546
B0901105554575N00926296EA0000000550
B0901155554513N00926224EA0000000550
B0901205554553N00926140EA0000000568
B0901255554616N00926230EA0000000576
B0901315554580N00926416EA0000000575
B0901365554503N00926391EA0000000578
B0901415554518N00926288EA0000000586
B0901465554589N00926339EA0000000592
B0901515554591N00926513EA0000000592
B0901565554511N00926574EA0000000600
B0902015554475N00926480EA0000000596
B0902065554534N00926433EA0000000605
B0902115554593N00926539EA0000000622
B0902165554574N00926707EA0000000618
B0902215554498N00926723EA0000000625
B0902265554486N00926617EA0000000623
B0902315554555N00926612EA0000000636
B0902365554598N00926767EA0000000636
B0902425554538N00926973EA0000000627
B0902475554443N00926992EA0000000624
B0902535554405N00926854EA0000000632
B0902585554475N00926823EA0000000644
B0903035554541N00926943EA0000000660
B0903085554530N00927118EA0000000667
B0903145554439N00927182EA0000000667
B0903195554419N00927082EA0000000669
B0903245554489N00927069EA0000000665
B0903295554550N00927219EA0000000658
B0903345554516N00927420EA0000000658
B0903395554425N00927486EA0000000655
B0903445554372N00927402EA0000000659
B0903515554433N00927305EA0000000666
B0903565554499N00927427EA0000000669
B0904015554469N00927615EA0000000671
B0904065554384N00927661EA0000000681
B0904115554355N00927575EA0000000685
B0904165554407N00927517EA0000000685
B0904215554478N00927601EA0000000692
B0904265554475N00927786EA0000000688
B0904315554393N00927868EA0000000686
B0904365554350N00927789EA0000000692
B0904425554361N00927666EA0000000688
B0904485554391N00927543EA0000000686
B0904565554448N00927393EA0000000689
B0905015554492N00927307EA0000000698
B0905065554558N00927282EA0000000709
B0905115554609N00927422EA0000000706
B0905165554560N00927586EA0000000706
B0905225554468N00927575EA0000000706
B0905275554458N00927478EA0000000706
B0905335554491N00927368EA0000000708
B0905425554561N00927230EA0000000709
B0905475554606N00927163EA0000000701
B0905545554687N00927067EA0000000679
B0906015554767N00926977EA0000000665
B0906095554855N00926867EA0000000647
B0906145554907N00926787EA0000000634
B0906205554961N00926675EA0000000623
B0906275555023N00926532EA0000000601
B0906335555075N00926405EA0000000585
B0906385555117N00926299EA0000000573
B0906455555173N00926154EA0000000559
B0906515555221N00926034EA0000000546
B0906565555259N00925934EA0000000535
B0907025555305N00925809EA0000000529
B0907075555342N00925704EA0000000516
B0907125555380N00925601EA0000000506
B0907185555423N00925474EA0000000494
B0907235555456N00925369EA0000000500
B0907285555487N00925271EA0000000496
B0907345555525N00925149EA0000000485
B0907395555528N00925041EA0000000483
B0907445555478N00924954EA0000000476
B0907495555399N00924904EA0000000462
B0907545555305N00924934EA0000000459
B0907595555232N00925072EA0000000451
B0908045555205N00925259EA0000000440
B0908105555183N00925493EA0000000430
B0908155555168N00925690EA0000000425
B0908225555156N00925970EA0000000409
B0908295555140N00926254EA0000000404
B0908355555123N00926492EA0000000397
B0908405555129N00926682EA0000000393
B0908455555189N00926808EA0000000381
B0908505555258N00926809EA0000000366
B0908555555264N00926722EA0000000357
B0909005555190N00926708EA0000000355
B0909055555121N00926831EA0000000351
B0909115555071N00927059EA0000000328
B0909235554983N00927547EA0000000316
B0909285554938N00927733EA0000000315
B0909355554826N00927904EA0000000304
B0909415554715N00928017EA0000000295
B0909465554624N00928029EA0000000280
B0909515554541N00927997EA0000000263
B0909575554442N00927942EA0000000257
B0910025554395N00927853EA0000000250
B0910075554400N00927748EA0000000215
B0910135554415N00927613EA0000000163
B0910205554436N00927446EA0000000109
B0910265554454N00927310EA0000000093
B0910335554466N00927201EA0000000091
