AOGNOGN
HFDTE180625
HFFXA050
HFPLTPILOTINCHARGE:
HFGTYGLIDERTYPE:ASK-21
HFGIDGLIDERID:OY-XNX
HFDTM100GPSDATUM:WGS-1984
HFRFWFIRMWAREVERSION:
HFRHWHARDWAREVERSION:
HFFTYFRTYPE:OGN-FLIGHTBOOK
HFGPSGENERIC
HFPRSPRESSALTSENSOR:
HFCIDCOMPETITIONID:NX
B1227215554463N00926778EA0000000450
B1227245554475N00926712EA0000000473
B1227305554500N00926576EA0000000488
B1227385554511N00926390EA0000000485
B1227475554515N00926239EA0000000489
B1227565554513N00926120EA0000000476
B1228025554503N00926051EA0000000478
B1228115554497N00925962EA0000000466
B1228165554513N00925910EA0000000470
B1228215554552N00925888EA0000000457
B1228345554665N00925884EA0000000451
B1228415554652N00925814EA0000000447
B1228505554612N00925739EA0000000440
B1228575554581N00925684EA0000000440
B1229025554564N00925643EA0000000428
B1229105554553N00925571EA0000000413
B1229185554548N00925502EA0000000403
B1229235554546N00925459EA0000000394
B1230545554795N00927911EA0000000306
B1231015554703N00928125EA0000000309
B1231125554510N00928347EA0000000285
B1231185554394N00928390EA0000000273
B1249465554490N00926727EA0000000457
B1249525554509N00926580EA0000000488
B1249595554541N00926468EA0000000509
B1250135554594N00926321EA0000000501
B1250405554695N00926103EA0000000471
B1250505554742N00926022EA0000000457
B1250575554815N00926114EA0000000460
B1251025554867N00926209EA0000000464
B1251115554958N00926278EA0000000463
B1251165554928N00926200EA0000000460
B1251255554822N00926386EA0000000471
B1251345554893N00926605EA0000000492
B1251435554953N00926558EA0000000495
B1251485554926N00926499EA0000000494
B1251575554824N00926661EA0000000496
B1252085554902N00926808EA0000000503
B1252135554873N00926750EA0000000503
B1252245554747N00926959EA0000000503
B1252295554770N00927118EA0000000506
B1252395554869N00927224EA0000000523
B1252445554846N00927160EA0000000529
B1252545554740N00927328EA0000000539
B1253065554821N00927469EA0000000564
B1253205554696N00927544EA0000000575
B1253285554759N00927631EA0000000587
B1253435554616N00927767EA0000000598
B1253495554678N00927846EA0000000586
B1254055554548N00927923EA0000000626
B1254165554617N00927979EA0000000604
B1254215554537N00927978EA0000000640
B1254285554482N00928162EA0000000635
B1254375554568N00928235EA0000000633
B1254425554570N00928164EA0000000643
B1254475554523N00928113EA0000000661
B1254565554425N00928307EA0000000655
B1255015554467N00928444EA0000000664
B1255185554372N00928541EA0000000698
B1255235554412N00928680EA0000000700
B1255305554451N00928612EA0000000720
B1255495554268N00928949EA0000000743
B1255595554288N00928958EA0000000758
B1256055554209N00929110EA0000000762
B1256155554287N00929266EA0000000772
B1256215554272N00929181EA0000000788
B1256315554136N00929318EA0000000808
B1256375554173N00929485EA0000000818
B1256525554085N00929574EA0000000846
B1256585554121N00929728EA0000000865
B1257045554163N00929722EA0000000883
B1257115554119N00929654EA0000000894
B1257175554043N00929781EA0000000913
B1257265554111N00929914EA0000000927
B1257355554031N00929851EA0000000954
B1257465553926N00930122EA0000000955
B1257565554011N00930174EA0000000960
B1258065553893N00930113EA0000000975
B1258135553825N00930322EA0000000973
B1258235553898N00930443EA0000000981
B1258285553864N00930382EA0000000990
B1259295553888N00931857EA0000001010
B1259375553951N00931842EA0000000996
B1259435553991N00931821EA0000000990
B1259505554009N00931767EA0000000982
B1259555554002N00931711EA0000000972
B1300005553986N00931650EA0000000958
B1300085553934N00931554EA0000000932
B1300155553876N00931461EA0000000926
B1300205553880N00931386EA0000000939
B1300275553936N00931334EA0000000964
B1300325553966N00931290EA0000000985
B1300395553993N00931225EA0000001016
B1300475554009N00931129EA0000001046
B1300535554012N00931053EA0000001062
B1301015553977N00930939EA0000001063
B1301065553955N00930864EA0000001058
B1301155553966N00930735EA0000001051
B1301205553966N00930667EA0000001050
B1301275553954N00930569EA0000001039
B1301365553945N00930450EA0000001020
B1301455553939N00930339EA0000001005
B1301525553949N00930257EA0000000990
B1302005553957N00930168EA0000000984
B1302075553958N00930098EA0000000978
B1302155553960N00930015EA0000000975
B1302205553965N00929962EA0000000972
B1302255553968N00929911EA0000000970
B1302305553971N00929861EA0000000963
B1302355553967N00929805EA0000000959
B1302445553980N00929702EA0000000948
B1302505553998N00929629EA0000000940
B1302555554010N00929562EA0000000927
B1303015554000N00929467EA0000000925
B1303065554011N00929404EA0000000918
B1303115554032N00929335EA0000000908
B1303165554023N00929250EA0000000908
B1303215554031N00929188EA0000000904
B1303285554063N00929122EA0000000885
B1303355554097N00929046EA0000000869
B1303455554144N00928955EA0000000866
B1303505554159N00928915EA0000000864
B1303575554181N00928853EA0000000850
B1304035554168N00928770EA0000000852
B1304085554150N00928705EA0000000844
B1304135554149N00928634EA0000000851
B1304215554152N00928533EA0000000850
B1304265554162N00928476EA0000000854
B1304325554191N00928433EA0000000848
B1304375554196N00928375EA0000000840
B1304425554153N00928305EA0000000819
B1304485554073N00928263EA0000000823
B1304535554008N00928248EA0000000822
B1304595553981N00928192EA0000000805
B1305085554019N00928125EA0000000789
B1305145554044N00928092EA0000000771
B1305225554067N00928023EA0000000734
B1305295554078N00927936EA0000000723
B1305355554092N00927854EA0000000708
B1305425554099N00927757EA0000000712
B1305505554093N00927644EA0000000701
B1305565554091N00927546EA0000000683
B1306025554125N00927474EA0000000677
B1306085554198N00927487EA0000000666
B1306135554258N00927479EA0000000658
B1306205554326N00927449EA0000000655
B1306285554390N00927405EA0000000676
B1306345554429N00927380EA0000000675
B1306455554493N00927286EA0000000715
B1306505554530N00927282EA0000000733
B1306585554553N00927502EA0000000742
B1307035554512N00927631EA0000000758
B1307085554446N00927643EA0000000763
B1307145554438N00927590EA0000000800
B1307195554476N00927643EA0000000782
B1307275554561N00927801EA0000000784
B1307345554636N00927895EA0000000778
B1307425554707N00927868EA0000000732
B1307495554726N00927741EA0000000737
B1307545554734N00927675EA0000000735
B1307595554747N00927597EA0000000676
B1308055554781N00927464EA0000000689
B1308115554799N00927388EA0000000702
B1308205554805N00927286EA0000000684
B1308255554811N00927246EA0000000684
B1308315554830N00927188EA0000000656
B1308425554871N00927081EA0000000638
B1308515554888N00926982EA0000000614
B1308595554895N00926900EA0000000597
B1309105554918N00926790EA0000000577
B1309175554937N00926730EA0000000580
B1309275554968N00926686EA0000000555
B1309355554993N00926612EA0000000548
B1309455555045N00926547EA0000000521
B1309575555090N00926466EA0000000490
B1310055555121N00926415EA0000000474
B1310105555141N00926388EA0000000462
B1310165555161N00926343EA0000000450
B1310215555166N00926289EA0000000441
B1310265555171N00926231EA0000000434
B1310325555169N00926160EA0000000426
B1310385555153N00926089EA0000000413
B1310485555022N00926099EA0000000392
B1310535554943N00926176EA0000000393
B1310585554866N00926216EA0000000394
B1311055554861N00926166EA0000000392
B1311445555192N00926596EA0000000326
B1311495555159N00926531EA0000000309
B1316445554436N00927271EA0000000093
B1329235554460N00926834EA0000000561
B1329285554478N00926726EA0000000575
B1329335554492N00926629EA0000000588
B1329395554500N00926545EA0000000597
B1329455554477N00926475EA0000000588
B1330015554414N00926272EA0000000568
B1330105554386N00926155EA0000000550
B1330155554373N00926090EA0000000552
B1330225554353N00925999EA0000000544
B1330275554341N00925929EA0000000539
B1330325554329N00925859EA0000000533
B1330385554313N00925770EA0000000523
B1330465554300N00925652EA0000000518
B1330555554302N00925526EA0000000514
B1331025554309N00925430EA0000000508
B1331085554314N00925345EA0000000522
B1331165554375N00925322EA0000000531
B1331245554385N00925550EA0000000533
B1331305554305N00925613EA0000000531
B1331365554278N00925534EA0000000546
B1331415554309N00925488EA0000000553
B1331495554363N00925675EA0000000558
B1331555554283N00925789EA0000000556
B1332025554251N00925712EA0000000564
B1332095554299N00925653EA0000000568
B1332165554348N00925826EA0000000582
B1332215554291N00925933EA0000000578
B1332265554245N00925897EA0000000579
B1332315554263N00925839EA0000000581
B1332365554316N00925874EA0000000587
B1332415554324N00926021EA0000000588
B1332465554261N00926131EA0000000583
B1332525554199N00926095EA0000000594
B1332575554179N00926031EA0000000595
B1333035554219N00925996EA0000000593
B1333085554267N00926089EA0000000600
B1333145554256N00926278EA0000000599
B1333195554185N00926358EA0000000597
B1333265554152N00926294EA0000000597
B1333325554197N00926261EA0000000588
B1333385554253N00926216EA0000000575
B1333435554302N00926174EA0000000575
B1333505554366N00926109EA0000000574
B1333575554429N00926055EA0000000584
B1334045554492N00926005EA0000000570
B1334105554542N00925955EA0000000577
B1334165554587N00925909EA0000000585
B1334215554617N00925866EA0000000587
B1334265554595N00925806EA0000000576
B1334375554489N00926034EA0000000569
B1334445554555N00926153EA0000000573
B1334515554625N00926140EA0000000547
B1334565554674N00926105EA0000000528
B1335015554723N00926057EA0000000515
B1335105554809N00925974EA0000000529
B1335155554850N00925941EA0000000533
B1335245554925N00925891EA0000000538
B1335295554969N00925860EA0000000531
B1335355555021N00925817EA0000000541
B1335405555076N00925846EA0000000537
B1335465555100N00926021EA0000000528
B1335515555044N00926140EA0000000518
B1335565554984N00926121EA0000000506
B1336025554968N00926028EA0000000500
B1336075554969N00925947EA0000000494
B1336135554989N00925862EA0000000484
B1336195555021N00925789EA0000000485
B1336285555074N00925709EA0000000488
B1336355555122N00925652EA0000000476
B1336415555164N00925599EA0000000472
B1336505555227N00925530EA0000000471
B1336565555264N00925483EA0000000470
B1337035555310N00925432EA0000000468
B1337115555369N00925395EA0000000457
B1337185555428N00925365EA0000000454
B1337265555510N00925361EA0000000437
B1337395555662N00925385EA0000000432
B1337585555871N00925351EA0000000417
B1338065555949N00925299EA0000000450
B1338115555930N00925228EA0000000457
B1338235555776N00925401EA0000000455
B1338295555820N00925554EA0000000454
B1338345555877N00925570EA0000000457
B1338395555923N00925543EA0000000450
B1338445555905N00925458EA0000000456
B1338555555759N00925605EA0000000454
B1339055555835N00925747EA0000000441
B1339115555848N00925669EA0000000434
B1339195555859N00925540EA0000000413
B1339265555887N00925420EA0000000413
B1339345555927N00925296EA0000000424
B1339395555977N00925294EA0000000430
B1339475555975N00925525EA0000000423
B1339525555907N00925557EA0000000421
B1339575555889N00925489EA0000000418
B1340045555947N00925438EA0000000418
B1340105555990N00925580EA0000000419
B1340155555930N00925704EA0000000414
B1340225555814N00925770EA0000000402
B1340315555649N00925826EA0000000398
B1340425555444N00925846EA0000000378
B1340505555299N00925859EA0000000375
B1340555555210N00925873EA0000000370
B1341045555057N00925924EA0000000382
B1341095555003N00925876EA0000000390
B1341155555042N00925822EA0000000395
B1341225555068N00926019EA0000000384
B1341275554995N00926038EA0000000385
B1341325554985N00925947EA0000000384
B1341435555075N00926076EA0000000397
B1341485555012N00926160EA0000000403
B1341545554944N00926128EA0000000400
B1342005554897N00926057EA0000000396
B1342085554950N00926003EA0000000397
B1342155554992N00926182EA0000000413
B1342205554934N00926264EA0000000411
B1342265554916N00926200EA0000000413
B1342315554969N00926229EA0000000418
B1342365554978N00926367EA0000000436
B1342425554917N00926402EA0000000438
B1342505554978N00926360EA0000000450
B1342585555021N00926542EA0000000465
B1343035554955N00926610EA0000000456
B1343085554944N00926533EA0000000469
B1343145555008N00926588EA0000000493
B1343195554998N00926730EA0000000493
B1343245554936N00926745EA0000000480
B1343295554926N00926663EA0000000491
B1343345554975N00926642EA0000000506
B1343415554999N00926821EA0000000510
B1343465554932N00926882EA0000000497
B1343515554926N00926819EA0000000494
B1343565554966N00926769EA0000000496
B1344015555028N00926798EA0000000506
B1344075555044N00926981EA0000000512
B1344125554974N00927077EA0000000499
B1344205554954N00926990EA0000000494
B1344265555006N00926941EA0000000499
B1344315555061N00926943EA0000000505
B1344375555090N00927120EA0000000508
B1344425555022N00927219EA0000000495
B1344475554976N00927182EA0000000492
B1344555554981N00927075EA0000000489
B1345005554997N00927007EA0000000486
B1345065555020N00926938EA0000000480
B1345125555056N00926881EA0000000471
B1345205555108N00926814EA0000000470
B1345275555162N00926776EA0000000466
B1345485555354N00926809EA0000000422
B1345555555288N00926719EA0000000405
B1346025555170N00926747EA0000000391
B1346105555019N00926848EA0000000369
B1346155554947N00926814EA0000000367
B1346215554936N00926717EA0000000365
B1346465555057N00926371EA0000000367
B1346525555099N00926317EA0000000362
B1347035555176N00926210EA0000000363
B1347095555203N00926131EA0000000372
B1347155555221N00926050EA0000000370
B1347305555078N00926220EA0000000366
B1347405555171N00926277EA0000000371
B1347495555161N00926152EA0000000371
B1348095555129N00926480EA0000000355
B1348155555151N00926391EA0000000349
B1348225555086N00926320EA0000000342
B1348345554970N00926648EA0000000344
B1348415555038N00926728EA0000000331
B1348465555053N00926669EA0000000316
B1348525555070N00926585EA0000000307
B1348595555041N00926486EA0000000304
B1349415554695N00927959EA0000000268
B1349505554546N00928157EA0000000282
B1349555554452N00928162EA0000000279
B1405245554440N00926995EA0000000314
B1406055554619N00927883EA0000000254
B1406105554546N00928016EA0000000241
B1415235554409N00927326EA0000000092
B1422585554474N00926789EA0000000547
B1423045554500N00926651EA0000000558
B1423095554526N00926536EA0000000577
B1423165554560N00926420EA0000000596
B1423245554599N00926298EA0000000579
B1423315554653N00926203EA0000000576
B1423375554722N00926172EA0000000572
B1423435554812N00926241EA0000000578
B1423485554873N00926328EA0000000592
B1423545554864N00926523EA0000000581
B1423595554773N00926577EA0000000566
B1424045554760N00926490EA0000000568
B1424095554824N00926492EA0000000565
B1424145554887N00926587EA0000000573
B1424225554875N00926838EA0000000601
B1424275554789N00926905EA0000000607
B1424325554734N00926842EA0000000606
B1424375554763N00926789EA0000000605
B1424425554821N00926834EA0000000607
B1424485554842N00926994EA0000000623
B1424535554769N00927073EA0000000617
B1424585554721N00926998EA0000000640
B1425055554761N00926963EA0000000650
B1425155554774N00927224EA0000000658
B1425235554650N00927260EA0000000669
B1425285554656N00927202EA0000000677
B1425415554683N00927504EA0000000691
B1425485554576N00927529EA0000000706
B1425535554587N00927468EA0000000714
B1426035554625N00927695EA0000000726
B1426085554548N00927794EA0000000743
B1426135554492N00927758EA0000000755
B1426185554510N00927708EA0000000743
B1426285554552N00927945EA0000000766
B1426355554443N00928041EA0000000786
B1426405554401N00927980EA0000000792
B1426455554429N00927944EA0000000786
B1426545554438N00928196EA0000000793
B1426595554353N00928283EA0000000810
B1427045554299N00928233EA0000000812
B1427115554348N00928204EA0000000808
B1427205554384N00928445EA0000000821
B1427255554307N00928559EA0000000837
B1427305554245N00928522EA0000000853
B1427365554269N00928472EA0000000858
B1427415554321N00928498EA0000000860
B1427495554342N00928734EA0000000863
B1427565554242N00928884EA0000000902
B1428025554151N00928911EA0000000915
B1428085554125N00928843EA0000000915
B1428135554170N00928858EA0000000911
B1428215554187N00929101EA0000000932
B1428265554131N00929244EA0000000948
B1428315554053N00929263EA0000000938
B1428365554063N00929193EA0000000950
B1428445554113N00929387EA0000000977
B1428505554025N00929468EA0000000978
B1428555554017N00929395EA0000001001
B1429065554065N00929631EA0000001024
B1429115553989N00929696EA0000001036
B1429165553960N00929634EA0000001048
B1429215553999N00929629EA0000001070
B1429275554016N00929797EA0000001072
B1429325553946N00929902EA0000001087
B1429375553887N00929872EA0000001094
B1429425553899N00929812EA0000001100
B1429545553917N00930110EA0000001131
B1430005553830N00930146EA0000001137
B1430075553823N00930073EA0000001151
B1430145553867N00930238EA0000001139
B1430195553809N00930386EA0000001162
B1430245553743N00930387EA0000001169
B1430295553738N00930324EA0000001168
B1430345553782N00930324EA0000001168
B1430445553800N00930601EA0000001180
B1430495553732N00930715EA0000001188
B1430555553644N00930713EA0000001193
B1431015553642N00930629EA0000001182
B1431115553694N00930863EA0000001198
B1431165553619N00930969EA0000001206
B1431215553555N00930939EA0000001216
B1431285553579N00930872EA0000001198
B1431385553605N00931135EA0000001211
B1431445553512N00931180EA0000001219
B1431525553516N00931085EA0000001206
B1432005553564N00930994EA0000001220
B1432055553600N00930945EA0000001233
B1432105553639N00930897EA0000001232
B1432155553678N00930847EA0000001235
B1432225553735N00930794EA0000001225
B1432275553779N00930763EA0000001229
B1432325553822N00930738EA0000001225
B1432375553866N00930726EA0000001233
B1432425553903N00930723EA0000001219
B1432535554003N00930642EA0000001205
B1432595554054N00930593EA0000001167
B1433045554100N00930497EA0000001161
B1433115554147N00930392EA0000001180
B1433175554179N00930315EA0000001181
B1433235554205N00930236EA0000001176
B1433285554228N00930146EA0000001101
B1433335554266N00929991EA0000001093
B1433385554308N00929874EA0000001123
B1433465554361N00929756EA0000001143
B1433515554392N00929701EA0000001140
B1433585554435N00929631EA0000001130
B1434035554465N00929577EA0000001117
B1434125554522N00929475EA0000001101
B1434195554572N00929406EA0000001096
B1434285554637N00929329EA0000001092
B1434355554688N00929282EA0000001086
B1434425554740N00929241EA0000001079
B1434485554785N00929208EA0000001072
B1434585554860N00929162EA0000001066
B1435085554947N00929168EA0000001056
B1435155555024N00929205EA0000001047
B1435265555146N00929241EA0000001044
B1435345555217N00929199EA0000001031
B1435405555277N00929171EA0000001023
B1435475555347N00929163EA0000001022
B1435545555412N00929154EA0000001011
B1436025555487N00929147EA0000000998
B1436075555540N00929149EA0000000983
B1436135555602N00929145EA0000000975
B1436195555664N00929128EA0000000965
B1436255555713N00929080EA0000000958
B1436315555735N00928999EA0000000956
B1436365555758N00928935EA0000000952
B1436425555787N00928871EA0000000952
B1436475555813N00928813EA0000000942
B1436565555832N00928699EA0000000946
B1437025555807N00928618EA0000000935
B1437105555771N00928511EA0000000929
B1437215555720N00928345EA0000000914
B1437265555731N00928273EA0000000914
B1437315555751N00928210EA0000000909
B1437395555808N00928146EA0000000896
B1437445555820N00928068EA0000000881
B1437495555834N00927991EA0000000885
B1437545555847N00927923EA0000000885
B1438015555856N00927824EA0000000881
B1438065555863N00927760EA0000000882
B1438135555865N00927671EA0000000869
B1438205555854N00927566EA0000000857
B1438315555844N00927402EA0000000835
B1438365555827N00927327EA0000000829
B1438425555806N00927243EA0000000819
B1438485555789N00927157EA0000000804
B1438535555788N00927086EA0000000795
B1438585555787N00927018EA0000000784
B1439055555773N00926927EA0000000766
B1439125555778N00926844EA0000000749
B1439175555782N00926780EA0000000743
B1439225555793N00926718EA0000000734
B1439315555812N00926617EA0000000724
B1439365555808N00926564EA0000000719
B1439415555747N00926549EA0000000709
B1439465555668N00926587EA0000000699
B1439525555578N00926612EA0000000698
B1439575555512N00926612EA0000000690
B1440025555464N00926575EA0000000684
B1440075555455N00926522EA0000000679
B1440125555469N00926475EA0000000674
B1440185555495N00926431EA0000000665
B1440265555531N00926381EA0000000658
B1440315555522N00926325EA0000000646
B1440365555473N00926286EA0000000636
B1440415555395N00926286EA0000000629
B1440505555266N00926274EA0000000627
B1440555555203N00926245EA0000000633
B1441035555192N00926156EA0000000645
B1441095555226N00926298EA0000000646
B1441145555144N00926396EA0000000644
B1441195555097N00926326EA0000000669
B1441245555139N00926295EA0000000681
B1441335555148N00926546EA0000000681
B1441385555061N00926607EA0000000682
B1441435555030N00926523EA0000000693
B1441485555084N00926512EA0000000708
B1441545555103N00926697EA0000000706
B1441595555026N00926819EA0000000707
B1442045554956N00926787EA0000000725
B1442105554965N00926695EA0000000731
B1442155555018N00926729EA0000000749
B1442205555030N00926876EA0000000750
B1442275554928N00927030EA0000000749
B1442325554872N00926977EA0000000764
B1442375554891N00926902EA0000000768
B1442435554955N00926959EA0000000785
B1442495554950N00927149EA0000000801
B1442545554896N00927295EA0000000804
B1442595554818N00927354EA0000000827
B1443045554760N00927318EA0000000840
B1443115554775N00927226EA0000000854
B1443165554828N00927272EA0000000852
B1443225554827N00927470EA0000000849
B1443275554740N00927546EA0000000859
B1443325554685N00927481EA0000000890
B1443385554712N00927431EA0000000894
B1443475554784N00927619EA0000000893
B1443525554719N00927753EA0000000879
B1443585554628N00927719EA0000000914
B1444045554626N00927636EA0000000918
B1444095554680N00927646EA0000000913
B1444165554708N00927831EA0000000919
B1444215554639N00927937EA0000000914
B1444265554571N00927907EA0000000912
B1444315554584N00927838EA0000000913
B1444425554618N00928093EA0000000923
B1444485554527N00928146EA0000000934
B1444545554497N00928064EA0000000940
B1445005554546N00928052EA0000000931
B1445095554577N00928288EA0000000942
B1445145554515N00928396EA0000000951
B1445205554436N00928390EA0000000964
B1445255554424N00928330EA0000000962
B1445305554461N00928304EA0000000955
B1445395554523N00928484EA0000000951
B1445455554443N00928617EA0000000964
B1445515554350N00928679EA0000000972
B1445565554289N00928656EA0000000970
B1446035554336N00928627EA0000000960
B1446145554378N00928909EA0000000979
B1446195554313N00929011EA0000000975
B1446245554246N00928996EA0000000981
B1446295554246N00928934EA0000000976
B1446345554301N00928956EA0000000974
B1446425554319N00929186EA0000000982
B1446475554243N00929235EA0000000993
B1446525554213N00929186EA0000001000
B1446585554245N00929124EA0000001006
B1447035554288N00929128EA0000001026
B1447095554348N00929128EA0000001029
B1447155554403N00929117EA0000001019
B1447205554439N00929082EA0000001004
B1447265554487N00929056EA0000000995
B1447315554530N00929044EA0000000982
B1447385554577N00928989EA0000000960
B1447435554598N00928919EA0000000949
B1447485554616N00928852EA0000000944
B1447585554653N00928746EA0000000930
B1448045554679N00928693EA0000000921
B1448115554716N00928634EA0000000905
B1448165554741N00928597EA0000000902
B1448225554772N00928553EA0000000891
B1448295554817N00928515EA0000000887
B1448355554858N00928477EA0000000875
B1448445554929N00928424EA0000000862
B1448505554979N00928381EA0000000848
B1449015555097N00928392EA0000000840
B1449105555199N00928535EA0000000824
B1449165555266N00928648EA0000000817
B1449235555340N00928791EA0000000808
B1449315555423N00928963EA0000000798
B1449365555481N00929077EA0000000781
B1449505555659N00929371EA0000000768
B1449595555781N00929497EA0000000751
B1450105555934N00929646EA0000000738
B1450165556016N00929728EA0000000736
B1450275556172N00929892EA0000000718
B1450345556270N00929999EA0000000707
B1450395556337N00930079EA0000000709
B1450455556415N00930173EA0000000708
B1450515556488N00930268EA0000000697
B1450585556568N00930380EA0000000685
B1451045556632N00930475EA0000000676
B1451095556685N00930543EA0000000669
B1451155556754N00930621EA0000000666
B1451215556820N00930709EA0000000679
B1451295556909N00930854EA0000000668
B1451355556984N00930957EA0000000663
B1451405557039N00931042EA0000000662
B1451455557096N00931121EA0000000647
B1451505557151N00931186EA0000000642
B1451555557203N00931234EA0000000630
B1452035557295N00931296EA0000000628
B1452085557349N00931352EA0000000638
B1452165557412N00931336EA0000000639
B1452215557354N00931283EA0000000642
B1452285557263N00931493EA0000000643
B1453395557115N00932290EA0000000742
B1453495557030N00932577EA0000000763
B1453585557101N00932625EA0000000761
B1454135556946N00932876EA0000000784
B1454235557030N00932947EA0000000784
B1454495556950N00933224EA0000000810
B1455065556800N00933534EA0000000826
B1455185556898N00933613EA0000000834
B1455245556857N00933533EA0000000837
B1455325556791N00933422EA0000000855
B1455405556729N00933308EA0000000862
B1455505556662N00933158EA0000000867
B1455565556634N00933061EA0000000853
B1456015556618N00932973EA0000000838
B1456075556603N00932871EA0000000835
B1456125556597N00932783EA0000000842
B1456175556588N00932697EA0000000847
B1456245556580N00932586EA0000000842
B1456335556574N00932458EA0000000826
B1456425556566N00932332EA0000000805
B1456475556570N00932265EA0000000794
B1456525556572N00932195EA0000000789
B1456575556577N00932131EA0000000795
B1457045556593N00932036EA0000000795
B1457095556612N00931977EA0000000798
B1457145556622N00931908EA0000000786
B1457225556637N00931783EA0000000774
B1457325556646N00931624EA0000000790
B1457385556657N00931529EA0000000790
B1457445556664N00931436EA0000000780
B1457515556664N00931326EA0000000777
B1457565556673N00931255EA0000000771
B1458035556680N00931155EA0000000762
B1458115556682N00931027EA0000000750
B1458165556688N00930953EA0000000756
B1458215556683N00930879EA0000000754
B1458265556679N00930798EA0000000753
B1458315556671N00930724EA0000000753
B1458365556659N00930646EA0000000749
B1458425556649N00930560EA0000000742
B1458495556623N00930460EA0000000730
B1458545556597N00930387EA0000000717
B1459065556543N00930195EA0000000704
B1459115556527N00930103EA0000000707
B1459195556507N00929982EA0000000702
B1459245556485N00929908EA0000000689
B1459325556457N00929789EA0000000685
B1459405556427N00929681EA0000000680
B1459475556395N00929590EA0000000671
B1459535556373N00929511EA0000000662
B1459595556348N00929429EA0000000650
B1500065556323N00929334EA0000000639
B1500145556296N00929215EA0000000627
B1500215556276N00929116EA0000000621
B1500275556253N00929030EA0000000609
B1500345556221N00928926EA0000000608
B1500395556201N00928861EA0000000602
B1500445556179N00928794EA0000000591
B1500515556153N00928704EA0000000576
B1500585556137N00928621EA0000000560
B1501085556115N00928488EA0000000522
B1501145556102N00928385EA0000000500
B1501225556096N00928251EA0000000500
B1501275556067N00928182EA0000000500
B1501325556041N00928108EA0000000482
B1501385556026N00927999EA0000000466
B1501435556020N00927911EA0000000459
B1501495556006N00927803EA0000000447
B1501545555984N00927702EA0000000430
B1502025555949N00927529EA0000000415
B1502105555910N00927359EA0000000405
B1502175555884N00927222EA0000000412
B1502235555870N00927124EA0000000410
B1502295555863N00927022EA0000000411
B1502365555881N00926940EA0000000423
B1502435555919N00927122EA0000000404
B1502485555848N00927208EA0000000401
B1502545555769N00927177EA0000000396
B1502595555711N00927137EA0000000389
B1503045555659N00927094EA0000000388
B1503145555571N00926995EA0000000376
B1503225555494N00926917EA0000000369
B1503285555432N00926862EA0000000361
B1503345555375N00926797EA0000000353
B1503395555340N00926733EA0000000346
B1503445555340N00926666EA0000000339
B1504345554789N00927953EA0000000284
B1504455554607N00928205EA0000000286
B1504525554472N00928304EA0000000278
B1504575554376N00928355EA0000000275
B1505025554322N00928320EA0000000274
B1511505554408N00927334EA0000000093
B1518225554462N00926826EA0000000551
B1518285554489N00926689EA0000000562
B1518345554516N00926547EA0000000591
B1518425554546N00926431EA0000000604
B1518475554563N00926377EA0000000607
B1518525554578N00926334EA0000000612
B1518585554599N00926285EA0000000597
B1519045554626N00926227EA0000000596
B1519095554647N00926186EA0000000596
B1519155554677N00926148EA0000000586
B1519225554706N00926090EA0000000578
B1519325554737N00925993EA0000000564
B1519405554754N00925914EA0000000549
B1519465554791N00925888EA0000000538
B1519525554852N00925980EA0000000525
B1519575554897N00926086EA0000000520
B1520055554966N00926261EA0000000507
B1520105555009N00926372EA0000000494
B1520185555080N00926543EA0000000485
B1520245555132N00926661EA0000000478
B1520365555255N00926842EA0000000461
B1520515555409N00926963EA0000000475
B1521065555288N00927079EA0000000479
B1521195555392N00927124EA0000000517
B1521395555363N00927409EA0000000548
B1521455555326N00927340EA0000000552
B1521565555197N00927555EA0000000567
B1522045555270N00927651EA0000000583
B1522115555217N00927577EA0000000605
B1522165555144N00927614EA0000000604
B1522265555036N00927872EA0000000600
B1522345555103N00927932EA0000000613
B1522395555121N00927865EA0000000626
B1522445555134N00927801EA0000000622
B1522495555146N00927727EA0000000622
B1522555555154N00927641EA0000000633
B1523015555166N00927565EA0000000620
B1523165555174N00927318EA0000000529
B1523225555186N00927180EA0000000515
B1523275555204N00927082EA0000000515
B1523345555243N00926966EA0000000505
B1523405555277N00926887EA0000000510
B1523475555316N00926822EA0000000503
B1523585555391N00926747EA0000000481
B1524125555455N00926585EA0000000414
B1524185555473N00926503EA0000000416
B1524245555491N00926435EA0000000402
B1524325555530N00926331EA0000000376
B1524385555536N00926256EA0000000369
B1524445555466N00926213EA0000000346
B1534595554404N00927352EA0000000094
B1542595554490N00926904EA0000000627
B1543045554507N00926815EA0000000672
B1543115554525N00926680EA0000000709
B1543175554537N00926554EA0000000711
B1543225554554N00926460EA0000000734
B1543285554569N00926414EA0000000749
B1543355554604N00926395EA0000000736
B1543405554642N00926390EA0000000707
B1543475554731N00926324EA0000000637
B1544045554690N00926906EA0000000639
B1544095554714N00927064EA0000000634
B1544185554807N00927071EA0000000535
B1544295554866N00926903EA0000000636
B1544345554868N00926851EA0000000582
B1544395554887N00926714EA0000000551
B1544445554941N00926607EA0000000553
B1544545554927N00927046EA0000000591
B1544595554941N00927221EA0000000602
B1545065554998N00927279EA0000000610
B1545115554981N00927237EA0000000608
B1545175554904N00927243EA0000000612
B1545225554832N00927330EA0000000615
B1545295554787N00927542EA0000000604
B1545405554858N00927724EA0000000610
B1545465554892N00927772EA0000000578
B1545515554946N00927735EA0000000497
B1545565554958N00927598EA0000000506
B1546015554935N00927496EA0000000493
B1546075554920N00927328EA0000000466
B1546155554943N00927252EA0000000519
B1546215554955N00927234EA0000000492
B1546265554967N00927209EA0000000493
B1546335554979N00927185EA0000000468
B1546385554987N00927141EA0000000464
B1546435555011N00927108EA0000000458
B1546515555058N00927065EA0000000446
B1546595555049N00926978EA0000000437
B1547045555030N00926926EA0000000428
B1547095554997N00926876EA0000000412
B1547145554946N00926834EA0000000406
B1547225554838N00926830EA0000000410
B1547375554650N00927078EA0000000426
B1547465554706N00927181EA0000000435
B1547515554674N00927139EA0000000440
B1548025554583N00927383EA0000000448
B1548075554625N00927473EA0000000459
B1548125554644N00927449EA0000000463
B1548255554515N00927615EA0000000469
B1548325554560N00927783EA0000000483
B1548405554621N00927809EA0000000485
B1548455554636N00927755EA0000000489
B1548545554694N00927716EA0000000491
B1549005554722N00927688EA0000000501
B1549055554743N00927660EA0000000502
B1549105554769N00927632EA0000000508
B1549165554795N00927602EA0000000512
B1549225554813N00927580EA0000000519
B1549275554823N00927550EA0000000502
B1549335554840N00927500EA0000000490
B1549385554887N00927524EA0000000476
B1549445554899N00927709EA0000000484
B1549495554840N00927819EA0000000485
B1549545554788N00927807EA0000000479
B1549595554793N00927763EA0000000455
B1550115554836N00927679EA0000000458
B1550205554880N00927591EA0000000476
B1550265554902N00927558EA0000000413
B1550325554936N00927435EA0000000430
B1550405554974N00927315EA0000000456
B1550465554998N00927246EA0000000473
B1550515555038N00927255EA0000000479
B1550565555049N00927401EA0000000481
B1551015554984N00927452EA0000000471
B1551065555005N00927418EA0000000465
B1551125555011N00927591EA0000000467
B1551175554938N00927605EA0000000463
B1551225554933N00927537EA0000000467
B1551295554976N00927501EA0000000490
B1551435555033N00927434EA0000000476
B1551485555052N00927404EA0000000469
B1551535555067N00927353EA0000000426
B1552025555062N00927206EA0000000435
B1552075555069N00927150EA0000000436
B1552145555127N00927113EA0000000438
B1552205555116N00927030EA0000000432
B1552265555164N00926986EA0000000423
B1552415555225N00926801EA0000000377
B1552575555273N00926544EA0000000356
B1553385555033N00927989EA0000000313
B1553525554797N00928330EA0000000311
B1553575554701N00928414EA0000000308
B1554035554596N00928412EA0000000300
B1554085554522N00928371EA0000000281
B1554185554394N00928257EA0000000230
