AOGNOGN
HFDTE180625
HFFXA050
HFPLTPILOTINCHARGE:
HFGTYGLIDERTYPE:ASK-23
HFGIDGLIDERID:OY-NVX
HFDTM100GPSDATUM:WGS-1984
HFRFWFIRMWAREVERSION:
HFRHWHARDWAREVERSION:
HFFTYFRTYPE:OGN-FLIGHTBOOK
HFGPSGENERIC
HFPRSPRESSALTSENSOR:
HFCIDCOMPETITIONID:NV
B1356545554430N00927251EA0000000100
B1356555554432N00927231EA0000000110
B1357005554438N00927138EA0000000198
B1357065554445N00927035EA0000000318
B1357195554484N00926774EA0000000486
B1357435554580N00926256EA0000000525
B1357485554592N00926168EA0000000520
B1357545554546N00926059EA0000000509
B1358015554468N00925916EA0000000490
B1358075554420N00925790EA0000000520
B1358135554473N00925760EA0000000521
B1358195554505N00925934EA0000000508
B1358245554443N00926061EA0000000490
B1358295554354N00926082EA0000000488
B1358355554258N00926066EA0000000508
B1358405554243N00925975EA0000000524
B1358455554297N00925980EA0000000532
B1358505554301N00926132EA0000000536
B1358575554187N00926231EA0000000540
B1359025554102N00926206EA0000000544
B1359075554104N00926119EA0000000539
B1359135554168N00926205EA0000000541
B1359185554133N00926364EA0000000558
B1359235554049N00926379EA0000000564
B1359285554043N00926296EA0000000555
B1359345554104N00926395EA0000000560
B1359395554051N00926545EA0000000581
B1359445553974N00926530EA0000000581
B1359495553988N00926450EA0000000577
B1359555554051N00926547EA0000000585
B1400005554018N00926710EA0000000605
B1400055553942N00926729EA0000000611
B1400105553946N00926656EA0000000601
B1400155554003N00926733EA0000000610
B1400225553978N00926967EA0000000623
B1400285553889N00926960EA0000000636
B1400385553956N00926992EA0000000663
B1400435553925N00927143EA0000000672
B1400485553861N00927136EA0000000679
B1400535553892N00927089EA0000000690
B1401015553902N00927294EA0000000700
B1401075553819N00927298EA0000000713
B1401125553847N00927248EA0000000724
B1401225553835N00927472EA0000000745
B1401275553787N00927437EA0000000756
B1401355553850N00927490EA0000000771
B1401405553795N00927613EA0000000773
B1401455553756N00927566EA0000000785
B1401515553795N00927495EA0000000792
B1401575553855N00927434EA0000000794
B1402065553927N00927372EA0000000813
B1402145553992N00927298EA0000000806
B1402205554034N00927221EA0000000796
B1402255554074N00927157EA0000000789
B1402315554121N00927113EA0000000816
B1402365554154N00927093EA0000000809
B1402435554211N00927051EA0000000787
B1402485554255N00927007EA0000000782
B1402545554306N00926954EA0000000778
B1402595554349N00926904EA0000000778
B1403045554363N00926822EA0000000779
B1403095554336N00926732EA0000000774
B1403145554312N00926638EA0000000777
B1403245554281N00926447EA0000000784
B1403335554294N00926282EA0000000799
B1403405554314N00926171EA0000000799
B1403495554347N00926035EA0000000805
B1403555554372N00925950EA0000000812
B1404015554403N00925860EA0000000821
B1404065554431N00925777EA0000000829
B1404155554477N00925648EA0000000846
B1404215554519N00925572EA0000000851
B1404335554604N00925421EA0000000853
B1404425554655N00925310EA0000000848
B1404595554732N00925059EA0000000824
B1405335554852N00924634EA0000000884
B1405385554888N00924575EA0000000878
B1405495554979N00924438EA0000000874
B1405585555062N00924352EA0000000877
B1406035555122N00924370EA0000000880
B1406085555181N00924485EA0000000873
B1406135555243N00924602EA0000000868
B1406185555312N00924687EA0000000857
B1406245555388N00924783EA0000000861
B1406295555455N00924864EA0000000842
B1406415555623N00925074EA0000000825
B1406485555714N00925208EA0000000815
B1406565555820N00925381EA0000000790
B1407015555891N00925500EA0000000775
B1407085555993N00925687EA0000000757
B1407135556062N00925828EA0000000756
B1407185556115N00925986EA0000000755
B1407235556133N00926178EA0000000758
B1407315556105N00926499EA0000000753
B1407365556081N00926700EA0000000758
B1407415556048N00926887EA0000000776
B1407465555969N00926955EA0000000786
B1407515555946N00926881EA0000000788
B1407565555997N00926947EA0000000794
B1408035555918N00927109EA0000000808
B1408085555884N00927043EA0000000817
B1408135555933N00927076EA0000000819
B1408185555925N00927246EA0000000830
B1408235555847N00927292EA0000000845
B1408285555840N00927235EA0000000855
B1408335555888N00927299EA0000000857
B1408385555870N00927459EA0000000865
B1408435555793N00927484EA0000000864
B1408485555788N00927400EA0000000866
B1408535555807N00927319EA0000000865
B1409035555878N00927175EA0000000842
B1409095555924N00927086EA0000000852
B1409175555975N00926989EA0000000850
B1409225555974N00926911EA0000000841
B1409325556003N00926750EA0000000821
B1409445556042N00926529EA0000000810
B1409515556003N00926415EA0000000811
B1409575555911N00926400EA0000000803
B1410025555837N00926506EA0000000801
B1410085555804N00926729EA0000000787
B1410175555771N00927078EA0000000782
B1410225555734N00927264EA0000000772
B1410285555628N00927379EA0000000746
B1410335555520N00927440EA0000000719
B1410405555366N00927518EA0000000708
B1410465555236N00927581EA0000000697
B1410515555129N00927638EA0000000692
B1410585554981N00927714EA0000000677
B1411065554860N00927633EA0000000656
B1411115554804N00927550EA0000000648
B1411175554745N00927442EA0000000632
B1411245554682N00927321EA0000000634
B1411325554597N00927207EA0000000615
B1411385554534N00927121EA0000000610
B1411445554479N00927053EA0000000591
B1411495554430N00926985EA0000000580
B1411545554378N00926914EA0000000584
B1411595554369N00926839EA0000000597
B1412075554416N00926996EA0000000599
B1412125554349N00927087EA0000000602
B1412175554301N00927042EA0000000598
B1412225554341N00927042EA0000000594
B1412275554345N00927195EA0000000592
B1412325554277N00927253EA0000000587
B1412375554269N00927197EA0000000582
B1412455554281N00927119EA0000000558
B1412505554205N00927152EA0000000549
B1412565554111N00927237EA0000000544
B1413025554075N00927167EA0000000537
B1413075554102N00927102EA0000000529
B1413185553979N00927128EA0000000558
B1413235553975N00927302EA0000000554
B1413285554031N00927340EA0000000547
B1413345554033N00927240EA0000000542
B1413425553916N00927294EA0000000542
B1413475553916N00927464EA0000000542
B1413525553977N00927507EA0000000545
B1413575553978N00927435EA0000000543
B1414055553863N00927558EA0000000546
B1414105553886N00927711EA0000000554
B1414155553934N00927708EA0000000555
B1414205553891N00927653EA0000000556
B1414255553824N00927768EA0000000561
B1414315553861N00927909EA0000000563
B1414365553888N00927865EA0000000558
B1414415553822N00927837EA0000000552
B1414465553765N00927985EA0000000551
B1414515553807N00928110EA0000000551
B1415015553954N00928207EA0000000519
B1415095554085N00928253EA0000000487
B1415145554174N00928268EA0000000473
B1415195554256N00928273EA0000000479
B1415245554330N00928282EA0000000477
B1415295554404N00928276EA0000000458
B1415345554479N00928258EA0000000441
B1415395554555N00928229EA0000000431
B1415445554628N00928185EA0000000428
B1415495554692N00928110EA0000000418
B1415545554736N00928002EA0000000404
B1415595554779N00927892EA0000000393
B1416055554828N00927774EA0000000419
B1416115554867N00927695EA0000000427
B1416175554907N00927613EA0000000427
B1416235554956N00927522EA0000000406
B1416285554987N00927424EA0000000392
B1416335555018N00927323EA0000000384
B1416395555053N00927209EA0000000376
B1416455555079N00927102EA0000000369
B1416505555096N00927014EA0000000362
B1416555555110N00926915EA0000000355
B1417005555125N00926817EA0000000356
B1417055555179N00926808EA0000000350
B1417105555199N00926964EA0000000341
B1417155555136N00927091EA0000000324
B1417205555044N00927122EA0000000313
B1417255554973N00927260EA0000000323
B1417315554942N00927481EA0000000324
B1417375554906N00927706EA0000000308
B1417435554862N00927957EA0000000283
B1417485554818N00928171EA0000000270
B1417535554728N00928274EA0000000267
B1417585554646N00928231EA0000000243
B1418035554570N00928162EA0000000237
B1418115554460N00928048EA0000000216
B1418175554389N00927954EA0000000206
B1418225554389N00927847EA0000000189
B1418295554408N00927683EA0000000160
B1418345554419N00927560EA0000000141
B1418405554433N00927444EA0000000107
B1418455554444N00927354EA0000000093
