AOGNOGN
HFDTE180625
HFFXA050
HFPLTPILOTINCHARGE:
HFGTYGLIDERTYPE:ASK-13
HFGIDGLIDERID:D-1355
HFDTM100GPSDATUM:WGS-1984
HFRFWFIRMWAREVERSION:
HFRHWHARDWAREVERSION:
HFFTYFRTYPE:OGN-FLIGHTBOOK
HFGPSGENERIC
HFPRSPRESSALTSENSOR:
HFCIDCOMPETITIONID:D-1
B1046455554433N00927072EA0000000341
B1046475554437N00927046EA0000000370
B1046535554451N00926955EA0000000446
B1047025554484N00926800EA0000000540
B1047105554507N00926647EA0000000535
B1047165554516N00926535EA0000000536
B1047225554535N00926453EA0000000533
B1047365554593N00926255EA0000000518
B1047475554632N00926136EA0000000515
B1048015554673N00925994EA0000000496
B1048425554704N00925503EA0000000466
B1048595554705N00925305EA0000000442
B1049065554646N00925196EA0000000440
B1049225554563N00925039EA0000000447
B1049325554628N00925257EA0000000423
B1049415554518N00925522EA0000000403
B1049465554431N00925601EA0000000394
B1049515554340N00925636EA0000000380
B1050035554210N00925543EA0000000382
B1050085554226N00925497EA0000000375
B1050145554289N00925571EA0000000362
B1050215554284N00925807EA0000000338
B1050265554214N00925949EA0000000322
B1050325554119N00926112EA0000000308
B1050375554054N00926290EA0000000294
B1050455553970N00926602EA0000000280
B1050535553903N00926933EA0000000266
B1050585553887N00927152EA0000000259
B1051035553912N00927355EA0000000247
B1051095553988N00927543EA0000000229
B1051185554133N00927751EA0000000217
B1051245554231N00927866EA0000000212
B1051295554311N00927919EA0000000208
B1051345554379N00927886EA0000000199
B1051425554399N00927694EA0000000169
B1051495554420N00927543EA0000000138
B1051565554435N00927391EA0000000106
B1052015554449N00927292EA0000000096
