AOGNOGN
HFDTE180625
HFFXA050
HFPLTPILOTINCHARGE:
HFGTYGLIDERTYPE:ASK-13
HFGIDGLIDERID:D-1355
HFDTM100GPSDATUM:WGS-1984
HFRFWFIRMWAREVERSION:
HFRHWHARDWAREVERSION:
HFFTYFRTYPE:OGN-FLIGHTBOOK
HFGPSGENERIC
HFPRSPRESSALTSENSOR:
HFCIDCOMPETITIONID:D-1
B0833165554420N00927262EA0000000093
B0833175554424N00927243EA0000000100
B0833225554436N00927156EA0000000169
B0833275554441N00927072EA0000000250
B0833325554451N00926979EA0000000329
B0833375554463N00926876EA0000000389
B0834035554509N00926433EA0000000520
B0834085554543N00926420EA0000000518
B0834135554588N00926465EA0000000512
B0834185554636N00926504EA0000000495
B0834235554687N00926528EA0000000479
B0834325554788N00926543EA0000000460
B0834475554944N00926520EA0000000436
B0834545555020N00926513EA0000000425
B0834595555073N00926551EA0000000422
B0835045555126N00926602EA0000000424
B0835105555187N00926648EA0000000432
B0835155555210N00926606EA0000000430
B0835205555159N00926571EA0000000425
B0835255555112N00926677EA0000000440
B0835315555148N00926783EA0000000443
B0835365555158N00926735EA0000000445
B0835425555092N00926752EA0000000448
B0835475555064N00926886EA0000000455
B0835525555103N00926973EA0000000461
B0835575555116N00926927EA0000000460
B0836025555060N00926930EA0000000466
B0836075555043N00927065EA0000000469
B0836135555092N00927098EA0000000472
B0836185555079N00927037EA0000000473
B0836235555013N00927063EA0000000478
B0836285554998N00927198EA0000000485
B0836335555044N00927256EA0000000481
B0836385555053N00927193EA0000000486
B0836435554992N00927181EA0000000492
B0836485554947N00927298EA0000000499
B0836535554975N00927416EA0000000494
B0836585555010N00927392EA0000000493
B0837035554972N00927337EA0000000497
B0837105554904N00927458EA0000000501
B0837155554940N00927558EA0000000489
B0837205554961N00927504EA0000000491
B0837255554941N00927440EA0000000500
B0837305554886N00927427EA0000000501
B0837355554837N00927534EA0000000494
B0837405554868N00927649EA0000000484
B0837465554940N00927686EA0000000485
B0837545555030N00927765EA0000000500
B0837595555080N00927801EA0000000498
B0838045555085N00927740EA0000000497
B0838095555018N00927742EA0000000492
B0838145554945N00927824EA0000000498
B0838195554936N00927966EA0000000503
B0838245554985N00927998EA0000000508
B0838315554949N00927920EA0000000498
B0838395554884N00928096EA0000000511
B0838455554934N00928204EA0000000514
B0838555554915N00928124EA0000000508
B0839035554858N00928305EA0000000512
B0839085554892N00928413EA0000000510
B0839135554934N00928387EA0000000511
B0839185554906N00928326EA0000000506
B0839235554841N00928387EA0000000511
B0839305554816N00928575EA0000000516
B0839355554862N00928633EA0000000507
B0839405554849N00928572EA0000000510
B0839455554780N00928599EA0000000519
B0839505554758N00928737EA0000000527
B0839555554804N00928798EA0000000521
B0840025554782N00928734EA0000000529
B0840095554723N00928880EA0000000535
B0840155554774N00928982EA0000000537
B0840235554773N00928908EA0000000536
B0840315554710N00929062EA0000000545
B0840375554764N00929114EA0000000543
B0840435554729N00929064EA0000000550
B0840505554668N00929205EA0000000554
B0840555554708N00929300EA0000000558
B0841035554723N00929246EA0000000556
B0841085554662N00929246EA0000000565
B0841135554616N00929358EA0000000564
B0841185554649N00929466EA0000000560
B0841255554648N00929398EA0000000561
B0841315554563N00929435EA0000000570
B0841365554538N00929568EA0000000565
B0841425554592N00929618EA0000000551
B0841475554620N00929550EA0000000550
B0841535554645N00929476EA0000000560
B0841585554689N00929480EA0000000558
B0842035554739N00929549EA0000000558
B0842085554783N00929568EA0000000564
B0842145554759N00929499EA0000000577
B0842205554694N00929606EA0000000577
B0842255554730N00929701EA0000000585
B0842305554741N00929648EA0000000591
B0842385554659N00929750EA0000000602
B0842435554697N00929835EA0000000601
B0842495554700N00929763EA0000000612
B0842575554618N00929890EA0000000617
B0843025554650N00929993EA0000000621
B0843115554648N00929910EA0000000633
B0843185554573N00930035EA0000000635
B0843235554600N00930153EA0000000636
B0843455554632N00929873EA0000000653
B0843565554667N00929732EA0000000648
B0844065554707N00929591EA0000000659
B0844135554729N00929516EA0000000683
B0844185554700N00929459EA0000000679
B0844265554630N00929616EA0000000680
B0844325554689N00929706EA0000000688
B0844395554709N00929634EA0000000703
B0844465554631N00929717EA0000000703
B0844515554658N00929839EA0000000719
B0845015554671N00929768EA0000000729
B0845085554601N00929891EA0000000731
B0845135554639N00929998EA0000000744
B0845245554607N00929918EA0000000754
B0845295554568N00930042EA0000000751
B0845345554614N00930118EA0000000756
B0845415554658N00930033EA0000000769
B0845535554632N00929895EA0000000792
B0845585554576N00929993EA0000000788
B0846075554624N00930043EA0000000796
B0846155554538N00930119EA0000000800
B0846205554567N00930226EA0000000802
B0846315554535N00930121EA0000000809
B0846375554481N00930261EA0000000800
B0846445554536N00930348EA0000000799
B0846535554567N00930224EA0000000801
B0846595554588N00930144EA0000000788
B0847075554626N00930036EA0000000767
B0847125554652N00929964EA0000000771
B0847195554687N00929878EA0000000770
B0847265554719N00929795EA0000000769
B0847315554744N00929743EA0000000775
B0847395554792N00929680EA0000000768
B0847455554828N00929618EA0000000765
B0847505554862N00929572EA0000000766
B0847575554912N00929519EA0000000769
B0848035554952N00929474EA0000000771
B0848085554980N00929447EA0000000779
B0848145555012N00929412EA0000000764
B0848235555061N00929339EA0000000755
B0848285555087N00929305EA0000000749
B0848345555125N00929264EA0000000737
B0848405555171N00929238EA0000000734
B0848465555217N00929213EA0000000729
B0848535555272N00929179EA0000000718
B0848585555311N00929153EA0000000711
B0849035555354N00929129EA0000000705
B0849105555409N00929085EA0000000698
B0849175555469N00929058EA0000000699
B0849225555524N00929081EA0000000702
B0849305555592N00929202EA0000000712
B0849365555531N00929323EA0000000718
B0849415555506N00929260EA0000000729
B0849485555565N00929295EA0000000732
B0849535555527N00929429EA0000000728
B0850025555441N00929385EA0000000752
B0850135555511N00929534EA0000000757
B0850185555448N00929638EA0000000758
B0850255555389N00929579EA0000000771
B0850325555424N00929530EA0000000781
B0850425555445N00929761EA0000000790
B0850505555365N00929719EA0000000783
B0851045555461N00929834EA0000000790
B0851095555405N00929965EA0000000807
B0851155555340N00929932EA0000000805
B0851205555381N00929885EA0000000803
B0851265555447N00929890EA0000000834
B0851335555453N00929818EA0000000827
B0851425555370N00929993EA0000000818
B0851475555425N00930097EA0000000824
B0851525555480N00930138EA0000000839
B0851595555450N00930064EA0000000832
B0852045555400N00930167EA0000000831
B0852095555443N00930265EA0000000838
B0852155555491N00930217EA0000000838
B0852205555441N00930169EA0000000841
B0852265555384N00930307EA0000000839
B0852315555424N00930408EA0000000848
B0852385555446N00930327EA0000000841
B0852435555374N00930360EA0000000843
B0852485555335N00930491EA0000000850
B0852545555379N00930577EA0000000849
B0853055555355N00930472EA0000000854
B0853105555306N00930589EA0000000846
B0853155555342N00930693EA0000000839
B0853205555379N00930640EA0000000836
B0853295555422N00930513EA0000000829
B0853365555468N00930446EA0000000843
B0853415555498N00930409EA0000000854
B0853515555572N00930545EA0000000847
B0853565555511N00930665EA0000000847
B0854015555432N00930658EA0000000865
B0854095555415N00930566EA0000000867
B0854195555485N00930765EA0000000864
B0854245555424N00930875EA0000000868
B0854335555369N00930766EA0000000868
B0854385555420N00930765EA0000000862
B0854485555528N00930879EA0000000886
B0855015555491N00930794EA0000000891
B0855075555434N00930938EA0000000881
B0855125555471N00931060EA0000000889
B0855225555465N00930976EA0000000906
B0855315555413N00931197EA0000000903
B0855375555476N00931275EA0000000912
B0855445555491N00931201EA0000000917
B0855505555414N00931243EA0000000914
B0855555555415N00931405EA0000000910
B0856015555481N00931425EA0000000927
B0856075555494N00931355EA0000000937
B0856145555418N00931453EA0000000916
B0856195555459N00931567EA0000000926
B0856315555477N00931433EA0000000931
B0856395555411N00931617EA0000000932
B0856445555461N00931696EA0000000912
B0856495555510N00931654EA0000000917
B0856555555555N00931590EA0000000925
B0857025555601N00931512EA0000000932
B0857075555633N00931468EA0000000936
B0857125555665N00931431EA0000000935
B0857195555712N00931379EA0000000922
B0857275555772N00931321EA0000000900
B0857415555788N00931071EA0000000867
B0857465555814N00931006EA0000000894
B0857525555876N00931006EA0000000904
B0857575555912N00931119EA0000000902
B0858025555866N00931243EA0000000890
B0858115555796N00931162EA0000000902
B0858245555899N00931265EA0000000928
B0858295555847N00931371EA0000000927
B0858435555891N00931409EA0000000948
B0858485555855N00931532EA0000000945
B0858575555788N00931454EA0000000951
B0859025555822N00931405EA0000000965
B0859105555887N00931555EA0000000962
B0859155555833N00931666EA0000000966
B0859215555795N00931597EA0000000966
B0859285555877N00931574EA0000000974
B0859345555923N00931730EA0000000978
B0859395555879N00931863EA0000000980
B0859475555804N00931813EA0000000980
B0859525555849N00931769EA0000000983
B0900055555907N00932123EA0000000992
B0900105555846N00932192EA0000000996
B0900165555809N00932122EA0000000993
B0900275555906N00932223EA0000000998
B0900325555876N00932366EA0000000999
B0900445555805N00932288EA0000000996
B0900515555823N00932188EA0000000988
B0900565555842N00932112EA0000000982
B0901105555846N00931918EA0000000986
B0901415555846N00931468EA0000000977
B0901465555859N00931396EA0000000978
B0901535555894N00931298EA0000000977
B0901585555919N00931228EA0000000983
B0902035555943N00931166EA0000000995
B0902155556029N00931275EA0000001002
B0902215555959N00931384EA0000000996
B0902275555936N00931288EA0000001001
B0902375556013N00931458EA0000001009
B0902425555956N00931579EA0000001013
B0902495555892N00931515EA0000001012
B0902555555953N00931510EA0000001019
B0903025555972N00931719EA0000001024
B0903075555912N00931821EA0000001023
B0903145555854N00931746EA0000001021
B0903195555867N00931669EA0000001033
B0903255555915N00931623EA0000001048
B0903335555966N00931802EA0000001037
B0903385555900N00931902EA0000001039
B0903475555859N00931791EA0000001060
B0903525555889N00931771EA0000001064
B0903575555933N00931881EA0000001052
B0904025555887N00932025EA0000001054
B0904095555829N00931982EA0000001052
B0904145555880N00931967EA0000001056
B0904205555949N00931997EA0000001061
B0904265556009N00932012EA0000001054
B0905055555951N00931464EA0000001013
B0905115555956N00931374EA0000000997
B0905165555958N00931288EA0000000985
B0905275555967N00931094EA0000000969
B0905355555978N00930960EA0000000948
B0905415555988N00930854EA0000000927
B0905485555999N00930726EA0000000912
B0905545556013N00930623EA0000000907
B0906015556032N00930508EA0000000889
B0906065556047N00930430EA0000000880
B0906245555980N00930160EA0000000827
B0906295556003N00930075EA0000000813
B0906345556028N00930003EA0000000808
B0906395556051N00929931EA0000000793
B0906455556077N00929835EA0000000782
B0906515556095N00929758EA0000000782
B0906565556110N00929698EA0000000773
B0907045556130N00929601EA0000000765
B0907095556139N00929545EA0000000762
B0907155556151N00929472EA0000000751
B0907205556169N00929420EA0000000751
B0907285556198N00929339EA0000000724
B0907345556230N00929259EA0000000714
B0907395556258N00929192EA0000000711
B0907455556294N00929114EA0000000697
B0907525556326N00929014EA0000000688
B0907585556364N00928960EA0000000683
B0908035556397N00928923EA0000000671
B0908105556449N00928861EA0000000654
B0908155556471N00928795EA0000000650
B0908225556466N00928690EA0000000640
B0908295556422N00928607EA0000000626
B0908345556364N00928570EA0000000604
B0908425556267N00928501EA0000000578
B0908475556210N00928445EA0000000558
B0908535556145N00928360EA0000000555
B0908595556086N00928268EA0000000558
B0909045556037N00928203EA0000000568
B0909095555979N00928157EA0000000578
B0909155555947N00928075EA0000000581
B0909215556003N00928093EA0000000576
B0909265556015N00928244EA0000000566
B0909315555941N00928342EA0000000569
B0909385555836N00928322EA0000000589
B0909435555823N00928260EA0000000581
B0909485555872N00928310EA0000000569
B0909535555866N00928457EA0000000574
B0909585555794N00928538EA0000000578
B0910055555725N00928461EA0000000581
B0910165555649N00928314EA0000000595
B0910215555589N00928326EA0000000608
B0910265555552N00928462EA0000000614
B0910315555584N00928586EA0000000619
B0910365555622N00928563EA0000000622
B0910425555561N00928527EA0000000631
B0910475555522N00928667EA0000000635
B0910525555563N00928772EA0000000645
B0910575555585N00928716EA0000000647
B0911035555509N00928725EA0000000661
B0911085555496N00928880EA0000000666
B0911145555548N00928935EA0000000678
B0911215555516N00928860EA0000000682
B0911275555452N00928988EA0000000692
B0911325555486N00929109EA0000000701
B0911425555472N00929036EA0000000709
B0911485555412N00929175EA0000000727
B0911535555445N00929294EA0000000732
B0911585555478N00929270EA0000000739
B0912035555436N00929228EA0000000738
B0912105555376N00929390EA0000000761
B0912155555416N00929480EA0000000766
B0912215555433N00929423EA0000000767
B0912265555369N00929422EA0000000781
B0912315555333N00929557EA0000000779
B0912375555385N00929662EA0000000796
B0912465555361N00929585EA0000000803
B0912545555291N00929750EA0000000816
B0912595555327N00929855EA0000000824
B0913075555335N00929778EA0000000833
B0913155555248N00929909EA0000000840
B0913205555280N00930031EA0000000847
B0913285555308N00929973EA0000000852
B0913335555239N00929989EA0000000864
B0913385555211N00930129EA0000000865
B0913435555257N00930211EA0000000870
B0913535555212N00930143EA0000000883
B0913585555171N00930278EA0000000884
B0914035555211N00930371EA0000000893
B0914115555195N00930302EA0000000894
B0914195555122N00930479EA0000000900
B0914245555165N00930562EA0000000911
B0914325555161N00930485EA0000000910
B0914405555076N00930638EA0000000910
B0914455555116N00930742EA0000000912
B0914505555160N00930714EA0000000926
B0914565555125N00930656EA0000000926
B0915035555057N00930811EA0000000925
B0915085555100N00930895EA0000000920
B0915145555156N00930862EA0000000923
B0915195555195N00930831EA0000000932
B0915245555229N00930791EA0000000946
B0915295555253N00930748EA0000000966
B0915345555213N00930708EA0000000975
B0915425555142N00930884EA0000000983
B0915475555191N00930965EA0000000984
B0915535555245N00930913EA0000001006
B0916015555186N00930875EA0000001013
B0916085555139N00931068EA0000001021
B0916135555179N00931175EA0000001033
B0916235555191N00931117EA0000001047
B0916295555126N00931252EA0000001049
B0916345555159N00931381EA0000001067
B0916425555194N00931325EA0000001085
B0916475555133N00931332EA0000001075
B0916545555078N00931528EA0000001091
B0916595555108N00931641EA0000001106
B0917045555156N00931645EA0000001109
B0917095555150N00931576EA0000001120
B0917145555093N00931570EA0000001117
B0917225555029N00931787EA0000001124
B0917275555067N00931914EA0000001144
B0917405555085N00931868EA0000001162
B0917485555009N00932051EA0000001173
B0917535555043N00932172EA0000001188
B0918065555059N00932107EA0000001204
B0918175554940N00932285EA0000001212
B0918235554987N00932412EA0000001221
B0918325555003N00932338EA0000001239
B0918375554941N00932352EA0000001239
B0918445554881N00932531EA0000001246
B0918495554922N00932640EA0000001251
B0918595554941N00932562EA0000001276
B0919045554878N00932572EA0000001267
B0919145554798N00932818EA0000001277
B0919195554845N00932912EA0000001284
B0919275554901N00932866EA0000001298
B0919335554934N00932807EA0000001285
B0919385554967N00932749EA0000001277
B0919435555001N00932691EA0000001273
B0919485555036N00932627EA0000001262
B0919565555094N00932516EA0000001264
B0920025555139N00932447EA0000001261
B0920145555231N00932317EA0000001248
B0920245555287N00932186EA0000001241
B0920305555320N00932108EA0000001239
B0920385555367N00932002EA0000001233
B0920445555397N00931914EA0000001237
B0920505555429N00931829EA0000001239
B0920585555477N00931722EA0000001236
B0921055555521N00931623EA0000001241
B0921155555578N00931465EA0000001235
B0921245555622N00931317EA0000001225
B0921295555647N00931247EA0000001219
B0921415555700N00931048EA0000001195
B0921465555721N00930965EA0000001191
B0921545555757N00930833EA0000001181
B0922005555786N00930734EA0000001174
B0922055555810N00930652EA0000001165
B0922145555844N00930498EA0000001151
B0922205555863N00930393EA0000001140
B0922255555883N00930313EA0000001132
B0922315555914N00930220EA0000001124
B0922425555976N00930063EA0000001108
B0922475556002N00929989EA0000001102
B0923215555928N00929469EA0000001060
B0923275555934N00929375EA0000001058
B0923335555955N00929292EA0000001064
B0923385555972N00929224EA0000001086
B0923455555994N00929145EA0000001109
B0923505556010N00929087EA0000001120
B0923565556031N00929026EA0000001130
B0924025556055N00928965EA0000001133
B0924075556079N00928909EA0000001140
B0924125556104N00928853EA0000001137
B0924185556114N00928768EA0000001117
B0924275556126N00928650EA0000001093
B0924335556149N00928581EA0000001084
B0924395556173N00928503EA0000001083
B0924455556196N00928424EA0000001079
B0924535556206N00928327EA0000001062
B0925005556208N00928232EA0000001039
B0925105556206N00928062EA0000001011
B0925185556194N00927922EA0000000990
B0925235556186N00927828EA0000000982
B0925295556177N00927718EA0000000972
B0925355556166N00927608EA0000000963
B0925415556151N00927504EA0000000961
B0925475556132N00927408EA0000000955
B0925545556111N00927303EA0000000959
B0926015556088N00927203EA0000000952
B0926065556096N00927125EA0000000962
B0926145556118N00927017EA0000000984
B0926205556179N00927051EA0000000994
B0926255556202N00927204EA0000000988
B0926305556153N00927352EA0000000985
B0926365556072N00927330EA0000001002
B0926415556074N00927254EA0000001010
B0926465556130N00927254EA0000001019
B0926515556172N00927373EA0000001015
B0926565556147N00927543EA0000001016
B0927015556074N00927589EA0000001016
B0927085556046N00927491EA0000001043
B0927145556106N00927531EA0000001036
B0927195556121N00927694EA0000001036
B0927245556057N00927810EA0000001033
B0927335556021N00927710EA0000001037
B0927385556073N00927795EA0000001039
B0927465555996N00928002EA0000001039
B0927535555906N00927933EA0000001047
B0927585555864N00927833EA0000001051
B0928035555836N00927734EA0000001075
B0928085555821N00927650EA0000001082
B0928135555806N00927569EA0000001081
B0928195555794N00927474EA0000001068
B0928265555783N00927364EA0000001062
B0928385555784N00927199EA0000001068
B0928455555788N00927100EA0000001069
B0928565555818N00926953EA0000001081
B0929045555879N00926881EA0000001095
B0929105555926N00926841EA0000001108
B0929165555975N00926796EA0000001102
B0929235556037N00926744EA0000001082
B0929305556102N00926679EA0000001075
B0929355556147N00926638EA0000001067
B0929415556200N00926587EA0000001061
B0929465556246N00926546EA0000001059
B0929575556349N00926469EA0000001044
B0930025556394N00926444EA0000001035
B0930155556518N00926405EA0000001034
B0930205556565N00926380EA0000001037
B0930295556642N00926329EA0000001042
B0930365556673N00926249EA0000001045
B0930465556704N00926113EA0000001048
B0930515556720N00926041EA0000001053
B0930575556739N00925952EA0000001049
B0931025556762N00925884EA0000001042
B0931105556802N00925765EA0000001027
B0931175556827N00925662EA0000001019
B0931255556849N00925542EA0000001006
B0931305556860N00925464EA0000001005
B0931375556880N00925354EA0000000994
B0931435556900N00925260EA0000000992
B0931515556923N00925134EA0000000984
B0931565556890N00925069EA0000000978
B0932035556814N00924989EA0000000971
B0932115556829N00924863EA0000000956
B0932175556893N00924829EA0000000939
B0932225556957N00924812EA0000000932
B0932275557012N00924786EA0000000929
B0932325557023N00924722EA0000000919
B0932375556965N00924679EA0000000904
B0932425556881N00924723EA0000000897
B0932505556774N00924919EA0000000885
B0932555556713N00925053EA0000000876
B0933015556639N00925214EA0000000864
B0933085556547N00925390EA0000000855
B0933155556447N00925551EA0000000848
B0933225556335N00925684EA0000000859
B0933295556232N00925780EA0000000871
B0933345556221N00925933EA0000000861
B0933395556268N00926056EA0000000858
B0933445556312N00926177EA0000000878
B0933495556320N00926328EA0000000891
B0933595556211N00926602EA0000000890
B0934045556145N00926723EA0000000890
B0934095556073N00926829EA0000000903
B0934155555985N00926950EA0000000905
B0934255555841N00927178EA0000000882
B0934315555767N00927335EA0000000868
B0934375555712N00927504EA0000000854
B0934425555672N00927643EA0000000844
B0934555555609N00928022EA0000000804
B0935005555662N00928117EA0000000770
B0935055555706N00928083EA0000000763
B0935115555716N00927985EA0000000742
B0935175555708N00927886EA0000000727
B0935225555697N00927803EA0000000713
B0935335555675N00927620EA0000000676
B0935415555670N00927488EA0000000656
B0935475555673N00927395EA0000000639
B0935535555675N00927311EA0000000629
B0936005555682N00927226EA0000000611
B0936095555693N00927117EA0000000598
B0936155555702N00927034EA0000000599
B0936215555709N00926941EA0000000598
B0936275555714N00926848EA0000000583
B0936325555710N00926781EA0000000578
B0936385555700N00926704EA0000000571
B0936465555701N00926583EA0000000553
B0936565555704N00926416EA0000000520
B0937025555703N00926310EA0000000504
B0937075555700N00926223EA0000000500
B0937125555657N00926166EA0000000495
B0937195555539N00926222EA0000000491
B0937365555325N00926615EA0000000473
B0937425555258N00926779EA0000000450
B0937485555184N00926975EA0000000430
B0937535555124N00927150EA0000000422
B0937585555070N00927332EA0000000414
B0938065554989N00927633EA0000000399
B0938135554924N00927873EA0000000396
B0938215554847N00928137EA0000000370
B0938295554739N00928363EA0000000371
B0938345554662N00928462EA0000000370
B0938415554561N00928451EA0000000360
B0938495554458N00928361EA0000000332
B0938555554375N00928272EA0000000323
B0939085554366N00927994EA0000000301
B0939175554389N00927819EA0000000248
B0939225554399N00927711EA0000000220
B0939275554412N00927612EA0000000186
B0939345554432N00927468EA0000000128
B0939415554449N00927319EA0000000092
B0939475554460N00927220EA0000000088
