AOGNOGN
HFDTE180625
HFFXA050
HFPLTPILOTINCHARGE:
HFGTYGLIDERTYPE:ASK-21
HFGIDGLIDERID:OY-XMF
HFDTM100GPSDATUM:WGS-1984
HFRFWFIRMWAREVERSION:
HFRHWHARDWAREVERSION:
HFFTYFRTYPE:OGN-FLIGHTBOOK
HFGPSGENERIC
HFPRSPRESSALTSENSOR:
HFCIDCOMPETITIONID:X1
B0945285650819N00927660EA0000000213
B0945295650821N00927646EA0000000231
B0945345650834N00927583EA0000000312
B0945405650859N00927511EA0000000387
B0945455650871N00927441EA0000000451
B0945505650881N00927367EA0000000499
B0945575650892N00927262EA0000000556
B0946035650904N00927191EA0000000564
B0946085650924N00927131EA0000000570
B0946145650995N00927182EA0000000588
B0946195651005N00927362EA0000000584
B0946245650935N00927480EA0000000582
B0946315650883N00927423EA0000000593
B0946365650942N00927408EA0000000604
B0946415651007N00927514EA0000000616
B0946485650996N00927768EA0000000613
B0946535650919N00927853EA0000000606
B0946585650876N00927811EA0000000619
B0947055650931N00927773EA0000000628
B0947105650991N00927904EA0000000629
B0947155650979N00928102EA0000000630
B0947225650875N00928198EA0000000618
B0947275650857N00928123EA0000000630
B0947325650912N00928115EA0000000646
B0947395650960N00928339EA0000000644
B0947445650901N00928474EA0000000642
B0947495650840N00928459EA0000000635
B0947565650886N00928418EA0000000654
B0948015650943N00928532EA0000000655
B0948065650954N00928718EA0000000651
B0948135650861N00928885EA0000000633
B0948185650809N00928849EA0000000637
B0948235650822N00928796EA0000000652
B0948315650866N00928748EA0000000659
B0948365650900N00928722EA0000000658
B0948475650971N00928650EA0000000626
B0948535651013N00928601EA0000000617
B0949045651100N00928501EA0000000598
B0949095651141N00928455EA0000000593
B0949155651185N00928401EA0000000580
B0949225651231N00928336EA0000000566
B0949285651272N00928282EA0000000553
B0949395651375N00928216EA0000000548
B0949465651437N00928182EA0000000548
B0949525651475N00928132EA0000000550
B0950005651521N00928050EA0000000548
B0950085651564N00927965EA0000000540
B0950145651594N00927901EA0000000533
B0950195651619N00927844EA0000000525
B0950245651645N00927784EA0000000517
B0950295651662N00927718EA0000000510
B0950345651628N00927662EA0000000508
B0950405651545N00927648EA0000000491
B0950465651464N00927641EA0000000486
B0950515651397N00927633EA0000000482
B0950565651330N00927621EA0000000479
B0951025651246N00927603EA0000000481
B0951075651175N00927583EA0000000489
B0951125651112N00927549EA0000000492
B0951195651142N00927458EA0000000487
B0951245651214N00927519EA0000000495
B0951305651241N00927730EA0000000511
B0951365651169N00927878EA0000000523
B0951415651125N00927840EA0000000534
B0951465651158N00927812EA0000000539
B0951535651214N00928002EA0000000546
B0951585651161N00928147EA0000000560
B0952035651102N00928127EA0000000562
B0952105651139N00928073EA0000000574
B0952155651188N00928167EA0000000581
B0952205651167N00928336EA0000000582
B0952275651071N00928369EA0000000585
B0952325651084N00928318EA0000000587
B0952375651136N00928407EA0000000585
B0952445651092N00928633EA0000000589
B0952495651039N00928602EA0000000585
B0952545651073N00928572EA0000000589
B0953015651058N00928792EA0000000591
B0953065650978N00928832EA0000000590
B0953115650945N00928780EA0000000577
B0953185651008N00928743EA0000000558
B0953235651043N00928692EA0000000554
B0953295651081N00928629EA0000000558
B0953355651108N00928571EA0000000536
B0953445651163N00928453EA0000000516
B0953525651213N00928351EA0000000502
B0953585651243N00928278EA0000000493
B0954035651262N00928210EA0000000492
B0954095651293N00928118EA0000000485
B0954165651331N00927998EA0000000488
B0954215651357N00927914EA0000000494
B0954265651376N00927838EA0000000511
B0954365651422N00927714EA0000000507
B0954435651463N00927612EA0000000502
B0954495651499N00927516EA0000000505
B0954555651534N00927423EA0000000512
B0955005651560N00927352EA0000000519
B0955055651588N00927291EA0000000522
B0955115651616N00927212EA0000000523
B0955215651662N00927078EA0000000543
B0955275651694N00926992EA0000000553
B0955345651669N00926899EA0000000579
B0955395651595N00926936EA0000000595
B0955445651541N00927081EA0000000612
B0955515651569N00927306EA0000000623
B0955565651630N00927366EA0000000632
B0956015651666N00927331EA0000000647
B0956085651601N00927289EA0000000666
B0956135651527N00927397EA0000000668
B0956185651508N00927583EA0000000683
B0956255651581N00927730EA0000000706
B0956315651613N00927683EA0000000724
B0956365651552N00927682EA0000000735
B0956425651489N00927859EA0000000752
B0956475651524N00928008EA0000000772
B0956525651583N00928027EA0000000784
B0956595651555N00927947EA0000000807
B0957045651476N00928016EA0000000812
B0957105651441N00928241EA0000000819
B0957165651510N00928352EA0000000854
B0957215651528N00928313EA0000000859
B0957265651472N00928293EA0000000858
B0957325651383N00928432EA0000000858
B0957375651376N00928635EA0000000867
B0957425651434N00928745EA0000000891
B0957495651463N00928698EA0000000907
B0957545651400N00928697EA0000000909
B0957595651332N00928836EA0000000914
B0958065651369N00929049EA0000000935
B0958115651415N00929041EA0000000950
B0958255651419N00928899EA0000000975
B0958365651418N00928789EA0000000949
B0958435651416N00928691EA0000000963
B0958495651415N00928638EA0000000971
B0958575651415N00928551EA0000000949
B0959055651413N00928449EA0000000936
B0959115651407N00928364EA0000000915
B0959185651403N00928240EA0000000934
B0959245651400N00928135EA0000000935
B0959345651387N00927962EA0000000922
B0959395651380N00927884EA0000000918
B0959445651362N00927814EA0000000919
B0959515651327N00927724EA0000000918
B0959595651283N00927611EA0000000924
B1000055651254N00927527EA0000000919
B1000105651234N00927458EA0000000913
B1000155651212N00927390EA0000000904
B1000225651180N00927283EA0000000902
B1000305651138N00927141EA0000000890
B1000355651109N00927059EA0000000892
B1000435651064N00926935EA0000000886
B1000505651027N00926835EA0000000883
B1000585650985N00926726EA0000000877
B1001035650962N00926652EA0000000868
B1001085650940N00926571EA0000000862
B1001135650922N00926481EA0000000867
B1001185650912N00926388EA0000000878
B1001255650909N00926275EA0000000903
B1001305650916N00926210EA0000000899
B1001355650970N00926208EA0000000900
B1001405651026N00926346EA0000000898
B1001475650975N00926588EA0000000883
B1001535650894N00926571EA0000000875
B1002015650782N00926556EA0000000882
B1002065650700N00926599EA0000000901
B1002115650654N00926775EA0000000924
B1002165650685N00926945EA0000000925
B1002215650741N00926970EA0000000931
B1002265650734N00926918EA0000000946
B1002325650650N00926950EA0000000959
B1002395650597N00927187EA0000000971
B1002445650647N00927318EA0000000975
B1002495650679N00927293EA0000000978
B1002565650585N00927303EA0000000995
B1003015650524N00927462EA0000001001
B1003065650533N00927664EA0000001005
B1003125650599N00927746EA0000001009
B1003175650594N00927688EA0000001021
B1003235650512N00927713EA0000001037
B1003325650481N00928038EA0000001049
B1003375650538N00928117EA0000001048
B1003425650570N00928079EA0000001050
B1003485650598N00928022EA0000001070
B1003535650620N00927982EA0000001075
B1003595650641N00927927EA0000001072
B1004055650690N00927904EA0000001062
B1004125650756N00927916EA0000001063
B1004195650819N00927922EA0000001054
B1004265650885N00927911EA0000001042
B1004335650952N00927884EA0000001034
B1004385650973N00927840EA0000001035
B1004465650945N00927733EA0000001026
B1004545650918N00927617EA0000001013
B1005005650901N00927527EA0000001018
B1005065650893N00927448EA0000001029
B1005135650885N00927355EA0000001025
B1005185650879N00927284EA0000001026
B1005245650876N00927200EA0000001033
B1005315650881N00927109EA0000001039
B1005375650891N00927040EA0000001028
B1005455650910N00926938EA0000001000
B1005535650943N00926800EA0000000978
B1006035650989N00926644EA0000000981
B1006115651017N00926531EA0000001011
B1006185651031N00926444EA0000001022
B1006265651050N00926352EA0000001034
B1006355651075N00926254EA0000001024
B1006405651047N00926183EA0000001024
B1006455650964N00926228EA0000001024
B1006525650891N00926481EA0000001017
B1006575650901N00926699EA0000001005
B1007055650918N00927055EA0000001001
B1007115650890N00927335EA0000001008
B1007185650857N00927630EA0000001042
B1007235650835N00927828EA0000001046
B1007325650789N00928174EA0000001044
B1007395650746N00928441EA0000001034
B1007445650705N00928627EA0000001028
B1007495650625N00928728EA0000001018
B1007545650589N00928679EA0000001008
B1008035650631N00928573EA0000000995
B1008095650667N00928500EA0000000982
B1008175650728N00928397EA0000000978
B1008245650791N00928318EA0000000991
B1008295650857N00928367EA0000001008
B1008345650871N00928544EA0000001018
B1008395650807N00928671EA0000001019
B1008445650760N00928635EA0000001018
B1008515650824N00928697EA0000001026
B1008565650806N00928876EA0000001034
B1009015650735N00928963EA0000001038
B1009085650694N00928905EA0000001036
B1009135650752N00928925EA0000001046
B1009185650788N00929083EA0000001057
B1009255650705N00929259EA0000001060
B1009315650652N00929199EA0000001056
B1009365650613N00929121EA0000001064
B1009425650607N00929024EA0000001078
B1009485650627N00928953EA0000001093
B1009555650650N00928882EA0000001098
B1010045650681N00928786EA0000001095
B1010115650708N00928717EA0000001095
B1010175650720N00928649EA0000001084
B1010245650731N00928562EA0000001080
B1010325650756N00928462EA0000001072
B1010385650780N00928389EA0000001068
B1010435650798N00928330EA0000001066
B1010505650818N00928247EA0000001057
B1010585650830N00928145EA0000001035
B1011065650848N00928037EA0000001011
B1011115650886N00927986EA0000001004
B1011185650969N00927973EA0000001008
B1011275651070N00927960EA0000001009
B1011355651155N00927944EA0000000998
B1011405651208N00927921EA0000000995
B1011455651260N00927893EA0000000998
B1011525651329N00927837EA0000001002
B1011575651381N00927796EA0000001004
B1012045651465N00927749EA0000000992
B1012095651521N00927713EA0000000990
B1012145651579N00927678EA0000000993
B1012205651619N00927621EA0000001009
B1012265651606N00927542EA0000001015
B1012325651591N00927466EA0000001018
B1012375651579N00927402EA0000001018
B1012435651571N00927332EA0000001013
B1012485651561N00927269EA0000000999
B1012535651548N00927196EA0000000986
B1012595651483N00927165EA0000000983
B1013055651429N00927317EA0000000962
B1013105651478N00927425EA0000000951
B1013155651512N00927403EA0000000945
B1013225651444N00927362EA0000000944
B1013275651375N00927471EA0000000942
B1013325651364N00927638EA0000000936
B1013395651429N00927728EA0000000919
B1013445651439N00927672EA0000000910
B1013495651381N00927657EA0000000915
B1013565651337N00927865EA0000000896
B1014015651387N00927968EA0000000897
B1014065651410N00927928EA0000000875
B1014135651310N00927919EA0000000877
B1014185651284N00928075EA0000000872
B1014235651339N00928163EA0000000863
B1014305651350N00928102EA0000000861
B1014355651265N00928144EA0000000842
B1014405651205N00928287EA0000000846
B1014475651251N00928420EA0000000831
B1014525651215N00928384EA0000000816
B1014575651184N00928559EA0000000806
B1015045651238N00928707EA0000000814
B1015095651275N00928697EA0000000804
B1015145651234N00928666EA0000000792
B1015215651194N00928893EA0000000760
B1015265651240N00928934EA0000000768
B1015315651206N00928900EA0000000744
B1015385651118N00929087EA0000000741
B1015435651051N00929203EA0000000721
B1015485651025N00929154EA0000000721
B1015555651049N00929090EA0000000700
B1016015651066N00929000EA0000000680
B1016075651076N00928900EA0000000670
B1016125651082N00928819EA0000000667
B1016235651078N00928643EA0000000654
B1016305651074N00928541EA0000000646
B1016365651067N00928455EA0000000638
B1016425651061N00928369EA0000000626
B1016515651059N00928223EA0000000599
B1016595651060N00928091EA0000000584
B1017045651066N00928014EA0000000598
B1017105651074N00927956EA0000000604
B1017195651091N00927850EA0000000590
B1017255651101N00927776EA0000000582
B1017325651115N00927691EA0000000565
B1017405651141N00927580EA0000000552
B1017475651169N00927488EA0000000562
B1017535651190N00927428EA0000000570
B1017585651211N00927386EA0000000567
B1018055651242N00927320EA0000000550
B1018105651248N00927251EA0000000537
B1018175651240N00927140EA0000000520
B1018275651222N00926983EA0000000508
B1018375651207N00926820EA0000000511
B1018445651198N00926714EA0000000523
B1018495651189N00926642EA0000000531
B1018545651199N00926571EA0000000532
B1019015651285N00926680EA0000000547
B1019065651273N00926877EA0000000547
B1019115651196N00926960EA0000000543
B1019185651176N00926876EA0000000537
B1019235651246N00926951EA0000000552
B1019285651237N00927147EA0000000554
B1019355651142N00927248EA0000000553
B1019405651139N00927193EA0000000562
B1019455651202N00927244EA0000000554
B1019535651208N00927557EA0000000558
B1019585651132N00927626EA0000000545
B1020035651120N00927564EA0000000559
B1020095651193N00927616EA0000000568
B1020145651208N00927815EA0000000563
B1020195651141N00927968EA0000000571
B1020265651071N00927959EA0000000567
B1020315651128N00927943EA0000000571
B1020365651183N00928082EA0000000593
B1020435651126N00928298EA0000000577
B1020485651057N00928291EA0000000580
B1020535651061N00928239EA0000000588
B1021005651149N00928351EA0000000602
B1021055651148N00928539EA0000000595
B1021105651074N00928636EA0000000589
B1021175651047N00928565EA0000000583
B1021235651081N00928505EA0000000595
B1021295651119N00928476EA0000000603
B1021345651152N00928437EA0000000591
B1021425651147N00928319EA0000000588
B1021475651143N00928245EA0000000587
B1021545651141N00928142EA0000000581
B1022045651143N00927986EA0000000582
B1022145651142N00927840EA0000000596
B1022255651156N00927679EA0000000607
B1022315651174N00927590EA0000000609
B1022425651217N00927433EA0000000622
B1022485651242N00927355EA0000000634
B1022535651263N00927300EA0000000641
B1022595651284N00927241EA0000000641
B1023045651299N00927190EA0000000635
B1023105651310N00927127EA0000000627
B1023175651332N00927056EA0000000612
B1023275651380N00926945EA0000000597
B1023325651404N00926869EA0000000588
B1023395651438N00926757EA0000000589
B1023465651474N00926671EA0000000594
B1023515651498N00926616EA0000000585
B1023565651554N00926615EA0000000580
B1024015651606N00926767EA0000000592
B1024065651598N00926966EA0000000586
B1024135651560N00927247EA0000000585
B1024195651524N00927475EA0000000583
B1024245651461N00927629EA0000000568
B1024295651392N00927613EA0000000569
B1024345651398N00927530EA0000000578
B1024425651415N00927422EA0000000577
B1024495651432N00927332EA0000000559
B1024575651444N00927211EA0000000564
B1025025651440N00927132EA0000000550
B1025095651418N00927006EA0000000537
B1025155651399N00926890EA0000000521
B1025215651380N00926778EA0000000515
B1025285651354N00926663EA0000000504
B1025355651325N00926551EA0000000485
B1025415651299N00926451EA0000000466
B1025485651335N00926365EA0000000444
B1025535651408N00926477EA0000000435
B1025595651404N00926749EA0000000424
B1026055651372N00927012EA0000000392
B1026115651337N00927269EA0000000363
B1026175651296N00927528EA0000000347
B1026225651217N00927644EA0000000338
B1026285651177N00927577EA0000000322
B1026365651170N00927466EA0000000313
B1026425651172N00927386EA0000000300
B1026525651187N00927251EA0000000275
B1026575651235N00927232EA0000000262
B1027025651273N00927403EA0000000263
B1027105651231N00927732EA0000000243
B1027165651177N00927981EA0000000223
B1027235651103N00928273EA0000000212
B1027305650988N00928498EA0000000193
B1027365650868N00928574EA0000000186
B1027425650750N00928631EA0000000172
B1027475650660N00928628EA0000000158
B1027525650639N00928537EA0000000143
B1027585650650N00928432EA0000000140
B1028045650663N00928327EA0000000123
B1028105650679N00928234EA0000000106
B1028215650709N00928064EA0000000054
B1028275650723N00927957EA0000000032
B1028325650736N00927870EA0000000029
B1028385650745N00927816EA0000000030
