AOGNOGN
HFDTE180625
HFFXA050
HFPLTPILOTINCHARGE:
HFGTYGLIDERTYPE:Ventus 3T
HFGIDGLIDERID:OY-XII
HFDTM100GPSDATUM:WGS-1984
HFRFWFIRMWAREVERSION:
HFRHWHARDWAREVERSION:
HFFTYFRTYPE:OGN-FLIGHTBOOK
HFGPSGENERIC
HFPRSPRESSALTSENSOR:
HFCIDCOMPETITIONID:I
B1039175527185N01138921EA0000000056
B1039235527186N01138792EA0000000163
B1039315527186N01138660EA0000000298
B1039365527183N01138571EA0000000352
B1039435527181N01138422EA0000000386
B1039485527185N01138303EA0000000404
B1039535527185N01138222EA0000000416
B1039595527158N01138135EA0000000409
B1040085527056N01138060EA0000000418
B1040145526963N01138046EA0000000426
B1040205526871N01138033EA0000000436
B1040265526773N01138131EA0000000427
B1040315526748N01138313EA0000000430
B1040365526791N01138444EA0000000430
B1040425526859N01138489EA0000000431
B1040475526906N01138475EA0000000436
B1040545526943N01138404EA0000000454
B1040595526920N01138334EA0000000459
B1041045526843N01138370EA0000000460
B1041095526799N01138528EA0000000453
B1041165526855N01138706EA0000000473
B1041215526901N01138694EA0000000479
B1041265526891N01138627EA0000000489
B1041325526801N01138656EA0000000484
B1041375526755N01138811EA0000000475
B1041425526776N01138971EA0000000484
B1041495526856N01139061EA0000000499
B1041545526879N01139017EA0000000497
B1041595526821N01138983EA0000000496
B1042065526729N01139160EA0000000501
B1042115526746N01139335EA0000000516
B1042165526802N01139383EA0000000527
B1042235526780N01139302EA0000000525
B1042285526700N01139355EA0000000533
B1042335526657N01139512EA0000000541
B1042405526710N01139671EA0000000556
B1042455526728N01139619EA0000000554
B1042505526661N01139606EA0000000562
B1042575526585N01139804EA0000000569
B1043025526596N01139967EA0000000581
B1043085526663N01140017EA0000000585
B1043145526643N01139943EA0000000597
B1043205526550N01140032EA0000000601
B1043255526534N01140206EA0000000612
B1043315526598N01140299EA0000000616
B1043365526624N01140242EA0000000625
B1043425526553N01140209EA0000000626
B1043485526475N01140373EA0000000629
B1043535526485N01140552EA0000000642
B1043585526540N01140656EA0000000648
B1044055526577N01140595EA0000000661
B1044105526511N01140581EA0000000665
B1044155526438N01140693EA0000000662
B1044225526411N01140938EA0000000681
B1044275526465N01141046EA0000000680
B1044325526521N01141028EA0000000691
B1044395526475N01140955EA0000000697
B1044445526397N01141047EA0000000699
B1044495526378N01141219EA0000000710
B1044565526462N01141306EA0000000712
B1045025526458N01141224EA0000000722
B1045075526381N01141242EA0000000720
B1045135526312N01141425EA0000000726
B1045185526339N01141591EA0000000729
B1045235526402N01141633EA0000000742
B1045305526393N01141545EA0000000745
B1045355526314N01141565EA0000000743
B1045405526250N01141708EA0000000753
B1045475526279N01141939EA0000000759
B1045525526337N01141974EA0000000773
B1045575526343N01141915EA0000000786
B1046045526252N01141905EA0000000778
B1046095526183N01142036EA0000000778
B1046145526182N01142224EA0000000779
B1046215526265N01142286EA0000000794
B1046285526221N01142197EA0000000797
B1046345526129N01142310EA0000000809
B1046395526123N01142488EA0000000812
B1046445526181N01142569EA0000000820
B1046505526196N01142498EA0000000827
B1046565526152N01142395EA0000000801
B1047035526100N01142233EA0000000791
B1047085526066N01142117EA0000000785
B1047155526022N01141947EA0000000767
B1047205525985N01141816EA0000000751
B1047265525951N01141649EA0000000742
B1047315525923N01141513EA0000000746
B1047385525904N01141337EA0000000747
B1047465525897N01141154EA0000000755
B1047525525901N01141048EA0000000783
B1047585525913N01140967EA0000000782
B1048045525919N01140870EA0000000763
B1048115525962N01140751EA0000000753
B1048205526061N01140613EA0000000736
B1048265526135N01140529EA0000000738
B1048335526226N01140435EA0000000715
B1048385526299N01140366EA0000000704
B1048455526394N01140268EA0000000703
B1048535526468N01140120EA0000000685
B1048585526478N01140002EA0000000686
B1049035526467N01139886EA0000000685
B1049105526439N01139725EA0000000679
B1049155526412N01139614EA0000000675
B1049205526371N01139510EA0000000662
B1049275526300N01139364EA0000000658
B1049325526248N01139260EA0000000644
B1049375526192N01139148EA0000000634
B1049445526118N01138981EA0000000634
B1049495526081N01138855EA0000000646
B1049545526074N01138743EA0000000661
B1050015526020N01138604EA0000000660
B1050075525926N01138505EA0000000640
B1050125525829N01138461EA0000000666
B1050185525743N01138591EA0000000688
B1050235525749N01138763EA0000000687
B1050285525799N01138830EA0000000698
B1050355525817N01138749EA0000000697
B1050415525755N01138670EA0000000699
B1050465525713N01138594EA0000000704
B1050545525666N01138480EA0000000712
B1051015525631N01138371EA0000000683
B1051095525579N01138217EA0000000661
B1051145525550N01138110EA0000000649
B1051215525507N01137954EA0000000641
B1051265525473N01137849EA0000000643
B1051315525448N01137754EA0000000649
B1051365525430N01137657EA0000000644
B1051435525416N01137521EA0000000642
B1051485525420N01137414EA0000000626
B1051535525436N01137293EA0000000622
B1052435525548N01136298EA0000000579
B1052495525544N01136154EA0000000605
B1052585525543N01136012EA0000000632
B1053125525547N01135831EA0000000653
B1053175525540N01135765EA0000000645
B1053225525471N01135740EA0000000652
B1053275525398N01135855EA0000000651
B1053325525382N01136039EA0000000664
B1053395525460N01136151EA0000000674
B1053445525477N01136084EA0000000685
B1053495525414N01136068EA0000000696
B1053545525347N01136183EA0000000692
B1053595525329N01136369EA0000000709
B1054065525401N01136487EA0000000723
B1054115525427N01136425EA0000000717
B1054165525383N01136378EA0000000731
B1054235525286N01136516EA0000000724
B1054285525278N01136700EA0000000745
B1054335525332N01136801EA0000000761
B1054405525382N01136753EA0000000754
B1054455525337N01136719EA0000000765
B1054505525261N01136794EA0000000757
B1055445525148N01137712EA0000000801
B1055495525156N01137641EA0000000813
B1055555525093N01137596EA0000000825
B1056015525003N01137691EA0000000819
B1056065524952N01137871EA0000000823
B1056115524980N01138039EA0000000829
B1056165525047N01138060EA0000000817
B1056215525062N01137971EA0000000821
B1056265525018N01137903EA0000000834
B1056325524914N01137986EA0000000830
B1056375524878N01138171EA0000000829
B1056425524886N01138374EA0000000835
B1056475524904N01138566EA0000000837
B1056525524940N01138747EA0000000840
B1056585524984N01138953EA0000000856
B1057035525041N01139070EA0000000858
B1057085525091N01139052EA0000000861
B1057135525067N01138980EA0000000863
B1057185524992N01138987EA0000000872
B1057245524917N01139153EA0000000886
B1057295524920N01139332EA0000000888
B1057345524977N01139447EA0000000895
B1057405525037N01139444EA0000000902
B1057455525019N01139381EA0000000896
B1057505524942N01139397EA0000000908
B1057585524890N01139649EA0000000912
B1058035524943N01139767EA0000000917
B1058165524953N01139677EA0000000922
B1058215524875N01139734EA0000000933
B1058265524831N01139894EA0000000936
B1058335524871N01140105EA0000000941
B1058435524942N01140080EA0000000945
B1058485524894N01140033EA0000000947
B1058535524818N01140089EA0000000956
B1058595524769N01140280EA0000000958
B1059045524792N01140447EA0000000959
B1059105524863N01140537EA0000000968
B1059155524899N01140506EA0000000967
B1059205524878N01140437EA0000000966
B1059265524794N01140446EA0000000974
B1059325524724N01140612EA0000000972
B1059375524730N01140795EA0000000974
B1059425524787N01140894EA0000000981
B1059495524838N01140848EA0000000986
B1059545524808N01140785EA0000000982
B1059595524731N01140808EA0000000983
B1100065524642N01140991EA0000000993
B1100125524624N01141200EA0000000987
B1100195524658N01141425EA0000001014
B1100245524701N01141534EA0000001011
B1100295524756N01141522EA0000000999
B1100345524753N01141442EA0000001005
B1100405524684N01141392EA0000001010
B1100465524594N01141441EA0000001006
B1100525524526N01141624EA0000000993
B1100585524491N01141834EA0000001021
B1101035524512N01141983EA0000001017
B1101085524569N01142000EA0000001028
B1101155524516N01141921EA0000001031
B1101205524444N01142024EA0000001053
B1101285524479N01142250EA0000001064
B1101345524533N01142231EA0000001070
B1101425524457N01142146EA0000001069
B1101485524356N01142267EA0000001075
B1101535524343N01142449EA0000001090
B1101585524394N01142557EA0000001098
B1102055524442N01142501EA0000001111
B1102105524388N01142458EA0000001117
B1102155524308N01142540EA0000001123
B1102235524294N01142804EA0000001134
B1102285524350N01142871EA0000001132
B1102335524388N01142830EA0000001143
B1102405524334N01142752EA0000001151
B1102455524252N01142814EA0000001153
B1102505524202N01142968EA0000001147
B1102555524209N01143142EA0000001159
B1103005524258N01143244EA0000001161
B1103065524315N01143231EA0000001168
B1103125524283N01143159EA0000001173
B1103195524179N01143276EA0000001177
B1103245524174N01143452EA0000001185
B1103305524235N01143572EA0000001189
B1104225524678N01143193EA0000001132
B1104285524733N01143141EA0000001109
B1104335524783N01143089EA0000001106
B1104405524845N01143023EA0000001133
B1104465524890N01142962EA0000001145
B1104545524952N01142882EA0000001159
B1105055525047N01142786EA0000001162
B1105115525103N01142747EA0000001167
B1105205525180N01142679EA0000001161
B1105285525237N01142600EA0000001164
B1105335525271N01142556EA0000001167
B1105385525297N01142505EA0000001171
B1105445525317N01142426EA0000001145
B1105515525340N01142282EA0000001114
B1106025525379N01142027EA0000001087
B1106075525399N01141908EA0000001084
B1106135525414N01141759EA0000001072
B1106205525437N01141577EA0000001056
B1106255525453N01141441EA0000001047
B1106315525474N01141274EA0000001039
B1106375525504N01141116EA0000001029
B1106435525540N01140965EA0000001019
B1106525525594N01140737EA0000001009
B1106595525635N01140572EA0000001022
B1107055525665N01140467EA0000001048
B1107105525689N01140390EA0000001034
B1107165525711N01140265EA0000001013
B1107215525734N01140157EA0000001040
B1107265525757N01140096EA0000001060
B1107325525841N01140140EA0000001052
B1107395525868N01140394EA0000001065
B1107445525811N01140537EA0000001070
B1107505525724N01140610EA0000001079
B1107555525676N01140581EA0000001080
B1108045525767N01140610EA0000001069
B1108095525794N01140793EA0000001081
B1108155525737N01140976EA0000001085
B1108205525667N01141001EA0000001086
B1108325525593N01140861EA0000001073
B1108435525533N01140629EA0000001041
B1108485525515N01140518EA0000001066
B1108535525497N01140441EA0000001100
B1108585525476N01140379EA0000001091
B1109495525340N01140059EA0000001108
B1109545525264N01140051EA0000001113
B1109595525276N01139980EA0000001119
B1110045525344N01140025EA0000001132
B1110095525364N01140204EA0000001141
B1110145525296N01140347EA0000001147
B1110215525202N01140307EA0000001164
B1110265525227N01140246EA0000001171
B1110325525304N01140332EA0000001179
B1110395525272N01140585EA0000001187
B1110445525184N01140611EA0000001188
B1110495525134N01140542EA0000001203
B1110555525145N01140443EA0000001210
B1111015525167N01140344EA0000001217
B1111085525203N01140201EA0000001209
B1111135525237N01140099EA0000001202
B1111195525316N01140009EA0000001184
B1111245525400N01139945EA0000001175
B1111295525489N01139886EA0000001161
B1111385525657N01139782EA0000001162
B1111475525824N01139693EA0000001141
B1111525525920N01139648EA0000001146
B1111585526030N01139604EA0000001145
B1112035526121N01139580EA0000001149
B1112085526212N01139568EA0000001142
B1112145526328N01139565EA0000001128
B1112215526468N01139570EA0000001122
B1112275526587N01139561EA0000001108
B1112325526691N01139557EA0000001096
B1112385526821N01139562EA0000001085
B1112435526928N01139573EA0000001095
B1112495527049N01139590EA0000001086
B1112575527211N01139620EA0000001088
B1113025527313N01139640EA0000001077
B1113105527482N01139675EA0000001075
B1113155527587N01139698EA0000001067
B1113205527689N01139714EA0000001058
B1113275527835N01139742EA0000001039
B1113355528005N01139789EA0000001032
B1113415528128N01139816EA0000001030
B1113485528267N01139862EA0000001029
B1113575528436N01139903EA0000001017
B1114035528528N01139924EA0000001048
B1114105528633N01139965EA0000001021
B1114185528785N01140025EA0000001001
B1114265528947N01140090EA0000000978
B1114315529059N01140154EA0000000966
B1114395529237N01140290EA0000000950
B1114495529454N01140463EA0000000942
B1114545529561N01140547EA0000000932
B1115035529751N01140703EA0000000917
B1115115529914N01140838EA0000000909
B1115175530037N01140945EA0000000899
B1115275530241N01141125EA0000000927
B1115335530337N01141219EA0000000939
B1115385530427N01141295EA0000000917
B1115445530543N01141394EA0000000909
B1115495530639N01141472EA0000000900
B1115545530739N01141540EA0000000883
B1116005530870N01141628EA0000000854
B1116065531012N01141729EA0000000834
B1116175531266N01141925EA0000000834
B1116225531375N01142014EA0000000837
B1116295531523N01142134EA0000000838
B1116345531617N01142218EA0000000865
B1116425531732N01142357EA0000000881
B1116555531952N01142525EA0000000831
B1117015532071N01142599EA0000000814
B1117085532215N01142670EA0000000807
B1117145532335N01142730EA0000000804
B1117195532429N01142792EA0000000804
B1117255532541N01142870EA0000000795
B1117315532650N01142946EA0000000785
B1117375532757N01143044EA0000000789
B1117425532835N01143153EA0000000801
B1117475532895N01143295EA0000000814
B1117525532940N01143449EA0000000831
B1117575532981N01143599EA0000000840
B1118025533019N01143749EA0000000835
B1118075533048N01143926EA0000000812
B1118175533091N01144335EA0000000791
B1118245533121N01144630EA0000000769
B1118325533139N01144997EA0000000759
B1118375533144N01145228EA0000000745
B1119345533162N01146585EA0000000832
B1119395533087N01146654EA0000000847
B1119465533057N01146578EA0000000854
B1119515533113N01146578EA0000000864
B1119565533162N01146707EA0000000876
B1120015533141N01146870EA0000000868
B1120075533050N01146979EA0000000879
B1120125532989N01146973EA0000000888
B1120175532980N01146913EA0000000889
B1120235533023N01146876EA0000000902
B1120315533098N01146848EA0000000893
B1120365533153N01146804EA0000000870
B1120435533251N01146727EA0000000853
B1120495533343N01146653EA0000000831
B1120555533439N01146581EA0000000821
B1121035533584N01146485EA0000000785
B1121105533715N01146413EA0000000788
B1121175533836N01146349EA0000000788
B1121225533920N01146297EA0000000778
B1121275534004N01146244EA0000000788
B1121325534075N01146200EA0000000799
B1121395534174N01146126EA0000000792
B1121445534244N01146080EA0000000786
B1121495534319N01146028EA0000000767
B1121545534400N01145975EA0000000757
B1122015534510N01145912EA0000000762
B1122075534599N01145860EA0000000742
B1122145534700N01145770EA0000000730
B1122195534729N01145667EA0000000736
B1122245534690N01145558EA0000000728
B1122305534591N01145467EA0000000708
B1122365534468N01145389EA0000000679
B1122435534319N01145294EA0000000669
B1122495534192N01145219EA0000000667
B1122555534070N01145143EA0000000671
B1123005533977N01145083EA0000000673
B1123065533866N01145010EA0000000662
B1123145533715N01144905EA0000000642
B1123205533604N01144820EA0000000637
B1123275533481N01144718EA0000000626
B1123345533359N01144617EA0000000620
B1123405533254N01144533EA0000000605
B1123475533126N01144414EA0000000596
B1123525533041N01144338EA0000000622
B1124065532865N01144208EA0000000685
B1124115532819N01144166EA0000000693
B1124185532774N01144099EA0000000702
B1124255532741N01144032EA0000000704
B1124445532618N01143750EA0000000686
B1124495532583N01143663EA0000000686
B1124545532562N01143581EA0000000700
B1124595532564N01143518EA0000000704
B1125045532581N01143447EA0000000688
B1125095532611N01143371EA0000000684
B1125175532671N01143264EA0000000670
B1125225532711N01143186EA0000000658
B1125275532752N01143094EA0000000644
B1125325532782N01142985EA0000000638
B1125385532804N01142850EA0000000647
B1125595532870N01142366EA0000000607
B1126055532887N01142228EA0000000607
B1126155532920N01142056EA0000000634
B1126385533020N01141824EA0000000633
B1126445532997N01141712EA0000000619
B1126505532974N01141616EA0000000653
B1126555532954N01141559EA0000000666
B1127005532974N01141514EA0000000646
B1127065533036N01141632EA0000000636
B1127125533006N01141838EA0000000649
B1127175532940N01141945EA0000000657
B1127225532879N01141928EA0000000655
B1127275532852N01141868EA0000000667
B1127345532827N01141781EA0000000640
B1127445532822N01141577EA0000000644
B1127505532826N01141445EA0000000638
B1127585532856N01141287EA0000000642
B1128045532887N01141162EA0000000634
B1128095532913N01141070EA0000000674
B1128185532937N01140955EA0000000692
B1128245532948N01140880EA0000000698
B1128315532966N01140801EA0000000716
B1128385532974N01140740EA0000000733
B1128435532980N01140696EA0000000723
B1128495532994N01140603EA0000000694
B1128545533013N01140496EA0000000678
B1129025533047N01140308EA0000000681
B1129515533258N01139272EA0000000706
B1129575533279N01139184EA0000000718
B1130075533311N01139066EA0000000733
B1130165533339N01138967EA0000000742
B1130255533372N01138866EA0000000751
B1130325533388N01138792EA0000000763
B1130375533397N01138739EA0000000764
B1130435533411N01138669EA0000000749
B1130535533442N01138527EA0000000739
B1130585533456N01138441EA0000000741
B1131055533477N01138336EA0000000769
B1131125533486N01138254EA0000000784
B1131195533481N01138172EA0000000791
B1131265533389N01138179EA0000000799
B1131315533350N01138327EA0000000804
B1131365533382N01138484EA0000000802
B1131435533460N01138591EA0000000830
B1131485533475N01138538EA0000000817
B1131555533388N01138532EA0000000844
B1132025533345N01138743EA0000000848
B1132075533402N01138844EA0000000861
B1132135533440N01138798EA0000000865
B1132185533393N01138765EA0000000880
B1132235533326N01138862EA0000000885
B1132285533326N01139031EA0000000892
B1132355533403N01139102EA0000000910
B1132405533396N01139043EA0000000914
B1132455533324N01139076EA0000000921
B1132515533278N01139265EA0000000933
B1133015533369N01139450EA0000000951
B1133085533374N01139367EA0000000973
B1133135533339N01139328EA0000000969
B1133185533296N01139275EA0000000971
B1133235533254N01139220EA0000000975
B1133305533198N01139135EA0000000974
B1133355533154N01139062EA0000000975
B1133415533108N01138982EA0000000992
B1133485533071N01138886EA0000000989
B1133535533045N01138809EA0000000980
B1133585533013N01138725EA0000000985
B1134045532972N01138611EA0000000951
B1134095532932N01138486EA0000000929
B1134165532875N01138311EA0000000938
B1134215532841N01138188EA0000000934
B1134295532811N01137977EA0000000912
B1134375532810N01137759EA0000000887
B1134435532822N01137582EA0000000883
B1134505532836N01137394EA0000000897
B1134565532857N01137247EA0000000897
B1135015532876N01137136EA0000000901
B1135065532895N01137020EA0000000876
B1135135532929N01136842EA0000000859
B1135195532967N01136693EA0000000861
B1135245533002N01136583EA0000000870
B1135295533036N01136479EA0000000864
B1135365533092N01136314EA0000000831
B1135445533168N01136113EA0000000817
B1135535533258N01135913EA0000000814
B1136015533341N01135751EA0000000819
B1136075533400N01135634EA0000000802
B1136135533457N01135510EA0000000790
B1136205533522N01135354EA0000000783
B1136265533579N01135221EA0000000784
B1136395533679N01134956EA0000000802
B1137335533759N01135113EA0000000907
B1137385533807N01135230EA0000000904
B1137435533781N01135404EA0000000908
B1137485533708N01135529EA0000000922
B1137545533622N01135537EA0000000919
B1137595533611N01135463EA0000000932
B1138065533687N01135544EA0000000936
B1138115533661N01135704EA0000000941
B1138175533567N01135809EA0000000952
B1138225533495N01135812EA0000000965
B1138275533456N01135761EA0000000965
B1138335533457N01135685EA0000000951
B1138385533466N01135607EA0000000963
B1138465533485N01135508EA0000000977
B1138515533498N01135449EA0000000975
B1138565533511N01135388EA0000000985
B1139015533521N01135329EA0000000976
B1139075533542N01135236EA0000000957
B1139155533581N01135090EA0000000952
B1139215533613N01134963EA0000000929
B1139275533651N01134834EA0000000937
B1139325533678N01134734EA0000000942
B1139375533705N01134637EA0000000936
B1139425533734N01134531EA0000000931
B1139475533762N01134428EA0000000935
B1139525533792N01134330EA0000000941
B1139575533819N01134251EA0000000969
B1140045533849N01134183EA0000000992
B1140115533868N01134107EA0000000973
B1140175533890N01134004EA0000000973
B1140235533911N01133927EA0000000998
B1140305533929N01133871EA0000001010
B1140365533950N01133811EA0000001009
B1140445533972N01133719EA0000001030
B1140495533985N01133664EA0000001039
B1140555533997N01133594EA0000001049
B1141005534002N01133536EA0000001058
B1141085534010N01133436EA0000001066
B1141135534013N01133380EA0000001072
B1141245534018N01133244EA0000001093
B1141305534022N01133172EA0000001094
B1141355534024N01133106EA0000001100
B1141495534021N01132942EA0000001148
B1141565534013N01132870EA0000001153
B1142015534008N01132808EA0000001145
B1142085533990N01132686EA0000001125
B1142135533973N01132584EA0000001151
B1142185533960N01132510EA0000001171
B1142235533946N01132445EA0000001179
B1142315533926N01132326EA0000001170
B1142375533921N01132223EA0000001195
B1142425533911N01132145EA0000001212
B1142475533885N01132058EA0000001202
B1142535533814N01131947EA0000001187
B1142585533737N01131863EA0000001183
B1143045533635N01131766EA0000001156
B1143115533500N01131631EA0000001132
B1143165533401N01131538EA0000001130
B1143225533283N01131430EA0000001125
B1143295533145N01131304EA0000001119
B1143395532942N01131122EA0000001093
B1143455532819N01131011EA0000001090
B1143515532699N01130898EA0000001083
B1144015532496N01130716EA0000001072
B1144065532401N01130628EA0000001071
B1144115532305N01130545EA0000001062
B1144185532169N01130428EA0000001051
B1144255532028N01130316EA0000001034
B1144315531903N01130223EA0000001021
B1144365531801N01130144EA0000001007
B1144425531681N01130044EA0000000997
B1144475531587N01129970EA0000001026
B1144525531503N01129916EA0000001015
B1144585531387N01129831EA0000000981
B1145045531266N01129729EA0000000976
B1145115531133N01129620EA0000000978
B1145165531035N01129551EA0000000966
B1145255530868N01129422EA0000000984
B1145315530765N01129343EA0000000985
B1145365530684N01129282EA0000000989
B1145425530606N01129221EA0000001010
B1145495530525N01129144EA0000000981
B1145585530399N01129001EA0000000961
B1146045530317N01128894EA0000000959
B1146095530252N01128808EA0000000956
B1146155530173N01128702EA0000000951
B1146215530105N01128616EA0000000999
B1146265530049N01128593EA0000001000
B1146315529968N01128675EA0000001014
B1146395529962N01128938EA0000001009
B1146485530044N01128998EA0000001033
B1146555530044N01128935EA0000001027
B1147025529976N01128898EA0000001033
B1147105529878N01128879EA0000001041
B1147205529722N01128876EA0000001032
B1147265529615N01128871EA0000001000
B1147325529487N01128856EA0000000973
B1147415529276N01128820EA0000000947
B1147485529114N01128790EA0000000945
B1147535529000N01128771EA0000000938
B1147595528876N01128751EA0000000968
B1148045528791N01128741EA0000000995
B1148095528719N01128741EA0000001007
B1148155528694N01128658EA0000000998
B1148205528742N01128639EA0000001013
B1148255528797N01128708EA0000001015
B1148305528830N01128863EA0000001004
B1148365528799N01129066EA0000001014
B1148425528718N01129206EA0000001020
B1148485528651N01129178EA0000001013
B1148535528698N01129160EA0000001015
B1148595528732N01129340EA0000001032
B1149225528669N01129600EA0000001056
B1149395528457N01129853EA0000001088
B1149505528303N01129846EA0000001105
B1149555528226N01129845EA0000001087
B1150015528115N01129839EA0000001068
B1150085527967N01129831EA0000001035
B1150145527833N01129820EA0000001027
B1150225527664N01129806EA0000001025
B1150275527557N01129795EA0000001028
B1150335527455N01129779EA0000001054
B1150395527362N01129761EA0000001049
B1150455527260N01129737EA0000001046
B1150515527159N01129711EA0000001054
B1150565527072N01129685EA0000001033
B1151015526985N01129646EA0000001044
B1151065526907N01129594EA0000001032
B1151145526802N01129447EA0000001016
B1151205526732N01129332EA0000001013
B1151305526604N01129089EA0000000974
B1151365526529N01128934EA0000000962
B1151425526455N01128785EA0000000956
B1151475526395N01128665EA0000000958
B1151545526310N01128506EA0000000947
B1152005526237N01128367EA0000000942
B1152085526145N01128183EA0000000933
B1152135526090N01128070EA0000000944
B1152195526030N01127936EA0000000924
B1152245525976N01127813EA0000000912
B1152295525923N01127693EA0000000923
B1152345525879N01127592EA0000000931
B1152405525822N01127457EA0000000912
B1152455525773N01127341EA0000000911
B1152505525728N01127222EA0000000907
B1152585525659N01127034EA0000000900
B1153035525616N01126920EA0000000899
B1153105525556N01126764EA0000000895
B1153155525512N01126652EA0000000887
B1153225525449N01126485EA0000000874
B1153295525384N01126317EA0000000859
B1153385525300N01126104EA0000000869
B1153435525261N01125998EA0000000884
B1153485525226N01125905EA0000000906
B1153545525187N01125825EA0000000915
B1153595525151N01125750EA0000000890
B1154045525110N01125649EA0000000869
B1154145525020N01125423EA0000000856
B1154195524972N01125305EA0000000852
B1154245524925N01125193EA0000000854
B1154315524867N01125034EA0000000850
B1154365524815N01124944EA0000000862
B1154415524724N01124952EA0000000863
B1154465524638N01125093EA0000000848
B1154525524573N01125355EA0000000829
B1155025524511N01125845EA0000000812
B1155075524483N01126097EA0000000805
B1155145524447N01126452EA0000000789
B1155265524395N01127084EA0000000768
B1155345524362N01127491EA0000000773
B1155395524339N01127738EA0000000763
B1155465524305N01128093EA0000000751
B1155545524265N01128503EA0000000732
B1155595524240N01128760EA0000000724
B1156065524206N01129118EA0000000719
B1156115524180N01129366EA0000000740
B1156195524135N01129698EA0000000763
B1156255524105N01129935EA0000000775
B1156305524078N01130119EA0000000781
B1156385524050N01130435EA0000000753
B1156465524029N01130808EA0000000718
B1156545524008N01131220EA0000000699
B1156595523994N01131474EA0000000701
B1157055523981N01131774EA0000000699
B1157125523967N01132120EA0000000690
B1157195523949N01132474EA0000000660
B1157245523933N01132742EA0000000645
B1157385523888N01133486EA0000000617
B1157455523862N01133836EA0000000609
B1157555523818N01134303EA0000000615
B1158015523793N01134581EA0000000607
B1158075523767N01134849EA0000000616
B1158135523743N01135103EA0000000616
B1158225523713N01135478EA0000000631
B1158275523699N01135669EA0000000644
B1158335523679N01135884EA0000000653
B1158415523642N01136154EA0000000660
B1158475523609N01136344EA0000000684
B1158545523653N01136511EA0000000697
B1159015523659N01136433EA0000000713
B1159075523568N01136487EA0000000736
B1159125523555N01136648EA0000000756
B1159195523623N01136696EA0000000768
B1159245523596N01136629EA0000000771
B1159295523517N01136700EA0000000779
B1159355523513N01136900EA0000000817
B1159415523572N01136941EA0000000822
B1159465523553N01136867EA0000000825
B1159515523475N01136914EA0000000840
B1200405523282N01137416EA0000000944
B1200455523270N01137579EA0000000935
B1200505523323N01137677EA0000000942
B1200565523350N01137629EA0000000947
B1201055523224N01137658EA0000000965
B1201105523210N01137819EA0000000967
B1201155523259N01137927EA0000000969
B1201205523294N01137900EA0000000968
B1201255523251N01137832EA0000000979
B1201305523169N01137888EA0000000992
B1201365523140N01138082EA0000000999
B1201415523182N01138191EA0000001002
B1201465523224N01138175EA0000000996
B1201515523228N01138097EA0000001006
B1201565523184N01138050EA0000001019
B1202015523113N01138108EA0000001015
B1202065523075N01138274EA0000001000
B1202125523071N01138486EA0000001018
B1202205523064N01138761EA0000001009
B1202265523061N01139011EA0000000967
B1202315523056N01139252EA0000000945
B1202365523049N01139505EA0000000950
B1202415523040N01139723EA0000001002
B1202475523058N01139923EA0000001016
B1203025523072N01139890EA0000001015
B1203095522970N01139929EA0000001043
B1203175522934N01140177EA0000001048
B1203315522972N01140162EA0000001066
B1203375522888N01140247EA0000001077
B1203425522862N01140402EA0000001077
B1203475522895N01140552EA0000001079
B1203525522947N01140601EA0000001085
B1203585522939N01140527EA0000001091
B1204035522864N01140549EA0000001097
B1204085522829N01140698EA0000001105
B1204145522837N01140914EA0000001090
B1204195522827N01141119EA0000001091
B1204245522808N01141317EA0000001085
B1204295522791N01141539EA0000001053
B1204345522768N01141786EA0000001049
B1204395522743N01142030EA0000001039
B1204465522718N01142385EA0000001020
B1204525522693N01142697EA0000001001
B1205035522648N01143289EA0000000985
B1205115522622N01143710EA0000000986
B1205165522598N01143958EA0000001004
B1205215522583N01144164EA0000001043
B1205265522633N01144266EA0000001051
B1205315522647N01144229EA0000001060
B1205375522570N01144198EA0000001059
B1205425522491N01144285EA0000001075
B1205475522453N01144451EA0000001070
B1205535522460N01144651EA0000001073
B1206005522444N01144927EA0000001024
B1206055522426N01145161EA0000001008
B1206105522403N01145395EA0000001006
B1206155522371N01145632EA0000001018
B1206205522342N01145820EA0000001058
B1206255522319N01145988EA0000001063
B1206335522207N01146080EA0000001075
B1206395522234N01146036EA0000001087
B1206445522283N01146134EA0000001093
B1206495522274N01146302EA0000001106
B1206545522202N01146392EA0000001105
B1206595522155N01146339EA0000001117
B1207045522193N01146312EA0000001130
B1207095522238N01146431EA0000001137
B1207155522196N01146617EA0000001148
B1207205522116N01146649EA0000001158
B1207295522132N01146588EA0000001171
B1207345522178N01146701EA0000001176
B1207395522172N01146869EA0000001185
B1207455522088N01146979EA0000001171
B1207505522026N01146931EA0000001177
B1207555522012N01146866EA0000001189
B1208005522049N01146852EA0000001187
B1208055522101N01146940EA0000001184
B1208105522129N01147101EA0000001167
B1208155522125N01147287EA0000001177
B1208205522106N01147474EA0000001158
B1208255522079N01147679EA0000001161
B1208335522029N01147979EA0000001187
B1208385521999N01148149EA0000001194
B1208445521963N01148342EA0000001199
B1208495521944N01148519EA0000001184
B1208545521947N01148698EA0000001209
B1209025521975N01148951EA0000001206
B1209085522019N01149117EA0000001213
B1209135522065N01149257EA0000001199
B1209195522141N01149442EA0000001169
B1209245522212N01149616EA0000001158
B1209305522297N01149832EA0000001149
B1209425522471N01150277EA0000001136
B1209515522595N01150622EA0000001115
B1209565522670N01150796EA0000001120
B1210025522778N01150907EA0000001129
B1210105522923N01150949EA0000001124
B1210185523063N01150917EA0000001115
B1210535523439N01150537EA0000001125
B1211015523545N01150397EA0000001102
B1211165523738N01150139EA0000001082
B1211585524286N01149389EA0000001033
B1212065524383N01149235EA0000001012
B1212135524471N01149103EA0000001006
B1212185524529N01149008EA0000000997
B1212235524583N01148906EA0000000987
B1213215525211N01147952EA0000000980
B1213265525252N01147892EA0000001009
B1213345525288N01147807EA0000000988
B1213395525311N01147711EA0000000964
B1214275525604N01146908EA0000000940
B1214325525653N01146806EA0000000916
B1214375525702N01146704EA0000000924
B1214425525749N01146621EA0000000935
B1214475525795N01146536EA0000000928
B1214525525835N01146459EA0000000948
B1214595525871N01146377EA0000000983
B1215075525919N01146316EA0000000935
B1215125525958N01146208EA0000000899
B1215185526002N01146082EA0000000955
B1215255526038N01145984EA0000000931
B1216145526374N01144856EA0000000849
B1216205526405N01144739EA0000000860
B1216255526431N01144640EA0000000857
B1216325526461N01144524EA0000000889
B1216375526477N01144456EA0000000890
B1216425526490N01144376EA0000000888
B1216485526506N01144293EA0000000906
B1216545526511N01144229EA0000000927
B1217005526509N01144179EA0000000935
B1217055526502N01144134EA0000000925
B1217105526494N01144054EA0000000889
B1217165526487N01143916EA0000000870
B1217225526474N01143761EA0000000839
B1217305526470N01143574EA0000000882
B1217365526465N01143491EA0000000909
B1217435526457N01143407EA0000000915
B1217485526452N01143344EA0000000923
B1217535526447N01143285EA0000000936
B1218015526447N01143208EA0000000957
B1218065526452N01143154EA0000000953
B1219035526482N01142396EA0000001017
B1219225526567N01142122EA0000001012
B1220025526774N01141380EA0000001049
B1220075526787N01141292EA0000001072
B1220145526799N01141199EA0000001065
B1220205526812N01141069EA0000001010
B1220265526833N01140899EA0000001019
B1220315526851N01140781EA0000001046
B1220365526864N01140682EA0000001070
B1220475526880N01140523EA0000001087
B1220535526874N01140424EA0000001088
B1220595526868N01140321EA0000001100
B1221045526864N01140242EA0000001097
B1221125526867N01140075EA0000001056
B1221185526870N01139917EA0000001045
B1221255526875N01139724EA0000001034
B1221305526883N01139595EA0000001046
B1221365526898N01139451EA0000001040
B1221455526940N01139246EA0000001037
B1221505526970N01139168EA0000001073
B1221565527002N01139111EA0000001079
B1222465527449N01138184EA0000000987
B1222545527510N01138017EA0000000990
B1223015527572N01137872EA0000000945
B1223065527619N01137750EA0000000939
B1223135527680N01137587EA0000000936
B1223185527722N01137470EA0000000920
B1223245527774N01137332EA0000000911
B1223295527820N01137229EA0000000908
B1223355527876N01137140EA0000000952
B1223415527928N01137097EA0000000946
B1223465527984N01137062EA0000000926
B1223525528062N01137017EA0000000937
B1224295528472N01136754EA0000000923
B1224345528491N01136678EA0000000931
B1224405528505N01136574EA0000000901
B1224455528521N01136462EA0000000899
B1224515528541N01136325EA0000000879
B1224565528557N01136193EA0000000866
B1225035528588N01136011EA0000000860
B1225105528624N01135837EA0000000867
B1225165528656N01135697EA0000000865
B1225215528679N01135580EA0000000879
B1225285528701N01135457EA0000000876
B1225465528768N01135204EA0000000912
B1226185528897N01134832EA0000000887
B1226285528949N01134658EA0000000907
B1226345528976N01134571EA0000000882
B1226435529026N01134377EA0000000853
B1226515529076N01134201EA0000000842
B1227025529134N01133952EA0000000833
B1227105529174N01133787EA0000000823
B1227155529188N01133675EA0000000819
B1227215529210N01133551EA0000000846
B1227275529231N01133483EA0000000871
B1227335529188N01133416EA0000000869
B1227385529109N01133473EA0000000873
B1227435529062N01133633EA0000000868
B1227495529064N01133849EA0000000870
B1227545529092N01133997EA0000000882
B1228005529150N01134102EA0000000883
B1228085529227N01134141EA0000000870
B1228135529262N01134086EA0000000845
B1228185529292N01133998EA0000000815
B1228265529346N01133817EA0000000790
B1228325529389N01133679EA0000000785
B1228375529423N01133564EA0000000759
B1228425529451N01133421EA0000000743
B1228485529484N01133276EA0000000783
B1228535529504N01133203EA0000000816
B1228585529515N01133157EA0000000832
B1229055529551N01133095EA0000000792
B1229105529604N01133041EA0000000764
B1229155529668N01132976EA0000000735
B1229215529756N01132905EA0000000734
B1229265529829N01132855EA0000000724
B1229325529925N01132784EA0000000703
B1229375530003N01132728EA0000000700
B1229425530078N01132669EA0000000687
B1229505530178N01132540EA0000000692
B1229555530205N01132450EA0000000726
B1230015530219N01132377EA0000000752
B1230065530224N01132329EA0000000755
B1230135530225N01132248EA0000000758
B1230185530270N01132225EA0000000752
B1230235530310N01132338EA0000000775
B1230285530293N01132501EA0000000775
B1230335530211N01132587EA0000000775
B1230405530125N01132558EA0000000787
B1230465530093N01132478EA0000000795
B1230515530072N01132428EA0000000805
B1230575530045N01132366EA0000000802
B1231045530018N01132277EA0000000800
B1231115529993N01132146EA0000000766
B1231165529981N01132042EA0000000787
B1231225529969N01131957EA0000000793
B1231285529953N01131867EA0000000797
B1231345529931N01131788EA0000000797
B1231395529913N01131718EA0000000798
B1231445529899N01131640EA0000000784
B1231505529890N01131544EA0000000779
B1231585529914N01131405EA0000000759
B1232055529960N01131276EA0000000735
B1232105529994N01131201EA0000000772
B1232155530023N01131149EA0000000791
B1232225530006N01131049EA0000000777
B1232275529919N01131080EA0000000807
B1232335529883N01131268EA0000000813
B1232405529950N01131378EA0000000809
B1232475530004N01131341EA0000000825
B1232525529983N01131275EA0000000828
B1232575529903N01131318EA0000000829
B1233035529873N01131512EA0000000842
B1233085529916N01131600EA0000000847
B1233135529956N01131578EA0000000854
B1233185529965N01131528EA0000000865
B1233245529953N01131449EA0000000864
B1233315529946N01131375EA0000000881
B1233375529939N01131301EA0000000890
B1233425529932N01131242EA0000000892
B1233475529926N01131181EA0000000894
B1233545529918N01131081EA0000000882
B1234045529949N01130953EA0000000890
B1234115529997N01130905EA0000000910
B1234175530047N01130884EA0000000899
B1234235530098N01130855EA0000000913
B1234285530137N01130835EA0000000919
B1234345530195N01130810EA0000000913
B1234405530270N01130773EA0000000863
B1234465530370N01130726EA0000000849
B1234525530472N01130678EA0000000835
B1235025530646N01130597EA0000000817
B1235085530742N01130554EA0000000816
B1235135530819N01130521EA0000000812
B1235185530899N01130486EA0000000810
B1235245530997N01130448EA0000000817
B1235295531063N01130428EA0000000852
B1235345531116N01130416EA0000000863
B1235395531170N01130394EA0000000847
B1235485531288N01130326EA0000000829
B1235535531363N01130274EA0000000790
B1236005531475N01130185EA0000000784
B1236065531571N01130124EA0000000775
B1236125531669N01130071EA0000000766
B1236205531805N01130007EA0000000763
B1236265531912N01129963EA0000000758
B1236315531986N01129940EA0000000803
B1236375532057N01129925EA0000000808
B1236435532126N01129904EA0000000801
B1236535532277N01129846EA0000000776
B1236585532359N01129821EA0000000768
B1237105532560N01129786EA0000000757
B1237195532708N01129759EA0000000750
B1237275532843N01129753EA0000000739
B1237325532931N01129758EA0000000730
B1237385533041N01129767EA0000000721
B1237445533154N01129789EA0000000715
B1237505533256N01129908EA0000000727
B1237555533301N01130104EA0000000730
B1238015533276N01130375EA0000000746
B1238075533213N01130617EA0000000763
B1238135533142N01130838EA0000000775
B1238185533085N01130995EA0000000802
B1238245533040N01131191EA0000000789
B1238295533075N01131356EA0000000795
B1238365533135N01131375EA0000000822
B1238415533108N01131312EA0000000816
B1238465533028N01131316EA0000000829
B1238525532937N01131441EA0000000835
B1238575532876N01131578EA0000000835
B1239035532836N01131782EA0000000835
B1239095532808N01131989EA0000000829
B1239145532763N01132164EA0000000822
B1239195532700N01132326EA0000000816
B1239265532599N01132538EA0000000804
B1239315532511N01132667EA0000000791
B1239385532366N01132768EA0000000776
B1239435532260N01132797EA0000000765
B1239485532152N01132811EA0000000752
B1239535532037N01132824EA0000000730
B1240015531843N01132858EA0000000722
B1240075531697N01132894EA0000000721
B1240125531579N01132927EA0000000714
B1240175531461N01132961EA0000000723
B1240225531353N01132993EA0000000725
B1240275531248N01133021EA0000000736
B1240355531083N01133052EA0000000717
B1240425530935N01133038EA0000000690
B1240525530718N01133000EA0000000662
B1241035530475N01132969EA0000000640
B1241085530369N01132952EA0000000626
B1241295529941N01132936EA0000000646
B1241355529842N01132958EA0000000634
B1241555529487N01133407EA0000000620
B1242015529392N01133584EA0000000635
B1242075529319N01133742EA0000000644
B1242125529248N01133874EA0000000628
B1242195529131N01134030EA0000000620
B1243125528110N01134015EA0000000585
B1243175528049N01133994EA0000000583
B1243225528061N01133935EA0000000576
B1243275528121N01133978EA0000000587
B1243325528159N01134105EA0000000611
B1243375528146N01134273EA0000000612
B1244225528007N01134730EA0000000726
B1244275528021N01134882EA0000000738
B1244325527959N01135024EA0000000747
B1244405527927N01134958EA0000000768
B1244455527977N01135047EA0000000792
B1244505527945N01135214EA0000000795
B1246085527806N01135981EA0000000984
B1246185527697N01136217EA0000001007
B1247165527529N01136728EA0000001104
B1247215527585N01136806EA0000001107
B1247265527589N01136989EA0000001119
B1247315527524N01137132EA0000001131
B1247365527442N01137133EA0000001146
B1247415527429N01137058EA0000001148
B1247485527495N01137125EA0000001158
B1247545527483N01137336EA0000001164
B1247595527418N01137475EA0000001172
B1248055527327N01137490EA0000001189
B1248105527319N01137424EA0000001181
B1248155527371N01137456EA0000001176
B1248215527388N01137653EA0000001189
B1248275527341N01137845EA0000001202
B1248325527273N01137950EA0000001206
B1248385527178N01137998EA0000001206
B1248435527099N01137999EA0000001200
B1248485527017N01137990EA0000001190
B1248535526923N01137971EA0000001176
B1248585526821N01137948EA0000001172
B1249045526703N01137927EA0000001180
B1249095526602N01137911EA0000001163
B1249155526468N01137877EA0000001134
B1249205526354N01137827EA0000001125
B1249265526225N01137751EA0000001121
B1249335526083N01137647EA0000001112
B1249395525962N01137558EA0000001107
B1249445525862N01137491EA0000001105
B1249495525764N01137425EA0000001100
B1249555525648N01137342EA0000001096
B1250035525499N01137225EA0000001091
B1250395524900N01136811EA0000001134
B1250445524880N01136746EA0000001137
B1250495524932N01136768EA0000001144
B1250545524973N01136902EA0000001153
B1250595524965N01137072EA0000001159
B1251065524892N01137288EA0000001162
B1251125524804N01137332EA0000001172
B1251195524801N01137250EA0000001181
B1251255524868N01137318EA0000001190
B1251305524896N01137481EA0000001192
B1251365524882N01137695EA0000001198
B1251415524833N01137848EA0000001181
B1251475524724N01137985EA0000001165
B1251535524612N01138076EA0000001197
B1252025524455N01138174EA0000001180
B1252075524345N01138203EA0000001143
B1252125524216N01138223EA0000001119
B1252185524057N01138240EA0000001106
B1252255523869N01138262EA0000001101
B1252315523711N01138294EA0000001091
B1252375523549N01138326EA0000001085
B1252445523370N01138368EA0000001092
B1252525523173N01138418EA0000001071
B1252585523020N01138453EA0000001060
B1253035522891N01138483EA0000001052
B1253115522689N01138518EA0000001048
B1253175522541N01138536EA0000001040
B1253225522419N01138542EA0000001029
B1253305522224N01138539EA0000001021
B1253365522080N01138535EA0000001023
B1253435521913N01138528EA0000001015
B1253515521722N01138520EA0000001012
B1253575521583N01138516EA0000001028
B1254035521456N01138518EA0000001048
B1254085521360N01138532EA0000001069
B1254135521280N01138559EA0000001079
B1254205521152N01138593EA0000001048
B1254255521044N01138614EA0000001039
B1254305520932N01138641EA0000001028
B1254385520741N01138679EA0000001019
B1254445520605N01138718EA0000001030
B1254515520450N01138833EA0000001003
B1254575520308N01138949EA0000000987
B1255035520172N01139077EA0000000979
B1255085520057N01139189EA0000000966
B1255155519891N01139344EA0000000956
B1255205519773N01139443EA0000000974
B1255255519666N01139528EA0000000998
B1255325519546N01139651EA0000001024
B1255375519473N01139731EA0000001022
B1255435519380N01139810EA0000001027
B1255505519275N01139890EA0000001045
B1255585519148N01139980EA0000001042
B1256045519056N01140023EA0000001051
B1256095519006N01139997EA0000001037
B1256165519052N01139957EA0000001033
B1256215519104N01140013EA0000001046
B1256275519176N01140086EA0000001028
B1256325519246N01140140EA0000001033
B1256385519321N01140197EA0000001034
B1256445519405N01140228EA0000001014
B1256495519479N01140248EA0000001016
B1256555519563N01140289EA0000001033
B1257015519638N01140343EA0000001042
B1257065519697N01140392EA0000001028
B1257115519778N01140445EA0000000978
B1257165519880N01140502EA0000000966
B1257245520040N01140604EA0000000956
B1257295520137N01140662EA0000000948
B1257345520233N01140715EA0000000936
B1257415520376N01140796EA0000000925
B1257465520470N01140858EA0000000955
B1257525520571N01140933EA0000000966
B1257575520640N01140996EA0000000986
B1258045520743N01141096EA0000000964
B1258095520827N01141171EA0000000973
B1258145520893N01141241EA0000000999
B1258205520962N01141310EA0000000989
B1258255521030N01141355EA0000000966
B1258315521138N01141412EA0000000924
B1258405521326N01141508EA0000000914
B1258465521443N01141569EA0000000927
B1258525521554N01141634EA0000000923
B1258575521647N01141685EA0000000916
B1259045521782N01141752EA0000000901
B1259095521882N01141803EA0000000887
B1259145521981N01141852EA0000000883
B1259235522144N01141945EA0000000892
B1259295522250N01142012EA0000000882
B1259365522372N01142071EA0000000883
B1259415522458N01142112EA0000000895
B1259485522553N01142184EA0000000918
B1259555522650N01142261EA0000000885
B1300025522773N01142341EA0000000860
B1300085522877N01142404EA0000000841
B1300135522969N01142454EA0000000826
B1300215523115N01142531EA0000000814
B1300305523284N01142614EA0000000808
B1300355523371N01142666EA0000000823
B1300415523453N01142727EA0000000849
B1300465523507N01142780EA0000000863
B1300525523571N01142844EA0000000873
B1300575523608N01142835EA0000000863
B1301025523591N01142769EA0000000865
B1301095523511N01142722EA0000000866
B1301145523427N01142756EA0000000868
B1301215523338N01142945EA0000000875
B1301265523326N01143103EA0000000882
B1301315523366N01143205EA0000000885
B1301385523413N01143179EA0000000881
B1301465523419N01143085EA0000000902
B1301525523426N01143022EA0000000891
B1301575523442N01142949EA0000000882
B1302035523458N01142875EA0000000912
B1302095523468N01142812EA0000000916
B1302155523476N01142752EA0000000930
B1302215523484N01142680EA0000000938
B1302265523492N01142629EA0000000940
B1302325523503N01142566EA0000000950
B1302395523538N01142497EA0000000913
B1302465523630N01142449EA0000000919
B1302525523696N01142446EA0000000949
B1302575523745N01142452EA0000000954
B1303025523791N01142459EA0000000959
B1303075523838N01142470EA0000000951
B1303145523929N01142460EA0000000912
B1304085524772N01142071EA0000000888
B1304165524842N01141992EA0000000895
B1304235524907N01141925EA0000000891
B1304295524964N01141878EA0000000909
B1304365525007N01141812EA0000000902
B1304435525054N01141714EA0000000859
B1304495525108N01141599EA0000000851
B1304575525174N01141443EA0000000849
B1305025525206N01141339EA0000000846
B1305075525233N01141238EA0000000866
B1305145525258N01141144EA0000000894
B1305215525280N01141081EA0000000899
B1305275525291N01141021EA0000000890
B1305325525302N01140955EA0000000875
B1305385525319N01140845EA0000000843
B1305435525336N01140735EA0000000838
B1305485525356N01140627EA0000000839
B1305545525371N01140528EA0000000875
B1305595525381N01140473EA0000000898
B1306055525340N01140419EA0000000897
B1306105525272N01140522EA0000000925
B1306155525276N01140690EA0000000928
B1306225525346N01140737EA0000000940
B1306275525313N01140693EA0000000951
B1306325525238N01140791EA0000000960
B1306395525268N01140994EA0000000979
B1306445525307N01140973EA0000000983
B1306495525253N01140951EA0000000997
B1306565525191N01141155EA0000001016
B1307015525243N01141249EA0000001019
B1307305525179N01141439EA0000001064
B1307495525154N01141763EA0000001086
B1307555525138N01141699EA0000001102
B1308085525003N01141909EA0000001118
B1308135525045N01142035EA0000001130
B1308215525080N01142004EA0000001133
B1308265525005N01142043EA0000001129
B1308325524975N01142243EA0000001148
B1308375525025N01142338EA0000001145
B1308485525038N01142267EA0000001148
B1308585524931N01142492EA0000001159
B1309035524977N01142612EA0000001158
B1309275525253N01142568EA0000001088
B1309365525405N01142496EA0000001064
B1309425525508N01142451EA0000001059
B1309495525627N01142399EA0000001045
B1309545525712N01142363EA0000001040
B1309595525795N01142335EA0000001042
B1310045525878N01142315EA0000001030
B1310105525982N01142294EA0000001011
B1310165526086N01142270EA0000001001
B1310215526175N01142252EA0000001000
B1310295526300N01142236EA0000001034
B1310365526390N01142232EA0000001048
B1310425526471N01142222EA0000001026
B1311335527350N01142065EA0000000971
B1311385527441N01142055EA0000000967
B1311445527549N01142039EA0000000953
B1311495527639N01142019EA0000000944
B1311575527784N01141984EA0000000922
B1312025527875N01141968EA0000000915
B1312115528038N01141955EA0000000907
B1312175528147N01141944EA0000000884
B1312235528254N01141930EA0000000894
B1312305528375N01141910EA0000000890
B1312355528459N01141898EA0000000885
B1312465528646N01141876EA0000000859
B1312515528729N01141868EA0000000850
B1312565528815N01141860EA0000000837
B1313045528955N01141845EA0000000827
B1313095529040N01141830EA0000000819
B1313175529171N01141792EA0000000805
B1313225529254N01141767EA0000000801
B1314175530071N01141453EA0000000815
B1314225530114N01141455EA0000000814
B1314275530165N01141444EA0000000788
B1314335530247N01141416EA0000000755
B1314395530345N01141397EA0000000743
B1314455530448N01141390EA0000000729
B1314515530551N01141392EA0000000725
B1314585530679N01141406EA0000000707
B1315065530824N01141420EA0000000703
B1315115530913N01141431EA0000000704
B1315165531001N01141453EA0000000702
B1315245531141N01141504EA0000000705
B1315305531240N01141553EA0000000725
B1315355531309N01141590EA0000000755
B1315405531344N01141555EA0000000759
B1315455531295N01141510EA0000000769
B1315505531219N01141608EA0000000770
B1315575531216N01141846EA0000000782
B1316025531273N01141939EA0000000790
B1316075531296N01141895EA0000000792
B1316145531193N01141913EA0000000803
B1316195531139N01142066EA0000000812
B1316245531158N01142231EA0000000809
B1316315531210N01142210EA0000000815
B1316385531111N01142242EA0000000832
B1316515531174N01142494EA0000000839
B1316585531102N01142436EA0000000839
B1317055531019N01142624EA0000000855
B1317105531050N01142780EA0000000852
B1317155531112N01142820EA0000000863
B1317225531192N01142829EA0000000866
B1317285531267N01142866EA0000000887
B1317335531316N01142875EA0000000881
B1317395531303N01142792EA0000000881
B1317445531243N01142757EA0000000880
B1317495531157N01142816EA0000000859
B1317565531077N01143067EA0000000870
B1318015531048N01143244EA0000000885
B1318065531088N01143369EA0000000870
B1318135531125N01143320EA0000000893
B1318185531059N01143313EA0000000885
B1318235530991N01143445EA0000000899
B1318315531044N01143653EA0000000899
B1318365531095N01143668EA0000000905
B1318415531094N01143610EA0000000898
B1318475531002N01143628EA0000000902
B1318525530946N01143778EA0000000909
B1318575530946N01143947EA0000000910
B1319045531017N01144069EA0000000916
B1319095531066N01144095EA0000000922
B1319185531147N01144083EA0000000929
B1319245531206N01144087EA0000000924
B1319325531311N01144060EA0000000877
B1319375531393N01144034EA0000000848
B1319445531517N01144005EA0000000836
B1319515531638N01143978EA0000000827
B1319565531722N01143959EA0000000820
B1320025531823N01143932EA0000000810
B1320075531905N01143908EA0000000803
B1320125531987N01143886EA0000000795
B1320185532091N01143857EA0000000769
B1320255532214N01143828EA0000000779
B1320305532298N01143811EA0000000769
B1320365532400N01143787EA0000000758
B1320415532485N01143767EA0000000750
B1320465532567N01143750EA0000000760
B1320525532646N01143748EA0000000798
B1320585532713N01143754EA0000000780
B1321055532821N01143738EA0000000737
B1321115532926N01143713EA0000000743
B1321215533094N01143668EA0000000715
B1321265533182N01143637EA0000000703
B1321335533302N01143600EA0000000697
B1321415533439N01143572EA0000000685
B1321555533678N01143539EA0000000666
B1322025533794N01143515EA0000000659
B1322075533874N01143497EA0000000656
B1322185534058N01143499EA0000000642
B1322275534220N01143594EA0000000624
B1322345534348N01143689EA0000000620
B1322395534438N01143758EA0000000610
B1322455534548N01143837EA0000000603
B1322545534707N01143951EA0000000578
B1323025534858N01144047EA0000000567
B1323145535075N01144166EA0000000557
B1323235535238N01144258EA0000000557
B1323295535327N01144323EA0000000585
B1323365535414N01144399EA0000000596
B1323415535471N01144456EA0000000597
B1323475535542N01144472EA0000000599
B1323525535565N01144420EA0000000608
B1323575535518N01144384EA0000000619
B1324025535460N01144487EA0000000626
B1324115535515N01144686EA0000000635
B1324165535523N01144627EA0000000645
B1324215535460N01144642EA0000000660
B1324265535423N01144792EA0000000663
B1324345535493N01144921EA0000000679
B1324445535401N01144943EA0000000702
B1324535535448N01145156EA0000000718
B1325005535433N01145083EA0000000728
B1325055535365N01145177EA0000000744
B1325135535416N01145365EA0000000759
B1325185535421N01145307EA0000000767
B1325235535349N01145345EA0000000781
B1325285535336N01145513EA0000000787
B1325385535389N01145513EA0000000805
B1325435535318N01145563EA0000000821
B1325515535342N01145802EA0000000838
B1325565535386N01145787EA0000000840
B1326085535278N01145922EA0000000859
B1326145535339N01146066EA0000000869
B1326195535384N01146053EA0000000870
B1326255535362N01145976EA0000000877
B1326315535284N01146031EA0000000886
B1326385535273N01146267EA0000000887
B1326435535328N01146326EA0000000892
B1326495535338N01146269EA0000000897
B1326545535279N01146237EA0000000899
B1326595535228N01146201EA0000000907
B1327045535184N01146164EA0000000922
B1327095535142N01146124EA0000000924
B1327185535069N01146045EA0000000934
B1327235535020N01145993EA0000000923
B1327305534950N01145928EA0000000931
B1327355534894N01145879EA0000000901
B1327405534825N01145804EA0000000892
B1327495534723N01145686EA0000000912
B1327545534667N01145628EA0000000908
B1327595534611N01145572EA0000000899
B1328065534516N01145472EA0000000865
B1328135534409N01145357EA0000000856
B1328185534330N01145273EA0000000845
B1328235534249N01145184EA0000000838
B1328295534150N01145081EA0000000825
B1328355534047N01144971EA0000000813
B1328405533965N01144886EA0000000813
B1328495533815N01144738EA0000000801
B1328565533697N01144626EA0000000791
B1329315533112N01144062EA0000000749
B1329405532968N01143917EA0000000731
B1329475532855N01143812EA0000000727
B1329545532742N01143709EA0000000707
B1330005532643N01143616EA0000000698
B1330055532562N01143546EA0000000711
B1330105532495N01143496EA0000000738
B1330185532390N01143423EA0000000702
B1330235532311N01143349EA0000000709
B1330285532241N01143285EA0000000724
B1330335532169N01143220EA0000000702
B1330395532073N01143128EA0000000688
B1331325531127N01142310EA0000000637
B1331425530939N01142147EA0000000604
B1331475530845N01142051EA0000000608
B1331545530717N01141930EA0000000609
B1332045530529N01141747EA0000000596
B1332095530434N01141656EA0000000594
B1332175530289N01141517EA0000000603
B1332255530151N01141383EA0000000598
B1332315530049N01141285EA0000000592
B1332385529920N01141164EA0000000563
B1332485529733N01140977EA0000000553
B1332555529597N01140855EA0000000539
B1333405528777N01140155EA0000000486
B1333485528631N01140031EA0000000477
B1334015528400N01139843EA0000000468
B1334085528269N01139780EA0000000455
B1334135528165N01139760EA0000000438
B1334205528018N01139748EA0000000455
B1334285527911N01139706EA0000000490
B1334335527923N01139638EA0000000490
B1334405527997N01139634EA0000000503
B1334455528051N01139735EA0000000520
B1334505528078N01139896EA0000000521
B1334575528040N01140143EA0000000516
B1335025527970N01140260EA0000000520
B1335085527883N01140290EA0000000537
B1335145527837N01140243EA0000000545
B1335215527801N01140158EA0000000523
B1335285527728N01140071EA0000000502
B1335355527629N01140012EA0000000498
B1335425527535N01139962EA0000000497
B1335485527458N01139899EA0000000487
B1335545527380N01139829EA0000000491
B1336025527301N01139726EA0000000505
B1336075527309N01139670EA0000000508
B1336125527358N01139686EA0000000506
B1336175527407N01139803EA0000000508
B1336225527408N01139985EA0000000520
B1336275527368N01140153EA0000000532
B1336325527293N01140242EA0000000532
B1336395527227N01140181EA0000000534
B1336445527254N01140142EA0000000531
B1336495527314N01140199EA0000000533
B1336565527345N01140431EA0000000549
B1337015527296N01140581EA0000000560
B1337065527223N01140589EA0000000563
B1337135527241N01140523EA0000000573
B1337185527300N01140605EA0000000576
B1337235527309N01140776EA0000000596
B1337305527217N01140930EA0000000609
B1337355527154N01140903EA0000000614
B1337405527159N01140842EA0000000620
B1337475527237N01140919EA0000000621
B1337525527271N01141074EA0000000638
B1337575527230N01141233EA0000000642
B1338045527112N01141306EA0000000644
B1338115527089N01141214EA0000000654
B1339025527007N01142050EA0000000724
B1339075526922N01142065EA0000000735
B1339125526882N01142000EA0000000735
B1339175526889N01141919EA0000000726
B1339245526899N01141805EA0000000728
B1339315526906N01141684EA0000000711
B1340235526961N01140699EA0000000701
B1340295526974N01140589EA0000000694
B1340365526985N01140453EA0000000672
B1340445527003N01140291EA0000000669
B1340495527017N01140202EA0000000666
B1340545527060N01140134EA0000000654
B1341015527115N01140029EA0000000648
B1341065527146N01139955EA0000000654
B1341115527167N01139882EA0000000649
B1341205527248N01139795EA0000000642
B1341295527338N01139728EA0000000620
B1341365527413N01139682EA0000000607
B1341415527466N01139647EA0000000595
B1341485527543N01139584EA0000000574
B1341555527618N01139498EA0000000554
B1342025527668N01139383EA0000000572
B1342085527704N01139307EA0000000575
B1342135527734N01139245EA0000000572
B1342205527775N01139148EA0000000572
B1342255527797N01139073EA0000000579
B1342315527811N01138977EA0000000569
B1342365527825N01138880EA0000000569
B1342415527841N01138756EA0000000554
B1342465527855N01138640EA0000000602
B1342535527875N01138532EA0000000649
B1342595527898N01138449EA0000000650
B1343055527919N01138331EA0000000632
B1343115527946N01138224EA0000000636
B1343175527980N01138136EA0000000638
B1343245528039N01138072EA0000000634
B1343325528138N01138062EA0000000622
B1343385528222N01138085EA0000000619
B1343445528309N01138092EA0000000620
B1343495528356N01138057EA0000000624
B1343545528362N01137980EA0000000610
B1344025528285N01137870EA0000000601
B1344075528199N01137872EA0000000600
B1344125528107N01137944EA0000000601
B1344185528009N01138102EA0000000586
B1344265527893N01138371EA0000000576
B1344355527788N01138705EA0000000570
B1344415527716N01138924EA0000000562
B1344465527645N01139095EA0000000559
B1344525527545N01139235EA0000000566
B1344575527460N01139266EA0000000557
B1345025527407N01139222EA0000000549
B1345095527411N01139136EA0000000548
B1345165527466N01139097EA0000000549
B1345265527510N01138984EA0000000535
B1345325527515N01138894EA0000000545
B1346475527591N01137688EA0000000426
B1346545527545N01137566EA0000000409
B1347045527426N01137459EA0000000395
B1347125527311N01137375EA0000000385
B1348035526530N01137722EA0000000328
B1348085526505N01137955EA0000000313
B1348145526480N01138243EA0000000289
B1348205526462N01138541EA0000000274
B1348265526461N01138840EA0000000268
B1348335526478N01139177EA0000000253
B1348415526543N01139534EA0000000241
B1348485526641N01139776EA0000000240
B1348535526726N01139891EA0000000245
B1348595526831N01140001EA0000000237
B1349045526919N01140054EA0000000225
B1349105527021N01140058EA0000000210
B1349155527094N01140022EA0000000203
B1349205527137N01139939EA0000000191
B1350115527149N01138736EA0000000041
B1350185527147N01138552EA0000000034
B1350265527141N01138405EA0000000036
