AOGNOGN
HFDTE170825
HFFXA050
HFPLTPILOTINCHARGE:
HFGTYGLIDERTYPE:ASH-26 E
HFGIDGLIDERID:OY-UBX
HFDTM100GPSDATUM:WGS-1984
HFRFWFIRMWAREVERSION:
HFRHWHARDWAREVERSION:
HFFTYFRTYPE:OGN-FLIGHTBOOK
HFGPSGENERIC
HFPRSPRESSALTSENSOR:
HFCIDCOMPETITIONID:HB
B1046595537891N00845563EA0000000036
B1047035537897N00845490EA0000000036
B1047095537908N00845353EA0000000042
B1047165537917N00845183EA0000000061
B1047295537930N00844852EA0000000090
B1047375537944N00844638EA0000000109
B1047425537984N00844527EA0000000125
B1047485538052N00844436EA0000000147
B1047565538166N00844418EA0000000180
B1048025538241N00844493EA0000000193
B1048115538296N00844701EA0000000212
B1048215538292N00844973EA0000000245
B1048295538286N00845191EA0000000271
B1048355538285N00845347EA0000000291
B1048425538287N00845530EA0000000303
B1048525538291N00845799EA0000000322
B1049015538327N00846020EA0000000352
B1049075538346N00846174EA0000000366
B1049155538338N00846394EA0000000376
B1049215538293N00846545EA0000000386
B1049285538236N00846711EA0000000409
B1049335538197N00846828EA0000000428
B1049385538195N00846959EA0000000428
B1049445538269N00847032EA0000000435
B1049495538325N00846957EA0000000448
B1049585538295N00846753EA0000000475
B1050035538229N00846695EA0000000484
B1050105538154N00846795EA0000000496
B1050155538181N00846902EA0000000500
B1050215538252N00846883EA0000000497
B1050265538270N00846770EA0000000498
B1050375538265N00846509EA0000000512
B1050425538224N00846415EA0000000510
B1050475538156N00846429EA0000000514
B1050535538096N00846543EA0000000514
B1050585538048N00846632EA0000000522
B1051035537996N00846719EA0000000528
B1051085537940N00846804EA0000000538
B1051135537890N00846882EA0000000549
B1051185537826N00846918EA0000000537
B1051245537750N00846980EA0000000535
B1051315537671N00847092EA0000000532
B1051405537575N00847223EA0000000534
B1051515537460N00847386EA0000000536
B1051565537406N00847462EA0000000539
B1052195537158N00847843EA0000000558
B1053175536440N00848514EA0000000530
B1053265536362N00848317EA0000000520
B1053325536312N00848181EA0000000512
B1054095536229N00847742EA0000000553
B1054275536217N00847619EA0000000548
B1054335536216N00847765EA0000000540
B1054415536201N00847952EA0000000540
B1054465536242N00848054EA0000000537
B1054575536349N00848278EA0000000516
B1055025536397N00848391EA0000000506
B1056445537391N00847948EA0000000465
B1057255537665N00846904EA0000000422
B1057405537730N00846561EA0000000422
B1057465537704N00846430EA0000000419
B1057535537621N00846491EA0000000414
B1057585537635N00846608EA0000000410
B1058055537715N00846676EA0000000413
B1058125537739N00846528EA0000000413
B1058175537685N00846439EA0000000418
B1058225537613N00846441EA0000000415
B1058295537579N00846596EA0000000407
B1058345537620N00846685EA0000000406
B1058415537712N00846707EA0000000404
B1058475537786N00846654EA0000000405
B1058535537841N00846550EA0000000407
B1058595537876N00846417EA0000000417
B1059055537885N00846280EA0000000425
B1059105537820N00846241EA0000000430
B1059155537783N00846339EA0000000437
B1059205537821N00846430EA0000000447
B1059255537882N00846413EA0000000453
B1059315537901N00846279EA0000000460
B1059365537845N00846210EA0000000462
B1059435537769N00846310EA0000000469
B1059485537794N00846413EA0000000480
B1059535537856N00846418EA0000000486
B1059595537888N00846292EA0000000495
B1100045537843N00846203EA0000000494
B1100105537754N00846234EA0000000490
B1100175537728N00846401EA0000000504
B1100225537770N00846488EA0000000513
B1100275537833N00846475EA0000000520
B1100335537856N00846345EA0000000528
B1100385537803N00846268EA0000000534
B1100435537733N00846304EA0000000537
B1100505537722N00846464EA0000000550
B1100585537821N00846487EA0000000553
B1101035537854N00846374EA0000000556
B1101105537788N00846243EA0000000565
B1101155537715N00846275EA0000000561
B1101235537693N00846461EA0000000581
B1101335537810N00846479EA0000000583
B1101405537808N00846308EA0000000590
B1101465537732N00846234EA0000000589
B1101565537627N00846385EA0000000597
B1102035537695N00846477EA0000000603
B1102135537704N00846288EA0000000630
B1102255537589N00846425EA0000000632
B1102315537645N00846532EA0000000637
B1102365537715N00846525EA0000000647
B1102535537622N00846406EA0000000665
B1102585537639N00846520EA0000000671
B1103065537740N00846516EA0000000683
B1103265537620N00846479EA0000000695
B1103405537781N00846512EA0000000715
B1103495537761N00846303EA0000000717
B1104135537727N00846562EA0000000743
B1104265537720N00846314EA0000000745
B1104355537614N00846411EA0000000750
B1104405537626N00846527EA0000000760
B1104455537687N00846574EA0000000767
B1104565537720N00846380EA0000000771
B1105115537627N00846574EA0000000784
B1105165537687N00846615EA0000000790
B1105215537737N00846545EA0000000794
B1105285537708N00846400EA0000000794
B1105425537602N00846594EA0000000804
B1105595537682N00846487EA0000000813
B1106075537595N00846581EA0000000818
B1106185537700N00846674EA0000000827
B1106255537689N00846526EA0000000825
B1106355537583N00846628EA0000000834
B1106545537671N00846541EA0000000837
B1107025537585N00846637EA0000000845
B1107115537668N00846745EA0000000849
B1107315537586N00846718EA0000000856
B1107365537646N00846763EA0000000856
B1107435537693N00846636EA0000000855
B1107505537618N00846552EA0000000857
B1108025537573N00846782EA0000000864
B1108105537673N00846815EA0000000863
B1108205537678N00846622EA0000000851
B1108255537610N00846590EA0000000857
B1108445537575N00846899EA0000000856
B1108555537719N00847006EA0000000850
B1109005537781N00847048EA0000000848
B1109055537842N00847097EA0000000840
B1109185538000N00847231EA0000000827
B1109235538057N00847290EA0000000820
B1109315538155N00847391EA0000000801
B1109405538272N00847506EA0000000786
B1109475538369N00847582EA0000000785
B1109535538446N00847659EA0000000781
B1110025538543N00847824EA0000000776
B1110075538585N00847928EA0000000776
B1110175538490N00848051EA0000000781
B1110275538556N00847912EA0000000791
B1110325538565N00848046EA0000000798
B1110375538489N00848096EA0000000805
B1110475538484N00847897EA0000000815
B1110525538542N00847975EA0000000816
B1111135538522N00847983EA0000000840
B1111315538449N00847904EA0000000863
B1111575538473N00847942EA0000000888
B1112065538385N00848067EA0000000898
B1112205538450N00847876EA0000000902
B1112405538368N00847838EA0000000914
B1112505538483N00847943EA0000000922
B1112555538478N00848069EA0000000932
B1113145538373N00847975EA0000000946
B1113245538433N00848127EA0000000956
B1113295538360N00848175EA0000000961
B1113395538347N00847966EA0000000968
B1113465538429N00848019EA0000000967
B1114075538311N00847893EA0000000977
B1114175538396N00848034EA0000000967
B1114275538247N00848107EA0000000979
B1114355538203N00847914EA0000000986
B1114435538141N00847748EA0000000977
B1114505538039N00847762EA0000000966
B1115025537928N00847969EA0000000946
B1115225537848N00848410EA0000000912
B1116105537793N00848747EA0000000811
B1116265537718N00849118EA0000000824
B1116585537723N00849783EA0000000828
B1117035537706N00849905EA0000000829
B1117115537605N00849974EA0000000826
B1117165537542N00849919EA0000000831
B1117245537499N00849744EA0000000834
B1117525537451N00849819EA0000000830
B1117595537520N00849722EA0000000833
B1118375537552N00848792EA0000000800
B1118425537531N00848656EA0000000795
B1119095537653N00847990EA0000000745
B1119145537722N00847934EA0000000736
B1119255537887N00847822EA0000000719
B1119315537983N00847773EA0000000711
B1119385538099N00847734EA0000000701
B1119505538302N00847726EA0000000696
B1119565538396N00847724EA0000000697
B1120015538473N00847738EA0000000697
B1120085538574N00847769EA0000000704
B1120185538711N00847847EA0000000692
B1120255538815N00847842EA0000000674
B1120335538930N00847790EA0000000677
B1120425539053N00847701EA0000000679
B1120505539162N00847605EA0000000670
B1121055539357N00847401EA0000000669
B1121105539418N00847335EA0000000667
B1121165539501N00847278EA0000000667
B1121215539557N00847206EA0000000670
B1121265539581N00847095EA0000000664
B1121315539555N00846977EA0000000657
B1121385539461N00846907EA0000000638
B1121435539393N00846958EA0000000631
B1121495539351N00847089EA0000000616
B1121565539315N00847263EA0000000612
B1122015539276N00847383EA0000000605
B1122165539149N00847713EA0000000597
B1122255539028N00847841EA0000000587
B1122385538830N00847963EA0000000568
B1122445538736N00848029EA0000000558
B1122525538622N00848141EA0000000560
B1122585538550N00848225EA0000000584
B1123135538424N00848146EA0000000584
B1123185538488N00848127EA0000000588
B1123325538420N00848304EA0000000607
B1123395538408N00848154EA0000000602
B1123465538495N00848135EA0000000604
B1123515538532N00848231EA0000000620
B1123595538472N00848363EA0000000628
B1124125538514N00848237EA0000000645
B1124215538445N00848353EA0000000656
B1124275538430N00848223EA0000000664
B1124345538516N00848216EA0000000667
B1124425538475N00848370EA0000000679
B1124515538434N00848203EA0000000692
B1124585538516N00848224EA0000000706
B1125075538453N00848366EA0000000714
B1125155538422N00848204EA0000000724
B1125225538507N00848210EA0000000733
B1125275538509N00848331EA0000000743
B1125415538436N00848193EA0000000766
B1125475538504N00848233EA0000000774
B1125585538417N00848351EA0000000788
B1126125538501N00848219EA0000000810
B1126225538415N00848331EA0000000823
B1126275538406N00848216EA0000000833
B1126325538466N00848188EA0000000840
B1126435538432N00848371EA0000000853
B1126505538393N00848229EA0000000863
B1126585538483N00848231EA0000000879
B1127065538443N00848378EA0000000884
B1127175538402N00848190EA0000000900
B1127245538488N00848214EA0000000908
B1127345538414N00848351EA0000000912
B1127435538416N00848169EA0000000924
B1127485538480N00848203EA0000000930
B1127575538413N00848340EA0000000932
B1128065538420N00848162EA0000000956
B1128115538477N00848208EA0000000958
B1128205538407N00848340EA0000000958
B1128305538423N00848153EA0000000976
B1128455538427N00848359EA0000000967
B1128595538421N00848087EA0000000986
B1129075538517N00848119EA0000000964
B1129175538429N00848197EA0000000952
B1129255538360N00848040EA0000000968
B1129375538338N00847767EA0000000963
B1129425538403N00847742EA0000000960
B1129475538468N00847765EA0000000948
B1129545538572N00847755EA0000000929
B1130005538669N00847740EA0000000926
B1130065538765N00847715EA0000000934
B1130225538871N00847472EA0000000957
B1130385538868N00847619EA0000000976
B1130435538894N00847510EA0000000979
B1131015538824N00847600EA0000001004
B1131365538891N00847438EA0000001012
B1131435538809N00847337EA0000001002
B1131485538746N00847389EA0000001022
B1131545538736N00847515EA0000001026
B1131595538790N00847567EA0000001033
B1132175538744N00847336EA0000001041
B1132265538710N00847511EA0000001048
B1132325538776N00847564EA0000001052
B1132375538821N00847475EA0000001052
B1132425538794N00847361EA0000001056
B1132475538725N00847343EA0000001063
B1132585538724N00847542EA0000001075
B1133055538793N00847454EA0000001075
B1133225538712N00847528EA0000001096
B1133285538777N00847467EA0000001098
B1133335538755N00847345EA0000001094
B1133385538680N00847326EA0000001102
B1133465538650N00847485EA0000001112
B1133525538718N00847532EA0000001113
B1134025538716N00847336EA0000001109
B1134085538633N00847378EA0000001121
B1134145538604N00847505EA0000001117
B1134195538652N00847597EA0000001118
B1134255538741N00847653EA0000001107
B1134325538857N00847705EA0000001100
B1134545539216N00847833EA0000001095
B1135135539551N00847918EA0000001078
B1135245539746N00847958EA0000001067
B1135525540249N00847994EA0000001035
B1136085540526N00848007EA0000001036
B1136235540776N00848004EA0000001023
B1136535541237N00848034EA0000000999
B1137085541506N00848015EA0000000955
B1137135541595N00848002EA0000000962
B1137245541780N00847971EA0000000952
B1137345541954N00847958EA0000000931
B1137575542374N00847949EA0000000893
B1138025542468N00847941EA0000000900
B1138085542566N00847930EA0000000916
B1138145542656N00847918EA0000000910
B1138195542741N00847907EA0000000906
B1138275542863N00847888EA0000000939
B1138505543208N00847762EA0000000917
B1138595543366N00847726EA0000000921
B1139075543508N00847693EA0000000908
B1139135543615N00847670EA0000000906
B1139235543792N00847639EA0000000903
B1139295543897N00847629EA0000000902
B1139355544000N00847624EA0000000906
B1139415544101N00847621EA0000000905
B1139595544413N00847608EA0000000892
B1140105544623N00847606EA0000000887
B1140165544727N00847613EA0000000908
B1140315544988N00847644EA0000000894
B1140365545071N00847651EA0000000920
B1140435545171N00847670EA0000000952
B1140515545283N00847677EA0000000930
B1140585545407N00847672EA0000000938
B1141035545488N00847668EA0000000932
B1141105545617N00847665EA0000000907
B1141165545726N00847657EA0000000917
B1141225545826N00847647EA0000000930
B1141275545902N00847650EA0000000942
B1141335545985N00847665EA0000000949
B1141415546104N00847685EA0000000945
B1141485546210N00847703EA0000000948
B1141565546341N00847719EA0000000926
B1142035546468N00847733EA0000000912
B1142095546575N00847743EA0000000903
B1142155546678N00847754EA0000000893
B1142215546784N00847768EA0000000883
B1142265546876N00847784EA0000000876
B1142325546984N00847804EA0000000873
B1142385547095N00847830EA0000000872
B1142465547230N00847852EA0000000868
B1142515547319N00847865EA0000000874
B1142565547403N00847870EA0000000876
B1143025547503N00847864EA0000000878
B1143075547585N00847859EA0000000883
B1143125547664N00847843EA0000000893
B1143185547752N00847795EA0000000900
B1143235547831N00847760EA0000000896
B1143315547963N00847720EA0000000876
B1143385548095N00847715EA0000000868
B1144295548944N00848207EA0000000847
B1144395549076N00848316EA0000000851
B1144495549164N00848492EA0000000866
B1144545549116N00848587EA0000000867
B1145015549089N00848448EA0000000891
B1145095549180N00848521EA0000000914
B1145155549120N00848630EA0000000923
B1145205549074N00848544EA0000000935
B1145255549121N00848456EA0000000955
B1145325549175N00848592EA0000000967
B1145415549079N00848572EA0000000990
B1145465549126N00848485EA0000001005
B1145515549178N00848569EA0000001015
B1145565549137N00848687EA0000001018
B1146025549073N00848611EA0000001029
B1146085549142N00848542EA0000001039
B1146135549164N00848672EA0000001054
B1146185549095N00848712EA0000001065
B1146255549107N00848572EA0000001081
B1146315549177N00848658EA0000001096
B1146385549110N00848778EA0000001092
B1146475549105N00848607EA0000001119
B1146545549189N00848673EA0000001116
B1147015549135N00848820EA0000001102
B1147075549086N00848711EA0000001108
B1147135549117N00848592EA0000001136
B1147205549209N00848585EA0000001124
B1147285549307N00848718EA0000001103
B1147345549392N00848845EA0000001104
B1147425549500N00849003EA0000001125
B1147525549626N00849181EA0000001119
B1147595549731N00849331EA0000001109
B1148055549822N00849456EA0000001124
B1148135549938N00849599EA0000001125
B1148225550069N00849756EA0000001109
B1148285550163N00849862EA0000001100
B1148385550318N00850066EA0000001085
B1148465550431N00850235EA0000001085
B1148535550528N00850383EA0000001075
B1148585550595N00850491EA0000001076
B1149055550682N00850644EA0000001078
B1149105550743N00850755EA0000001087
B1149205550860N00850931EA0000001104
B1149275550953N00851068EA0000001071
B1149365551085N00851260EA0000001062
B1149425551170N00851384EA0000001057
B1149495551274N00851523EA0000001050
B1149545551352N00851622EA0000001042
B1149595551431N00851723EA0000001039
B1150085551564N00851897EA0000001036
B1150145551653N00852014EA0000001021
B1150205551743N00852128EA0000001010
B1150325551942N00852352EA0000000970
B1150375552030N00852439EA0000000958
B1150425552117N00852532EA0000000951
B1150475552205N00852624EA0000000933
B1150565552367N00852792EA0000000930
B1151025552461N00852889EA0000000939
B1151085552549N00852987EA0000000933
B1151155552657N00853116EA0000000911
B1151205552731N00853221EA0000000913
B1151265552815N00853347EA0000000913
B1151315552886N00853451EA0000000917
B1151385552977N00853595EA0000000944
B1151445553029N00853715EA0000000967
B1151495553000N00853827EA0000000974
B1151545552926N00853777EA0000000981
B1151595552942N00853642EA0000000993
B1152055553014N00853684EA0000001011
B1152105552981N00853790EA0000001024
B1152155552907N00853741EA0000001030
B1152205552914N00853605EA0000001048
B1152275552997N00853626EA0000001058
B1152325552978N00853743EA0000001070
B1152385552893N00853690EA0000001085
B1152435552910N00853562EA0000001096
B1152485552975N00853571EA0000001102
B1152535552977N00853690EA0000001109
B1152585552902N00853697EA0000001123
B1153055552902N00853524EA0000001138
B1153105552966N00853532EA0000001141
B1153155552978N00853649EA0000001143
B1153205552920N00853722EA0000001161
B1153265552843N00853648EA0000001168
B1153325552868N00853502EA0000001178
B1153445553030N00853501EA0000001154
B1153495553123N00853522EA0000001158
B1153565553240N00853552EA0000001191
B1154035553348N00853595EA0000001176
B1154085553439N00853633EA0000001179
B1154155553566N00853680EA0000001181
B1154205553662N00853712EA0000001164
B1154255553753N00853731EA0000001170
B1154315553841N00853739EA0000001182
B1154365553901N00853723EA0000001172
B1154425553987N00853706EA0000001141
B1154505554121N00853702EA0000001147
B1154575554231N00853715EA0000001149
B1155035554322N00853718EA0000001154
B1155175554542N00853729EA0000001162
B1155235554639N00853752EA0000001161
B1155295554739N00853792EA0000001159
B1155575555241N00854069EA0000001125
B1156035555338N00854158EA0000001115
B1156085555422N00854235EA0000001101
B1156165555562N00854365EA0000001095
B1156265555728N00854523EA0000001083
B1156325555829N00854620EA0000001076
B1156405555965N00854752EA0000001067
B1156465556066N00854853EA0000001056
B1156515556152N00854943EA0000001043
B1156565556237N00855034EA0000001031
B1157015556322N00855123EA0000001023
B1157095556457N00855266EA0000000999
B1157145556544N00855355EA0000000994
B1157225556684N00855498EA0000000981
B1157305556817N00855622EA0000000995
B1157395556955N00855725EA0000001014
B1157465557056N00855796EA0000001016
B1157525557142N00855861EA0000001014
B1158025557289N00855977EA0000001025
B1158085557378N00856026EA0000001045
B1158145557461N00856045EA0000001035
B1158205557556N00856092EA0000001014
B1158255557641N00856147EA0000001002
B1158315557745N00856217EA0000000991
B1158405557900N00856335EA0000000983
B1158465558002N00856412EA0000000985
B1158515558086N00856478EA0000000989
B1158565558166N00856545EA0000000998
B1159035558274N00856635EA0000001025
B1159085558345N00856689EA0000001025
B1159155558465N00856773EA0000001003
B1159205558554N00856840EA0000001000
B1159265558653N00856912EA0000001008
B1159315558736N00856973EA0000000993
B1159365558824N00857034EA0000000979
B1159425558933N00857108EA0000000968
B1159485559042N00857181EA0000000957
B1159545559156N00857244EA0000000937
B1200055559380N00857356EA0000000914
B1200105559480N00857401EA0000000907
B1200165559596N00857456EA0000000900
B1200235559725N00857512EA0000000900
B1200285559811N00857545EA0000000900
B1200335559891N00857612EA0000000892
B1200405559964N00857779EA0000000889
B1200455600007N00857908EA0000000882
B1200515600068N00858060EA0000000866
B1200565600128N00858178EA0000000864
B1201025600194N00858304EA0000000890
B1201075600248N00858372EA0000000901
B1201125600317N00858367EA0000000903
B1201175600359N00858253EA0000000909
B1201225600327N00858123EA0000000915
B1201275600248N00858083EA0000000912
B1201325600174N00858151EA0000000916
B1201375600142N00858276EA0000000926
B1201425600163N00858390EA0000000934
B1201485600240N00858428EA0000000938
B1201545600324N00858370EA0000000935
B1202015600426N00858370EA0000000936
B1202065600499N00858399EA0000000932
B1202115600574N00858450EA0000000915
B1202165600652N00858515EA0000000901
B1202225600749N00858597EA0000000888
B1202285600847N00858674EA0000000878
B1202345600951N00858745EA0000000866
B1202415601074N00858818EA0000000855
B1202465601165N00858867EA0000000846
B1202535601288N00858926EA0000000840
B1202595601391N00858964EA0000000831
B1203055601494N00858994EA0000000813
B1203105601581N00859018EA0000000800
B1203185601718N00859064EA0000000779
B1203245601823N00859095EA0000000776
B1203305601927N00859132EA0000000768
B1203355602015N00859169EA0000000752
B1203415602115N00859239EA0000000754
B1203475602204N00859278EA0000000757
B1203525602275N00859309EA0000000734
B1204005602404N00859398EA0000000720
B1204065602496N00859479EA0000000728
B1204125602576N00859558EA0000000726
B1204175602648N00859636EA0000000715
B1204235602737N00859742EA0000000698
B1204295602827N00859863EA0000000683
B1204365602928N00900004EA0000000682
B1204425603010N00900115EA0000000685
B1204495603099N00900240EA0000000678
B1204545603165N00900331EA0000000668
B1205035603283N00900481EA0000000662
B1205085603344N00900565EA0000000651
B1205145603417N00900672EA0000000634
B1205235603540N00900832EA0000000614
B1205305603638N00900963EA0000000601
B1205365603721N00901069EA0000000599
B1205415603789N00901144EA0000000597
B1205465603851N00901229EA0000000597
B1205545603948N00901359EA0000000603
B1206015604036N00901436EA0000000609
B1206075604112N00901492EA0000000613
B1206125604177N00901520EA0000000618
B1206175604234N00901471EA0000000624
B1206225604237N00901352EA0000000623
B1206275604178N00901288EA0000000632
B1206325604121N00901331EA0000000635
B1206385604106N00901461EA0000000633
B1206445604145N00901572EA0000000637
B1206505604214N00901627EA0000000641
B1206555604276N00901630EA0000000644
B1207005604330N00901563EA0000000645
B1207065604331N00901422EA0000000641
B1207115604275N00901340EA0000000638
B1207165604209N00901329EA0000000641
B1207225604129N00901322EA0000000646
B1207275604062N00901324EA0000000648
B1207325604001N00901364EA0000000645
B1207385603938N00901454EA0000000654
B1207435603878N00901506EA0000000660
B1207485603816N00901444EA0000000659
B1207535603835N00901327EA0000000663
B1207585603897N00901357EA0000000664
B1208035603892N00901480EA0000000665
B1208085603835N00901544EA0000000677
B1208135603771N00901499EA0000000678
B1208185603772N00901381EA0000000680
B1208235603834N00901356EA0000000678
B1208285603880N00901443EA0000000673
B1208345603868N00901589EA0000000685
B1208395603809N00901658EA0000000679
B1208445603754N00901585EA0000000678
B1208495603770N00901469EA0000000693
B1208545603831N00901438EA0000000684
B1209005603892N00901535EA0000000692
B1209055603892N00901654EA0000000689
B1209105603835N00901722EA0000000686
B1209155603770N00901671EA0000000682
B1209215603719N00901553EA0000000690
B1209265603676N00901470EA0000000699
B1209315603637N00901375EA0000000702
B1209375603609N00901237EA0000000707
B1209425603551N00901167EA0000000701
B1209475603487N00901212EA0000000701
B1209525603475N00901321EA0000000710
B1209585603516N00901423EA0000000725
B1210035603575N00901441EA0000000717
B1210085603636N00901381EA0000000715
B1210135603679N00901297EA0000000726
B1210205603695N00901145EA0000000723
B1210285603651N00900972EA0000000715
B1210335603653N00900849EA0000000702
B1210395603714N00900742EA0000000707
B1210445603771N00900668EA0000000720
B1210495603817N00900593EA0000000736
B1210555603823N00900461EA0000000717
B1211015603741N00900434EA0000000724
B1211065603705N00900538EA0000000721
B1211115603729N00900644EA0000000723
B1211185603804N00900702EA0000000737
B1211235603861N00900719EA0000000725
B1211285603931N00900721EA0000000720
B1211365604057N00900717EA0000000729
B1211415604127N00900733EA0000000747
B1211485604207N00900803EA0000000751
B1211545604280N00900846EA0000000736
B1212015604384N00900859EA0000000714
B1212105604546N00900840EA0000000685
B1212155604641N00900823EA0000000677
B1212205604737N00900808EA0000000660
B1212265604853N00900783EA0000000637
B1212325604971N00900728EA0000000615
B1212395605101N00900635EA0000000609
B1212465605218N00900530EA0000000611
B1212525605310N00900426EA0000000601
B1212585605397N00900315EA0000000588
B1213035605470N00900219EA0000000581
B1213085605542N00900124EA0000000577
B1213165605643N00859947EA0000000562
B1213225605710N00859802EA0000000552
B1213275605767N00859682EA0000000544
B1213365605855N00859445EA0000000527
B1213435605917N00859255EA0000000520
B1213485605963N00859126EA0000000517
B1213535606011N00859003EA0000000528
B1213585606046N00858886EA0000000541
B1214035606024N00858773EA0000000535
B1214095605940N00858747EA0000000528
B1214145605903N00858849EA0000000523
B1214195605938N00858948EA0000000523
B1214245606000N00858982EA0000000531
B1214295606058N00859021EA0000000538
B1214345606115N00859072EA0000000533
B1214395606165N00859156EA0000000530
B1214445606210N00859250EA0000000540
B1214495606265N00859313EA0000000550
B1214545606320N00859243EA0000000549
B1214595606289N00859129EA0000000556
B1215045606221N00859154EA0000000560
B1215105606203N00859294EA0000000576
B1215155606247N00859372EA0000000579
B1215205606308N00859327EA0000000580
B1215255606319N00859202EA0000000587
B1215305606270N00859118EA0000000597
B1215355606204N00859136EA0000000602
B1215425606154N00859272EA0000000615
B1215485606184N00859387EA0000000620
B1215555606265N00859342EA0000000617
B1216005606275N00859219EA0000000620
B1216065606225N00859098EA0000000636
B1216135606132N00859090EA0000000638
B1216185606106N00859197EA0000000641
B1216235606152N00859271EA0000000649
B1216285606201N00859193EA0000000652
B1216335606176N00859076EA0000000665
B1216385606110N00859054EA0000000671
B1216435606063N00859134EA0000000667
B1216485606067N00859252EA0000000671
B1216535606116N00859312EA0000000676
B1216585606176N00859266EA0000000678
B1217045606183N00859123EA0000000686
B1217095606121N00859070EA0000000700
B1217155606067N00859162EA0000000697
B1217205606089N00859268EA0000000705
B1217255606148N00859285EA0000000710
B1217305606191N00859204EA0000000704
B1217355606179N00859077EA0000000714
B1217405606122N00859012EA0000000730
B1217455606058N00859034EA0000000735
B1217505606021N00859127EA0000000727
B1217555606021N00859243EA0000000737
B1218005606046N00859333EA0000000736
B1218055606098N00859380EA0000000722
B1218105606158N00859351EA0000000712
B1218175606229N00859231EA0000000701
B1218235606297N00859128EA0000000688
B1218285606348N00859029EA0000000703
B1218355606371N00858870EA0000000707
B1218405606318N00858793EA0000000712
B1218455606261N00858843EA0000000719
B1218505606263N00858954EA0000000727
B1218555606322N00858989EA0000000732
B1219005606371N00858911EA0000000734
B1219055606368N00858791EA0000000735
B1219105606323N00858695EA0000000739
B1219155606263N00858639EA0000000746
B1219205606201N00858665EA0000000759
B1219255606192N00858776EA0000000768
B1219315606261N00858831EA0000000775
B1219365606302N00858737EA0000000783
B1219415606276N00858627EA0000000781
B1219465606207N00858590EA0000000791
B1219515606148N00858630EA0000000812
B1219565606136N00858739EA0000000819
B1220015606185N00858819EA0000000830
B1220065606245N00858776EA0000000832
B1220125606250N00858633EA0000000829
B1220175606193N00858553EA0000000838
B1220225606125N00858541EA0000000864
B1220275606068N00858596EA0000000879
B1220325606072N00858707EA0000000893
B1220375606135N00858729EA0000000891
B1220425606180N00858636EA0000000903
B1220475606168N00858515EA0000000919
B1220525606114N00858437EA0000000936
B1220585606037N00858454EA0000000955
B1221035606010N00858557EA0000000965
B1221085606045N00858653EA0000000974
B1221145606119N00858622EA0000000976
B1221195606138N00858497EA0000000994
B1221245606089N00858413EA0000001018
B1221305606021N00858470EA0000001031
B1221355606026N00858579EA0000001050
B1221405606085N00858608EA0000001060
B1221465606137N00858497EA0000001072
B1221515606102N00858390EA0000001094
B1221565606038N00858404EA0000001108
B1222015606018N00858517EA0000001121
B1222065606067N00858591EA0000001139
B1222115606129N00858541EA0000001147
B1222165606130N00858412EA0000001161
B1222215606070N00858356EA0000001186
B1222265606019N00858425EA0000001193
B1222315606032N00858542EA0000001210
B1222365606094N00858576EA0000001224
B1222425606140N00858455EA0000001229
B1222475606100N00858347EA0000001245
B1222525606033N00858353EA0000001262
B1222585606007N00858483EA0000001281
B1223035606053N00858562EA0000001297
B1223085606114N00858523EA0000001304
B1223145606118N00858374EA0000001314
B1223195606056N00858316EA0000001332
B1223245606003N00858384EA0000001338
B1223295606012N00858505EA0000001353
B1223345606075N00858538EA0000001364
B1223415606106N00858390EA0000001371
B1223465606045N00858335EA0000001387
B1223515605992N00858413EA0000001392
B1223565606011N00858533EA0000001404
B1224025606087N00858520EA0000001412
B1224075606091N00858398EA0000001414
B1224125606029N00858340EA0000001427
B1224175605970N00858410EA0000001431
B1224225605978N00858535EA0000001449
B1224285606049N00858595EA0000001436
B1224345606141N00858630EA0000001415
B1224405606234N00858692EA0000001407
B1224455606313N00858755EA0000001394
B1224505606390N00858837EA0000001392
B1224555606459N00858933EA0000001389
B1225005606526N00859033EA0000001376
B1225065606621N00859137EA0000001355
B1225145606768N00859219EA0000001346
B1225195606863N00859263EA0000001337
B1225255606978N00859314EA0000001325
B1225305607074N00859357EA0000001325
B1225355607164N00859400EA0000001324
B1225405607257N00859444EA0000001321
B1225465607366N00859498EA0000001331
B1225525607470N00859552EA0000001324
B1225575607565N00859601EA0000001299
B1226035607681N00859660EA0000001311
B1226085607770N00859706EA0000001319
B1226135607864N00859756EA0000001314
B1226195607969N00859813EA0000001338
B1226245608042N00859859EA0000001354
B1226295608115N00859903EA0000001332
B1226345608204N00859959EA0000001314
B1226395608293N00900023EA0000001309
B1226455608399N00900109EA0000001313
B1226505608486N00900182EA0000001301
B1226575608603N00900283EA0000001305
B1227025608687N00900357EA0000001320
B1227105608798N00900486EA0000001347
B1227165608877N00900586EA0000001356
B1227225608964N00900684EA0000001361
B1227275609039N00900770EA0000001352
B1227335609133N00900875EA0000001341
B1227385609217N00900968EA0000001314
B1227455609338N00901099EA0000001305
B1227515609444N00901204EA0000001296
B1227565609534N00901284EA0000001285
B1228025609646N00901371EA0000001281
B1228105609795N00901480EA0000001285
B1228155609887N00901545EA0000001294
B1228215609989N00901619EA0000001304
B1228265610069N00901683EA0000001296
B1228315610150N00901756EA0000001277
B1228375610253N00901847EA0000001258
B1228435610364N00901936EA0000001257
B1228485610453N00902007EA0000001257
B1228535610546N00902069EA0000001248
B1228585610642N00902138EA0000001233
B1229065610797N00902260EA0000001227
B1229125610906N00902356EA0000001228
B1229175610994N00902428EA0000001234
B1229235611092N00902502EA0000001237
B1229305611211N00902595EA0000001221
B1229375611335N00902684EA0000001196
B1229465611506N00902798EA0000001186
B1229515611596N00902869EA0000001174
B1229565611691N00902943EA0000001159
B1230025611799N00903033EA0000001183
B1230075611866N00903102EA0000001214
B1230135611942N00903082EA0000001226
B1230185611950N00902957EA0000001236
B1230235611887N00902886EA0000001233
B1230295611798N00902930EA0000001233
B1230345611764N00903037EA0000001237
B1230405611801N00903148EA0000001239
B1230475611884N00903218EA0000001224
B1230545611986N00903307EA0000001222
B1231015612080N00903385EA0000001255
B1231065612141N00903428EA0000001247
B1231125612231N00903506EA0000001212
B1231175612311N00903592EA0000001208
B1231245612417N00903714EA0000001221
B1231295612489N00903796EA0000001238
B1231365612579N00903883EA0000001258
B1231415612640N00903927EA0000001261
B1231465612704N00903958EA0000001268
B1231535612796N00903989EA0000001256
B1231595612878N00904043EA0000001256
B1232055612961N00904122EA0000001230
B1232115613056N00904232EA0000001199
B1232185613160N00904378EA0000001194
B1232255613255N00904520EA0000001191
B1232305613323N00904622EA0000001180
B1232355613389N00904723EA0000001192
B1232405613439N00904826EA0000001220
B1232455613477N00904916EA0000001234
B1232515613511N00905034EA0000001243
B1233005613493N00905207EA0000001247
B1233055613417N00905176EA0000001232
B1233105613417N00905038EA0000001226
B1233155613476N00904983EA0000001231
B1233225613564N00905005EA0000001244
B1233275613626N00905033EA0000001238
B1233325613695N00905081EA0000001248
B1233375613757N00905130EA0000001267
B1233465613857N00905232EA0000001293
B1233515613921N00905204EA0000001304
B1233565613947N00905091EA0000001302
B1234025613890N00904971EA0000001296
B1234075613820N00905010EA0000001301
B1234125613798N00905119EA0000001307
B1234205613824N00905293EA0000001331
B1234265613869N00905394EA0000001322
B1234325613945N00905463EA0000001298
B1234385614040N00905522EA0000001274
B1234435614120N00905582EA0000001262
B1234485614209N00905645EA0000001238
B1234535614300N00905730EA0000001229
B1234585614388N00905819EA0000001240
B1235045614478N00905932EA0000001252
B1235095614554N00906042EA0000001243
B1235165614668N00906185EA0000001217
B1235265614841N00906383EA0000001191
B1235335614965N00906508EA0000001179
B1235395615071N00906616EA0000001172
B1235445615157N00906697EA0000001171
B1235525615297N00906825EA0000001161
B1235595615417N00906936EA0000001151
B1236045615505N00907016EA0000001160
B1236105615609N00907097EA0000001179
B1236165615694N00907162EA0000001216
B1236215615745N00907242EA0000001221
B1236265615719N00907363EA0000001222
B1236315615648N00907323EA0000001235
B1236365615656N00907198EA0000001241
B1236425615732N00907178EA0000001252
B1236505615733N00907356EA0000001246
B1236575615635N00907325EA0000001261
B1237025615617N00907205EA0000001266
B1237075615648N00907097EA0000001271
B1237125615706N00907045EA0000001282
B1237175615763N00907007EA0000001293
B1237225615830N00906980EA0000001276
B1237285615930N00906999EA0000001266
B1237345616038N00907043EA0000001269
B1237405616131N00907079EA0000001299
B1237455616197N00907128EA0000001278
B1237515616276N00907247EA0000001278
B1237565616341N00907330EA0000001287
B1238015616404N00907402EA0000001308
B1238085616482N00907496EA0000001317
B1238145616561N00907574EA0000001320
B1238215616655N00907657EA0000001325
B1238285616763N00907737EA0000001303
B1238345616867N00907811EA0000001275
B1238395616960N00907876EA0000001257
B1238445617051N00907935EA0000001251
B1238505617158N00908008EA0000001239
B1238565617268N00908082EA0000001227
B1239035617398N00908184EA0000001213
B1239085617492N00908259EA0000001207
B1239155617623N00908370EA0000001200
B1239225617745N00908471EA0000001208
B1239275617827N00908538EA0000001207
B1239335617927N00908615EA0000001203
B1239405618044N00908706EA0000001191
B1239465618146N00908786EA0000001173
B1239545618288N00908906EA0000001157
B1240005618391N00909000EA0000001153
B1240055618473N00909076EA0000001150
B1240115618570N00909162EA0000001144
B1240175618664N00909244EA0000001137
B1240235618759N00909324EA0000001130
B1240315618893N00909423EA0000001110
B1240375618992N00909498EA0000001111
B1240435619085N00909566EA0000001111
B1240485619163N00909619EA0000001100
B1240585619318N00909720EA0000001088
B1241045619413N00909792EA0000001073
B1241105619512N00909863EA0000001063
B1241175619621N00909931EA0000001056
B1241225619699N00909978EA0000001049
B1241275619777N00910008EA0000001054
B1241335619870N00910031EA0000001046
B1241385619950N00910050EA0000001050
B1241445620047N00910062EA0000001051
B1241535620186N00910070EA0000001066
B1241585620257N00910072EA0000001078
B1242055620344N00910109EA0000001080
B1242135620330N00910280EA0000001086
B1242195620247N00910214EA0000001097
B1242255620252N00910068EA0000001091
B1242305620311N00910010EA0000001091
B1242375620397N00910015EA0000001092
B1242425620451N00910088EA0000001079
B1243065620651N00910674EA0000001041
B1243135620699N00910875EA0000001032
B1243295620789N00911359EA0000001013
B1243435620867N00911769EA0000000977
B1243505620911N00911973EA0000000974
B1243565620946N00912143EA0000000964
B1244025620985N00912307EA0000000975
B1244125621062N00912573EA0000000963
B1244175621107N00912692EA0000000989
B1244235621163N00912787EA0000001007
B1244315621250N00912774EA0000001001
B1244365621253N00912654EA0000000991
B1244415621186N00912594EA0000000994
B1244465621130N00912666EA0000001006
B1244515621105N00912772EA0000001007
B1244565621121N00912890EA0000001004
B1245065621226N00912851EA0000000995
B1245135621168N00912718EA0000000987
B1245185621100N00912774EA0000000991
B1245265621064N00912959EA0000000999
B1245315621069N00913079EA0000000986
B1245385621116N00913255EA0000000965
B1245455621176N00913443EA0000000951
B1245585621292N00913808EA0000000923
B1246045621342N00913987EA0000000923
B1246095621369N00914134EA0000000934
B1246145621388N00914278EA0000000936
B1246205621412N00914456EA0000000933
B1246275621437N00914674EA0000000912
B1246355621469N00914933EA0000000892
B1246405621499N00915083EA0000000885
B1246455621537N00915225EA0000000870
B1246545621623N00915457EA0000000863
B1247005621684N00915599EA0000000851
B1247105621799N00915819EA0000000825
B1247205621921N00916035EA0000000831
B1247265621987N00916155EA0000000849
B1247315622022N00916260EA0000000859
B1247365622013N00916388EA0000000850
B1247425621932N00916431EA0000000859
B1247535621963N00916233EA0000000876
B1248285622021N00916466EA0000000901
B1248445622005N00916298EA0000000920
B1248505622049N00916419EA0000000924
B1248555622000N00916525EA0000000918
B1249055621930N00916359EA0000000925
B1249105621988N00916291EA0000000933
B1249155622055N00916313EA0000000944
B1249215622122N00916401EA0000000931
B1249275622193N00916524EA0000000921
B1249325622255N00916626EA0000000922
B1249425622377N00916811EA0000000934
B1249475622432N00916898EA0000000939
B1249535622499N00917002EA0000000941
B1249595622572N00917111EA0000000918
B1250085622686N00917310EA0000000899
B1250155622776N00917455EA0000000888
B1250225622862N00917598EA0000000894
B1250275622922N00917696EA0000000888
B1250325622985N00917794EA0000000887
B1250375623038N00917902EA0000000896
B1250455623118N00918086EA0000000875
B1250505623173N00918204EA0000000867
B1250555623229N00918318EA0000000870
B1251015623294N00918459EA0000000860
B1251075623359N00918591EA0000000863
B1251135623425N00918727EA0000000846
B1251185623478N00918850EA0000000846
B1251245623542N00918988EA0000000839
B1251295623600N00919104EA0000000830
B1251345623657N00919224EA0000000837
B1251395623709N00919337EA0000000851
B1251445623752N00919431EA0000000852
B1251505623814N00919530EA0000000832
B1251565623877N00919653EA0000000820
B1252025623938N00919794EA0000000810
B1252075623991N00919923EA0000000797
B1252125624039N00920055EA0000000796
B1252185624092N00920216EA0000000800
B1252235624137N00920349EA0000000793
B1252305624201N00920534EA0000000800
B1252375624254N00920695EA0000000821
B1252435624241N00920849EA0000000827
B1252485624163N00920831EA0000000838
B1252535624166N00920704EA0000000848
B1252585624226N00920721EA0000000865
B1253035624220N00920847EA0000000873
B1253085624142N00920876EA0000000877
B1253135624100N00920755EA0000000881
B1253185624147N00920669EA0000000896
B1253245624197N00920773EA0000000906
B1253295624142N00920868EA0000000914
B1253345624072N00920803EA0000000918
B1253395624083N00920674EA0000000926
B1253445624146N00920665EA0000000936
B1253535624117N00920858EA0000000949
B1253585624049N00920790EA0000000953
B1254035624066N00920669EA0000000963
B1254085624127N00920681EA0000000971
B1254145624114N00920828EA0000000977
B1254205624025N00920787EA0000000982
B1254295624087N00920637EA0000000996
B1254365624098N00920798EA0000001008
B1254415624018N00920804EA0000001017
B1254465623992N00920678EA0000001018
B1254515624046N00920613EA0000001026
B1255015624050N00920803EA0000001039
B1255065623980N00920742EA0000001045
B1255135624025N00920614EA0000001056
B1255195624069N00920723EA0000001068
B1255275623964N00920785EA0000001073
B1255325623952N00920660EA0000001078
B1255375624011N00920625EA0000001081
B1255425624047N00920723EA0000001099
B1255495624000N00920871EA0000001097
B1255545623931N00920809EA0000001098
B1255595623960N00920708EA0000001097
B1256045624018N00920760EA0000001111
B1256105624064N00920857EA0000001126
B1256155624086N00920965EA0000001127
B1256215624144N00921046EA0000001132
B1256265624195N00921111EA0000001137
B1256315624243N00921194EA0000001144
B1256365624289N00921282EA0000001147
B1256465624384N00921504EA0000001128
B1256525624426N00921690EA0000001110
B1256595624462N00921906EA0000001121
B1257045624482N00922056EA0000001117
B1257095624503N00922215EA0000001112
B1257145624525N00922381EA0000001101
B1257215624549N00922621EA0000001098
B1257265624575N00922779EA0000001099
B1257315624599N00922930EA0000001107
B1257365624615N00923074EA0000001137
B1257435624603N00923250EA0000001149
B1257485624577N00923377EA0000001135
B1257535624582N00923511EA0000001131
B1257585624597N00923643EA0000001122
B1258085624605N00923948EA0000001099
B1258155624591N00924168EA0000001090
B1258205624559N00924323EA0000001070
B1258255624475N00924411EA0000001063
B1258315624358N00924435EA0000001050
B1258365624260N00924438EA0000001041
B1258425624143N00924443EA0000001029
B1258485624024N00924454EA0000001016
B1258545623908N00924455EA0000001018
B1259035623732N00924459EA0000001006
B1259085623632N00924464EA0000001002
B1259135623533N00924470EA0000000999
B1259185623435N00924473EA0000000990
B1259235623337N00924481EA0000000986
B1259315623182N00924494EA0000000973
B1259375623063N00924505EA0000000963
B1259445622925N00924507EA0000000954
B1259505622805N00924510EA0000000938
B1259555622701N00924509EA0000000929
B1300005622599N00924508EA0000000918
B1300055622494N00924502EA0000000908
B1300125622352N00924497EA0000000909
B1300215622179N00924499EA0000000904
B1300275622066N00924504EA0000000900
B1300325621971N00924512EA0000000888
B1300395621838N00924527EA0000000880
B1300465621708N00924547EA0000000873
B1300525621598N00924565EA0000000866
B1301035621394N00924612EA0000000843
B1301095621278N00924634EA0000000825
B1301145621179N00924661EA0000000818
B1301205621066N00924692EA0000000824
B1301255620982N00924714EA0000000842
B1301345620847N00924784EA0000000838
B1301395620767N00924828EA0000000832
B1301445620685N00924864EA0000000836
B1301505620583N00924927EA0000000809
B1301565620467N00924990EA0000000802
B1302015620368N00925037EA0000000793
B1302105620188N00925103EA0000000777
B1302185620027N00925138EA0000000761
B1302285619838N00925188EA0000000771
B1302345619739N00925232EA0000000771
B1302395619660N00925275EA0000000771
B1302475619550N00925372EA0000000785
B1302525619506N00925475EA0000000784
B1302575619525N00925587EA0000000789
B1303035619583N00925531EA0000000784
B1303085619552N00925417EA0000000787
B1303135619483N00925376EA0000000795
B1303185619415N00925403EA0000000797
B1303245619349N00925506EA0000000781
B1303365619150N00925615EA0000000762
B1303425619048N00925601EA0000000781
B1303475618976N00925554EA0000000789
B1303525618940N00925435EA0000000793
B1303595619009N00925348EA0000000789
B1304045619025N00925465EA0000000785
B1304095618962N00925540EA0000000799
B1304145618892N00925497EA0000000792
B1304195618877N00925361EA0000000795
B1304255618943N00925300EA0000000796
B1304315618952N00925432EA0000000788
B1304375618868N00925497EA0000000811
B1304465618795N00925342EA0000000806
B1304515618848N00925293EA0000000804
B1304575618873N00925417EA0000000806
B1305025618853N00925530EA0000000822
B1305075618818N00925627EA0000000822
B1305125618754N00925670EA0000000817
B1305185618667N00925684EA0000000831
B1305245618601N00925769EA0000000832
B1305295618607N00925886EA0000000834
B1305345618669N00925903EA0000000838
B1305395618693N00925796EA0000000843
B1305445618647N00925701EA0000000848
B1305505618568N00925740EA0000000850
B1305555618565N00925858EA0000000851
B1306035618656N00925852EA0000000865
B1306085618659N00925731EA0000000869
B1306135618606N00925643EA0000000875
B1306185618536N00925655EA0000000881
B1306235618501N00925754EA0000000878
B1306285618530N00925849EA0000000892
B1306345618601N00925848EA0000000896
B1306395618636N00925749EA0000000907
B1306445618610N00925635EA0000000910
B1306495618542N00925586EA0000000919
B1306545618480N00925635EA0000000919
B1307005618462N00925767EA0000000920
B1307055618508N00925841EA0000000924
B1307105618570N00925833EA0000000937
B1307155618622N00925774EA0000000944
B1307205618647N00925664EA0000000945
B1307265618619N00925516EA0000000939
B1307325618540N00925414EA0000000941
B1307375618471N00925346EA0000000957
B1307425618408N00925271EA0000000957
B1307505618288N00925247EA0000000948
B1307585618145N00925271EA0000000931
B1308055618019N00925285EA0000000927
B1308115617912N00925282EA0000000919
B1308175617802N00925286EA0000000911
B1308265617634N00925306EA0000000889
B1308315617536N00925319EA0000000879
B1308385617400N00925342EA0000000870
B1308435617302N00925356EA0000000858
B1308495617184N00925395EA0000000845
B1308565617056N00925467EA0000000835
B1309025616947N00925524EA0000000826
B1309075616859N00925569EA0000000824
B1309155616720N00925651EA0000000824
B1309215616619N00925704EA0000000836
B1309265616538N00925736EA0000000829
B1309315616454N00925708EA0000000816
B1309365616388N00925615EA0000000803
B1309415616338N00925495EA0000000786
B1309465616295N00925370EA0000000786
B1309535616239N00925199EA0000000797
B1309585616195N00925093EA0000000804
B1310045616127N00924983EA0000000811
B1310095616052N00924944EA0000000814
B1310155615963N00925006EA0000000815
B1310205615949N00925131EA0000000821
B1310255615995N00925202EA0000000830
B1310305616049N00925182EA0000000836
B1310365616084N00925065EA0000000852
B1310415616047N00924959EA0000000859
B1310465615970N00924963EA0000000863
B1310525615933N00925097EA0000000871
B1310575615974N00925164EA0000000882
B1311025616026N00925122EA0000000889
B1311075616035N00925006EA0000000898
B1311125615982N00924909EA0000000896
B1311175615906N00924940EA0000000905
B1311225615879N00925056EA0000000905
B1311275615906N00925150EA0000000920
B1311335615966N00925165EA0000000923
B1311385615999N00925076EA0000000934
B1311435615973N00924958EA0000000926
B1311485615896N00924912EA0000000932
B1311535615825N00924961EA0000000937
B1311595615782N00925096EA0000000939
B1312045615796N00925202EA0000000942
B1312095615842N00925263EA0000000947
B1312175615927N00925267EA0000000951
B1312245615996N00925194EA0000000961
B1312305616003N00925071EA0000000961
B1312355615942N00924992EA0000000960
B1312405615869N00925030EA0000000960
B1312465615847N00925162EA0000000972
B1312555615926N00925256EA0000000983
B1313035616015N00925259EA0000000985
B1313085616069N00925209EA0000000974
B1313145616112N00925090EA0000000987
B1313195616136N00924987EA0000001010
B1313265616132N00924816EA0000000985
B1313325616120N00924632EA0000000977
B1313395616085N00924416EA0000000989
B1313445616077N00924276EA0000001007
B1313545616049N00924009EA0000000988
B1314025615997N00923758EA0000000968
B1314115615923N00923481EA0000000962
B1314165615874N00923338EA0000000953
B1314265615768N00923045EA0000000921
B1314315615717N00922892EA0000000915
B1314405615639N00922627EA0000000901
B1314465615590N00922453EA0000000895
B1314565615502N00922171EA0000000899
B1315025615450N00922020EA0000000911
B1315085615398N00921880EA0000000918
B1315185615302N00921652EA0000000911
B1315245615253N00921491EA0000000917
B1315295615220N00921360EA0000000925
B1315355615192N00921199EA0000000923
B1315425615187N00921000EA0000000920
B1315475615184N00920861EA0000000935
B1315535615179N00920716EA0000000951
B1315585615195N00920601EA0000000934
B1316065615206N00920396EA0000000950
B1316155615201N00920181EA0000000966
B1316215615233N00920060EA0000000970
B1316305615324N00920109EA0000000971
B1316365615260N00920217EA0000000980
B1316415615190N00920161EA0000000979
B1316485615156N00919995EA0000000989
B1316535615181N00919884EA0000000990
B1316585615217N00919796EA0000000996
B1317045615267N00919706EA0000001003
B1317105615297N00919586EA0000001013
B1317155615289N00919467EA0000001011
B1317215615245N00919322EA0000001013
B1317275615188N00919184EA0000001005
B1317345615101N00919030EA0000000982
B1317485614907N00918692EA0000000956
B1318105614612N00918164EA0000000929
B1318205614467N00917952EA0000000920
B1318285614349N00917797EA0000000912
B1318345614262N00917688EA0000000911
B1318405614178N00917573EA0000000909
B1318465614092N00917454EA0000000912
B1318525614012N00917325EA0000000907
B1318575613941N00917218EA0000000901
B1319055613818N00917061EA0000000892
B1319105613737N00916964EA0000000880
B1319165613639N00916848EA0000000870
B1319245613507N00916707EA0000000883
B1319335613413N00916514EA0000000909
B1319385613461N00916431EA0000000904
B1319435613514N00916502EA0000000902
B1319485613498N00916628EA0000000909
B1319565613394N00916731EA0000000911
B1320055613329N00916538EA0000000916
B1320105613387N00916505EA0000000920
B1320155613420N00916612EA0000000928
B1320225613363N00916746EA0000000925
B1320275613282N00916731EA0000000922
B1320335613217N00916604EA0000000927
B1320385613198N00916475EA0000000930
B1320435613221N00916350EA0000000922
B1320495613301N00916292EA0000000922
B1320555613382N00916275EA0000000932
B1321035613472N00916364EA0000000910
B1321095613457N00916513EA0000000903
B1321145613386N00916580EA0000000913
B1321195613315N00916622EA0000000926
B1321255613228N00916667EA0000000930
B1321325613194N00916811EA0000000930
B1321375613244N00916878EA0000000918
B1321435613298N00916784EA0000000913
B1321485613267N00916668EA0000000919
B1321545613189N00916602EA0000000926
B1322005613098N00916580EA0000000923
B1322075612978N00916544EA0000000903
B1322145612847N00916477EA0000000898
B1322205612739N00916403EA0000000890
B1322295612578N00916266EA0000000874
B1322345612491N00916189EA0000000865
B1322395612402N00916104EA0000000846
B1322455612296N00915990EA0000000849
B1322505612211N00915904EA0000000856
B1322575612096N00915782EA0000000874
B1323025612017N00915740EA0000000901
B1323075611951N00915806EA0000000913
B1323125611950N00915920EA0000000919
B1323185612012N00915937EA0000000926
B1323235612041N00915844EA0000000933
B1323295612011N00915710EA0000000947
B1323355611925N00915690EA0000000961
B1323415611896N00915823EA0000000973
B1323465611940N00915874EA0000000978
B1323515611984N00915806EA0000000985
B1324085611847N00915770EA0000001016
B1324155611905N00915850EA0000001026
B1324215611942N00915740EA0000001037
B1324265611908N00915631EA0000001046
B1324325611823N00915617EA0000001050
B1324375611773N00915709EA0000001046
B1324445611793N00915864EA0000001061
B1324505611848N00915926EA0000001074
B1324555611903N00915927EA0000001078
B1325015611940N00915817EA0000001084
B1325065611898N00915714EA0000001100
B1325125611816N00915749EA0000001116
B1325195611806N00915911EA0000001120
B1325255611871N00915957EA0000001127
B1325315611930N00915888EA0000001140
B1325365611940N00915775EA0000001149
B1325425611881N00915681EA0000001164
B1325485611805N00915748EA0000001171
B1325535611798N00915872EA0000001183
B1325585611844N00915932EA0000001187
B1326035611899N00915895EA0000001194
B1326085611920N00915791EA0000001204
B1326155611848N00915687EA0000001215
B1326205611785N00915752EA0000001224
B1326255611776N00915875EA0000001234
B1326325611842N00915950EA0000001247
B1326375611890N00915886EA0000001250
B1326425611888N00915765EA0000001258
B1326475611829N00915696EA0000001264
B1326535611755N00915778EA0000001271
B1326585611760N00915902EA0000001280
B1327035611811N00915955EA0000001288
B1327095611871N00915888EA0000001292
B1327145611866N00915771EA0000001295
B1327195611801N00915717EA0000001295
B1327265611728N00915847EA0000001302
B1327315611750N00915959EA0000001314
B1327365611799N00916018EA0000001319
B1327415611857N00915999EA0000001321
B1327485611870N00915858EA0000001324
B1327545611796N00915809EA0000001324
B1328025611663N00915751EA0000001287
B1328075611578N00915659EA0000001282
B1328145611464N00915516EA0000001294
B1328195611398N00915403EA0000001325
B1328255611352N00915269EA0000001340
B1328305611371N00915154EA0000001339
B1328355611434N00915182EA0000001344
B1328425611380N00915334EA0000001352
B1328525611238N00915182EA0000001343
B1328585611130N00915079EA0000001342
B1329055611001N00914957EA0000001339
B1329165610801N00914775EA0000001336
B1329225610689N00914704EA0000001324
B1329285610569N00914613EA0000001306
B1329405610345N00914418EA0000001298
B1329485610199N00914289EA0000001281
B1329535610108N00914207EA0000001273
B1329585610020N00914123EA0000001274
B1330045609912N00914024EA0000001273
B1330115609787N00913906EA0000001278
B1330165609697N00913815EA0000001279
B1330255609539N00913658EA0000001270
B1330315609426N00913535EA0000001265
B1330365609336N00913431EA0000001252
B1330425609224N00913296EA0000001244
B1330485609116N00913167EA0000001239
B1330555608993N00913015EA0000001220
B1331005608905N00912909EA0000001218
B1331065608802N00912785EA0000001209
B1331125608698N00912664EA0000001202
B1331185608597N00912549EA0000001209
B1331265608461N00912393EA0000001203
B1331315608378N00912295EA0000001210
B1331385608268N00912150EA0000001195
B1331475608124N00911944EA0000001184
B1331525608046N00911824EA0000001180
B1331575607966N00911705EA0000001179
B1332035607870N00911562EA0000001175
B1332105607758N00911393EA0000001174
B1332195607612N00911180EA0000001172
B1332265607502N00911015EA0000001170
B1332325607410N00910878EA0000001165
B1332395607307N00910720EA0000001165
B1332445607235N00910615EA0000001166
B1332515607133N00910461EA0000001148
B1332585607025N00910310EA0000001139
B1333035606943N00910220EA0000001134
B1333095606841N00910123EA0000001125
B1333155606740N00910014EA0000001112
B1333205606658N00909914EA0000001106
B1333255606578N00909815EA0000001099
B1333315606481N00909697EA0000001089
B1333365606399N00909598EA0000001079
B1333415606315N00909494EA0000001061
B1333465606228N00909381EA0000001046
B1333525606125N00909245EA0000001036
B1334035605947N00908998EA0000001030
B1334095605853N00908872EA0000001017
B1334145605771N00908760EA0000001008
B1334225605637N00908584EA0000000997
B1334285605539N00908450EA0000000989
B1334335605460N00908341EA0000000983
B1334395605368N00908212EA0000000998
B1334445605298N00908116EA0000001021
B1334505605226N00907993EA0000001033
B1334555605188N00907869EA0000001044
B1335015605205N00907719EA0000001042
B1335065605268N00907693EA0000001033
B1335115605288N00907801EA0000001032
B1335175605206N00907884EA0000001045
B1335225605130N00907903EA0000001057
B1335275605053N00907854EA0000001057
B1335335604974N00907729EA0000001044
B1335385604897N00907633EA0000001037
B1335455604780N00907508EA0000001022
B1335515604676N00907403EA0000001013
B1335575604567N00907296EA0000000993
B1336025604476N00907206EA0000000987
B1336095604350N00907066EA0000000976
B1336145604263N00906962EA0000000972
B1336245604091N00906750EA0000000967
B1336305603994N00906626EA0000000999
B1336355603943N00906503EA0000001004
B1336425603989N00906346EA0000001005
B1336475604060N00906395EA0000001004
B1336545604068N00906570EA0000001027
B1337015604003N00906696EA0000001034
B1337065603934N00906724EA0000001053
B1337115603875N00906660EA0000001050
B1337165603886N00906530EA0000001048
B1337215603952N00906528EA0000001053
B1337275603939N00906658EA0000001058
B1337325603866N00906648EA0000001063
B1337375603828N00906527EA0000001057
B1337425603805N00906382EA0000001051
B1337495603701N00906239EA0000001038
B1337565603585N00906096EA0000001038
B1338035603466N00905960EA0000001031
B1338085603379N00905860EA0000001030
B1338135603293N00905762EA0000001029
B1338195603189N00905639EA0000001007
B1338245603101N00905533EA0000001000
B1338315602982N00905391EA0000000994
B1338395602850N00905233EA0000000988
B1338445602771N00905129EA0000000985
B1338495602692N00905022EA0000000982
B1338545602614N00904916EA0000000980
B1338595602538N00904809EA0000000994
B1339045602467N00904718EA0000001017
B1339095602394N00904669EA0000001021
B1339145602319N00904703EA0000001009
B1339195602276N00904824EA0000001000
B1339245602297N00904942EA0000000995
B1339295602355N00904964EA0000000995
B1339345602407N00904914EA0000001002
B1339405602453N00904808EA0000001013
B1339455602472N00904700EA0000001030
B1339505602450N00904601EA0000001027
B1339565602365N00904566EA0000001014
B1340015602313N00904663EA0000001002
B1340065602338N00904778EA0000001008
B1340115602395N00904808EA0000001003
B1340165602446N00904751EA0000001014
B1340215602484N00904671EA0000001026
B1340265602524N00904594EA0000001025
B1340315602544N00904483EA0000001013
B1340385602504N00904305EA0000001011
B1340435602458N00904186EA0000001009
B1340495602392N00904033EA0000000998
B1340575602301N00903821EA0000000989
B1341025602243N00903686EA0000000996
B1341085602180N00903543EA0000001020
B1341145602135N00903415EA0000001038
B1341195602091N00903325EA0000001041
B1341245602037N00903250EA0000001043
B1341305601968N00903161EA0000001034
B1341375601880N00902990EA0000000997
B1341425601824N00902839EA0000000999
B1341475601774N00902690EA0000000993
B1341555601691N00902441EA0000000973
B1342025601619N00902218EA0000000962
B1342085601556N00902032EA0000000954
B1342145601496N00901852EA0000000944
B1342205601439N00901669EA0000000935
B1342255601395N00901515EA0000000926
B1342305601349N00901370EA0000000927
B1342365601292N00901199EA0000000919
B1342415601243N00901054EA0000000910
B1342465601197N00900909EA0000000910
B1342525601140N00900747EA0000000905
B1342575601096N00900610EA0000000906
B1343045601029N00900422EA0000000892
B1343115600933N00900249EA0000000872
B1343185600824N00900095EA0000000865
B1343235600745N00859993EA0000000859
B1343295600649N00859872EA0000000855
B1343345600573N00859782EA0000000868
B1343395600500N00859704EA0000000863
B1343445600423N00859625EA0000000850
B1343515600306N00859516EA0000000844
B1343565600220N00859443EA0000000841
B1344015600132N00859377EA0000000834
B1344065600044N00859300EA0000000825
B1344115559957N00859213EA0000000814
B1344205559801N00859045EA0000000798
B1344255559719N00858948EA0000000799
B1344315559625N00858823EA0000000786
B1344395559507N00858628EA0000000765
B1344445559438N00858505EA0000000761
B1344515559347N00858333EA0000000755
B1344565559282N00858206EA0000000746
B1345015559217N00858076EA0000000739
B1345065559152N00857947EA0000000730
B1345145559049N00857748EA0000000731
B1345225558947N00857560EA0000000722
B1345275558881N00857444EA0000000712
B1345325558813N00857324EA0000000698
B1345395558720N00857146EA0000000680
B1345445558657N00857025EA0000000692
B1345495558598N00856927EA0000000710
B1345545558532N00856874EA0000000712
B1345595558470N00856938EA0000000707
B1346045558475N00857057EA0000000701
B1346095558538N00857100EA0000000700
B1346145558601N00857063EA0000000711
B1346195558642N00856986EA0000000709
B1346245558636N00856871EA0000000715
B1346295558575N00856813EA0000000715
B1346345558513N00856878EA0000000712
B1346395558513N00856998EA0000000713
B1346445558562N00857078EA0000000724
B1346505558634N00857081EA0000000720
B1346555558675N00856993EA0000000710
B1347015558669N00856854EA0000000701
B1347065558628N00856751EA0000000692
B1347125558558N00856645EA0000000676
B1347175558488N00856572EA0000000671
B1347235558402N00856472EA0000000659
B1347335558260N00856262EA0000000646
B1347385558186N00856161EA0000000639
B1347435558114N00856062EA0000000636
B1347515557999N00855914EA0000000623
B1347585557897N00855788EA0000000613
B1348045557808N00855687EA0000000605
B1348105557714N00855605EA0000000592
B1348155557633N00855549EA0000000586
B1348205557555N00855499EA0000000577
B1348265557457N00855460EA0000000558
B1348335557335N00855421EA0000000541
B1348385557250N00855400EA0000000542
B1348445557151N00855356EA0000000556
B1348505557063N00855330EA0000000570
B1348555557005N00855402EA0000000567
B1349005557010N00855518EA0000000574
B1349055557070N00855561EA0000000577
B1349105557124N00855486EA0000000579
B1349155557120N00855356EA0000000585
B1349205557064N00855276EA0000000592
B1349265556988N00855336EA0000000596
B1349315556994N00855447EA0000000600
B1349365557056N00855473EA0000000606
B1349415557110N00855403EA0000000608
B1349465557117N00855277EA0000000611
B1349515557060N00855190EA0000000614
B1349565556996N00855238EA0000000617
B1350015556989N00855351EA0000000623
B1350065557038N00855415EA0000000626
B1350115557102N00855392EA0000000629
B1350165557149N00855310EA0000000641
B1350225557152N00855168EA0000000630
B1350275557093N00855081EA0000000626
B1350325557019N00855090EA0000000628
B1350385556954N00855184EA0000000622
B1350435556913N00855289EA0000000632
B1350485556869N00855369EA0000000646
B1350545556849N00855494EA0000000630
B1350595556900N00855565EA0000000642
B1351045556949N00855496EA0000000640
B1351095556945N00855369EA0000000639
B1351145556888N00855284EA0000000650
B1351195556823N00855241EA0000000654
B1351245556752N00855277EA0000000653
B1351305556729N00855421EA0000000652
B1351355556779N00855489EA0000000656
B1351415556848N00855454EA0000000666
B1351465556888N00855365EA0000000670
B1351515556867N00855245EA0000000672
B1351575556785N00855239EA0000000673
B1352025556752N00855341EA0000000683
B1352075556774N00855437EA0000000682
B1352125556833N00855476EA0000000689
B1352175556892N00855457EA0000000697
B1352225556943N00855378EA0000000690
B1352275556963N00855254EA0000000700
B1352325556953N00855131EA0000000702
B1352375556892N00855063EA0000000705
B1352425556829N00855111EA0000000703
B1352475556807N00855222EA0000000705
B1352525556827N00855326EA0000000717
B1352575556867N00855390EA0000000719
B1353025556929N00855368EA0000000718
B1353085556948N00855234EA0000000726
B1353135556894N00855147EA0000000727
B1353185556830N00855182EA0000000731
B1353235556817N00855290EA0000000745
B1353285556863N00855347EA0000000748
B1353335556919N00855294EA0000000753
B1353385556923N00855172EA0000000754
B1353435556869N00855084EA0000000760
B1353485556804N00855094EA0000000763
B1353535556765N00855184EA0000000764
B1353585556768N00855296EA0000000774
B1354035556803N00855376EA0000000777
B1354085556864N00855375EA0000000788
B1354135556889N00855267EA0000000795
B1354185556840N00855173EA0000000797
B1354235556777N00855202EA0000000808
B1354285556759N00855306EA0000000812
B1354345556806N00855397EA0000000824
B1354395556863N00855361EA0000000835
B1354455556882N00855219EA0000000845
B1354505556829N00855130EA0000000846
B1354555556765N00855157EA0000000861
B1355005556746N00855260EA0000000862
B1355055556788N00855341EA0000000870
B1355105556848N00855317EA0000000884
B1355165556870N00855183EA0000000884
B1355215556823N00855081EA0000000886
B1355265556756N00855078EA0000000895
B1355315556717N00855171EA0000000901
B1355365556738N00855274EA0000000907
B1355415556798N00855277EA0000000918
B1355465556820N00855155EA0000000920
B1355515556770N00855059EA0000000929
B1355575556696N00855109EA0000000939
B1356025556695N00855220EA0000000943
B1356075556751N00855261EA0000000956
B1356125556797N00855181EA0000000961
B1356175556790N00855049EA0000000961
B1356235556712N00854996EA0000000972
B1356295556671N00855102EA0000000984
B1356345556700N00855196EA0000000988
B1356395556759N00855197EA0000000998
B1356445556796N00855100EA0000001001
B1356495556770N00854985EA0000000995
B1356575556666N00854946EA0000001011
B1357035556610N00855035EA0000001009
B1357085556613N00855148EA0000001015
B1357135556660N00855213EA0000001029
B1357185556718N00855196EA0000001035
B1357235556756N00855098EA0000001037
B1357285556737N00854971EA0000001034
B1357345556660N00854928EA0000001046
B1357395556618N00855011EA0000001050
B1357445556633N00855112EA0000001058
B1357495556689N00855138EA0000001059
B1357545556742N00855069EA0000001062
B1357595556742N00854938EA0000001058
B1358045556687N00854851EA0000001067
B1358105556608N00854863EA0000001076
B1358155556566N00854945EA0000001080
B1358205556570N00855051EA0000001086
B1358255556617N00855111EA0000001088
B1358305556682N00855090EA0000001094
B1358355556724N00854994EA0000001094
B1358405556710N00854861EA0000001094
B1358455556652N00854788EA0000001105
B1358505556586N00854808EA0000001105
B1358565556562N00854930EA0000001113
B1359015556601N00855011EA0000001113
B1359075556676N00854993EA0000001124
B1359125556704N00854881EA0000001123
B1359175556671N00854762EA0000001121
B1359225556609N00854697EA0000001127
B1359275556543N00854725EA0000001125
B1359325556523N00854832EA0000001132
B1359375556565N00854912EA0000001134
B1359425556630N00854890EA0000001138
B1359475556674N00854797EA0000001140
B1359525556687N00854670EA0000001137
B1359575556670N00854544EA0000001140
B1400055556575N00854425EA0000001140
B1400105556499N00854397EA0000001128
B1400165556398N00854378EA0000001102
B1400215556301N00854364EA0000001084
B1400265556202N00854354EA0000001075
B1400315556104N00854341EA0000001077
B1400395555949N00854320EA0000001066
B1400445555849N00854310EA0000001060
B1400495555751N00854304EA0000001053
B1400565555622N00854305EA0000001062
B1401035555512N00854299EA0000001087
B1401095555444N00854375EA0000001078
B1401145555462N00854489EA0000001076
B1401195555522N00854473EA0000001082
B1401275555542N00854300EA0000001102
B1401345555501N00854152EA0000001098
B1401395555439N00854083EA0000001098
B1401465555343N00854003EA0000001089
B1401515555264N00853950EA0000001083
B1401565555183N00853894EA0000001072
B1402025555069N00853841EA0000001067
B1402075554981N00853805EA0000001095
B1402125554911N00853763EA0000001106
B1402195554817N00853686EA0000001098
B1402255554720N00853667EA0000001099
B1402305554639N00853654EA0000001087
B1402355554542N00853639EA0000001069
B1402405554443N00853606EA0000001073
B1402455554351N00853570EA0000001080
B1402515554244N00853519EA0000001078
B1402585554119N00853443EA0000001075
B1403035554028N00853374EA0000001062
B1403095553925N00853283EA0000001063
B1403155553817N00853203EA0000001050
B1403205553728N00853139EA0000001062
B1403255553656N00853070EA0000001073
B1403325553558N00853000EA0000001088
B1403385553477N00852981EA0000001100
B1403465553411N00853125EA0000001104
B1403525553480N00853179EA0000001112
B1403595553515N00853039EA0000001127
B1404045553475N00852947EA0000001133
B1404105553390N00852941EA0000001138
B1404175553362N00853096EA0000001148
B1404225553421N00853143EA0000001153
B1404275553467N00853064EA0000001164
B1404325553447N00852952EA0000001166
B1404375553379N00852918EA0000001174
B1404435553320N00853028EA0000001179
B1404485553359N00853124EA0000001183
B1404565553441N00853043EA0000001194
B1405015553415N00852935EA0000001194
B1405065553342N00852917EA0000001207
B1405115553295N00853009EA0000001208
B1405165553317N00853126EA0000001207
B1405215553384N00853141EA0000001213
B1405265553422N00853049EA0000001219
B1405315553414N00852930EA0000001222
B1405365553369N00852831EA0000001228
B1405415553301N00852788EA0000001245
B1405465553232N00852821EA0000001252
B1405515553194N00852926EA0000001241
B1405565553223N00853038EA0000001242
B1406025553297N00853046EA0000001235
B1406075553336N00852952EA0000001246
B1406145553336N00852793EA0000001252
B1406215553316N00852623EA0000001267
B1406275553286N00852478EA0000001269
B1406325553242N00852334EA0000001244
B1406375553161N00852222EA0000001239
B1406425553072N00852153EA0000001241
B1406485552961N00852081EA0000001226
B1406585552772N00851956EA0000001211
B1407045552658N00851883EA0000001207
B1407095552556N00851823EA0000001191
B1407185552362N00851751EA0000001180
B1407245552234N00851712EA0000001177
B1407295552125N00851684EA0000001160
B1407355551993N00851650EA0000001151
B1407405551886N00851622EA0000001144
B1407495551694N00851568EA0000001123
B1407545551585N00851530EA0000001104
B1407595551478N00851480EA0000001100
B1408055551355N00851415EA0000001084
B1408135551185N00851324EA0000001077
B1408185551083N00851272EA0000001081
B1408235550986N00851229EA0000001080
B1408285550888N00851185EA0000001069
B1408345550768N00851129EA0000001064
B1408395550670N00851082EA0000001061
B1408465550537N00851018EA0000001053
B1408525550421N00850965EA0000001044
B1408575550323N00850917EA0000001037
B1409035550205N00850860EA0000001034
B1409105550067N00850804EA0000001023
B1409175549931N00850750EA0000001007
B1409225549836N00850710EA0000001000
B1409295549703N00850643EA0000000990
B1409345549608N00850593EA0000000983
B1409415549473N00850526EA0000000968
B1409495549317N00850456EA0000000965
B1409545549223N00850413EA0000000976
B1410025549091N00850357EA0000001007
B1410085548996N00850321EA0000001023
B1410155548884N00850271EA0000001045
B1410215548785N00850218EA0000001047
B1410275548671N00850157EA0000001032
B1410325548573N00850101EA0000001040
B1410385548457N00850036EA0000001042
B1410445548339N00849976EA0000001032
B1410495548231N00849923EA0000001029
B1410545548119N00849867EA0000001031
B1410595548006N00849803EA0000001031
B1411045547891N00849738EA0000001023
B1411095547780N00849678EA0000001023
B1411145547674N00849620EA0000001002
B1411225547495N00849522EA0000000982
B1411295547340N00849462EA0000000978
B1411355547208N00849425EA0000000964
B1411415547073N00849392EA0000000954
B1411485546914N00849343EA0000000937
B1411545546775N00849301EA0000000925
B1411595546658N00849260EA0000000912
B1412075546468N00849188EA0000000900
B1412125546347N00849147EA0000000897
B1412185546208N00849094EA0000000898
B1412245546064N00849035EA0000000896
B1412315545896N00848964EA0000000888
B1412375545741N00848907EA0000000872
B1412465545520N00848814EA0000000854
B1412545545323N00848721EA0000000840
B1413025545134N00848616EA0000000823
B1413085544996N00848536EA0000000818
B1413155544841N00848445EA0000000822
B1413225544690N00848356EA0000000825
B1413315544491N00848247EA0000000823
B1413365544375N00848184EA0000000818
B1413425544232N00848110EA0000000798
B1413475544111N00848054EA0000000794
B1413525543989N00848002EA0000000786
B1413585543841N00847938EA0000000775
B1414035543716N00847877EA0000000761
B1414115543509N00847782EA0000000740
B1414245543170N00847622EA0000000708
B1414295543035N00847567EA0000000700
B1414355542873N00847493EA0000000705
B1414415542713N00847422EA0000000706
B1414465542579N00847373EA0000000704
B1414525542419N00847315EA0000000702
B1414585542262N00847255EA0000000699
B1415075542035N00847159EA0000000698
B1415195541724N00847045EA0000000690
B1415255541564N00846996EA0000000688
B1415335541343N00846918EA0000000662
B1415415541119N00846832EA0000000646
B1415495540901N00846741EA0000000647
B1415545540765N00846693EA0000000628
B1416105540325N00846568EA0000000619
B1416155540184N00846533EA0000000605
B1416215540021N00846478EA0000000624
B1416285539832N00846432EA0000000592
B1416345539660N00846389EA0000000564
B1417075538695N00846163EA0000000475
B1417155538465N00846083EA0000000445
B1417245538199N00845996EA0000000429
B1417365537830N00845932EA0000000396
B1418195537572N00844848EA0000000416
B1418245537576N00844699EA0000000413
B1418375537644N00844345EA0000000398
B1418455537784N00844320EA0000000387
B1418515537889N00844357EA0000000387
B1418565537976N00844388EA0000000386
B1419025538079N00844455EA0000000368
B1419115538213N00844618EA0000000368
B1419185538289N00844794EA0000000379
B1419245538355N00844940EA0000000371
B1419335538429N00845189EA0000000341
B1419445538392N00845536EA0000000320
B1419495538344N00845672EA0000000317
B1420015538176N00845646EA0000000308
B1420125538100N00845370EA0000000299
B1420215538036N00845130EA0000000304
B1420325537917N00844902EA0000000316
B1420405537817N00844747EA0000000310
B1420465537723N00844682EA0000000306
B1420515537649N00844739EA0000000307
B1421055537477N00845011EA0000000293
B1421105537405N00845093EA0000000294
B1421155537334N00845177EA0000000284
B1421255537220N00845396EA0000000266
B1421325537192N00845597EA0000000258
B1421395537182N00845806EA0000000249
B1421445537180N00845958EA0000000252
B1421495537167N00846108EA0000000257
B1422015537203N00846449EA0000000239
B1423185537864N00845726EA0000000037
B1423395537872N00845380EA0000000032
