AOGNOGN
HFDTE190725
HFFXA050
HFPLTPILOTINCHARGE:
HFGTYGLIDERTYPE:ASK-21
HFGIDGLIDERID:OY-XDB
HFDTM100GPSDATUM:WGS-1984
HFRFWFIRMWAREVERSION:
HFRHWHARDWAREVERSION:
HFFTYFRTYPE:OGN-FLIGHTBOOK
HFGPSGENERIC
HFPRSPRESSALTSENSOR:
HFCIDCOMPETITIONID:V1
B1009185537962N00844893EA0000000033
B1009215537956N00844969EA0000000041
B1009265537946N00845112EA0000000103
B1009315537928N00845238EA0000000197
B1010005537941N00845898EA0000000344
B1010065538028N00845987EA0000000338
B1010125538112N00846069EA0000000349
B1010185538097N00846188EA0000000347
B1010235538037N00846162EA0000000349
B1010295537992N00846045EA0000000345
B1010345538004N00845913EA0000000350
B1010475538155N00845943EA0000000354
B1010535538117N00846046EA0000000349
B1010585538052N00846011EA0000000343
B1011065538039N00845813EA0000000353
B1011235538145N00845966EA0000000350
B1011285538085N00845941EA0000000353
B1011365538086N00845744EA0000000344
B1011475538119N00845427EA0000000360
B1011585538144N00845119EA0000000360
B1012445538423N00843937EA0000000297
B1012495538503N00843874EA0000000286
B1012545538568N00843952EA0000000281
B1013255538542N00844782EA0000000273
B1013355538548N00845043EA0000000277
B1013455538543N00845301EA0000000273
B1013525538508N00845461EA0000000255
B1013575538452N00845378EA0000000239
B1014025538451N00845224EA0000000249
B1014095538426N00845018EA0000000243
B1014185538429N00844753EA0000000239
B1014275538418N00844495EA0000000227
B1014345538346N00844339EA0000000221
B1014395538293N00844235EA0000000212
B1014445538240N00844128EA0000000204
B1014495538183N00844030EA0000000197
B1014545538106N00843987EA0000000195
B1015005538023N00844052EA0000000173
B1015055538011N00844197EA0000000150
B1015125538001N00844398EA0000000114
B1015215537974N00844657EA0000000066
B1015275537955N00844823EA0000000034
B1015355537936N00845011EA0000000030
B1015415537923N00845087EA0000000030
