AOGNOGN
HFDTE190725
HFFXA050
HFPLTPILOTINCHARGE:
HFGTYGLIDERTYPE:ASW-20
HFGIDGLIDERID:D-7684
HFDTM100GPSDATUM:WGS-1984
HFRFWFIRMWAREVERSION:
HFRHWHARDWAREVERSION:
HFFTYFRTYPE:OGN-FLIGHTBOOK
HFGPSGENERIC
HFPRSPRESSALTSENSOR:
HFCIDCOMPETITIONID:61
B1113375537959N00844938EA0000000036
B1113425537951N00845070EA0000000080
B1113475537929N00845207EA0000000171
B1113525537907N00845352EA0000000246
B1114145537860N00845930EA0000000300
B1114385538012N00846488EA0000000293
B1114445538008N00846654EA0000000272
B1114495537959N00846768EA0000000269
B1114555537862N00846764EA0000000268
B1115015537765N00846681EA0000000262
B1115065537688N00846601EA0000000278
B1115125537649N00846470EA0000000292
B1115245537775N00846557EA0000000295
B1115295537733N00846646EA0000000295
B1115345537671N00846615EA0000000306
B1115395537663N00846493EA0000000311
B1115465537746N00846411EA0000000319
B1115535537801N00846527EA0000000317
B1115585537775N00846623EA0000000317
B1116045537693N00846625EA0000000319
B1116105537656N00846489EA0000000342
B1116215537764N00846518EA0000000355
B1116265537713N00846575EA0000000365
B1116315537669N00846495EA0000000374
B1116475537787N00846509EA0000000398
B1116535537721N00846535EA0000000412
B1116595537700N00846401EA0000000423
B1117115537807N00846439EA0000000439
B1117165537759N00846490EA0000000449
B1117215537707N00846413EA0000000449
B1117375537829N00846357EA0000000472
B1117445537760N00846426EA0000000484
B1117495537726N00846319EA0000000490
B1118025537834N00846369EA0000000504
B1118085537768N00846411EA0000000502
B1118135537712N00846320EA0000000508
B1118185537744N00846197EA0000000519
B1118265537830N00846279EA0000000531
B1118315537790N00846356EA0000000532
B1118365537730N00846305EA0000000538
B1118415537741N00846172EA0000000542
B1118465537813N00846152EA0000000554
B1118525537841N00846276EA0000000559
B1118575537785N00846313EA0000000560
B1119025537735N00846216EA0000000562
B1119085537769N00846071EA0000000578
B1119185537858N00846194EA0000000584
B1119235537800N00846241EA0000000584
B1119285537737N00846167EA0000000585
B1119335537742N00846024EA0000000592
B1119465537839N00846132EA0000000615
B1119515537776N00846143EA0000000606
B1119575537740N00845985EA0000000618
B1120055537836N00845892EA0000000631
B1120145537870N00846054EA0000000638
B1120195537807N00846076EA0000000639
B1120245537769N00845961EA0000000646
B1120335537869N00845881EA0000000668
B1120385537890N00845979EA0000000674
B1120435537843N00846034EA0000000676
B1120485537788N00845959EA0000000675
B1120545537818N00845799EA0000000690
B1121025537911N00845868EA0000000702
B1121095537867N00845999EA0000000699
B1121145537795N00845956EA0000000709
B1121195537779N00845809EA0000000722
B1121255537856N00845712EA0000000733
B1121345537937N00845860EA0000000749
B1121395537897N00845950EA0000000738
B1121455537810N00845915EA0000000741
B1121515537777N00845747EA0000000752
B1121565537839N00845652EA0000000760
B1122015537912N00845700EA0000000764
B1122065537917N00845819EA0000000772
B1122115537859N00845852EA0000000776
B1122165537805N00845752EA0000000773
B1122225537812N00845567EA0000000777
B1122285537844N00845357EA0000000762
B1122335537872N00845173EA0000000769
B1122405537917N00844904EA0000000778
B1122455537950N00844704EA0000000789
B1122505537986N00844533EA0000000810
B1122565538030N00844331EA0000000805
B1123035538083N00844082EA0000000797
B1123105538135N00843819EA0000000794
B1123155538186N00843643EA0000000796
B1123205538277N00843611EA0000000810
B1123255538311N00843727EA0000000811
B1123335538303N00843978EA0000000787
B1123435538286N00844302EA0000000791
B1123495538278N00844505EA0000000783
B1123575538272N00844780EA0000000779
B1124025538268N00844946EA0000000774
B1124085538265N00845147EA0000000760
B1124135538256N00845315EA0000000760
B1124185538250N00845475EA0000000754
B1124325538200N00845919EA0000000722
B1124425538136N00846237EA0000000701
B1124485538098N00846433EA0000000692
B1124565538041N00846704EA0000000679
B1125115537919N00847195EA0000000644
B1125165537834N00847286EA0000000635
B1125225537710N00847311EA0000000626
B1125305537549N00847323EA0000000643
B1125395537372N00847268EA0000000662
B1125445537360N00847108EA0000000665
B1126005537434N00847337EA0000000672
B1126055537360N00847347EA0000000673
B1126105537314N00847211EA0000000652
B1126165537363N00847033EA0000000645
B1126215537419N00846906EA0000000639
B1126265537482N00846779EA0000000636
B1126315537544N00846652EA0000000632
B1126375537620N00846509EA0000000641
B1126425537689N00846413EA0000000648
B1126475537762N00846330EA0000000654
B1126545537872N00846230EA0000000650
B1127015537985N00846132EA0000000657
B1127065538063N00846062EA0000000659
B1127125538156N00845975EA0000000648
B1127175538199N00845822EA0000000616
B1127245538196N00845556EA0000000599
B1127295538187N00845365EA0000000580
B1127375538177N00845048EA0000000572
B1127445538169N00844767EA0000000569
B1127495538164N00844578EA0000000584
B1127545538157N00844400EA0000000582
B1127595538150N00844224EA0000000584
B1128045538143N00844048EA0000000582
B1128095538136N00843870EA0000000578
B1128185538128N00843546EA0000000580
B1128265538130N00843258EA0000000567
B1128355538161N00842924EA0000000563
B1128405538184N00842742EA0000000557
B1128475538223N00842483EA0000000551
B1128525538271N00842313EA0000000548
B1128575538340N00842179EA0000000548
B1129025538424N00842100EA0000000543
B1129095538550N00842119EA0000000541
B1129145538633N00842177EA0000000551
B1129195538708N00842238EA0000000578
B1129285538745N00842079EA0000000566
B1129335538673N00842108EA0000000572
B1129405538629N00842270EA0000000590
B1129455538609N00842396EA0000000592
B1129535538591N00842597EA0000000598
B1129585538572N00842717EA0000000593
B1130045538572N00842891EA0000000575
B1130105538582N00843083EA0000000574
B1130175538594N00843303EA0000000570
B1130235538602N00843489EA0000000560
B1130285538638N00843628EA0000000559
B1130335538736N00843600EA0000000548
B1130385538795N00843430EA0000000540
B1130465538816N00843094EA0000000524
B1130525538825N00842849EA0000000534
B1131005538832N00842533EA0000000524
B1131065538836N00842295EA0000000509
B1131115538838N00842095EA0000000498
B1131185538843N00841818EA0000000499
B1131255538851N00841557EA0000000519
B1131455538798N00841414EA0000000513
B1131525538917N00841455EA0000000513
B1131585539007N00841536EA0000000526
B1132055539093N00841674EA0000000524
B1132135539071N00841874EA0000000503
B1132215539004N00842085EA0000000471
B1132265538962N00842231EA0000000460
B1132325538915N00842405EA0000000453
B1132435538841N00842737EA0000000441
B1132545538775N00843069EA0000000435
B1133025538733N00843308EA0000000431
B1133075538709N00843458EA0000000429
B1133145538678N00843661EA0000000435
B1133205538658N00843837EA0000000415
B1133285538635N00844088EA0000000408
B1133345538627N00844264EA0000000402
B1133415538613N00844473EA0000000385
B1133515538583N00844771EA0000000367
B1133585538566N00844979EA0000000358
B1134045538551N00845158EA0000000347
B1134095538536N00845310EA0000000337
B1134145538479N00845411EA0000000340
B1134195538398N00845362EA0000000337
B1134255538358N00845175EA0000000326
B1134325538350N00844919EA0000000303
B1134445538336N00844455EA0000000288
B1134525538320N00844141EA0000000268
B1134595538314N00843864EA0000000267
B1135225538312N00843091EA0000000287
B1135275538384N00843087EA0000000280
B1135325538383N00843200EA0000000278
B1135375538354N00843316EA0000000273
B1135495538376N00843630EA0000000272
B1135555538400N00843776EA0000000264
B1136015538424N00843925EA0000000251
B1136065538445N00844051EA0000000247
B1136115538463N00844177EA0000000237
B1136165538475N00844307EA0000000227
B1136235538483N00844489EA0000000225
B1136285538472N00844613EA0000000221
B1136335538422N00844689EA0000000223
B1136505538291N00844253EA0000000187
B1136575538201N00844100EA0000000174
B1137035538103N00844039EA0000000165
B1137085538036N00844106EA0000000158
B1137145538023N00844275EA0000000141
B1137275537981N00844600EA0000000076
B1137355537957N00844802EA0000000037
B1137435537942N00844970EA0000000032
B1137485537934N00845035EA0000000033
