AOGNOGN
HFDTE200825
HFFXA050
HFPLTPILOTINCHARGE:
HFGTYGLIDERTYPE:SF-25
HFGIDGLIDERID:OY-XXV
HFDTM100GPSDATUM:WGS-1984
HFRFWFIRMWAREVERSION:
HFRHWHARDWAREVERSION:
HFFTYFRTYPE:OGN-FLIGHTBOOK
HFGPSGENERIC
HFPRSPRESSALTSENSOR:
HFCIDCOMPETITIONID:XV
B0938235537951N00844993EA0000000038
B0938245537949N00845006EA0000000039
B0938315537942N00845131EA0000000037
B0938385537931N00845303EA0000000039
B0938445537918N00845469EA0000000054
B0938515537905N00845661EA0000000080
B0940175538389N00847137EA0000000274
B0940225538472N00847118EA0000000286
B0940335538655N00847067EA0000000325
B0941525539189N00846082EA0000000393
B0942045538955N00846310EA0000000343
B0942135538758N00846346EA0000000328
B0942245538543N00846181EA0000000296
B0942315538461N00845944EA0000000269
B0942365538425N00845766EA0000000252
B0942455538390N00845441EA0000000231
B0942535538386N00845174EA0000000234
B0943105538362N00844582EA0000000192
B0943165538306N00844383EA0000000179
B0943215538222N00844282EA0000000165
B0943265538139N00844333EA0000000152
B0943325538090N00844495EA0000000132
B0943385537993N00844587EA0000000111
B0943445537950N00844739EA0000000082
B0943525537930N00844957EA0000000041
B0943585537924N00845112EA0000000028
B0944045537918N00845226EA0000000028
