AOGNOGN
HFDTE200825
HFFXA050
HFPLTPILOTINCHARGE:
HFGTYGLIDERTYPE:SF-25
HFGIDGLIDERID:OY-XVR
HFDTM100GPSDATUM:WGS-1984
HFRFWFIRMWAREVERSION:
HFRHWHARDWAREVERSION:
HFFTYFRTYPE:OGN-FLIGHTBOOK
HFGPSGENERIC
HFPRSPRESSALTSENSOR:
HFCIDCOMPETITIONID:VR
B0940255537927N00845343EA0000000019
B0940295537920N00845412EA0000000023
B0940305537917N00845432EA0000000027
B0940375537887N00845576EA0000000057
B0940445537852N00845719EA0000000089
B0941285537604N00846574EA0000000248
B0947345535455N00854868EA0000000589
B0948275535299N00856238EA0000000573
B0948375535295N00856489EA0000000575
B0948475535281N00856739EA0000000574
B0950105534997N00858869EA0000000670
B0950165534957N00859056EA0000000666
B0950235534908N00859287EA0000000657
B0950295534865N00859478EA0000000650
B0950355534825N00859656EA0000000647
B0950425534781N00859857EA0000000647
B0950475534748N00859997EA0000000650
B0951095534595N00900629EA0000000617
B0951295534430N00901168EA0000000592
B0951545534273N00901818EA0000000561
B0954035533666N00905181EA0000000642
B1007305523054N00911379EA0000000629
B1007385523092N00911569EA0000000621
B1007445523112N00911717EA0000000621
B1007525523131N00911915EA0000000629
B1008035523168N00912202EA0000000639
B1008085523185N00912334EA0000000639
B1008135523204N00912471EA0000000634
B1008195523224N00912632EA0000000631
B1008365523269N00913049EA0000000626
B1008455523291N00913262EA0000000616
B1008545523313N00913470EA0000000612
B1009005523330N00913609EA0000000617
B1009055523341N00913723EA0000000618
B1009115523365N00913865EA0000000606
B1009285523403N00914256EA0000000588
B1009515523434N00914834EA0000000618
B1009575523438N00914982EA0000000630
B1010045523506N00915094EA0000000639
B1010095523589N00915081EA0000000647
B1010145523670N00914986EA0000000645
B1010195523723N00914820EA0000000646
B1010245523740N00914615EA0000000649
B1010295523728N00914397EA0000000636
B1010345523689N00914176EA0000000637
B1010395523651N00913966EA0000000625
B1010455523608N00913705EA0000000616
B1010515523564N00913456EA0000000614
B1010575523521N00913207EA0000000624
B1011035523476N00912962EA0000000617
B1011085523438N00912761EA0000000612
B1011145523394N00912526EA0000000616
B1011195523357N00912330EA0000000616
B1011265523307N00912056EA0000000623
B1011315523271N00911862EA0000000637
B1011365523238N00911669EA0000000641
B1011435523192N00911397EA0000000644
B1011485523161N00911199EA0000000656
B1011555523119N00910910EA0000000670
B1012015523087N00910660EA0000000678
B1012065523063N00910450EA0000000689
B1012125523038N00910192EA0000000678
B1012175523017N00909981EA0000000681
B1012235522994N00909719EA0000000661
B1012285522974N00909507EA0000000653
B1012345522946N00909259EA0000000666
B1012405522921N00909011EA0000000661
B1012455522901N00908801EA0000000642
B1012505522879N00908589EA0000000624
B1012565522847N00908340EA0000000591
B1013015522829N00908131EA0000000579
B1013065522808N00907928EA0000000552
B1013125522787N00907688EA0000000548
B1013175522770N00907491EA0000000538
B1013235522752N00907258EA0000000569
B1013285522735N00907063EA0000000591
B1013335522716N00906862EA0000000617
B1013405522690N00906580EA0000000655
B1013475522666N00906292EA0000000666
B1013525522649N00906074EA0000000682
B1013575522634N00905846EA0000000724
B1014035522608N00905574EA0000000759
B1014145522566N00905072EA0000000779
B1014205522564N00904792EA0000000646
B1014315522674N00904522EA0000000633
B1014365522743N00904555EA0000000636
B1014485522783N00904866EA0000000631
B1014545522776N00905039EA0000000631
B1015005522765N00905208EA0000000622
B1015085522733N00905422EA0000000626
B1015145522683N00905570EA0000000625
B1015265522512N00905773EA0000000634
B1015365522333N00905880EA0000000642
B1015415522243N00905930EA0000000638
B1015465522152N00905986EA0000000641
B1015525522045N00906052EA0000000636
B1015575521956N00906108EA0000000617
B1016045521830N00906184EA0000000612
B1016125521691N00906282EA0000000612
B1016195521574N00906361EA0000000609
B1016255521477N00906433EA0000000610
B1016325521372N00906516EA0000000625
B1016375521300N00906578EA0000000632
B1016565521025N00906834EA0000000633
B1018565519242N00908628EA0000000627
B1019195518891N00909003EA0000000593
B1019355518637N00909272EA0000000591
B1019545518370N00909586EA0000000596
B1020055518215N00909780EA0000000592
B1020115518126N00909896EA0000000597
B1020165518049N00909996EA0000000605
B1020215517969N00910093EA0000000608
B1020265517891N00910180EA0000000605
B1020325517800N00910280EA0000000592
B1020445517626N00910485EA0000000615
B1020495517552N00910570EA0000000614
B1021195517135N00911082EA0000000566
B1022085516535N00911764EA0000000485
B1022135516476N00911839EA0000000481
B1022185516419N00911910EA0000000471
B1022255516342N00912011EA0000000467
B1022305516287N00912089EA0000000457
B1022395516190N00912227EA0000000442
B1022445516140N00912302EA0000000435
B1022505516079N00912392EA0000000426
B1022555516036N00912472EA0000000427
B1023025515972N00912593EA0000000433
B1023075515925N00912687EA0000000442
B1023125515874N00912783EA0000000445
B1023205515792N00912929EA0000000436
B1023255515745N00913012EA0000000433
B1023325515682N00913126EA0000000432
B1023395515630N00913239EA0000000438
B1023445515587N00913337EA0000000436
B1023505515531N00913457EA0000000430
B1023555515486N00913554EA0000000424
B1024015515434N00913669EA0000000424
B1024065515389N00913760EA0000000448
B1024125515340N00913869EA0000000464
B1024175515303N00913966EA0000000458
B1024235515264N00914089EA0000000457
B1024285515229N00914190EA0000000445
B1024335515195N00914286EA0000000440
B1024425515138N00914459EA0000000427
B1024525515084N00914639EA0000000424
B1024575515059N00914728EA0000000417
B1025025515032N00914818EA0000000407
B1025105514987N00914959EA0000000400
B1025205514926N00915141EA0000000391
B1025255514894N00915236EA0000000387
B1025315514859N00915346EA0000000382
B1025385514820N00915475EA0000000367
B1025485514763N00915662EA0000000350
B1025545514717N00915766EA0000000329
B1025595514641N00915818EA0000000308
B1026055514536N00915769EA0000000284
B1026105514477N00915637EA0000000270
B1026165514444N00915424EA0000000266
B1026225514421N00915209EA0000000256
B1026275514413N00915032EA0000000250
B1026325514406N00914859EA0000000244
B1026395514381N00914625EA0000000255
B1026445514327N00914478EA0000000252
B1026495514247N00914358EA0000000250
B1026565514122N00914222EA0000000246
B1027015514035N00914200EA0000000187
B1027065513948N00914180EA0000000164
B1027135513826N00914164EA0000000137
B1027185513747N00914214EA0000000138
B1027235513696N00914312EA0000000127
B1027305513663N00914467EA0000000126
B1027355513638N00914571EA0000000122
B1027405513618N00914675EA0000000106
B1027475513593N00914824EA0000000088
B1027525513574N00914936EA0000000081
B1027585513555N00915071EA0000000070
B1028045513534N00915207EA0000000063
B1028095513518N00915321EA0000000053
B1028155513503N00915449EA0000000046
B1028215513491N00915547EA0000000048
