AOGNOGN
HFDTE200825
HFFXA050
HFPLTPILOTINCHARGE:
HFGTYGLIDERTYPE:Duo Discus t
HFGIDGLIDERID:OY-XHZ
HFDTM100GPSDATUM:WGS-1984
HFRFWFIRMWAREVERSION:
HFRHWHARDWAREVERSION:
HFFTYFRTYPE:OGN-FLIGHTBOOK
HFGPSGENERIC
HFPRSPRESSALTSENSOR:
HFCIDCOMPETITIONID:V4
B0948205537950N00845035EA0000000032
B0948245537944N00845105EA0000000031
B0948315537932N00845257EA0000000033
B0948365537923N00845386EA0000000035
B0948435537910N00845579EA0000000049
B0948505537896N00845753EA0000000074
B0948585537905N00845942EA0000000088
B0949055537936N00846109EA0000000097
B0949115537965N00846244EA0000000112
B0949275538053N00846576EA0000000157
B0949345538096N00846726EA0000000172
B0949425538154N00846900EA0000000196
B0949485538205N00847030EA0000000211
B0949535538254N00847125EA0000000224
B0950015538352N00847221EA0000000253
B0950075538443N00847243EA0000000253
B0950215538652N00847054EA0000000274
B0950285538711N00846836EA0000000304
B0950385538768N00846501EA0000000320
B0950495538809N00846108EA0000000328
B0950585538835N00845788EA0000000339
B0951045538852N00845581EA0000000353
B0951105538870N00845369EA0000000355
B0951205538895N00844990EA0000000381
B0951305538950N00844673EA0000000431
B0951425539121N00844532EA0000000451
B0951485539195N00844604EA0000000458
B0951545539232N00844738EA0000000464
B0952555539006N00844364EA0000000548
B0953405539052N00844365EA0000000565
B0953465539097N00844435EA0000000561
B1042485556581N00826848EA0000001367
B1043065556507N00826810EA0000001422
B1048195600553N00819914EA0000001265
B1048485601066N00819219EA0000001239
B1049025601314N00818909EA0000001204
B1049205601632N00818522EA0000001193
B1049315601814N00818305EA0000001178
B1050215602521N00817594EA0000001251
B1050425602495N00817528EA0000001299
B1051095602517N00817299EA0000001351
B1051365602541N00817169EA0000001399
B1053335604047N00815962EA0000001381
B1053395604159N00815870EA0000001375
B1053445604254N00815793EA0000001363
B1054025604605N00815553EA0000001346
B1054425605343N00815250EA0000001321
B1054475605417N00815283EA0000001311
B1056475604242N00817455EA0000001260
B1109245602421N00834382EA0000001213
B1109335602406N00834621EA0000001168
B1109465602370N00835037EA0000001149
B1109575602331N00835338EA0000001163
B1110025602312N00835475EA0000001150
B1110105602282N00835706EA0000001135
B1110285602219N00836236EA0000001089
B1110355602192N00836456EA0000001070
B1111065602077N00837418EA0000000998
B1111135602059N00837630EA0000000986
B1112455601853N00840241EA0000000908
B1112525601773N00840362EA0000000922
B1113075601668N00840692EA0000000945
B1113175601754N00840704EA0000000962
B1113235601733N00840540EA0000000970
B1113285601662N00840477EA0000000985
B1113335601592N00840505EA0000000987
B1113505601673N00840649EA0000001003
B1113565601688N00840476EA0000001013
B1114025601607N00840414EA0000001034
B1114255601664N00840693EA0000001030
B1114365601677N00840390EA0000001049
B1114445601564N00840331EA0000001071
B1115175601591N00840278EA0000001079
B1117405600599N00843416EA0000001029
B1117555600593N00843457EA0000001069
B1118025600538N00843307EA0000001091
B1118185600555N00843282EA0000001127
B1118235600487N00843218EA0000001143
B1118405600523N00843193EA0000001178
B1119025600481N00843075EA0000001225
B1119305600435N00842875EA0000001277
B1119485600456N00842802EA0000001306
B1120165600322N00843256EA0000001332
B1120225600322N00843398EA0000001330
B1120525600475N00844170EA0000001324
B1120595600515N00844313EA0000001319
B1121045600545N00844433EA0000001307
B1121095600567N00844545EA0000001338
B1121165600588N00844693EA0000001346
B1121255600602N00844916EA0000001346
B1121345600608N00845173EA0000001319
B1121435600599N00845437EA0000001313
B1123365559955N00848507EA0000001345
B1123445559875N00848690EA0000001332
B1123545559736N00848900EA0000001309
B1123595559646N00848972EA0000001303
B1124055559538N00849048EA0000001299
B1124125559412N00849134EA0000001281
B1124185559304N00849205EA0000001262
B1124275559133N00849305EA0000001237
B1124325559035N00849347EA0000001246
B1124375558948N00849385EA0000001275
B1124435558873N00849463EA0000001287
B1125255558725N00850636EA0000001215
B1125475558672N00851163EA0000001267
B1126055558656N00851592EA0000001278
B1126125558680N00851784EA0000001258
B1126185558701N00851956EA0000001244
B1126345558714N00852437EA0000001207
B1126475558608N00852821EA0000001190
B1126525558563N00852959EA0000001184
B1127015558485N00853207EA0000001177
B1127075558434N00853369EA0000001173
B1127125558391N00853503EA0000001174
B1127225558323N00853745EA0000001215
B1127285558281N00853874EA0000001232
B1127465558298N00854311EA0000001188
B1127545558233N00854522EA0000001174
B1128015558151N00854687EA0000001164
B1128105558041N00854888EA0000001158
B1128155557982N00854996EA0000001151
B1128205557925N00855106EA0000001154
B1128295557824N00855309EA0000001165
B1128345557769N00855407EA0000001181
B1128425557677N00855581EA0000001165
B1128475557617N00855694EA0000001163
B1128535557548N00855839EA0000001157
B1128585557492N00855966EA0000001150
B1129065557404N00856168EA0000001142
B1129115557349N00856288EA0000001133
B1129175557281N00856438EA0000001107
B1129235557214N00856603EA0000001116
B1129295557153N00856748EA0000001117
B1129345557100N00856872EA0000001110
B1129405557039N00857027EA0000001107
B1129465556985N00857177EA0000001136
B1129515556949N00857280EA0000001130
B1129565556912N00857403EA0000001115
B1130025556864N00857566EA0000001111
B1130095556810N00857758EA0000001113
B1130145556781N00857899EA0000001116
B1130195556750N00858038EA0000001120
B1130265556703N00858230EA0000001121
B1130325556657N00858394EA0000001121
B1130385556600N00858551EA0000001114
B1130435556551N00858684EA0000001114
B1130505556508N00858855EA0000001141
B1131035556619N00858812EA0000001180
B1131125556537N00858643EA0000001183
B1131175556479N00858694EA0000001187
B1131235556471N00858817EA0000001199
B1131335556556N00858949EA0000001222
B1131385556611N00858883EA0000001220
B1131435556588N00858746EA0000001227
B1131485556520N00858755EA0000001239
B1132015556595N00858818EA0000001258
B1132065556598N00858663EA0000001257
B1132125556579N00858486EA0000001264
B1132175556524N00858379EA0000001258
B1132225556448N00858371EA0000001250
B1132295556372N00858484EA0000001262
B1132345556329N00858572EA0000001277
B1132405556280N00858679EA0000001282
B1132455556227N00858754EA0000001282
B1132505556183N00858843EA0000001268
B1132565556173N00858992EA0000001249
B1133015556180N00859132EA0000001234
B1133065556192N00859279EA0000001222
B1133155556218N00859549EA0000001211
B1133205556232N00859696EA0000001202
B1133265556251N00859867EA0000001195
B1133325556271N00900033EA0000001185
B1133385556285N00900197EA0000001177
B1133435556296N00900332EA0000001169
B1133485556306N00900470EA0000001163
B1133545556321N00900632EA0000001156
B1134025556338N00900856EA0000001140
B1134085556348N00901032EA0000001133
B1134165556358N00901262EA0000001127
B1134225556361N00901425EA0000001118
B1134315556361N00901655EA0000001117
B1134365556353N00901763EA0000001136
B1134455556337N00901961EA0000001128
B1134515556320N00902102EA0000001143
B1134565556300N00902203EA0000001162
B1135015556257N00902281EA0000001157
B1135065556185N00902265EA0000001153
B1135115556140N00902161EA0000001151
B1135175556144N00902008EA0000001159
B1135245556207N00901909EA0000001164
B1135305556269N00901945EA0000001167
B1135355556291N00902043EA0000001174
B1135405556288N00902148EA0000001169
B1135465556215N00902237EA0000001160
B1135515556160N00902334EA0000001144
B1135565556124N00902451EA0000001141
B1136015556095N00902577EA0000001129
B1136065556072N00902698EA0000001132
B1136135556043N00902861EA0000001115
B1136215556036N00903076EA0000001089
B1136265556049N00903218EA0000001077
B1136325556066N00903391EA0000001066
B1136375556083N00903530EA0000001058
B1136425556101N00903662EA0000001052
B1136475556118N00903790EA0000001040
B1136545556138N00903975EA0000001028
B1137025556160N00904182EA0000001027
B1137075556173N00904306EA0000001027
B1137145556193N00904479EA0000001033
B1137195556202N00904597EA0000001038
B1137255556203N00904732EA0000001047
B1137325556204N00904891EA0000001045
B1137375556194N00905018EA0000001039
B1137445556171N00905168EA0000001070
B1137495556162N00905267EA0000001088
B1137545556216N00905304EA0000001083
B1138025556228N00905113EA0000001087
B1138075556159N00905050EA0000001091
B1138145556062N00905069EA0000001111
B1138195556028N00905161EA0000001110
B1138295556123N00905122EA0000001140
B1138345556079N00905022EA0000001148
B1138395556018N00905060EA0000001157
B1138445556032N00905156EA0000001167
B1138525556101N00905046EA0000001182
B1138595556023N00904960EA0000001185
B1139045556002N00905060EA0000001192
B1139135556093N00904993EA0000001199
B1139245555975N00904878EA0000001223
B1139295555969N00904986EA0000001229
B1139345556031N00905018EA0000001233
B1139405556066N00904886EA0000001237
B1139465556000N00904782EA0000001254
B1139515555942N00904829EA0000001266
B1139565555948N00904932EA0000001265
B1140015556007N00904957EA0000001271
B1140075556045N00904830EA0000001270
B1140125556018N00904702EA0000001281
B1140185555943N00904619EA0000001283
B1140245555865N00904668EA0000001298
B1140325555797N00904836EA0000001275
B1140395555741N00905018EA0000001259
B1140445555711N00905158EA0000001247
B1140505555682N00905332EA0000001236
B1140585555641N00905565EA0000001231
B1141085555583N00905854EA0000001222
B1141145555550N00906024EA0000001218
B1141205555521N00906189EA0000001214
B1141275555487N00906383EA0000001208
B1141325555462N00906516EA0000001202
B1141385555431N00906662EA0000001211
B1141465555392N00906844EA0000001201
B1141545555350N00907051EA0000001188
B1142015555318N00907238EA0000001196
B1142075555295N00907364EA0000001231
B1142165555264N00907564EA0000001214
B1142225555239N00907714EA0000001216
B1142295555213N00907884EA0000001224
B1142345555198N00908004EA0000001219
B1142395555194N00908120EA0000001223
B1142445555197N00908239EA0000001225
B1142515555206N00908393EA0000001238
B1142575555214N00908521EA0000001235
B1143025555216N00908643EA0000001223
B1143085555208N00908799EA0000001216
B1143135555196N00908932EA0000001207
B1143195555180N00909097EA0000001200
B1143245555162N00909233EA0000001198
B1143305555142N00909395EA0000001190
B1143385555138N00909607EA0000001181
B1143455555187N00909760EA0000001165
B1143505555250N00909841EA0000001148
B1143565555336N00909925EA0000001135
B1144025555425N00910007EA0000001123
B1144115555559N00910131EA0000001109
B1144185555663N00910233EA0000001098
B1144265555782N00910344EA0000001099
B1144315555853N00910418EA0000001101
B1144365555918N00910492EA0000001120
B1144485556070N00910647EA0000001122
B1144535556136N00910720EA0000001133
B1144585556194N00910782EA0000001149
B1145045556260N00910848EA0000001158
B1145105556334N00910925EA0000001144
B1145155556404N00910998EA0000001141
B1145205556476N00911076EA0000001162
B1145255556540N00911154EA0000001182
B1145315556608N00911242EA0000001183
B1145365556668N00911314EA0000001174
B1145425556741N00911405EA0000001166
B1145475556804N00911482EA0000001165
B1145535556875N00911566EA0000001162
B1145585556939N00911643EA0000001154
B1146065557044N00911777EA0000001157
B1146185557188N00911981EA0000001146
B1146245557261N00912091EA0000001141
B1146305557335N00912201EA0000001131
B1146395557445N00912362EA0000001127
B1146455557516N00912463EA0000001116
B1146535557610N00912604EA0000001108
B1146585557669N00912691EA0000001110
B1147035557725N00912773EA0000001122
B1147095557781N00912849EA0000001131
B1147155557838N00912927EA0000001138
B1147205557881N00913000EA0000001135
B1147295557964N00913126EA0000001133
B1147355558026N00913214EA0000001126
B1147405558078N00913301EA0000001138
B1147485558143N00913423EA0000001163
B1147545558188N00913506EA0000001167
B1147595558196N00913610EA0000001168
B1148055558160N00913728EA0000001168
B1148105558093N00913767EA0000001174
B1148155558018N00913730EA0000001183
B1148215557962N00913606EA0000001194
B1148315557998N00913397EA0000001216
B1148365558047N00913417EA0000001227
B1148425558040N00913524EA0000001220
B1148475557968N00913552EA0000001210
B1148535557892N00913453EA0000001224
B1149035557929N00913258EA0000001243
B1149085557975N00913303EA0000001252
B1149155557936N00913418EA0000001259
B1149205557860N00913414EA0000001260
B1149255557806N00913327EA0000001272
B1149425557917N00913142EA0000001284
B1149525557864N00913331EA0000001294
B1149575557783N00913316EA0000001298
B1150055557709N00913141EA0000001312
B1150165557803N00912959EA0000001325
B1150235557870N00913026EA0000001324
B1150345557938N00913246EA0000001337
B1150395557964N00913346EA0000001336
B1150445557996N00913437EA0000001338
B1150525558050N00913573EA0000001329
B1150585558087N00913686EA0000001326
B1151045558124N00913798EA0000001324
B1151105558164N00913914EA0000001311
B1151175558212N00914051EA0000001313
B1151225558246N00914136EA0000001313
B1151285558289N00914239EA0000001305
B1151335558328N00914329EA0000001292
B1151385558375N00914425EA0000001275
B1151445558436N00914547EA0000001264
B1151505558494N00914666EA0000001263
B1151575558558N00914804EA0000001254
B1152035558606N00914927EA0000001247
B1152115558672N00915091EA0000001238
B1152195558735N00915255EA0000001224
B1152295558825N00915455EA0000001194
B1152355558883N00915573EA0000001181
B1152405558940N00915663EA0000001169
B1152455559001N00915738EA0000001161
B1152585559162N00915925EA0000001144
B1153035559226N00915975EA0000001147
B1153145559312N00915739EA0000001117
B1153235559286N00915447EA0000001095
B1153575559126N00914334EA0000001078
B1154295558812N00913425EA0000001053
B1154375558716N00913219EA0000001072
B1154445558645N00913068EA0000001068
B1154525558559N00912893EA0000001056
B1155015558451N00912686EA0000001048
B1155145558290N00912399EA0000001047
B1155225558196N00912232EA0000001042
B1155275558128N00912126EA0000001022
B1155365557976N00911972EA0000001051
B1155415557916N00911875EA0000001076
B1155475557961N00911743EA0000001094
B1155545558010N00911828EA0000001105
B1155595557958N00911883EA0000001125
B1156045557912N00911793EA0000001136
B1156115557969N00911663EA0000001151
B1156205557978N00911799EA0000001166
B1156265557905N00911754EA0000001185
B1156335557945N00911603EA0000001191
B1156425557964N00911744EA0000001215
B1156475557901N00911701EA0000001219
B1156555557950N00911526EA0000001237
B1157015558000N00911605EA0000001252
B1157065557964N00911694EA0000001262
B1157115557899N00911662EA0000001267
B1157215557933N00911423EA0000001287
B1157285558002N00911490EA0000001299
B1157345557959N00911584EA0000001307
B1157395557900N00911531EA0000001308
B1157445557891N00911393EA0000001310
B1157495557945N00911290EA0000001323
B1157545558002N00911332EA0000001332
B1157595557999N00911435EA0000001335
B1158045557946N00911495EA0000001335
B1158105557868N00911435EA0000001333
B1158215557919N00911192EA0000001354
B1158345557950N00911378EA0000001354
B1158405557868N00911364EA0000001352
B1158485557773N00911196EA0000001351
B1158545557742N00911026EA0000001366
B1159005557779N00910867EA0000001358
B1159075557868N00910851EA0000001364
B1159125557892N00910946EA0000001371
B1159175557865N00911044EA0000001383
B1159225557800N00911091EA0000001386
B1159275557724N00911053EA0000001391
B1159325557672N00910936EA0000001402
B1159415557705N00910692EA0000001414
B1159475557786N00910657EA0000001411
B1159525557840N00910728EA0000001413
B1200005557833N00910898EA0000001424
B1200065557757N00910942EA0000001419
B1200115557693N00910854EA0000001420
B1200235557741N00910537EA0000001429
B1200285557805N00910563EA0000001425
B1200365557769N00910707EA0000001428
B1200425557674N00910681EA0000001424
B1200495557575N00910509EA0000001426
B1200565557495N00910285EA0000001429
B1201035557406N00910057EA0000001411
B1201115557298N00909791EA0000001407
B1201225557138N00909394EA0000001395
B1201305557020N00909095EA0000001380
B1201355556951N00908909EA0000001369
B1201435556843N00908616EA0000001363
B1201495556771N00908398EA0000001364
B1201555556702N00908181EA0000001362
B1202025556625N00907922EA0000001354
B1202105556539N00907631EA0000001358
B1202165556480N00907415EA0000001354
B1202225556419N00907204EA0000001347
B1202275556357N00907038EA0000001344
B1202325556295N00906877EA0000001341
B1202405556191N00906625EA0000001326
B1202455556123N00906468EA0000001321
B1202525556027N00906252EA0000001314
B1202595555930N00906045EA0000001308
B1203075555816N00905811EA0000001295
B1203155555703N00905581EA0000001288
B1203235555598N00905349EA0000001280
B1203295555521N00905171EA0000001272
B1203365555433N00904956EA0000001265
B1203435555342N00904743EA0000001262
B1203485555278N00904591EA0000001256
B1203575555160N00904323EA0000001241
B1204045555071N00904118EA0000001235
B1204115554980N00903920EA0000001230
B1204185554892N00903726EA0000001224
B1204265554796N00903498EA0000001214
B1204325554724N00903325EA0000001211
B1204375554666N00903181EA0000001203
B1204445554585N00902966EA0000001192
B1204515554508N00902746EA0000001189
B1204595554425N00902502EA0000001191
B1205045554375N00902354EA0000001189
B1205115554292N00902150EA0000001188
B1205185554200N00901946EA0000001192
B1205235554136N00901809EA0000001196
B1205305554047N00901621EA0000001187
B1205385553950N00901404EA0000001177
B1205445553878N00901240EA0000001169
B1205505553806N00901070EA0000001153
B1205575553715N00900865EA0000001143
B1206025553647N00900719EA0000001132
B1206095553552N00900521EA0000001127
B1206165553457N00900332EA0000001118
B1206235553363N00900147EA0000001106
B1206285553295N00900017EA0000001097
B1206355553197N00859835EA0000001086
B1206435553083N00859627EA0000001077
B1206505552984N00859451EA0000001071
B1207035552806N00859125EA0000001055
B1207105552710N00858951EA0000001035
B1207225552536N00858647EA0000001019
B1207285552450N00858494EA0000001008
B1207345552366N00858336EA0000000998
B1207435552239N00858096EA0000000984
B1207515552125N00857886EA0000000974
B1207575552042N00857732EA0000000967
B1208025551973N00857606EA0000000958
B1208145551815N00857285EA0000000943
B1209325550592N00856164EA0000000911
B1209375550606N00856047EA0000000928
B1209465550654N00856165EA0000000962
B1209555550548N00856126EA0000000981
B1210005550542N00855998EA0000000989
B1210115550609N00856056EA0000001030
B1210195550516N00855993EA0000001050
B1210355550607N00855994EA0000001087
B1210435550512N00855958EA0000001111
B1211155550389N00855787EA0000001191
B1211205550358N00855867EA0000001193
B1211395550430N00855644EA0000001239
B1212035550389N00855507EA0000001301
B1212105550355N00855631EA0000001317
B1212325550387N00855369EA0000001357
B1212395550298N00855438EA0000001377
B1212545550394N00855485EA0000001408
B1213075550288N00855237EA0000001424
B1213125550233N00855309EA0000001428
B1213175550246N00855411EA0000001436
B1214025550085N00854585EA0000001460
B1214125549985N00854309EA0000001448
B1214205549905N00854063EA0000001454
B1214265549848N00853865EA0000001442
B1214385549730N00853469EA0000001422
B1415035529958N00924227EA0000001403
B1417395529205N00927334EA0000001263
B1417465529212N00927112EA0000001246
B1417555529221N00926818EA0000001242
B1418145529228N00926202EA0000001217
B1419285529195N00923704EA0000001170
B1419365529197N00923468EA0000001176
B1419445529193N00923229EA0000001177
B1419565529176N00922852EA0000001163
B1420145529156N00922256EA0000001159
B1420195529154N00922096EA0000001162
B1420245529152N00921940EA0000001160
B1420295529148N00921780EA0000001149
B1420415529141N00921371EA0000001142
B1420475529139N00921175EA0000001163
B1453025537872N00845598EA0000000049
B1453075537978N00845443EA0000000063
B1453125538046N00845315EA0000000126
B1453175538100N00845201EA0000000123
B1453335538262N00844811EA0000000099
B1453395538275N00844618EA0000000101
B1453445538234N00844479EA0000000098
B1453505538151N00844364EA0000000092
B1453555538068N00844332EA0000000084
B1454075537968N00844604EA0000000056
B1454155537949N00844825EA0000000033
B1454205537938N00844949EA0000000030
B1454255537930N00845055EA0000000030
B1454345537918N00845206EA0000000029
