AOGNOGN
HFDTE170825
HFFXA050
HFPLTPILOTINCHARGE:
HFGTYGLIDERTYPE:Astir CS
HFGIDGLIDERID:OY-XGG
HFDTM100GPSDATUM:WGS-1984
HFRFWFIRMWAREVERSION:
HFRHWHARDWAREVERSION:
HFFTYFRTYPE:OGN-FLIGHTBOOK
HFGPSGENERIC
HFPRSPRESSALTSENSOR:
HFCIDCOMPETITIONID:G6
B1055505720645N01024896EA0000000040
B1055555720685N01024778EA0000000118
B1056005720723N01024663EA0000000192
B1056055720757N01024531EA0000000265
B1056105720792N01024401EA0000000326
B1056155720821N01024289EA0000000356
B1056205720840N01024191EA0000000360
B1056265720862N01024069EA0000000362
B1056315720831N01023963EA0000000368
B1056365720759N01023962EA0000000361
B1056415720730N01024065EA0000000352
B1056475720784N01024109EA0000000353
B1056525720789N01023994EA0000000362
B1056575720719N01023925EA0000000358
B1057035720647N01024016EA0000000352
B1057085720666N01024117EA0000000347
B1057135720713N01024093EA0000000351
B1057195720702N01023951EA0000000351
B1057245720627N01023893EA0000000345
B1057295720557N01023959EA0000000343
B1057355720546N01024108EA0000000338
B1057405720590N01024174EA0000000340
B1057455720642N01024138EA0000000340
B1057515720636N01023997EA0000000344
B1057565720565N01023922EA0000000339
B1058015720483N01023956EA0000000332
B1058075720436N01024101EA0000000335
B1058125720461N01024215EA0000000329
B1058175720517N01024227EA0000000325
B1058255720545N01024054EA0000000323
B1058305720494N01023939EA0000000319
B1058355720410N01023912EA0000000316
B1058405720344N01023998EA0000000320
B1058455720343N01024125EA0000000320
B1058505720395N01024185EA0000000316
B1058555720445N01024125EA0000000313
B1059005720437N01023999EA0000000310
B1059055720365N01023934EA0000000312
B1059115720269N01023998EA0000000307
B1059165720236N01024130EA0000000309
B1059225720270N01024267EA0000000299
B1059275720330N01024298EA0000000290
B1059345720395N01024215EA0000000286
B1059405720439N01024117EA0000000278
B1059455720479N01024022EA0000000275
B1059505720492N01023903EA0000000280
B1059555720449N01023794EA0000000280
B1100005720372N01023780EA0000000273
B1100055720313N01023877EA0000000269
B1100105720306N01024011EA0000000265
B1100155720343N01024113EA0000000262
B1100255720456N01024198EA0000000262
B1100315720511N01024124EA0000000268
B1100365720491N01024007EA0000000262
B1100415720417N01023960EA0000000259
B1100475720340N01024058EA0000000260
B1100525720336N01024188EA0000000254
B1100575720384N01024258EA0000000253
B1101065720446N01024110EA0000000248
B1101115720407N01023993EA0000000239
B1101165720329N01023941EA0000000237
B1101215720252N01023991EA0000000235
B1101265720217N01024112EA0000000232
B1101315720230N01024234EA0000000227
B1101365720277N01024300EA0000000233
B1101415720334N01024331EA0000000229
B1101465720394N01024352EA0000000225
B1101515720458N01024353EA0000000223
B1101575720540N01024327EA0000000224
B1102055720644N01024257EA0000000222
B1102105720681N01024155EA0000000204
B1102155720670N01024021EA0000000210
B1102205720604N01023948EA0000000210
B1102255720527N01023978EA0000000205
B1102305720475N01024086EA0000000198
B1102365720427N01024238EA0000000184
B1102415720380N01024372EA0000000181
B1102465720328N01024508EA0000000173
B1102515720281N01024645EA0000000174
B1103005720226N01024897EA0000000161
B1103055720234N01025041EA0000000147
B1103115720292N01025163EA0000000133
B1103175720365N01025249EA0000000131
B1103235720447N01025315EA0000000124
B1103285720511N01025274EA0000000125
B1103345720557N01025133EA0000000085
B1103435720617N01024899EA0000000036
B1103495720652N01024770EA0000000033
B1103555720671N01024695EA0000000033
