AOGNOGN
HFDTE170825
HFFXA050
HFPLTPILOTINCHARGE:
HFGTYGLIDERTYPE:SZD-50 Puchacz
HFGIDGLIDERID:OY-XRA
HFDTM100GPSDATUM:WGS-1984
HFRFWFIRMWAREVERSION:
HFRHWHARDWAREVERSION:
HFFTYFRTYPE:OGN-FLIGHTBOOK
HFGPSGENERIC
HFPRSPRESSALTSENSOR:
HFCIDCOMPETITIONID:RA
B0923435720644N01024873EA0000000037
B0925155720449N01024375EA0000000248
B0925295720430N01024651EA0000000226
B0925465720267N01024536EA0000000189
B0925525720246N01024369EA0000000182
B0926095720302N01024442EA0000000190
B0926155720219N01024399EA0000000177
B0927065720305N01024482EA0000000139
B0927155720330N01024684EA0000000118
B0927285720375N01025026EA0000000106
B0927355720412N01025184EA0000000108
B0927475720535N01025167EA0000000088
B0927525720560N01025014EA0000000075
B0927575720600N01024895EA0000000048
B0928045720654N01024742EA0000000023
B0933485720675N01024672EA0000000034
