AOGNOGN
HFDTE190725
HFFXA050
HFPLTPILOTINCHARGE:
HFGTYGLIDERTYPE:LS-4
HFGIDGLIDERID:OY-XLM
HFDTM100GPSDATUM:WGS-1984
HFRFWFIRMWAREVERSION:
HFRHWHARDWAREVERSION:
HFFTYFRTYPE:OGN-FLIGHTBOOK
HFGPSGENERIC
HFPRSPRESSALTSENSOR:
HFCIDCOMPETITIONID:N9
B1005135554511N00926482EA0000000087
B1005145554509N00926505EA0000000091
B1005195554498N00926631EA0000000171
B1005245554491N00926745EA0000000264
B1005295554483N00926861EA0000000350
B1005345554477N00926990EA0000000411
B1005395554466N00927133EA0000000455
B1005445554448N00927284EA0000000481
B1005505554437N00927446EA0000000488
B1005585554461N00927633EA0000000498
B1006035554470N00927746EA0000000502
B1006085554414N00927798EA0000000493
B1006145554380N00927659EA0000000470
B1006195554449N00927564EA0000000474
B1006255554545N00927591EA0000000485
B1006315554599N00927719EA0000000492
B1006365554572N00927831EA0000000484
B1006415554505N00927805EA0000000468
B1006465554486N00927665EA0000000450
B1006515554544N00927546EA0000000455
B1006565554630N00927537EA0000000465
B1007015554697N00927613EA0000000472
B1007065554675N00927732EA0000000476
B1007115554613N00927686EA0000000472
B1007165554637N00927542EA0000000476
B1007215554722N00927526EA0000000479
B1007265554757N00927652EA0000000481
B1007315554703N00927722EA0000000492
B1007365554658N00927624EA0000000482
B1007415554703N00927491EA0000000482
B1007465554790N00927497EA0000000490
B1007515554810N00927614EA0000000506
B1007565554746N00927629EA0000000504
B1008015554719N00927498EA0000000508
B1008065554779N00927392EA0000000510
B1008115554858N00927432EA0000000513
B1008165554857N00927559EA0000000517
B1008215554781N00927553EA0000000519
B1008265554765N00927401EA0000000525
B1008315554843N00927309EA0000000530
B1008365554911N00927394EA0000000539
B1008415554881N00927503EA0000000550
B1008465554813N00927444EA0000000552
B1008515554828N00927292EA0000000560
B1008565554914N00927264EA0000000559
B1009015554952N00927391EA0000000566
B1009065554899N00927478EA0000000568
B1009115554824N00927407EA0000000571
B1009165554830N00927243EA0000000575
B1009215554921N00927199EA0000000577
B1009265554958N00927336EA0000000579
B1009315554886N00927397EA0000000585
B1009375554853N00927221EA0000000595
B1009435554946N00927187EA0000000615
B1009485554956N00927315EA0000000617
B1009535554884N00927322EA0000000622
B1009585554873N00927173EA0000000624
B1010035554957N00927116EA0000000622
B1010085555003N00927237EA0000000634
B1010135554941N00927299EA0000000638
B1010195554916N00927140EA0000000651
B1010245554996N00927108EA0000000655
B1010295555015N00927227EA0000000671
B1010345554950N00927238EA0000000673
B1010395554941N00927098EA0000000677
B1010455555034N00927056EA0000000681
B1010505555051N00927180EA0000000686
B1010555554984N00927225EA0000000686
B1011005554947N00927095EA0000000682
B1011065555040N00927007EA0000000688
B1011115555068N00927136EA0000000692
B1011165554993N00927157EA0000000698
B1011215554981N00927010EA0000000707
B1011265555057N00926963EA0000000712
B1011315555069N00927085EA0000000719
B1011365554999N00927075EA0000000720
B1011415554995N00926926EA0000000719
B1011465555077N00926890EA0000000720
B1011515555091N00927024EA0000000720
B1011565555018N00927055EA0000000723
B1012015555007N00926909EA0000000720
B1012075555109N00926885EA0000000718
B1012125555131N00927031EA0000000722
B1012175555074N00927125EA0000000732
B1012225555024N00927023EA0000000737
B1012275555088N00926932EA0000000727
B1012325555131N00927054EA0000000735
B1012375555063N00927103EA0000000740
B1012425555015N00926977EA0000000738
B1012475555057N00926844EA0000000742
B1012525555135N00926881EA0000000742
B1012575555115N00927009EA0000000743
B1013025555038N00926982EA0000000746
B1013075555031N00926831EA0000000734
B1013125555116N00926790EA0000000737
B1013175555158N00926916EA0000000745
B1013225555105N00927020EA0000000747
B1013275555045N00926941EA0000000750
B1013325555073N00926799EA0000000746
B1013375555124N00926673EA0000000750
B1013445555205N00926518EA0000000751
B1013505555278N00926395EA0000000766
B1013555555346N00926336EA0000000768
B1014005555384N00926431EA0000000765
B1014055555331N00926498EA0000000768
B1014105555284N00926403EA0000000774
B1014155555296N00926272EA0000000778
B1014205555366N00926261EA0000000768
B1014255555365N00926383EA0000000768
B1014315555293N00926475EA0000000767
B1014365555217N00926482EA0000000768
B1014435555194N00926285EA0000000763
B1014485555268N00926195EA0000000773
B1014535555318N00926269EA0000000784
B1014585555264N00926306EA0000000782
B1015035555264N00926170EA0000000785
B1015085555339N00926169EA0000000789
B1015145555316N00926280EA0000000799
B1015195555275N00926178EA0000000800
B1015245555341N00926111EA0000000807
B1015295555365N00926215EA0000000807
B1015345555302N00926228EA0000000817
B1015395555290N00926086EA0000000813
B1015445555365N00926036EA0000000815
B1015495555384N00926156EA0000000820
B1015545555320N00926172EA0000000828
B1015595555309N00926030EA0000000830
B1016045555384N00925994EA0000000830
B1016095555400N00926112EA0000000839
B1016145555338N00926120EA0000000844
B1016205555359N00925963EA0000000851
B1016255555417N00926012EA0000000854
B1016305555379N00926091EA0000000855
B1016355555332N00925986EA0000000855
B1016405555380N00925858EA0000000857
B1016455555459N00925875EA0000000858
B1016505555493N00925990EA0000000867
B1016555555439N00926058EA0000000863
B1017015555388N00925916EA0000000863
B1017065555455N00925825EA0000000872
B1017115555532N00925874EA0000000880
B1017165555609N00925861EA0000000895
B1017215555677N00925874EA0000000898
B1017265555706N00925974EA0000000891
B1017315555702N00926095EA0000000889
B1017365555668N00926175EA0000000897
B1017415555609N00926147EA0000000892
B1017485555574N00925962EA0000000897
B1017535555589N00925818EA0000000901
B1017595555668N00925833EA0000000910
B1018045555648N00925931EA0000000918
B1018095555592N00925876EA0000000907
B1018145555622N00925736EA0000000908
B1018195555694N00925769EA0000000912
B1018255555663N00925890EA0000000925
B1018305555606N00925825EA0000000921
B1018355555638N00925698EA0000000932
B1018405555700N00925738EA0000000932
B1018455555668N00925836EA0000000931
B1018505555622N00925737EA0000000925
B1018555555689N00925660EA0000000938
B1019005555731N00925749EA0000000950
B1019055555708N00925860EA0000000944
B1019105555641N00925847EA0000000937
B1019155555663N00925706EA0000000944
B1019205555736N00925729EA0000000948
B1019255555726N00925849EA0000000945
B1019305555660N00925831EA0000000945
B1019355555681N00925693EA0000000946
B1019405555764N00925699EA0000000949
B1019455555798N00925809EA0000000951
B1019515555731N00925826EA0000000951
B1019565555732N00925688EA0000000948
B1020015555806N00925650EA0000000951
B1020075555824N00925783EA0000000941
B1020135555774N00925903EA0000000940
B1020185555726N00925993EA0000000943
B1020235555673N00926080EA0000000945
B1020305555647N00926233EA0000000935
B1020355555726N00926269EA0000000918
B1020405555807N00926190EA0000000904
B1020465555905N00926070EA0000000889
B1020515555989N00925966EA0000000877
B1020575556080N00925817EA0000000863
B1021025556159N00925697EA0000000860
B1021075556237N00925589EA0000000860
B1021155556359N00925424EA0000000853
B1021205556437N00925325EA0000000848
B1021275556546N00925185EA0000000844
B1021345556658N00925034EA0000000824
B1021395556738N00924923EA0000000813
B1021445556817N00924807EA0000000802
B1021505556912N00924671EA0000000795
B1021575557025N00924511EA0000000782
B1022025557106N00924385EA0000000783
B1022075557182N00924258EA0000000787
B1022125557251N00924139EA0000000787
B1022175557317N00924023EA0000000785
B1022225557379N00923903EA0000000797
B1022315557504N00923750EA0000000803
B1022365557550N00923844EA0000000809
B1022415557497N00923895EA0000000809
B1022475557475N00923744EA0000000818
B1022525557555N00923729EA0000000802
B1022585557549N00923876EA0000000822
B1023035557486N00923854EA0000000831
B1023085557496N00923723EA0000000834
B1023135557575N00923748EA0000000819
B1023185557544N00923855EA0000000829
B1023255557497N00923719EA0000000841
B1023305557548N00923601EA0000000836
B1023355557626N00923634EA0000000832
B1023405557612N00923751EA0000000836
B1023455557552N00923708EA0000000837
B1023505557575N00923564EA0000000836
B1023555557661N00923562EA0000000829
B1024015557645N00923703EA0000000834
B1024065557583N00923643EA0000000839
B1024125557637N00923499EA0000000834
B1024175557695N00923587EA0000000836
B1024225557651N00923677EA0000000836
B1024295557604N00923528EA0000000836
B1024355557697N00923462EA0000000839
B1024405557762N00923549EA0000000841
B1024455557746N00923659EA0000000838
B1024505557693N00923595EA0000000841
B1024565557724N00923427EA0000000839
B1025015557774N00923295EA0000000842
B1025075557833N00923136EA0000000833
B1025125557869N00922987EA0000000829
B1025175557897N00922838EA0000000826
B1025225557897N00922688EA0000000823
B1025275557885N00922534EA0000000814
B1025335557870N00922343EA0000000823
B1025385557864N00922181EA0000000826
B1025435557917N00922066EA0000000846
B1025485557960N00922148EA0000000849
B1025545557893N00922131EA0000000853
B1025595557939N00922018EA0000000866
B1026045557984N00922100EA0000000863
B1026095557920N00922126EA0000000860
B1026145557924N00921984EA0000000873
B1026195558003N00921985EA0000000865
B1026255557984N00922124EA0000000871
B1026325557934N00921990EA0000000874
B1026375558005N00921942EA0000000881
B1026425558016N00922059EA0000000872
B1026475557950N00922043EA0000000882
B1026525557962N00921898EA0000000879
B1026575558043N00921901EA0000000880
B1027035558021N00922042EA0000000876
B1027085557949N00921989EA0000000880
B1027165557981N00921758EA0000000903
B1027215558048N00921798EA0000000886
B1027275557994N00921906EA0000000885
B1027325557949N00921803EA0000000900
B1027395558039N00921755EA0000000907
B1027445558028N00921870EA0000000896
B1027495557958N00921828EA0000000902
B1027545557987N00921691EA0000000914
B1028015558065N00921781EA0000000913
B1028065557997N00921821EA0000000922
B1028125557992N00921663EA0000000935
B1028175558067N00921680EA0000000939
B1028225558052N00921805EA0000000941
B1028285557978N00921742EA0000000953
B1028345558031N00921617EA0000000963
B1028405558069N00921737EA0000000967
B1028465557992N00921709EA0000000974
B1028515558031N00921594EA0000000978
B1028565558085N00921684EA0000000980
B1029015558028N00921748EA0000001001
B1029065557999N00921621EA0000000989
B1029115558075N00921572EA0000001006
B1029165558097N00921690EA0000001014
B1029215558044N00921742EA0000001041
B1029265557996N00921649EA0000001029
B1029315558051N00921554EA0000001038
B1029365558090N00921651EA0000001034
B1029415558022N00921683EA0000001044
B1029465558027N00921541EA0000001039
B1029515558098N00921580EA0000001048
B1029565558051N00921673EA0000001054
B1030025558025N00921513EA0000001063
B1030075558099N00921533EA0000001067
B1030125558061N00921631EA0000001092
B1030175558013N00921536EA0000001095
B1030225558074N00921450EA0000001089
B1030275558101N00921566EA0000001094
B1030325558030N00921593EA0000001108
B1030395558029N00921404EA0000001117
B1030445558096N00921451EA0000001116
B1030495558056N00921541EA0000001132
B1030545558009N00921428EA0000001139
B1030595558064N00921334EA0000001142
B1031045558101N00921436EA0000001155
B1031095558045N00921486EA0000001166
B1031155558013N00921350EA0000001185
B1031205558065N00921262EA0000001180
B1031265558114N00921353EA0000001184
B1031315558058N00921404EA0000001193
B1031365558017N00921299EA0000001209
B1031425558070N00921173EA0000001197
B1031475558124N00921255EA0000001198
B1031525558084N00921345EA0000001215
B1031585558030N00921234EA0000001216
B1032035558085N00921119EA0000001226
B1032085558154N00921149EA0000001228
B1032145558121N00921251EA0000001238
B1032195558075N00921159EA0000001242
B1032255558118N00921005EA0000001244
B1032325558189N00920842EA0000001251
B1032375558240N00920733EA0000001258
B1032425558290N00920623EA0000001260
B1032485558353N00920494EA0000001267
B1032535558406N00920392EA0000001272
B1032585558461N00920297EA0000001279
B1033045558532N00920201EA0000001285
B1033115558615N00920084EA0000001287
B1033195558722N00919956EA0000001276
B1033255558810N00919879EA0000001268
B1033305558886N00919819EA0000001263
B1033365558979N00919754EA0000001254
B1033425559073N00919691EA0000001241
B1033475559149N00919633EA0000001237
B1033525559223N00919581EA0000001231
B1033595559329N00919518EA0000001223
B1034045559405N00919480EA0000001211
B1034105559510N00919445EA0000001195
B1034165559616N00919423EA0000001191
B1034225559720N00919402EA0000001185
B1034275559809N00919382EA0000001176
B1034325559900N00919359EA0000001167
B1034375559989N00919336EA0000001160
B1034445600110N00919307EA0000001155
B1034515600230N00919279EA0000001154
B1034595600368N00919239EA0000001148
B1035065600491N00919193EA0000001141
B1035115600581N00919161EA0000001138
B1035165600669N00919131EA0000001134
B1035225600775N00919103EA0000001125
B1035315600929N00919070EA0000001118
B1035365601016N00919058EA0000001111
B1035425601124N00919046EA0000001109
B1035495601244N00919039EA0000001125
B1035545601328N00919020EA0000001130
B1035595601380N00918906EA0000001134
B1036045601349N00918783EA0000001142
B1036095601283N00918799EA0000001149
B1036155601292N00918936EA0000001164
B1036205601368N00918940EA0000001172
B1036265601393N00918779EA0000001173
B1036315601327N00918727EA0000001177
B1036375601312N00918868EA0000001196
B1036425601388N00918895EA0000001208
B1036475601431N00918769EA0000001206
B1036525601379N00918680EA0000001221
B1036575601347N00918778EA0000001220
B1037025601411N00918851EA0000001241
B1037075601467N00918749EA0000001238
B1037125601419N00918649EA0000001249
B1037175601384N00918734EA0000001255
B1037235601465N00918796EA0000001265
B1037285601516N00918680EA0000001269
B1037335601468N00918590EA0000001272
B1037385601432N00918683EA0000001279
B1037435601490N00918770EA0000001281
B1037485601578N00918805EA0000001268
B1037565601725N00918862EA0000001257
B1038015601814N00918892EA0000001259
B1038105601969N00918964EA0000001251
B1038155602056N00919018EA0000001248
B1038225602181N00919095EA0000001239
B1038285602283N00919159EA0000001236
B1038345602383N00919230EA0000001232
B1038425602507N00919333EA0000001244
B1038495602619N00919360EA0000001247
B1038545602651N00919228EA0000001245
B1038595602593N00919134EA0000001244
B1039045602537N00919199EA0000001249
B1039105602567N00919342EA0000001245
B1039165602658N00919405EA0000001239
B1039215602740N00919455EA0000001229
B1039295602878N00919547EA0000001222
B1039355602983N00919622EA0000001213
B1039455603156N00919759EA0000001198
B1039525603275N00919855EA0000001188
B1039585603375N00919947EA0000001182
B1040105603562N00920131EA0000001171
B1040185603682N00920247EA0000001162
B1040235603756N00920323EA0000001149
B1040305603863N00920431EA0000001138
B1040385603983N00920562EA0000001111
B1040435604062N00920654EA0000001097
B1040505604169N00920784EA0000001094
B1040575604270N00920923EA0000001094
B1041025604338N00921026EA0000001089
B1041085604417N00921148EA0000001092
B1041155604501N00921292EA0000001100
B1041205604559N00921395EA0000001098
B1041275604638N00921554EA0000001093
B1041355604721N00921751EA0000001081
B1041435604799N00921970EA0000001062
B1041505604858N00922163EA0000001066
B1041575604912N00922347EA0000001063
B1042025604953N00922475EA0000001058
B1042085605000N00922622EA0000001052
B1042135605040N00922745EA0000001045
B1042185605080N00922867EA0000001042
B1042275605153N00923085EA0000001036
B1042355605221N00923275EA0000001034
B1042405605265N00923393EA0000001032
B1042465605317N00923533EA0000001032
B1042515605358N00923648EA0000001032
B1042565605401N00923763EA0000001041
B1043015605464N00923836EA0000001044
B1043065605533N00923765EA0000001036
B1043115605521N00923628EA0000001044
B1043165605453N00923611EA0000001046
B1043215605436N00923730EA0000001047
B1043265605505N00923791EA0000001047
B1043315605565N00923694EA0000001042
B1043365605528N00923574EA0000001050
B1043425605467N00923660EA0000001048
B1043475605525N00923745EA0000001048
B1043545605580N00923592EA0000001043
B1043595605506N00923556EA0000001039
B1044045605457N00923664EA0000001047
B1044095605498N00923759EA0000001057
B1044155605567N00923661EA0000001040
B1044205605508N00923570EA0000001036
B1044255605453N00923643EA0000001038
B1044305605495N00923748EA0000001031
B1044355605582N00923744EA0000001024
B1044425605637N00923566EA0000001019
B1044485605653N00923378EA0000001017
B1044555605680N00923159EA0000001013
B1045015605713N00922978EA0000001015
B1045175605806N00922499EA0000001014
B1045255605857N00922251EA0000001007
B1045355605924N00921953EA0000000993
B1045415605961N00921766EA0000000967
B1045495606008N00921503EA0000000964
B1046125606060N00920787EA0000000987
B1046175605995N00920821EA0000000979
B1046235606035N00920952EA0000000998
B1046335606058N00920758EA0000000998
B1046385606008N00920838EA0000001008
B1046435606071N00920912EA0000001017
B1046525606071N00920709EA0000001018
B1046575606023N00920788EA0000001025
B1047045606119N00920851EA0000001032
B1047095606133N00920696EA0000001031
B1047155606051N00920665EA0000001037
B1047205606060N00920790EA0000001040
B1047265606157N00920742EA0000001050
B1047325606122N00920590EA0000001059
B1047375606070N00920654EA0000001063
B1047425606122N00920743EA0000001069
B1047475606188N00920655EA0000001078
B1047535606130N00920542EA0000001076
B1048025606170N00920685EA0000001091
B1048105606186N00920493EA0000001101
B1048155606127N00920533EA0000001101
B1048225606213N00920598EA0000001106
B1048275606221N00920454EA0000001112
B1048325606152N00920456EA0000001117
B1048375606170N00920561EA0000001117
B1048445606246N00920437EA0000001126
B1048495606184N00920406EA0000001120
B1048555606230N00920506EA0000001126
B1049025606255N00920319EA0000001134
B1049075606184N00920310EA0000001132
B1049125606163N00920428EA0000001139
B1049185606241N00920476EA0000001146
B1049235606262N00920325EA0000001151
B1049285606194N00920289EA0000001159
B1049335606200N00920400EA0000001163
B1049395606276N00920306EA0000001170
B1049445606216N00920219EA0000001169
B1049525606260N00920342EA0000001180
B1050015606220N00920175EA0000001193
B1050065606225N00920286EA0000001200
B1050115606304N00920256EA0000001206
B1050165606295N00920111EA0000001213
B1050215606228N00920128EA0000001219
B1050275606271N00920228EA0000001227
B1050325606327N00920119EA0000001234
B1050375606270N00920023EA0000001230
B1050445606252N00920164EA0000001253
B1050495606325N00920161EA0000001262
B1050555606331N00919996EA0000001263
B1051015606255N00920028EA0000001268
B1051065606303N00920115EA0000001274
B1051115606355N00919999EA0000001283
B1051165606299N00919894EA0000001285
B1051215606258N00919983EA0000001294
B1051265606323N00920043EA0000001305
B1051325606358N00919890EA0000001320
B1051405606280N00919933EA0000001321
B1051455606344N00920024EA0000001323
B1051565606527N00920181EA0000001327
B1052015606602N00920278EA0000001326
B1052085606692N00920441EA0000001327
B1052165606758N00920673EA0000001314
B1052215606806N00920806EA0000001315
B1052265606879N00920885EA0000001316
B1052325606981N00920929EA0000001300
B1052385607093N00920958EA0000001290
B1052465607241N00920993EA0000001289
B1052545607386N00921029EA0000001290
B1052595607478N00921021EA0000001288
B1053045607569N00920980EA0000001295
B1053095607633N00920857EA0000001286
B1053245607556N00920393EA0000001272
B1053335607498N00920108EA0000001268
B1053385607474N00919950EA0000001257
B1053445607447N00919757EA0000001245
B1053515607416N00919526EA0000001247
B1053595607378N00919263EA0000001243
B1054065607346N00919036EA0000001244
B1054135607321N00918810EA0000001243
B1054185607302N00918649EA0000001241
B1054255607271N00918423EA0000001238
B1054315607235N00918229EA0000001228
B1054365607206N00918067EA0000001223
B1054415607178N00917904EA0000001210
B1054465607152N00917735EA0000001201
B1054525607123N00917531EA0000001197
B1054595607094N00917296EA0000001194
B1055085607040N00917012EA0000001195
B1055155606987N00916799EA0000001198
B1055205606954N00916655EA0000001197
B1055265606900N00916494EA0000001189
B1055325606842N00916330EA0000001180
B1055385606785N00916157EA0000001168
B1055445606726N00915987EA0000001158
B1055495606674N00915846EA0000001150
B1056015606563N00915485EA0000001138
B1056075606515N00915292EA0000001132
B1056145606466N00915065EA0000001140
B1056215606424N00914843EA0000001130
B1056325606356N00914488EA0000001119
B1056385606294N00914311EA0000001114
B1056455606228N00914109EA0000001126
B1056515606209N00913921EA0000001128
B1056565606193N00913765EA0000001123
B1057035606125N00913575EA0000001127
B1057095606068N00913412EA0000001144
B1057145606023N00913270EA0000001142
B1057235605935N00913003EA0000001133
B1057295605876N00912817EA0000001121
B1057365605808N00912604EA0000001112
B1057425605749N00912417EA0000001101
B1057485605691N00912227EA0000001091
B1057555605624N00912001EA0000001081
B1058005605576N00911838EA0000001077
B1058075605509N00911611EA0000001070
B1058125605464N00911450EA0000001064
B1058175605419N00911284EA0000001056
B1058235605362N00911081EA0000001051
B1058305605291N00910852EA0000001052
B1058365605223N00910666EA0000001047
B1058415605167N00910513EA0000001041
B1058465605109N00910365EA0000001028
B1058535605029N00910149EA0000001013
B1059015604948N00909890EA0000001005
B1059085604887N00909658EA0000001006
B1059145604842N00909464EA0000001008
B1059195604806N00909304EA0000000998
B1059255604762N00909105EA0000000982
B1059355604690N00908768EA0000000974
B1059405604659N00908601EA0000000967
B1059455604628N00908434EA0000000965
B1059515604592N00908235EA0000000956
B1059575604555N00908039EA0000000948
B1100035604518N00907838EA0000000936
B1100085604484N00907674EA0000000933
B1100145604439N00907487EA0000000923
B1100235604339N00907230EA0000000911
B1100285604282N00907086EA0000000910
B1100335604235N00906941EA0000000920
B1100385604261N00906791EA0000000931
B1100445604351N00906820EA0000000932
B1100495604330N00906932EA0000000942
B1100545604263N00906889EA0000000929
B1101015604322N00906708EA0000000926
B1101065604384N00906807EA0000000933
B1101115604334N00906906EA0000000927
B1101165604277N00906793EA0000000924
B1101215604340N00906666EA0000000925
B1101275604434N00906741EA0000000941
B1101325604431N00906863EA0000000935
B1101375604364N00906800EA0000000923
B1101425604408N00906664EA0000000932
B1101485604497N00906740EA0000000927
B1101535604458N00906859EA0000000926
B1101585604391N00906782EA0000000930
B1102035604432N00906646EA0000000927
B1102085604511N00906694EA0000000927
B1102135604495N00906829EA0000000917
B1102185604413N00906809EA0000000919
B1102265604297N00906649EA0000000914
B1102315604227N00906544EA0000000913
B1102385604122N00906401EA0000000899
B1102435604046N00906299EA0000000892
B1102485603969N00906205EA0000000884
B1102565603842N00906071EA0000000871
B1103065603683N00905920EA0000000873
B1103125603590N00905825EA0000000885
B1103175603517N00905747EA0000000878
B1103225603440N00905671EA0000000866
B1103295603327N00905573EA0000000862
B1103345603249N00905503EA0000000860
B1103395603170N00905422EA0000000852
B1103465603055N00905339EA0000000843
B1103525602955N00905303EA0000000844
B1103575602884N00905344EA0000000852
B1104025602870N00905460EA0000000850
B1104075602933N00905523EA0000000848
B1104125602991N00905439EA0000000843
B1104185602961N00905275EA0000000840
B1104235602894N00905191EA0000000830
B1104285602819N00905107EA0000000820
B1104365602692N00904973EA0000000812
B1104425602597N00904875EA0000000809
B1104485602499N00904775EA0000000797
B1104555602383N00904660EA0000000781
B1105035602249N00904525EA0000000776
B1105095602147N00904427EA0000000774
B1105145602062N00904348EA0000000776
B1105195601975N00904269EA0000000770
B1105245601888N00904184EA0000000771
B1105305601795N00904123EA0000000793
B1105365601766N00904244EA0000000782
B1105415601841N00904298EA0000000775
B1105465601882N00904177EA0000000782
B1105515601822N00904086EA0000000781
B1105565601767N00904151EA0000000777
B1106015601816N00904254EA0000000764
B1106065601889N00904181EA0000000776
B1106115601866N00904040EA0000000769
B1106165601795N00904043EA0000000764
B1106215601807N00904169EA0000000760
B1106265601884N00904137EA0000000755
B1106315601870N00903993EA0000000756
B1106365601804N00903892EA0000000742
B1106435601694N00903769EA0000000735
B1106505601575N00903664EA0000000729
B1106575601459N00903567EA0000000730
B1107045601349N00903484EA0000000731
B1107095601270N00903433EA0000000726
B1107145601189N00903389EA0000000724
B1107225601057N00903336EA0000000717
B1107305600925N00903294EA0000000701
B1107375600806N00903259EA0000000688
B1107445600693N00903218EA0000000688
B1107495600618N00903220EA0000000699
B1107545600570N00903296EA0000000702
B1107595600594N00903408EA0000000696
B1108045600671N00903404EA0000000696
B1108095600700N00903270EA0000000698
B1108145600649N00903178EA0000000701
B1108195600603N00903247EA0000000701
B1108245600657N00903324EA0000000694
B1108295600711N00903216EA0000000690
B1108345600660N00903114EA0000000691
B1108395600619N00903192EA0000000695
B1108445600674N00903263EA0000000684
B1108495600723N00903149EA0000000677
B1108555600651N00903070EA0000000684
B1109005600640N00903170EA0000000680
B1109055600713N00903191EA0000000666
B1109105600746N00903052EA0000000664
B1109155600697N00902945EA0000000668
B1109205600635N00902964EA0000000666
B1109255600639N00903077EA0000000648
B1109305600714N00903113EA0000000652
B1109365600749N00902965EA0000000643
B1109455600661N00902732EA0000000621
B1109515600586N00902592EA0000000616
B1110015600457N00902359EA0000000594
B1110085600365N00902175EA0000000576
B1110135600299N00902042EA0000000575
B1110185600241N00901924EA0000000590
B1110235600189N00901817EA0000000578
B1110305600116N00901656EA0000000566
B1110365600051N00901524EA0000000556
B1110415559979N00901529EA0000000559
B1110465559960N00901643EA0000000562
B1110515600024N00901702EA0000000541
B1110585600148N00901681EA0000000522
B1111055600264N00901638EA0000000527
B1111105600337N00901595EA0000000528
B1111155600380N00901494EA0000000518
B1111205600354N00901390EA0000000505
B1111255600287N00901408EA0000000500
B1111305600277N00901528EA0000000498
B1111355600338N00901577EA0000000495
B1111405600381N00901484EA0000000483
B1111455600354N00901358EA0000000469
B1111505600280N00901303EA0000000462
B1111555600205N00901325EA0000000459
B1112005600156N00901411EA0000000454
B1112055600123N00901520EA0000000445
B1112105600095N00901641EA0000000434
B1112155600074N00901774EA0000000425
B1112225600054N00901963EA0000000425
B1112295600055N00902152EA0000000422
B1112345600107N00902230EA0000000423
B1112395600165N00902157EA0000000408
B1112445600174N00902023EA0000000407
B1112535600170N00901779EA0000000399
B1112585600156N00901656EA0000000396
B1113035600110N00901582EA0000000383
B1113085600049N00901639EA0000000367
B1113135600046N00901769EA0000000366
B1113185600101N00901830EA0000000366
B1113235600147N00901746EA0000000359
B1113295600149N00901589EA0000000346
B1113345600103N00901494EA0000000340
B1113395600030N00901526EA0000000329
B1113445600028N00901654EA0000000327
B1113495600091N00901659EA0000000315
B1113555600106N00901502EA0000000302
B1114015600093N00901327EA0000000286
B1114065600078N00901174EA0000000274
B1114115600064N00901023EA0000000268
B1114185600060N00900816EA0000000262
B1114245600057N00900646EA0000000263
B1114305600035N00900484EA0000000266
B1114355600036N00900344EA0000000257
B1114435600085N00900126EA0000000248
B1114495600115N00859953EA0000000242
B1114545600173N00859846EA0000000241
B1115005600255N00859753EA0000000216
B1115055600332N00859681EA0000000206
B1115115600429N00859700EA0000000196
B1115185600499N00859868EA0000000155
B1115245600534N00900042EA0000000110
B1115295600557N00900197EA0000000082
B1115355600578N00900384EA0000000047
B1115405600589N00900524EA0000000037
B1115465600597N00900637EA0000000038
