AOGNOGN
HFDTE190725
HFFXA050
HFPLTPILOTINCHARGE:
HFGTYGLIDERTYPE:ASK-23
HFGIDGLIDERID:OY-NVX
HFDTM100GPSDATUM:WGS-1984
HFRFWFIRMWAREVERSION:
HFRHWHARDWAREVERSION:
HFFTYFRTYPE:OGN-FLIGHTBOOK
HFGPSGENERIC
HFPRSPRESSALTSENSOR:
HFCIDCOMPETITIONID:NV
B1405225554509N00926496EA0000000107
B1405255554500N00926559EA0000000157
B1405305554486N00926657EA0000000236
B1405355554478N00926760EA0000000318
B1405415554470N00926896EA0000000405
B1405465554463N00927026EA0000000469
B1405535554450N00927219EA0000000495
B1406015554446N00927421EA0000000485
B1406205554505N00927863EA0000000474
B1406375554585N00928214EA0000000463
B1406425554623N00928300EA0000000461
B1406485554705N00928347EA0000000444
B1406545554804N00928370EA0000000427
B1407005554911N00928372EA0000000429
B1407055554984N00928277EA0000000418
B1407115555032N00928085EA0000000399
B1407165555057N00927914EA0000000391
B1407225555085N00927702EA0000000376
B1407285555115N00927488EA0000000370
B1407355555146N00927250EA0000000359
B1407435555184N00926977EA0000000338
B1407515555212N00926693EA0000000329
B1407575555207N00926482EA0000000318
B1408035555196N00926274EA0000000305
B1408125555175N00925970EA0000000276
B1408175555146N00925808EA0000000259
B1408235555067N00925688EA0000000257
B1408355554882N00925509EA0000000251
B1408455554734N00925400EA0000000246
B1408555554630N00925514EA0000000228
B1409015554611N00925668EA0000000208
B1409085554590N00925848EA0000000191
B1409135554577N00925964EA0000000182
B1409185554565N00926081EA0000000168
B1409255554549N00926249EA0000000145
B1409315554538N00926393EA0000000114
B1409375554523N00926532EA0000000092
B1409435554507N00926670EA0000000085
B1409485554496N00926771EA0000000084
B1409535554486N00926852EA0000000085
B1410015554475N00926933EA0000000086
