AOGNOGN
HFDTE190725
HFFXA050
HFPLTPILOTINCHARGE:
HFGTYGLIDERTYPE:Astir CS
HFGIDGLIDERID:OY-XGL
HFDTM100GPSDATUM:WGS-1984
HFRFWFIRMWAREVERSION:
HFRHWHARDWAREVERSION:
HFFTYFRTYPE:OGN-FLIGHTBOOK
HFGPSGENERIC
HFPRSPRESSALTSENSOR:
HFCIDCOMPETITIONID:H1
B1255585554507N00926516EA0000000080
B1256035554495N00926634EA0000000147
B1256085554483N00926740EA0000000233
B1256135554474N00926854EA0000000324
B1256185554468N00926987EA0000000398
B1256245554449N00927156EA0000000445
B1256295554438N00927276EA0000000459
B1256345554432N00927383EA0000000459
B1256395554429N00927487EA0000000465
B1256465554424N00927627EA0000000473
B1256525554419N00927744EA0000000473
B1256575554437N00927835EA0000000479
B1257025554502N00927840EA0000000483
B1257075554546N00927729EA0000000484
B1257125554510N00927619EA0000000474
B1257175554451N00927646EA0000000485
B1257225554457N00927741EA0000000474
B1257275554508N00927819EA0000000492
B1257325554568N00927844EA0000000494
B1257375554629N00927754EA0000000492
B1257435554610N00927589EA0000000483
B1257495554530N00927585EA0000000491
B1257545554520N00927673EA0000000499
B1258005554580N00927747EA0000000500
B1258055554632N00927805EA0000000497
B1258125554715N00927865EA0000000489
B1258175554785N00927873EA0000000473
B1258225554855N00927884EA0000000468
B1258295554932N00927883EA0000000461
B1258345555001N00927879EA0000000438
B1258395555057N00927866EA0000000445
B1258455555139N00927840EA0000000417
B1258505555198N00927752EA0000000413
B1258555555224N00927612EA0000000407
B1259035555259N00927383EA0000000393
B1259085555279N00927234EA0000000391
B1259135555296N00927088EA0000000382
B1259215555312N00926850EA0000000372
B1259265555282N00926714EA0000000358
B1259315555217N00926658EA0000000350
B1259365555166N00926717EA0000000340
B1259465555136N00926915EA0000000328
B1259515555101N00926985EA0000000318
B1259575555027N00926984EA0000000317
B1300025554968N00926917EA0000000311
B1300095554909N00926756EA0000000319
B1300145554916N00926628EA0000000310
B1300195554983N00926583EA0000000311
B1300245555028N00926651EA0000000310
B1300295555014N00926740EA0000000303
B1300345554953N00926742EA0000000301
B1300395554903N00926631EA0000000301
B1300445554898N00926486EA0000000298
B1300495554953N00926414EA0000000300
B1300555554987N00926506EA0000000297
B1301015554926N00926551EA0000000305
B1301065554887N00926449EA0000000302
B1301115554934N00926355EA0000000289
B1301165554982N00926410EA0000000294
B1301215554958N00926489EA0000000297
B1301275554887N00926462EA0000000296
B1301325554882N00926334EA0000000287
B1301375554942N00926310EA0000000280
B1301435554964N00926420EA0000000284
B1301485554965N00926513EA0000000277
B1301535554971N00926609EA0000000263
B1302015554973N00926773EA0000000245
B1302065554927N00926843EA0000000238
B1302115554870N00926775EA0000000241
B1302165554878N00926623EA0000000230
B1302245554890N00926363EA0000000213
B1302315554863N00926137EA0000000203
B1302365554830N00925992EA0000000203
B1302425554749N00925898EA0000000195
B1302475554677N00925841EA0000000171
B1302525554606N00925866EA0000000167
B1303005554582N00926054EA0000000136
B1303115554554N00926309EA0000000094
B1303175554539N00926450EA0000000079
B1303255554525N00926589EA0000000078
