AOGNOGN
HFDTE190725
HFFXA050
HFPLTPILOTINCHARGE:
HFGTYGLIDERTYPE:Astir CS
HFGIDGLIDERID:OY-XGL
HFDTM100GPSDATUM:WGS-1984
HFRFWFIRMWAREVERSION:
HFRHWHARDWAREVERSION:
HFFTYFRTYPE:OGN-FLIGHTBOOK
HFGPSGENERIC
HFPRSPRESSALTSENSOR:
HFCIDCOMPETITIONID:H1
B1350495554512N00926487EA0000000093
B1350495554512N00926487EA0000000093
B1350545554494N00926607EA0000000171
B1350595554482N00926713EA0000000257
B1351045554476N00926829EA0000000342
B1351105554465N00926976EA0000000420
B1351155554456N00927111EA0000000451
B1351205554446N00927253EA0000000459
B1351255554443N00927368EA0000000468
B1351325554442N00927519EA0000000455
B1351405554421N00927682EA0000000449
B1351475554397N00927826EA0000000446
B1351555554377N00927990EA0000000449
B1352015554365N00928112EA0000000449
B1352075554369N00928224EA0000000455
B1352125554426N00928250EA0000000452
B1352175554479N00928154EA0000000434
B1352235554443N00928005EA0000000425
B1352285554390N00928053EA0000000413
B1352345554416N00928184EA0000000412
B1352405554458N00928307EA0000000404
B1352455554492N00928409EA0000000395
B1352515554547N00928520EA0000000379
B1352565554601N00928603EA0000000377
B1353015554653N00928687EA0000000373
B1353065554675N00928783EA0000000364
B1353115554612N00928761EA0000000338
B1353165554615N00928590EA0000000331
B1353215554680N00928465EA0000000327
B1353295554776N00928262EA0000000315
B1353375554860N00928054EA0000000305
B1353435554894N00927867EA0000000290
B1353485554915N00927700EA0000000286
B1353565554945N00927440EA0000000288
B1354035554980N00927220EA0000000286
B1354085555001N00927061EA0000000283
B1354155555027N00926851EA0000000271
B1354235555054N00926599EA0000000252
B1354315555073N00926340EA0000000243
B1354365555070N00926180EA0000000240
B1354435555057N00925964EA0000000237
B1354515555027N00925729EA0000000240
B1354565554973N00925627EA0000000233
B1355055554841N00925576EA0000000222
B1355115554750N00925553EA0000000203
B1355165554675N00925577EA0000000194
B1355215554628N00925659EA0000000190
B1355285554608N00925816EA0000000185
B1355335554588N00925923EA0000000179
B1355385554573N00926031EA0000000168
B1355475554553N00926235EA0000000155
B1355595554524N00926514EA0000000107
B1356045554514N00926632EA0000000093
B1356155554492N00926877EA0000000086
B1356235554479N00927008EA0000000086
