AOGNOGN
HFDTE190725
HFFXA050
HFPLTPILOTINCHARGE:
HFGTYGLIDERTYPE:ASK-13
HFGIDGLIDERID:D-1355
HFDTM100GPSDATUM:WGS-1984
HFRFWFIRMWAREVERSION:
HFRHWHARDWAREVERSION:
HFFTYFRTYPE:OGN-FLIGHTBOOK
HFGPSGENERIC
HFPRSPRESSALTSENSOR:
HFCIDCOMPETITIONID:D-1
B0945315554495N00926603EA0000000168
B0945325554492N00926624EA0000000183
B0945375554482N00926729EA0000000259
B0945455554479N00926916EA0000000389
B0945525554474N00927102EA0000000471
B0946055554483N00927433EA0000000527
B0946105554542N00927442EA0000000527
B0946155554574N00927338EA0000000518
B0946205554540N00927234EA0000000517
B0946375554459N00927383EA0000000510
B0946425554522N00927385EA0000000516
B0946475554553N00927278EA0000000509
B0946535554515N00927140EA0000000509
B0946585554458N00927103EA0000000506
B0947245554417N00927567EA0000000479
B0947385554502N00927853EA0000000474
B0947435554481N00927960EA0000000475
B0947485554420N00927969EA0000000479
B0947555554387N00927809EA0000000476
B0948005554440N00927725EA0000000478
B0948095554562N00927757EA0000000478
B0948145554567N00927865EA0000000482
B0948195554513N00927898EA0000000480
B0948265554468N00927759EA0000000476
B0948315554516N00927669EA0000000478
B0948395554613N00927722EA0000000477
B0948465554618N00927868EA0000000477
B0948525554592N00927988EA0000000473
B0948585554547N00928078EA0000000473
B0949035554500N00928135EA0000000464
B0949085554443N00928154EA0000000461
B0949165554349N00928167EA0000000452
B0949225554275N00928146EA0000000453
B0949275554233N00928054EA0000000459
B0949405554343N00928067EA0000000460
B0949465554283N00928132EA0000000458
B0949515554219N00928103EA0000000461
B0949565554210N00927977EA0000000466
B0950125554351N00928100EA0000000469
B0950175554303N00928135EA0000000475
B0950245554281N00927988EA0000000483
B0950335554363N00928035EA0000000490
B0950385554321N00928087EA0000000486
B0950435554266N00928027EA0000000484
B0951015554395N00927964EA0000000486
B0951065554360N00928035EA0000000486
B0951145554303N00927903EA0000000488
B0951215554385N00927817EA0000000479
B0951265554458N00927826EA0000000480
B0951325554512N00927718EA0000000487
B0951385554487N00927600EA0000000483
B0951475554384N00927625EA0000000473
B0951535554366N00927736EA0000000470
B0951585554432N00927751EA0000000474
B0952115554372N00927613EA0000000467
B0952235554326N00927805EA0000000475
B0952285554388N00927850EA0000000466
B0952415554363N00927679EA0000000464
B0952475554324N00927761EA0000000460
B0953175554386N00928348EA0000000475
B0953225554346N00928409EA0000000478
B0953275554300N00928351EA0000000481
B0953325554319N00928236EA0000000480
B0953395554412N00928235EA0000000482
B0953455554444N00928350EA0000000479
B0953505554404N00928422EA0000000480
B0953555554343N00928405EA0000000484
B0954035554347N00928229EA0000000483
B0954085554419N00928243EA0000000478
B0954135554452N00928353EA0000000481
B0954185554414N00928436EA0000000485
B0954245554354N00928385EA0000000499
B0954315554367N00928224EA0000000503
B0954365554433N00928172EA0000000498
B0954445554497N00928299EA0000000502
B0954495554468N00928388EA0000000501
B0954545554406N00928401EA0000000503
B0955005554336N00928339EA0000000507
B0955055554317N00928225EA0000000514
B0955135554404N00928227EA0000000515
B0955185554374N00928302EA0000000530
B0955275554332N00928152EA0000000534
B0955395554439N00928232EA0000000539
B0955445554399N00928300EA0000000544
B0955495554344N00928251EA0000000542
B0955555554337N00928101EA0000000549
B0956055554431N00928141EA0000000560
B0956105554390N00928189EA0000000564
B0956175554357N00928055EA0000000573
B0956285554472N00928072EA0000000579
B0956335554447N00928161EA0000000579
B0956425554385N00928052EA0000000585
B0956505554479N00928039EA0000000587
B0956555554470N00928135EA0000000593
B0957035554407N00928040EA0000000592
B0957125554511N00927966EA0000000601
B0957195554549N00928094EA0000000613
B0957245554527N00928165EA0000000610
B0957305554462N00928173EA0000000605
B0957365554390N00928146EA0000000595
B0957425554318N00928131EA0000000588
B0957485554243N00928137EA0000000584
B0957535554182N00928146EA0000000594
B0958005554107N00928162EA0000000597
B0958075554034N00928164EA0000000596
B0958155553949N00928167EA0000000596
B0958225553876N00928178EA0000000579
B0958315553783N00928191EA0000000558
B0958405553687N00928192EA0000000556
B0958475553614N00928182EA0000000560
B0958575553520N00928206EA0000000549
B0959025553529N00928303EA0000000552
B0959305553582N00928126EA0000000563
B0959355553598N00928212EA0000000557
B0959415553658N00928289EA0000000560
B0959595553635N00928124EA0000000587
B1000045553649N00928214EA0000000588
B1000175553747N00928021EA0000000599
B1000265553656N00927976EA0000000607
B1000315553666N00928074EA0000000607
B1000365553733N00928095EA0000000616
B1000455553817N00927928EA0000000626
B1000575553732N00927749EA0000000632
B1001025553729N00927843EA0000000632
B1001075553795N00927864EA0000000640
B1001145553840N00927703EA0000000648
B1001235553754N00927575EA0000000652
B1001295553689N00927590EA0000000648
B1001385553596N00927645EA0000000661
B1001525553457N00927716EA0000000672
B1002025553354N00927740EA0000000668
B1002135553228N00927775EA0000000648
B1002265553096N00927884EA0000000619
B1002425552982N00928086EA0000000594
B1002475552985N00928176EA0000000583
B1002525553030N00928246EA0000000583
B1002575553100N00928248EA0000000577
B1003105553236N00928022EA0000000573
B1003175553288N00927853EA0000000565
B1003235553327N00927709EA0000000553
B1003295553364N00927561EA0000000542
B1003395553424N00927317EA0000000536
B1003505553502N00927058EA0000000524
B1003565553550N00926928EA0000000508
B1004015553592N00926820EA0000000504
B1004095553655N00926643EA0000000493
B1004175553711N00926462EA0000000482
B1004395553677N00925979EA0000000425
B1004445553625N00926012EA0000000415
B1004505553596N00926120EA0000000411
B1004555553588N00926222EA0000000401
B1005025553586N00926369EA0000000389
B1005095553584N00926520EA0000000378
B1005145553581N00926626EA0000000374
B1005225553575N00926787EA0000000369
B1005365553677N00927004EA0000000346
B1005415553748N00926953EA0000000351
B1005555553788N00926673EA0000000354
B1006015553725N00926714EA0000000350
B1006065553714N00926819EA0000000344
B1006115553752N00926914EA0000000339
B1006165553824N00926939EA0000000350
B1006215553886N00926883EA0000000358
B1006355553817N00926642EA0000000362
B1006405553763N00926680EA0000000362
B1006485553757N00926837EA0000000355
B1006575553858N00926955EA0000000367
B1007035553870N00927081EA0000000371
B1007115553791N00927145EA0000000374
B1007355553515N00927172EA0000000379
B1007405553479N00927238EA0000000367
B1007555553618N00927319EA0000000325
B1008025553689N00927189EA0000000319
B1008075553741N00927090EA0000000312
B1008135553805N00926964EA0000000316
B1008185553855N00926855EA0000000318
B1008235553902N00926740EA0000000322
B1008295553956N00926598EA0000000325
B1008365554010N00926430EA0000000330
B1008425554051N00926283EA0000000327
B1008475554084N00926164EA0000000325
B1008525554117N00926043EA0000000319
B1008585554152N00925882EA0000000314
B1009065554199N00925668EA0000000315
B1009115554244N00925550EA0000000322
B1009185554341N00925449EA0000000319
B1009255554450N00925382EA0000000298
B1009305554530N00925386EA0000000287
B1009355554604N00925421EA0000000281
B1009405554635N00925528EA0000000264
B1009565554609N00925904EA0000000182
B1010065554582N00926127EA0000000138
B1010135554556N00926292EA0000000107
B1010245554529N00926522EA0000000084
