AOGNOGN
HFDTE190725
HFFXA050
HFPLTPILOTINCHARGE:
HFGTYGLIDERTYPE:ASK-13
HFGIDGLIDERID:D-1355
HFDTM100GPSDATUM:WGS-1984
HFRFWFIRMWAREVERSION:
HFRHWHARDWAREVERSION:
HFFTYFRTYPE:OGN-FLIGHTBOOK
HFGPSGENERIC
HFPRSPRESSALTSENSOR:
HFCIDCOMPETITIONID:D-1
B1217175554491N00926655EA0000000209
B1217285554478N00926853EA0000000379
B1217355554467N00926986EA0000000445
B1217355554467N00926986EA0000000445
B1218025554414N00927503EA0000000510
B1218275554584N00927069EA0000000501
B1218325554589N00926960EA0000000501
B1218385554539N00927011EA0000000504
B1218445554607N00927049EA0000000509
B1218495554623N00926928EA0000000514
B1218585554554N00926985EA0000000521
B1219055554638N00927001EA0000000534
B1219105554638N00926881EA0000000536
B1219155554583N00926881EA0000000539
B1219205554593N00926976EA0000000541
B1219385554618N00926892EA0000000561
B1219455554705N00926917EA0000000557
B1219515554703N00926768EA0000000562
B1219585554649N00926839EA0000000575
B1220055554738N00926854EA0000000577
B1220105554737N00926729EA0000000576
B1220195554652N00926759EA0000000581
B1220245554702N00926833EA0000000584
B1220295554772N00926762EA0000000586
B1220345554769N00926627EA0000000588
B1220435554685N00926615EA0000000593
B1220485554725N00926701EA0000000596
B1220535554796N00926648EA0000000598
B1220585554795N00926514EA0000000601
B1221055554727N00926527EA0000000605
B1221145554824N00926578EA0000000612
B1221195554833N00926445EA0000000614
B1221295554738N00926474EA0000000615
B1221385554851N00926486EA0000000618
B1221435554849N00926353EA0000000624
B1221495554787N00926370EA0000000632
B1221545554824N00926458EA0000000636
B1222005554906N00926369EA0000000641
B1222055554904N00926231EA0000000644
B1222115554833N00926181EA0000000644
B1222165554796N00926245EA0000000648
B1222255554900N00926256EA0000000648
B1222315554874N00926124EA0000000659
B1222365554834N00926183EA0000000667
B1222445554926N00926201EA0000000676
B1222495554926N00926078EA0000000680
B1222555554875N00926117EA0000000687
B1223045554984N00926135EA0000000699
B1223095554989N00925999EA0000000698
B1223195554911N00926088EA0000000707
B1223255554975N00926176EA0000000700
B1223355554990N00926332EA0000000698
B1223415554912N00926311EA0000000682
B1223485554828N00926214EA0000000682
B1223585554784N00925975EA0000000679
B1224035554826N00925866EA0000000675
B1224085554891N00925818EA0000000667
B1224155554992N00925842EA0000000665
B1224245555120N00925879EA0000000665
B1224305555207N00925907EA0000000661
B1224355555275N00925947EA0000000655
B1224405555336N00926007EA0000000652
B1224485555404N00926134EA0000000647
B1224555555443N00926262EA0000000660
B1225035555441N00926386EA0000000663
B1225175555422N00926137EA0000000674
B1225225555483N00926169EA0000000678
B1225275555465N00926248EA0000000675
B1225325555406N00926198EA0000000682
B1225395555399N00926008EA0000000693
B1225445555465N00925965EA0000000694
B1225535555468N00926086EA0000000703
B1226015555369N00926060EA0000000706
B1226065555308N00926057EA0000000711
B1226175555192N00926117EA0000000711
B1227025554887N00926716EA0000000733
B1227085554879N00926810EA0000000733
B1227165554986N00926783EA0000000741
B1227215555005N00926644EA0000000742
B1227265554984N00926513EA0000000746
B1227335554968N00926339EA0000000758
B1227385555020N00926255EA0000000754
B1227435555078N00926294EA0000000757
B1228205554930N00926815EA0000000758
B1228255554913N00926908EA0000000733
B1228315554895N00927039EA0000000719
B1228365554886N00927151EA0000000711
B1228435554876N00927309EA0000000699
B1228505554865N00927465EA0000000692
B1228555554858N00927581EA0000000679
B1229025554848N00927746EA0000000665
B1229115554838N00927961EA0000000656
B1229195554817N00928157EA0000000657
B1229345554843N00928438EA0000000704
B1229455554848N00928206EA0000000707
B1229515554771N00928248EA0000000720
B1229565554741N00928327EA0000000727
B1230015554800N00928355EA0000000735
B1230085554794N00928190EA0000000754
B1230155554744N00928268EA0000000769
B1230205554804N00928284EA0000000782
B1230335554750N00928175EA0000000811
B1230385554798N00928229EA0000000818
B1230525554771N00928147EA0000000848
B1230595554870N00928187EA0000000853
B1231065554976N00928184EA0000000853
B1231135555081N00928156EA0000000845
B1231195555167N00928100EA0000000829
B1231245555231N00928011EA0000000801
B1231315555279N00927812EA0000000754
B1231375555298N00927625EA0000000714
B1231465555323N00927347EA0000000661
B1231525555339N00927161EA0000000622
B1232005555351N00926904EA0000000573
B1232055555355N00926748EA0000000549
B1232115555361N00926568EA0000000516
B1232195555339N00926339EA0000000473
B1232255555283N00926218EA0000000442
B1232315555207N00926194EA0000000410
B1232445555105N00926383EA0000000352
B1232525555071N00926561EA0000000346
B1233005555048N00926741EA0000000341
B1233115555044N00926975EA0000000346
B1233165555040N00927085EA0000000338
B1233225555030N00927224EA0000000327
B1233275555026N00927346EA0000000324
B1233325555021N00927464EA0000000319
B1233375554970N00927478EA0000000316
B1233435554975N00927302EA0000000304
B1233505555004N00927093EA0000000297
B1233555555023N00926952EA0000000282
B1234005555039N00926816EA0000000259
B1234075555051N00926606EA0000000234
B1234185555040N00926260EA0000000236
B1234245555025N00926078EA0000000240
B1234315554989N00925871EA0000000234
B1234365554935N00925768EA0000000228
B1234415554865N00925716EA0000000224
B1234495554753N00925649EA0000000208
B1234545554683N00925619EA0000000205
B1236135554529N00926543EA0000000082
