AOGNOGN
HFDTE100825
HFFXA050
HFPLTPILOTINCHARGE:
HFGTYGLIDERTYPE:Duo Discus xlt
HFGIDGLIDERID:OY-XSA
HFDTM100GPSDATUM:WGS-1984
HFRFWFIRMWAREVERSION:
HFRHWHARDWAREVERSION:
HFFTYFRTYPE:OGN-FLIGHTBOOK
HFGPSGENERIC
HFPRSPRESSALTSENSOR:
HFCIDCOMPETITIONID:SA
B0939395600691N00901366EA0000000040
B0939435600685N00901296EA0000000040
B0939505600670N00901146EA0000000040
B0939595600644N00900910EA0000000047
B0940075600622N00900680EA0000000059
B0940125600605N00900538EA0000000071
B0940175600589N00900393EA0000000076
B0940245600563N00900180EA0000000085
B0940345600519N00859893EA0000000115
B0940415600483N00859695EA0000000128
B0940525600433N00859393EA0000000156
B0941015600392N00859168EA0000000184
B0941085600369N00858983EA0000000188
B0941195600338N00858705EA0000000214
B0941305600324N00858419EA0000000227
B0941365600348N00858263EA0000000235
B0941455600430N00858079EA0000000256
B0942035600715N00857984EA0000000278
B0942105600838N00858043EA0000000290
B0942275601149N00858237EA0000000332
B0942375601319N00858365EA0000000355
B0942435601424N00858448EA0000000360
B0943055601790N00858751EA0000000411
B0943115601889N00858839EA0000000412
B0943475602356N00859721EA0000000448
B0943545602355N00900003EA0000000456
B0944025602345N00900329EA0000000466
B0944075602339N00900535EA0000000480
B0944445602385N00902075EA0000000538
B0944505602430N00902283EA0000000581
B0944555602499N00902325EA0000000590
B0945135602379N00902429EA0000000612
B0945185602448N00902470EA0000000614
B0945245602462N00902347EA0000000614
B0945375602348N00902545EA0000000638
B0945425602418N00902554EA0000000645
B0945475602413N00902443EA0000000655
B0945545602310N00902494EA0000000667
B0945595602311N00902653EA0000000673
B0946055602393N00902676EA0000000679
B0946105602387N00902561EA0000000688
B0946155602306N00902582EA0000000699
B0946235602326N00902805EA0000000714
B0946315602385N00902686EA0000000727
B0946395602274N00902736EA0000000742
B0946445602295N00902893EA0000000740
B0946505602381N00902889EA0000000758
B0947025602277N00902843EA0000000783
B0947075602297N00902996EA0000000784
B0947135602369N00902942EA0000000793
B0947195602292N00902876EA0000000806
B0947245602251N00903028EA0000000818
B0947305602331N00903107EA0000000827
B0947355602345N00903000EA0000000839
B0947475602252N00903203EA0000000855
B0948015602249N00903107EA0000000884
B0948065602223N00903277EA0000000899
B0948115602293N00903339EA0000000905
B0948165602315N00903235EA0000000916
B0948275602214N00903417EA0000000930
B0948325602288N00903443EA0000000941
B0948545602282N00903572EA0000000979
B0949115602218N00903740EA0000000997
B0949165602265N00903664EA0000001000
B0949275602146N00903787EA0000001013
B0949355602249N00903845EA0000001021
B0949425602250N00903668EA0000001030
B0949485602234N00903528EA0000001034
B0949535602215N00903416EA0000001027
B0950015602186N00903239EA0000001020
B0950065602168N00903126EA0000001015
B0950115602150N00903015EA0000000997
B0950175602128N00902879EA0000001007
B0950245602105N00902748EA0000001020
B0950305602083N00902637EA0000001017
B0950375602056N00902506EA0000001022
B0950445602028N00902383EA0000001021
B0950525601995N00902244EA0000001010
B0950575601971N00902154EA0000001000
B0951055601930N00902010EA0000000987
B0951125601894N00901889EA0000000974
B0951215601843N00901728EA0000000959
B0951295601802N00901585EA0000000945
B0951355601780N00901472EA0000000930
B0951435601752N00901319EA0000000920
B0951535601718N00901134EA0000000909
B0951595601701N00901021EA0000000904
B0952075601679N00900871EA0000000897
B0952135601663N00900760EA0000000890
B0952195601644N00900650EA0000000887
B0952245601629N00900562EA0000000884
B0952305601607N00900456EA0000000883
B0952385601574N00900319EA0000000878
B0952455601536N00900193EA0000000866
B0952505601468N00900141EA0000000852
B0952585601322N00900178EA0000000841
B0953075601158N00900246EA0000000842
B0953195600965N00900418EA0000000869
B0953245600878N00900424EA0000000876
B0953365600748N00900289EA0000000876
B0954235600885N00900866EA0000000940
B0957025559957N00905285EA0000001013
B0957215559802N00906090EA0000001048
B0957295559725N00906404EA0000001040
B0957385559616N00906740EA0000001061
B0957445559564N00906949EA0000001073
B0959315600158N00903852EA0000001054
B1002275600141N00858616EA0000000972
B1006365559336N00852776EA0000000983
B1006485559212N00853219EA0000000980
B1007245559026N00854653EA0000000987
B1008195559137N00856841EA0000001056
B1008295559116N00857244EA0000001088
B1008345559100N00857441EA0000001076
B1008455559060N00857889EA0000001076
B1008505559037N00858094EA0000001079
B1008565559002N00858336EA0000001083
B1009025558955N00858573EA0000001091
B1009125558880N00858942EA0000001095
B1009235558788N00859374EA0000001065
B1009295558744N00859617EA0000001067
B1009375558701N00859941EA0000001062
B1009425558681N00900155EA0000001054
B1009475558694N00900357EA0000001064
B1010105558844N00900049EA0000001009
B1010235558687N00859706EA0000000974
B1013045558667N00854333EA0000001005
B1018175604506N00855385EA0000000824
B1018395604456N00855641EA0000000857
B1018445604458N00855514EA0000000868
B1019075604413N00855773EA0000000894
B1019125604413N00855644EA0000000903
B1019465604240N00856311EA0000000927
B1019525604270N00856181EA0000000942
B1020145604248N00856406EA0000000960
B1020205604254N00856263EA0000000975
B1020265604159N00856199EA0000000986
B1020575604161N00856475EA0000001019
B1021215604169N00856788EA0000001036
B1021295604093N00856638EA0000001069
B1021525604142N00857032EA0000001085
B1022005604110N00856851EA0000001100
B1022055604042N00856758EA0000001098
B1022155603919N00856520EA0000001093
B1022315603958N00856074EA0000001105
B1022405604038N00855854EA0000001115
B1022485604104N00855665EA0000001123
B1022565604171N00855479EA0000001129
B1023045604232N00855299EA0000001118
B1023145604322N00855065EA0000001101
B1023205604378N00854920EA0000001101
B1023435604557N00854315EA0000001079
B1023515604614N00854110EA0000001071
B1024035604693N00853813EA0000001069
B1024135604747N00853562EA0000001054
B1027065605715N00848998EA0000000927
B1027165605750N00848715EA0000000920
B1027255605817N00848520EA0000000916
B1027395605954N00848954EA0000000918
B1030245604931N00853888EA0000000890
B1030565605007N00854019EA0000000907
B1032335604778N00854725EA0000001056
B1032495604654N00855028EA0000001087
B1033235604568N00855194EA0000001135
B1034035605118N00855021EA0000001130
B1034095605086N00854864EA0000001131
B1035105605092N00854868EA0000001107
B1036465605409N00854913EA0000001056
B1036595605529N00854607EA0000001054
B1037045605548N00854489EA0000001058
B1037165605618N00854209EA0000001028
B1038435605747N00854452EA0000001069
B1038505605763N00854292EA0000001093
B1039055605953N00854484EA0000001110
B1040315605518N00855769EA0000001099
B1040405605534N00855528EA0000001103
B1040465605553N00855392EA0000001126
B1040515605583N00855307EA0000001131
B1040565605628N00855237EA0000001133
B1041185605898N00855035EA0000001171
B1041315605875N00854717EA0000001141
B1041445605795N00854371EA0000001114
B1041495605789N00854222EA0000001106
B1042075605904N00853731EA0000001094
B1042425606096N00852821EA0000001079
B1043415606323N00852922EA0000001105
B1044165606283N00853267EA0000001108
B1047025605397N00857689EA0000001071
B1047215605328N00857930EA0000001115
B1047485605315N00858046EA0000001189
B1047565605430N00857990EA0000001225
B1048025605482N00857885EA0000001211
B1048085605495N00857728EA0000001208
B1048135605509N00857608EA0000001204
B1048205605536N00857444EA0000001191
B1049195605268N00858529EA0000001203
B1049285605336N00858807EA0000001207
B1049435605097N00858814EA0000001211
B1049505605107N00858588EA0000001233
B1049595605143N00858318EA0000001254
B1050065605173N00858157EA0000001266
B1050155605204N00857957EA0000001255
B1050205605229N00857849EA0000001241
B1050285605280N00857659EA0000001221
B1050365605332N00857450EA0000001212
B1050415605353N00857310EA0000001214
B1051295604932N00859262EA0000001137
B1054515603781N00909217EA0000001037
B1113015558621N00949188EA0000001062
B1124335555814N01006178EA0000001140
B1138125605449N01013242EA0000001151
B1138295605415N01013292EA0000001190
B1139075605372N01013633EA0000001295
B1143055609214N01010377EA0000001097
B1143125609335N01010283EA0000001089
B1143215609493N01010160EA0000001075
B1143325609693N01010010EA0000001060
B1143415609858N01009900EA0000001055
B1143485609985N01009813EA0000001048
B1143575610153N01009701EA0000001045
B1144035610263N01009628EA0000001056
B1144085610354N01009571EA0000001063
B1144145610464N01009516EA0000001060
B1144195610566N01009488EA0000001045
B1144305610805N01009484EA0000001029
B1144385610979N01009478EA0000001006
B1144495611223N01009461EA0000000980
B1144545611330N01009453EA0000000982
B1145015611469N01009440EA0000000999
B1145075611585N01009424EA0000000989
B1145145611727N01009412EA0000000982
B1145215611873N01009399EA0000000979
B1145295612038N01009391EA0000000982
B1145365612182N01009377EA0000000973
B1145435612327N01009363EA0000000986
B1145505612463N01009370EA0000000991
B1146035612716N01009464EA0000000972
B1146085612824N01009534EA0000000964
B1146185613042N01009676EA0000000942
B1146255613192N01009778EA0000000929
B1146315613318N01009860EA0000000911
B1146375613445N01009945EA0000000895
B1146495613698N01010116EA0000000886
B1146545613803N01010157EA0000000878
B1147035613980N01010081EA0000000875
B1147145614188N01009945EA0000000854
B1147225614338N01009844EA0000000837
B1147375614619N01009655EA0000000805
B1147445614752N01009564EA0000000792
B1147505614864N01009486EA0000000782
B1147575614993N01009396EA0000000771
B1148085615192N01009253EA0000000755
B1148135615284N01009194EA0000000749
B1152145616634N01007434EA0000000815
B1152365616648N01007634EA0000000846
B1152535616580N01007806EA0000000871
B1152585616643N01007775EA0000000875
B1220435615613N01004422EA0000001096
B1220485615517N01004360EA0000001084
B1221105615027N01004236EA0000001083
B1221285614643N01004189EA0000001093
B1221415614370N01004043EA0000001097
B1221475614252N01003982EA0000001098
B1221545614107N01003901EA0000001115
B1221595614013N01003846EA0000001126
B1222055613915N01003743EA0000001101
B1222105613840N01003617EA0000001080
B1222205613665N01003356EA0000001049
B1222295613501N01003139EA0000001066
B1222355613383N01003043EA0000001067
B1222405613263N01003030EA0000001078
B1223135612465N01003291EA0000001043
B1223195612311N01003340EA0000001027
B1223285612077N01003404EA0000001033
B1223345611926N01003438EA0000001025
B1223405611773N01003470EA0000001009
B1223475611589N01003526EA0000000977
B1223525611454N01003567EA0000000960
B1224025611189N01003639EA0000000955
B1224105610980N01003710EA0000000928
B1224185610765N01003855EA0000000913
B1224515609909N01003999EA0000000916
B1224595609741N01003936EA0000000913
B1225125609516N01003712EA0000000889
B1225185609436N01003556EA0000000879
B1225235609387N01003410EA0000000888
B1225285609331N01003282EA0000000904
B1225335609273N01003177EA0000000937
B1225395609170N01003196EA0000000941
B1225455609137N01003429EA0000000939
B1225505609206N01003545EA0000000971
B1225565609253N01003450EA0000000982
B1226015609187N01003386EA0000000993
B1226085609070N01003558EA0000000990
B1226135609053N01003749EA0000001006
B1226255609192N01003723EA0000001037
B1226325609083N01003699EA0000001042
B1226375609002N01003842EA0000001046
B1226445608979N01004127EA0000001067
B1226495609018N01004291EA0000001092
B1227065609001N01004111EA0000001126
B1227125608923N01004269EA0000001124
B1227175608931N01004486EA0000001149
B1227225608974N01004643EA0000001177
B1227365608970N01004470EA0000001190
B1227415608877N01004502EA0000001220
B1227465608810N01004645EA0000001233
B1227515608813N01004834EA0000001253
B1227565608882N01004938EA0000001268
B1228085608950N01004730EA0000001270
B1229055607801N01003798EA0000001309
B1229175607550N01003611EA0000001293
B1234295601516N00958256EA0000001047
B1234345601471N00958444EA0000001068
B1235075601520N00958347EA0000001089
B1243075556997N00959200EA0000001041
B1243365556964N00959370EA0000001070
B1243415556947N00959563EA0000001088
B1244055556944N00959659EA0000001103
B1244455556768N01000091EA0000001183
B1245055556761N01000132EA0000001222
B1317205559199N00908935EA0000000637
B1317345559451N00908572EA0000000603
B1317435559618N00908341EA0000000589
B1317535559800N00908075EA0000000569
B1318005559925N00907884EA0000000556
B1318095600088N00907645EA0000000544
B1318215600308N00907344EA0000000530
B1318265600397N00907222EA0000000523
B1318315600488N00907101EA0000000510
B1318385600618N00906934EA0000000499
B1318475600781N00906716EA0000000478
B1318535600860N00906520EA0000000458
B1319045600919N00906072EA0000000423
B1319105600929N00905821EA0000000412
B1319185600928N00905487EA0000000395
B1319305600908N00904986EA0000000368
B1319385600892N00904689EA0000000339
B1319455600881N00904448EA0000000313
B1319505600871N00904277EA0000000306
B1319565600857N00904072EA0000000296
B1320065600837N00903725EA0000000276
B1320145600822N00903460EA0000000246
B1320235600808N00903176EA0000000219
B1320285600800N00903020EA0000000204
B1320365600786N00902772EA0000000186
B1320415600777N00902615EA0000000174
B1320465600771N00902457EA0000000160
B1320515600761N00902301EA0000000142
B1320565600751N00902153EA0000000124
B1321015600740N00902010EA0000000105
B1321075600728N00901835EA0000000087
B1321135600714N00901657EA0000000063
B1321185600703N00901514EA0000000045
B1321265600685N00901306EA0000000039
B1321325600664N00901188EA0000000039
B1321375600635N00901125EA0000000035
