AOGNOGN
HFDTE100825
HFFXA050
HFPLTPILOTINCHARGE:
HFGTYGLIDERTYPE:Ventus 3T
HFGIDGLIDERID:OY-SJX
HFDTM100GPSDATUM:WGS-1984
HFRFWFIRMWAREVERSION:
HFRHWHARDWAREVERSION:
HFFTYFRTYPE:OGN-FLIGHTBOOK
HFGPSGENERIC
HFPRSPRESSALTSENSOR:
HFCIDCOMPETITIONID:VP
B0945445600688N00901316EA0000000040
B0945445600688N00901316EA0000000040
B0945515600673N00901155EA0000000041
B0945585600658N00900959EA0000000045
B0946035600641N00900808EA0000000055
B0946105600619N00900602EA0000000074
B0946155600619N00900452EA0000000081
B0946215600661N00900291EA0000000103
B0946265600712N00900168EA0000000114
B0946315600791N00900085EA0000000125
B0946365600878N00900042EA0000000145
B0946425600983N00900069EA0000000171
B0946475601069N00900096EA0000000175
B0946525601155N00900117EA0000000190
B0946585601253N00900063EA0000000198
B0947035601310N00859953EA0000000211
B0947085601337N00859819EA0000000231
B0947145601332N00859648EA0000000243
B0947205601320N00859478EA0000000266
B0947255601315N00859327EA0000000285
B0947325601293N00859100EA0000000308
B0947375601275N00858946EA0000000338
B0947435601259N00858766EA0000000368
B0947485601232N00858618EA0000000390
B0947535601212N00858470EA0000000405
B0947595601194N00858296EA0000000430
B0948045601182N00858156EA0000000457
B0948135601190N00857908EA0000000497
B0948185601233N00857784EA0000000519
B0948235601300N00857692EA0000000542
B0948285601382N00857655EA0000000566
B0948345601420N00857561EA0000000589
B0948395601365N00857496EA0000000589
B0948445601277N00857533EA0000000604
B0948505601205N00857699EA0000000624
B0948565601186N00857895EA0000000631
B0949015601231N00858024EA0000000629
B0949075601302N00858009EA0000000630
B0949135601294N00857892EA0000000639
B0949195601211N00857834EA0000000655
B0949265601097N00857918EA0000000678
B0949315601030N00858049EA0000000683
B0949365600992N00858220EA0000000704
B0949415601010N00858383EA0000000716
B0949465601074N00858469EA0000000731
B0949545601149N00858397EA0000000747
B0949595601118N00858299EA0000000748
B0950045601037N00858281EA0000000744
B0950105600943N00858421EA0000000747
B0950165600891N00858630EA0000000757
B0950215600900N00858808EA0000000770
B0950265600948N00858948EA0000000775
B0950325601012N00859112EA0000000776
B0950375601029N00859285EA0000000789
B0950425600974N00859439EA0000000805
B0950475600887N00859478EA0000000819
B0950525600828N00859407EA0000000834
B0950575600834N00859315EA0000000843
B0951025600895N00859298EA0000000853
B0951075600949N00859413EA0000000864
B0951125600946N00859588EA0000000883
B0951185600864N00859706EA0000000905
B0951245600791N00859651EA0000000913
B0951295600803N00859558EA0000000921
B0951345600862N00859535EA0000000933
B0951395600918N00859646EA0000000938
B0951445600909N00859827EA0000000958
B0951505600823N00859954EA0000000975
B0951565600739N00859900EA0000000987
B0952015600751N00859814EA0000001000
B0952065600814N00859799EA0000001009
B0952115600879N00859891EA0000001018
B0952175600892N00900089EA0000001043
B0952225600836N00900211EA0000001048
B0952275600753N00900230EA0000001052
B0952325600694N00900162EA0000001063
B0952375600689N00900056EA0000001068
B0952425600723N00859962EA0000001077
B0952485600781N00859869EA0000001076
B0952545600848N00859783EA0000001071
B0953005600912N00859704EA0000001067
B0953065600974N00859609EA0000001050
B0953135601056N00859479EA0000001023
B0953185601113N00859398EA0000001065
B0953235601164N00859348EA0000001065
B0953305601246N00859265EA0000001057
B0953365601318N00859188EA0000001057
B0953425601381N00859093EA0000001061
B0953485601418N00858970EA0000001074
B0953545601440N00858844EA0000001084
B0953595601457N00858739EA0000001088
B0954055601475N00858613EA0000001092
B0954135601506N00858450EA0000001097
B0954185601518N00858357EA0000001092
B0954245601535N00858233EA0000001067
B0954295601549N00858108EA0000001047
B0954365601564N00857917EA0000001027
B0954455601575N00857648EA0000001024
B0954505601578N00857503EA0000001021
B0954575601581N00857303EA0000001024
B0955035601584N00857135EA0000001016
B0955085601589N00856995EA0000001014
B0955165601605N00856783EA0000001024
B0955215601616N00856649EA0000001015
B0955295601638N00856428EA0000000999
B0955355601654N00856253EA0000001000
B0955405601660N00856105EA0000001001
B0955455601653N00855958EA0000001003
B0955515601626N00855784EA0000001004
B0955585601568N00855598EA0000001018
B0956035601515N00855489EA0000001022
B0956085601463N00855381EA0000001004
B0956145601396N00855241EA0000000986
B0956205601327N00855100EA0000000972
B0956255601268N00854981EA0000000964
B0956325601162N00854843EA0000000951
B0956385601035N00854843EA0000000941
B0956435600937N00854958EA0000000931
B0956485600873N00855150EA0000000913
B0956535600859N00855375EA0000000906
B0956585600891N00855588EA0000000905
B0957065601002N00855853EA0000000897
B0957125601099N00856020EA0000000888
B0957205601228N00856249EA0000000882
B0957265601322N00856427EA0000000887
B0957335601424N00856629EA0000000902
B0957385601492N00856770EA0000000905
B0957445601571N00856926EA0000000904
B0957515601669N00857114EA0000000889
B0957565601741N00857244EA0000000878
B0958045601867N00857456EA0000000858
B0958095601949N00857584EA0000000852
B0958165602065N00857772EA0000000841
B0958265602230N00858037EA0000000850
B0958315602316N00858171EA0000000847
B0958375602418N00858331EA0000000859
B0958435602513N00858494EA0000000858
B0958485602595N00858627EA0000000864
B0958545602681N00858766EA0000000873
B0959005602779N00858897EA0000000852
B0959055602869N00859001EA0000000844
B0959135603016N00859166EA0000000841
B0959195603126N00859290EA0000000844
B0959265603254N00859438EA0000000850
B0959345603399N00859629EA0000000837
B0959415603529N00859805EA0000000830
B0959465603626N00859920EA0000000818
B0959515603727N00900036EA0000000809
B0959565603827N00900157EA0000000806
B1000025603947N00900292EA0000000799
B1000075604046N00900390EA0000000822
B1000135604147N00900457EA0000000858
B1000185604206N00900408EA0000000870
B1000245604208N00900279EA0000000863
B1000305604135N00900188EA0000000846
B1000355604046N00900161EA0000000836
B1000405603945N00900163EA0000000850
B1000455603853N00900242EA0000000859
B1000505603798N00900400EA0000000848
B1000575603810N00900666EA0000000832
B1001025603845N00900853EA0000000832
B1001075603884N00901035EA0000000838
B1001145603925N00901285EA0000000846
B1001205603948N00901506EA0000000839
B1001305603977N00901891EA0000000843
B1001355603963N00902071EA0000000855
B1001405603893N00902182EA0000000860
B1001455603808N00902203EA0000000856
B1001505603739N00902146EA0000000852
B1001555603706N00902046EA0000000844
B1002005603713N00901934EA0000000833
B1002075603735N00901783EA0000000837
B1002145603748N00901633EA0000000835
B1002225603761N00901465EA0000000840
B1002305603772N00901303EA0000000847
B1002365603757N00901195EA0000000855
B1002415603687N00901154EA0000000855
B1002465603600N00901210EA0000000847
B1002515603507N00901286EA0000000823
B1002575603379N00901296EA0000000801
B1003025603273N00901249EA0000000787
B1003075603170N00901185EA0000000780
B1003125603068N00901119EA0000000773
B1003175602969N00901050EA0000000766
B1003245602830N00900952EA0000000769
B1003305602714N00900874EA0000000780
B1003355602620N00900817EA0000000782
B1003425602482N00900761EA0000000775
B1003505602314N00900727EA0000000759
B1003555602203N00900716EA0000000752
B1004015602076N00900709EA0000000764
B1004065601974N00900705EA0000000773
B1004145601813N00900708EA0000000766
B1004195601716N00900739EA0000000799
B1004245601652N00900850EA0000000817
B1004295601661N00901017EA0000000825
B1004345601726N00901090EA0000000836
B1004395601774N00901027EA0000000841
B1004445601752N00900925EA0000000849
B1004495601681N00900891EA0000000855
B1004545601606N00900966EA0000000868
B1004595601565N00901113EA0000000870
B1005055601588N00901306EA0000000889
B1005115601660N00901402EA0000000904
B1005165601721N00901383EA0000000912
B1005215601748N00901299EA0000000918
B1005265601722N00901211EA0000000927
B1005315601652N00901194EA0000000929
B1005365601580N00901278EA0000000933
B1005425601529N00901461EA0000000936
B1005475601538N00901628EA0000000950
B1005525601601N00901705EA0000000956
B1005575601657N00901659EA0000000969
B1006025601654N00901567EA0000000978
B1006085601586N00901517EA0000000977
B1006135601505N00901564EA0000000983
B1006185601441N00901689EA0000000986
B1006245601424N00901891EA0000001005
B1006295601471N00902013EA0000001024
B1006345601537N00902042EA0000001040
B1006395601575N00901977EA0000001048
B1006455601549N00901873EA0000001059
B1006505601481N00901854EA0000001060
B1006555601406N00901945EA0000001058
B1007005601371N00902107EA0000001072
B1007055601389N00902270EA0000001087
B1007105601448N00902370EA0000001094
B1007155601517N00902375EA0000001112
B1007205601551N00902302EA0000001117
B1007255601535N00902207EA0000001117
B1007305601471N00902159EA0000001118
B1007355601388N00902176EA0000001122
B1007405601301N00902198EA0000001109
B1007455601202N00902199EA0000001099
B1007525601080N00902115EA0000001088
B1007575601011N00902020EA0000001086
B1008035600936N00901901EA0000001076
B1008085600878N00901790EA0000001066
B1008145600809N00901653EA0000001066
B1008215600727N00901502EA0000001071
B1008275600657N00901370EA0000001061
B1008345600574N00901200EA0000001041
B1008415600488N00901024EA0000001031
B1008485600408N00900841EA0000001012
B1008565600331N00900605EA0000000996
B1009015600283N00900458EA0000001000
B1009075600234N00900291EA0000000995
B1009145600175N00900090EA0000000979
B1009225600108N00859860EA0000000969
B1009295600045N00859656EA0000000961
B1009375559962N00859433EA0000000958
B1009435559902N00859269EA0000000969
B1009505559831N00859084EA0000000969
B1009575559747N00858903EA0000000959
B1010055559648N00858695EA0000000951
B1010105559590N00858569EA0000000942
B1010175559507N00858392EA0000000930
B1010225559451N00858265EA0000000923
B1010275559397N00858136EA0000000919
B1010335559329N00857981EA0000000902
B1010405559245N00857794EA0000000891
B1010465559158N00857647EA0000000880
B1010515559078N00857536EA0000000909
B1010565559011N00857445EA0000000943
B1011035558917N00857318EA0000000948
B1011085558841N00857236EA0000000964
B1011145558744N00857179EA0000000983
B1011195558671N00857135EA0000000987
B1011245558629N00857040EA0000000979
B1011315558625N00856869EA0000000970
B1011385558651N00856716EA0000000983
B1011455558673N00856574EA0000000988
B1011515558680N00856446EA0000000993
B1011575558689N00856312EA0000000997
B1012045558697N00856163EA0000001002
B1012115558699N00856003EA0000000994
B1012165558695N00855884EA0000000990
B1012225558705N00855749EA0000000989
B1012285558734N00855628EA0000000978
B1012345558772N00855501EA0000000964
B1012405558832N00855394EA0000000956
B1012475558935N00855314EA0000000940
B1012555559083N00855253EA0000000918
B1013025559223N00855222EA0000000907
B1013105559390N00855200EA0000000894
B1013155559493N00855185EA0000000891
B1013225559635N00855163EA0000000891
B1013285559756N00855140EA0000000878
B1013335559857N00855109EA0000000872
B1013415559997N00855002EA0000000872
B1013475600087N00854899EA0000000867
B1013525600157N00854809EA0000000858
B1013585600233N00854689EA0000000843
B1014035600296N00854580EA0000000826
B1014105600375N00854420EA0000000823
B1014165600434N00854275EA0000000806
B1014225600479N00854107EA0000000794
B1014285600515N00853930EA0000000802
B1014345600540N00853789EA0000000849
B1014405600604N00853731EA0000000867
B1014475600684N00853870EA0000000877
B1014525600689N00854044EA0000000883
B1014575600628N00854181EA0000000891
B1015025600543N00854212EA0000000904
B1015085600482N00854126EA0000000906
B1015135600494N00854029EA0000000915
B1015185600552N00853996EA0000000924
B1015235600621N00854057EA0000000936
B1015295600666N00854233EA0000000945
B1015345600642N00854395EA0000000949
B1015425600518N00854512EA0000000964
B1015485600440N00854441EA0000000964
B1015535600429N00854336EA0000000974
B1015585600472N00854274EA0000000988
B1016035600540N00854303EA0000000993
B1016085600595N00854425EA0000000998
B1016135600592N00854598EA0000001005
B1016185600529N00854722EA0000001010
B1016235600442N00854746EA0000001019
B1016315600376N00854613EA0000001031
B1016365600414N00854537EA0000001041
B1016415600487N00854565EA0000001044
B1016465600531N00854713EA0000001044
B1016515600492N00854885EA0000001051
B1016565600404N00854962EA0000001060
B1017025600321N00854895EA0000001069
B1017105600340N00854737EA0000001088
B1017175600386N00854607EA0000001081
B1017225600422N00854494EA0000001083
B1017285600459N00854359EA0000001106
B1017345600494N00854245EA0000001109
B1017405600533N00854110EA0000001121
B1017455600573N00853999EA0000001125
B1017505600618N00853885EA0000001129
B1017585600703N00853716EA0000001135
B1018045600782N00853583EA0000001123
B1018095600863N00853494EA0000001124
B1018145600958N00853431EA0000001103
B1018195601066N00853385EA0000001081
B1018245601184N00853347EA0000001062
B1018305601333N00853322EA0000001049
B1018435601656N00853316EA0000001032
B1018505601826N00853308EA0000001017
B1018555601947N00853284EA0000000999
B1019005602064N00853232EA0000000990
B1019055602171N00853155EA0000000997
B1019115602275N00853040EA0000001023
B1019185602357N00852939EA0000001073
B1019255602433N00852864EA0000001082
B1019325602520N00852790EA0000001097
B1019385602600N00852733EA0000001098
B1019435602658N00852660EA0000001101
B1019505602725N00852543EA0000001114
B1019595602799N00852383EA0000001119
B1020095602883N00852215EA0000001122
B1020155602926N00852105EA0000001111
B1020225602931N00851949EA0000001095
B1020275602889N00851842EA0000001095
B1020325602812N00851788EA0000001088
B1020395602681N00851826EA0000001082
B1020455602583N00851965EA0000001077
B1020515602519N00852175EA0000001068
B1020565602491N00852371EA0000001065
B1021015602483N00852574EA0000001057
B1021075602488N00852819EA0000001072
B1021125602487N00853003EA0000001092
B1021175602478N00853181EA0000001091
B1021235602475N00853399EA0000001098
B1021295602514N00853588EA0000001096
B1021375602606N00853814EA0000001082
B1021425602676N00853943EA0000001079
B1021495602776N00854158EA0000001061
B1021545602850N00854323EA0000001049
B1021595602917N00854492EA0000001047
B1022055602992N00854710EA0000001029
B1022115603068N00854944EA0000001020
B1022165603130N00855136EA0000001016
B1022235603215N00855414EA0000001009
B1022285603277N00855616EA0000001002
B1022375603394N00855977EA0000000984
B1022435603457N00856221EA0000000989
B1022485603505N00856422EA0000000982
B1022545603565N00856653EA0000000975
B1022595603625N00856834EA0000000971
B1023045603697N00856997EA0000000967
B1023095603759N00857176EA0000000971
B1023175603826N00857496EA0000000974
B1023225603868N00857692EA0000000983
B1023275603933N00857808EA0000000998
B1023335604020N00857806EA0000001008
B1023385604056N00857719EA0000001009
B1023435604031N00857615EA0000001015
B1023485603960N00857563EA0000001038
B1023545603857N00857619EA0000001051
B1023595603786N00857752EA0000001059
B1024055603764N00857966EA0000001069
B1024105603805N00858105EA0000001075
B1024155603875N00858166EA0000001071
B1024205603943N00858138EA0000001075
B1024255603971N00858037EA0000001077
B1024315603926N00857909EA0000001086
B1024375603825N00857893EA0000001113
B1024425603742N00857999EA0000001121
B1024485603703N00858220EA0000001129
B1024575603791N00858468EA0000001127
B1025025603869N00858484EA0000001134
B1025075603931N00858430EA0000001145
B1025145603967N00858284EA0000001152
B1025215603964N00858141EA0000001180
B1025275603939N00858023EA0000001151
B1025345603912N00857830EA0000001119
B1025395603908N00857676EA0000001114
B1025445603915N00857523EA0000001111
B1025495603937N00857371EA0000001105
B1025545603964N00857216EA0000001109
B1025595603982N00857085EA0000001137
B1026095604011N00856843EA0000001106
B1026145604019N00856704EA0000001096
B1026215604028N00856511EA0000001115
B1026385604032N00856081EA0000001103
B1026435604043N00855950EA0000001097
B1026495604068N00855793EA0000001082
B1026545604099N00855664EA0000001075
B1026595604133N00855535EA0000001063
B1027085604212N00855300EA0000001042
B1027135604266N00855168EA0000001026
B1027205604348N00854981EA0000001017
B1027265604416N00854814EA0000001022
B1027345604506N00854608EA0000001030
B1027415604580N00854438EA0000001037
B1027465604632N00854319EA0000001023
B1027525604697N00854168EA0000001009
B1027575604747N00854035EA0000001007
B1028035604801N00853867EA0000000997
B1028135604879N00853573EA0000000996
B1028195604925N00853401EA0000000999
B1028245604966N00853262EA0000001005
B1028295605011N00853130EA0000001009
B1028355605064N00852974EA0000001027
B1028405605105N00852888EA0000001062
B1028455605154N00852815EA0000001038
B1028505605212N00852722EA0000001025
B1028555605220N00852594EA0000001028
B1029005605157N00852502EA0000001024
B1029055605059N00852532EA0000001019
B1029105604984N00852678EA0000001008
B1029155604959N00852878EA0000000998
B1029215604994N00853110EA0000000982
B1029265605067N00853249EA0000000999
B1029315605151N00853301EA0000001003
B1029375605244N00853248EA0000000988
B1029425605304N00853147EA0000000977
B1029475605345N00853028EA0000000975
B1029545605394N00852846EA0000000966
B1030025605423N00852606EA0000000971
B1030085605428N00852460EA0000001016
B1030135605473N00852396EA0000001022
B1030185605546N00852423EA0000001024
B1030235605594N00852565EA0000001015
B1030285605575N00852744EA0000001012
B1030335605504N00852850EA0000001015
B1030385605427N00852835EA0000001027
B1030435605395N00852740EA0000001031
B1030485605434N00852665EA0000001036
B1030535605507N00852674EA0000001040
B1030585605567N00852790EA0000001037
B1031035605573N00852966EA0000001031
B1031115605492N00853197EA0000001032
B1031165605412N00853262EA0000001040
B1031215605348N00853216EA0000001044
B1031265605351N00853116EA0000001049
B1031315605407N00853072EA0000001051
B1031365605476N00853143EA0000001052
B1031425605509N00853346EA0000001044
B1031475605477N00853514EA0000001047
B1031555605351N00853607EA0000001062
B1032015605295N00853520EA0000001070
B1032065605319N00853427EA0000001074
B1032115605387N00853433EA0000001077
B1032165605437N00853564EA0000001072
B1032245605440N00853836EA0000001084
B1032295605388N00853968EA0000001084
B1032355605293N00853996EA0000001093
B1032405605242N00853930EA0000001098
B1032455605242N00853832EA0000001096
B1032505605297N00853781EA0000001100
B1032555605368N00853836EA0000001098
B1033015605409N00854019EA0000001101
B1033085605340N00854203EA0000001105
B1033135605259N00854215EA0000001107
B1033185605210N00854138EA0000001114
B1033235605226N00854049EA0000001118
B1033285605291N00854057EA0000001117
B1033335605346N00854173EA0000001118
B1033385605350N00854335EA0000001124
B1033435605297N00854469EA0000001119
B1033485605220N00854578EA0000001110
B1033545605119N00854718EA0000001100
B1034015604999N00854892EA0000001091
B1034065604911N00855030EA0000001077
B1034125604829N00855254EA0000001069
B1034175604796N00855473EA0000001071
B1034235604758N00855736EA0000001095
B1034285604690N00855896EA0000001119
B1034345604586N00855945EA0000001139
B1034395604530N00855877EA0000001139
B1034445604529N00855771EA0000001137
B1034495604577N00855712EA0000001166
B1034545604623N00855698EA0000001170
B1035015604712N00855812EA0000001166
B1035065604729N00855978EA0000001181
B1035125604673N00856161EA0000001192
B1035185604580N00856174EA0000001206
B1035235604543N00856081EA0000001214
B1035295604560N00855960EA0000001207
B1035345604613N00855854EA0000001198
B1035395604673N00855755EA0000001199
B1035445604743N00855682EA0000001200
B1035525604863N00855600EA0000001195
B1035575604926N00855527EA0000001193
B1036065605026N00855378EA0000001184
B1036145605156N00855351EA0000001190
B1036195605236N00855396EA0000001182
B1036245605299N00855534EA0000001170
B1036295605300N00855732EA0000001162
B1036345605240N00855906EA0000001158
B1036395605153N00856036EA0000001152
B1036445605060N00856150EA0000001150
B1036495604967N00856263EA0000001146
B1036565604849N00856447EA0000001145
B1037015604775N00856597EA0000001141
B1037065604701N00856750EA0000001148
B1037115604632N00856898EA0000001169
B1037165604558N00857014EA0000001183
B1037215604470N00857017EA0000001192
B1037265604406N00856935EA0000001201
B1037315604372N00856826EA0000001205
B1037375604404N00856704EA0000001215
B1037425604475N00856702EA0000001213
B1037485604551N00856835EA0000001201
B1037535604582N00857026EA0000001178
B1037585604544N00857246EA0000001176
B1038035604459N00857423EA0000001186
B1038085604347N00857495EA0000001206
B1038135604251N00857446EA0000001208
B1038185604213N00857308EA0000001210
B1038235604247N00857177EA0000001219
B1038295604344N00857113EA0000001218
B1038345604436N00857187EA0000001217
B1038405604498N00857408EA0000001214
B1038455604491N00857632EA0000001216
B1038505604409N00857813EA0000001197
B1038555604280N00857857EA0000001202
B1039005604186N00857753EA0000001211
B1039055604179N00857579EA0000001208
B1039105604256N00857446EA0000001195
B1039155604377N00857434EA0000001192
B1039215604518N00857439EA0000001198
B1039265604600N00857342EA0000001197
B1039325604668N00857172EA0000001185
B1039375604719N00857018EA0000001167
B1039425604769N00856859EA0000001159
B1039485604848N00856690EA0000001149
B1039535604927N00856570EA0000001145
B1039595605029N00856441EA0000001150
B1040055605134N00856330EA0000001156
B1040105605217N00856241EA0000001154
B1040165605309N00856120EA0000001151
B1040225605363N00855950EA0000001138
B1040285605401N00855765EA0000001134
B1040355605466N00855552EA0000001113
B1040405605502N00855383EA0000001125
B1040495605602N00855144EA0000001141
B1040545605646N00855006EA0000001161
B1040595605682N00854879EA0000001189
B1041055605761N00854789EA0000001170
B1041105605856N00854750EA0000001137
B1041155605940N00854678EA0000001145
B1041205605912N00854537EA0000001130
B1041275605806N00854351EA0000001106
B1041325605784N00854171EA0000001096
B1041375605809N00853994EA0000001090
B1041445605858N00853751EA0000001078
B1041495605888N00853576EA0000001081
B1041555605920N00853380EA0000001090
B1042015605959N00853194EA0000001084
B1042065605989N00853034EA0000001071
B1042115606017N00852868EA0000001061
B1042185606063N00852654EA0000001073
B1042265606124N00852431EA0000001066
B1042315606178N00852307EA0000001062
B1042365606253N00852214EA0000001065
B1042435606386N00852181EA0000001077
B1042485606483N00852244EA0000001080
B1042535606563N00852383EA0000001090
B1042585606593N00852578EA0000001096
B1043035606549N00852751EA0000001109
B1043085606464N00852837EA0000001109
B1043145606378N00852786EA0000001121
B1043195606377N00852684EA0000001123
B1043245606435N00852638EA0000001129
B1043295606506N00852703EA0000001131
B1043345606539N00852863EA0000001126
B1043395606514N00853041EA0000001132
B1043445606440N00853153EA0000001135
B1043495606359N00853166EA0000001141
B1043545606313N00853083EA0000001133
B1043595606324N00852971EA0000001131
B1044045606385N00852905EA0000001132
B1044105606478N00852931EA0000001142
B1044155606534N00853060EA0000001133
B1044205606547N00853243EA0000001126
B1044255606506N00853410EA0000001129
B1044325606391N00853518EA0000001130
B1044385606306N00853461EA0000001131
B1044435606293N00853357EA0000001130
B1044485606332N00853273EA0000001127
B1044545606421N00853279EA0000001127
B1044595606477N00853408EA0000001126
B1045045606475N00853590EA0000001117
B1045105606406N00853763EA0000001120
B1045155606323N00853783EA0000001120
B1045205606274N00853713EA0000001119
B1045255606270N00853609EA0000001112
B1045315606319N00853506EA0000001104
B1045365606390N00853481EA0000001107
B1045415606466N00853542EA0000001111
B1045465606514N00853686EA0000001103
B1045515606513N00853873EA0000001091
B1045575606449N00854074EA0000001082
B1046035606366N00854269EA0000001064
B1046085606295N00854442EA0000001058
B1046135606224N00854613EA0000001061
B1046195606132N00854812EA0000001056
B1046255606044N00855018EA0000001058
B1046315605962N00855236EA0000001051
B1046365605901N00855434EA0000001043
B1046445605813N00855776EA0000001027
B1046505605756N00856037EA0000001018
B1046585605675N00856375EA0000001022
B1047045605618N00856629EA0000001006
B1047095605577N00856850EA0000001000
B1047155605539N00857118EA0000000990
B1047205605516N00857348EA0000000981
B1047255605497N00857576EA0000000979
B1047305605472N00857802EA0000000972
B1047355605437N00858019EA0000000992
B1047405605371N00858151EA0000001031
B1047455605307N00858105EA0000001039
B1047505605325N00858001EA0000001051
B1047555605401N00858034EA0000001068
B1048005605418N00858218EA0000001083
B1048055605361N00858364EA0000001101
B1048105605285N00858367EA0000001124
B1048155605270N00858273EA0000001133
B1048215605337N00858221EA0000001155
B1048265605401N00858315EA0000001169
B1048315605404N00858494EA0000001181
B1048365605343N00858629EA0000001188
B1048415605252N00858650EA0000001191
B1048465605193N00858566EA0000001218
B1048515605191N00858443EA0000001219
B1048565605258N00858357EA0000001218
B1049015605363N00858422EA0000001212
B1049065605430N00858618EA0000001187
B1049115605425N00858858EA0000001156
B1049165605361N00859067EA0000001123
B1049215605246N00859170EA0000001111
B1049265605133N00859137EA0000001139
B1049315605057N00859014EA0000001150
B1049365605026N00858844EA0000001158
B1049425605078N00858667EA0000001183
B1049475605173N00858640EA0000001214
B1049525605255N00858632EA0000001244
B1050025605348N00858432EA0000001218
B1050085605379N00858270EA0000001208
B1050145605404N00858105EA0000001201
B1050205605433N00857944EA0000001191
B1050265605469N00857782EA0000001178
B1050315605500N00857645EA0000001176
B1050385605548N00857452EA0000001167
B1050435605577N00857312EA0000001173
B1050485605609N00857176EA0000001183
B1050545605652N00857017EA0000001186
B1050595605683N00856876EA0000001182
B1051045605684N00856725EA0000001188
B1051095605658N00856593EA0000001189
B1051145605596N00856498EA0000001182
B1051195605503N00856486EA0000001175
B1051245605417N00856585EA0000001174
B1051305605386N00856804EA0000001167
B1051355605444N00856949EA0000001148
B1051415605551N00857041EA0000001138
B1051465605628N00857143EA0000001142
B1051525605662N00857342EA0000001145
B1051575605636N00857521EA0000001152
B1052035605585N00857722EA0000001157
B1052085605535N00857890EA0000001163
B1052135605482N00858063EA0000001165
B1052185605432N00858231EA0000001187
B1052235605383N00858390EA0000001186
B1052295605312N00858612EA0000001137
B1052345605242N00858834EA0000001117
B1052435605126N00859267EA0000001102
B1052525605020N00859716EA0000001082
B1052575604961N00859965EA0000001079
B1053025604917N00900197EA0000001128
B1053085604884N00900423EA0000001162
B1053155604842N00900677EA0000001187
B1053205604812N00900857EA0000001191
B1053265604771N00901085EA0000001196
B1053315604737N00901290EA0000001202
B1053365604703N00901501EA0000001201
B1053425604682N00901745EA0000001234
B1053475604677N00901930EA0000001232
B1053525604671N00902144EA0000001196
B1053585604670N00902439EA0000001173
B1054065604672N00902860EA0000001149
B1054115604681N00903129EA0000001142
B1054165604695N00903398EA0000001133
B1054215604710N00903671EA0000001124
B1054265604719N00903948EA0000001117
B1054325604691N00904283EA0000001107
B1054375604645N00904548EA0000001112
B1054425604591N00904809EA0000001103
B1054475604534N00905075EA0000001083
B1054525604474N00905345EA0000001075
B1054575604418N00905621EA0000001062
B1055025604376N00905902EA0000001051
B1055085604359N00906240EA0000001036
B1055145604362N00906576EA0000001042
B1055195604358N00906801EA0000001120
B1055245604344N00906973EA0000001139
B1055305604311N00907199EA0000001141
B1055355604275N00907384EA0000001156
B1055405604237N00907572EA0000001147
B1055465604214N00907819EA0000001134
B1055515604209N00908045EA0000001121
B1055565604192N00908280EA0000001110
B1056015604148N00908519EA0000001095
B1056065604083N00908763EA0000001098
B1056115604018N00908975EA0000001132
B1056175603942N00909226EA0000001112
B1056245603863N00909553EA0000001089
B1056295603807N00909800EA0000001085
B1056345603754N00910038EA0000001103
B1056395603703N00910270EA0000001104
B1056445603650N00910500EA0000001116
B1056495603597N00910736EA0000001103
B1056545603544N00910989EA0000001082
B1056595603496N00911262EA0000001065
B1057045603451N00911547EA0000001060
B1057095603413N00911829EA0000001078
B1057145603387N00912098EA0000001075
B1057215603349N00912492EA0000001049
B1057265603321N00912780EA0000001038
B1057315603283N00913066EA0000001031
B1057365603237N00913345EA0000001032
B1057415603185N00913614EA0000001023
B1057475603114N00913930EA0000001028
B1057525603067N00914188EA0000001038
B1057585603027N00914503EA0000001016
B1058045602941N00914802EA0000001003
B1058095602847N00915024EA0000000996
B1058145602740N00915240EA0000000983
B1058195602632N00915461EA0000000984
B1058245602532N00915689EA0000000979
B1058315602407N00916037EA0000000972
B1058365602327N00916295EA0000000988
B1058415602257N00916537EA0000001005
B1058465602194N00916786EA0000001003
B1058525602162N00917108EA0000000996
B1058585602152N00917437EA0000000997
B1059035602142N00917701EA0000001016
B1059165602137N00918265EA0000001056
B1059265602135N00918700EA0000001024
B1059345602134N00919081EA0000001010
B1059395602151N00919320EA0000001002
B1059455602182N00919614EA0000000985
B1059505602206N00919861EA0000000994
B1059565602229N00920156EA0000000994
B1100015602253N00920396EA0000001003
B1100065602281N00920630EA0000001003
B1100115602301N00920856EA0000001024
B1100165602310N00921079EA0000001017
B1100215602308N00921306EA0000001020
B1100275602294N00921593EA0000000985
B1100325602270N00921854EA0000000964
B1100405602232N00922269EA0000000971
B1100455602211N00922521EA0000000973
B1100505602183N00922748EA0000001014
B1100555602148N00922926EA0000001029
B1101005602113N00923106EA0000001005
B1101055602076N00923325EA0000000964
B1101105602038N00923570EA0000000959
B1101175601977N00923921EA0000000947
B1101255601900N00924324EA0000000952
B1101315601840N00924626EA0000000950
B1101365601780N00924858EA0000000956
B1101425601699N00925114EA0000000956
B1101485601679N00925357EA0000000993
B1101535601714N00925518EA0000001010
B1101585601781N00925577EA0000001019
B1102035601830N00925527EA0000001021
B1102085601805N00925437EA0000001020
B1102135601721N00925439EA0000001028
B1102185601658N00925570EA0000001037
B1102235601651N00925748EA0000001051
B1102285601685N00925907EA0000001064
B1102335601717N00926038EA0000001088
B1102395601759N00926204EA0000001086
B1102445601790N00926349EA0000001106
B1102495601818N00926503EA0000001115
B1102545601850N00926661EA0000001126
B1102595601881N00926810EA0000001149
B1103055601913N00926990EA0000001148
B1103105601936N00927154EA0000001147
B1103155601964N00927340EA0000001109
B1103215602005N00927610EA0000001077
B1103265602037N00927858EA0000001059
B1103315602068N00928113EA0000001046
B1103385602112N00928478EA0000001030
B1103455602156N00928845EA0000001022
B1103505602192N00929101EA0000001012
B1103585602256N00929509EA0000000997
B1104035602299N00929773EA0000000976
B1104085602342N00930043EA0000000972
B1104145602391N00930364EA0000000964
B1104195602432N00930631EA0000000954
B1104245602473N00930896EA0000000948
B1104295602516N00931158EA0000000935
B1104345602556N00931417EA0000000928
B1104405602601N00931728EA0000000920
B1104465602644N00932041EA0000000917
B1104515602682N00932293EA0000000918
B1104595602750N00932684EA0000000917
B1105045602793N00932925EA0000000920
B1105095602826N00933134EA0000000988
B1105145602804N00933301EA0000001018
B1105195602721N00933375EA0000001015
B1105245602673N00933293EA0000001024
B1105295602718N00933222EA0000001032
B1105345602787N00933222EA0000001049
B1105395602846N00933318EA0000001064
B1105455602829N00933511EA0000001081
B1105505602750N00933582EA0000001068
B1105555602693N00933502EA0000001065
B1106005602705N00933395EA0000001079
B1106055602754N00933320EA0000001092
B1106105602803N00933282EA0000001124
B1106155602862N00933360EA0000001120
B1106205602856N00933526EA0000001132
B1106255602781N00933625EA0000001137
B1106315602685N00933605EA0000001155
B1106375602662N00933492EA0000001166
B1106425602712N00933447EA0000001167
B1106475602772N00933553EA0000001179
B1106525602762N00933720EA0000001198
B1106575602683N00933800EA0000001205
B1107025602618N00933740EA0000001215
B1107075602631N00933651EA0000001226
B1107125602698N00933678EA0000001228
B1107175602732N00933823EA0000001250
B1107235602679N00933991EA0000001258
B1107285602591N00934018EA0000001262
B1107335602545N00933931EA0000001272
B1107385602576N00933848EA0000001277
B1107445602658N00933882EA0000001277
B1107495602705N00934025EA0000001288
B1107555602719N00934239EA0000001289
B1108005602728N00934441EA0000001277
B1108055602739N00934667EA0000001252
B1108115602749N00934977EA0000001232
B1108165602751N00935249EA0000001213
B1108215602747N00935526EA0000001211
B1108275602731N00935859EA0000001212
B1108335602712N00936200EA0000001214
B1108385602693N00936489EA0000001202
B1108445602664N00936843EA0000001188
B1108495602634N00937145EA0000001185
B1108565602590N00937561EA0000001158
B1109035602557N00937997EA0000001146
B1109085602542N00938307EA0000001135
B1109145602514N00938669EA0000001132
B1109225602467N00939140EA0000001113
B1109285602432N00939496EA0000001095
B1109345602396N00939848EA0000001100
B1109405602368N00940188EA0000001104
B1109455602345N00940465EA0000001100
B1109505602314N00940727EA0000001119
B1109565602274N00941021EA0000001123
B1110025602234N00941324EA0000001101
B1110075602217N00941584EA0000001114
B1110135602203N00941863EA0000001150
B1110185602190N00942086EA0000001162
B1110235602172N00942277EA0000001197
B1110285602149N00942462EA0000001201
B1110345602119N00942695EA0000001198
B1110405602092N00942943EA0000001197
B1110475602054N00943253EA0000001190
B1110525602026N00943475EA0000001199
B1110575601995N00943701EA0000001190
B1111025601965N00943913EA0000001241
B1111075601939N00944068EA0000001270
B1111135601900N00944271EA0000001238
B1111195601855N00944519EA0000001207
B1111255601803N00944799EA0000001184
B1111325601750N00945150EA0000001170
B1111375601719N00945404EA0000001193
B1111425601696N00945606EA0000001236
B1111485601666N00945831EA0000001240
B1111535601641N00946016EA0000001247
B1112005601613N00946288EA0000001229
B1112075601613N00946582EA0000001228
B1112135601629N00946837EA0000001223
B1112185601644N00947060EA0000001207
B1112245601659N00947347EA0000001203
B1112315601667N00947699EA0000001188
B1112375601675N00948010EA0000001172
B1112445601685N00948384EA0000001154
B1112515601702N00948763EA0000001136
B1112585601714N00949161EA0000001115
B1113045601722N00949506EA0000001103
B1113105601740N00949861EA0000001082
B1113205601780N00950446EA0000001072
B1113265601806N00950791EA0000001066
B1113335601830N00951193EA0000001061
B1113405601848N00951586EA0000001066
B1113465601855N00951916EA0000001059
B1113525601861N00952252EA0000001047
B1113585601865N00952587EA0000001036
B1114035601866N00952859EA0000001028
B1114085601862N00953131EA0000001013
B1114145601870N00953469EA0000000992
B1114245601929N00954021EA0000000968
B1114315601967N00954411EA0000000972
B1114365601985N00954687EA0000000996
B1114415601993N00954911EA0000001042
B1114475601994N00955143EA0000001069
B1114535601991N00955366EA0000001072
B1114585601990N00955558EA0000001076
B1115065601987N00955884EA0000001066
B1115125601989N00956148EA0000001047
B1115215602014N00956601EA0000001015
B1115285602041N00956968EA0000000998
B1115335602056N00957244EA0000000984
B1115405602075N00957639EA0000000980
B1115485602090N00958091EA0000000977
B1115575602101N00958604EA0000000968
B1116075602096N00959175EA0000000944
B1116165602087N00959695EA0000000935
B1116225602093N00959995EA0000000991
B1116275602081N01000198EA0000001028
B1116325602009N01000291EA0000001040
B1116375601946N01000234EA0000001033
B1116425601957N01000145EA0000001034
B1116485602035N01000187EA0000001048
B1116535602084N01000311EA0000001055
B1116585602099N01000479EA0000001063
B1117045602100N01000679EA0000001076
B1117095602086N01000853EA0000001076
B1117165602046N01001109EA0000001067
B1117225602012N01001336EA0000001070
B1117285601995N01001581EA0000001056
B1117335601977N01001795EA0000001049
B1117385601958N01002006EA0000001066
B1117435601937N01002188EA0000001092
B1117485601908N01002357EA0000001106
B1117535601842N01002466EA0000001127
B1117585601769N01002467EA0000001139
B1118035601736N01002385EA0000001146
B1118095601778N01002315EA0000001156
B1118145601840N01002389EA0000001152
B1118195601866N01002560EA0000001160
B1118245601825N01002726EA0000001177
B1118305601725N01002774EA0000001196
B1118355601679N01002696EA0000001208
B1118405601704N01002612EA0000001218
B1118455601770N01002622EA0000001217
B1118505601824N01002758EA0000001223
B1118565601797N01002966EA0000001236
B1119015601715N01003052EA0000001249
B1119065601647N01003014EA0000001265
B1119125601653N01002904EA0000001276
B1119175601717N01002913EA0000001283
B1119225601772N01003040EA0000001282
B1119285601756N01003255EA0000001292
B1119335601680N01003363EA0000001305
B1119385601601N01003361EA0000001319
B1119445601566N01003255EA0000001320
B1119495601614N01003196EA0000001335
B1119565601694N01003326EA0000001341
B1120015601673N01003495EA0000001355
B1120065601595N01003590EA0000001361
B1120115601524N01003557EA0000001369
B1120175601516N01003444EA0000001377
B1120225601569N01003406EA0000001381
B1120275601643N01003471EA0000001375
B1120325601729N01003562EA0000001349
B1120385601857N01003588EA0000001341
B1120435601968N01003567EA0000001317
B1120485602092N01003552EA0000001288
B1120545602255N01003555EA0000001252
B1121015602458N01003583EA0000001224
B1121085602662N01003626EA0000001214
B1121175602926N01003684EA0000001188
B1121225603072N01003707EA0000001176
B1121285603247N01003734EA0000001167
B1121345603419N01003756EA0000001155
B1121415603617N01003774EA0000001132
B1121465603760N01003793EA0000001113
B1121535603959N01003818EA0000001098
B1121585604098N01003824EA0000001091
B1122035604234N01003819EA0000001081
B1122095604395N01003783EA0000001069
B1122145604529N01003743EA0000001055
B1122195604664N01003699EA0000001041
B1122245604793N01003661EA0000001051
B1122295604920N01003628EA0000001039
B1122405605210N01003577EA0000001015
B1122465605368N01003558EA0000001007
B1122535605551N01003547EA0000000992
B1123015605758N01003544EA0000000979
B1123105605989N01003549EA0000000963
B1123155606114N01003553EA0000000956
B1123205606241N01003569EA0000000954
B1123285606444N01003622EA0000000945
B1123335606575N01003679EA0000000947
B1123395606731N01003768EA0000000945
B1123455606886N01003867EA0000000935
B1123515607039N01003979EA0000000929
B1124005607257N01004147EA0000000929
B1124055607373N01004239EA0000000925
B1124135607558N01004385EA0000000913
B1124185607670N01004468EA0000000916
B1124235607780N01004522EA0000000908
B1124285607889N01004561EA0000000894
B1124335608000N01004594EA0000000885
B1124385608105N01004634EA0000000931
B1124435608171N01004613EA0000000976
B1124485608172N01004521EA0000000973
B1124545608076N01004530EA0000000983
B1124595608016N01004687EA0000000990
B1125045608028N01004866EA0000001009
B1125095608080N01004982EA0000001029
B1125145608144N01005031EA0000001031
B1125205608226N01005061EA0000001014
B1125265608320N01005092EA0000001002
B1125315608398N01005109EA0000001013
B1125365608467N01005164EA0000001026
B1125415608493N01005325EA0000001029
B1125485608410N01005523EA0000001035
B1125535608327N01005524EA0000001037
B1126015608260N01005378EA0000001049
B1126065608187N01005341EA0000001046
B1126125608078N01005415EA0000001032
B1126175607983N01005500EA0000001032
B1126225607899N01005623EA0000001044
B1126275607862N01005807EA0000001052
B1126325607896N01005978EA0000001061
B1126375607962N01006069EA0000001068
B1126425608021N01006045EA0000001072
B1126475608050N01005965EA0000001081
B1126535608012N01005872EA0000001074
B1126585607926N01005898EA0000001074
B1127035607862N01006036EA0000001078
B1127085607862N01006215EA0000001089
B1127135607920N01006339EA0000001092
B1127195608003N01006420EA0000001109
B1127255608088N01006495EA0000001109
B1127335608206N01006529EA0000001114
B1127385608274N01006498EA0000001121
B1127455608358N01006424EA0000001139
B1127515608429N01006358EA0000001154
B1127575608502N01006307EA0000001165
B1128035608591N01006278EA0000001132
B1128085608679N01006216EA0000001112
B1128165608827N01006083EA0000001076
B1128215608925N01005989EA0000001060
B1128295609098N01005823EA0000001020
B1128375609281N01005676EA0000001017
B1128435609420N01005581EA0000001008
B1128505609585N01005480EA0000000998
B1128575609751N01005381EA0000000987
B1129045609916N01005277EA0000000974
B1129105610058N01005191EA0000000965
B1129155610172N01005114EA0000000965
B1129215610305N01005026EA0000000964
B1129275610437N01004951EA0000000978
B1129325610531N01004903EA0000001015
B1129385610632N01004862EA0000001016
B1129445610737N01004817EA0000001015
B1129495610818N01004781EA0000001025
B1129565610930N01004724EA0000001004
B1130015611018N01004672EA0000000995
B1130065611111N01004622EA0000000988
B1130135611254N01004569EA0000000968
B1130195611387N01004542EA0000000959
B1130255611520N01004524EA0000000962
B1130325611676N01004507EA0000000944
B1130395611834N01004488EA0000000930
B1130505612085N01004430EA0000000900
B1130565612226N01004395EA0000000885
B1131015612343N01004360EA0000000876
B1131095612530N01004295EA0000000865
B1131155612667N01004245EA0000000857
B1131215612802N01004187EA0000000847
B1131265612911N01004121EA0000000839
B1131325613037N01004032EA0000000841
B1131375613135N01003966EA0000000863
B1131445613269N01003886EA0000000865
B1131495613367N01003841EA0000000883
B1131575613518N01003792EA0000000872
B1132035613641N01003751EA0000000844
B1132085613749N01003711EA0000000836
B1132175613950N01003623EA0000000805
B1132235614085N01003550EA0000000783
B1132285614193N01003476EA0000000773
B1132355614338N01003366EA0000000766
B1132415614456N01003274EA0000000760
B1132485614604N01003211EA0000000753
B1132535614709N01003200EA0000000781
B1132595614794N01003188EA0000000819
B1133045614836N01003123EA0000000832
B1133095614799N01003038EA0000000836
B1133145614717N01003054EA0000000846
B1133215614643N01003276EA0000000833
B1133265614664N01003452EA0000000847
B1133315614721N01003560EA0000000855
B1133365614785N01003643EA0000000856
B1133415614855N01003672EA0000000868
B1133465614878N01003589EA0000000881
B1133525614815N01003522EA0000000894
B1133575614733N01003582EA0000000903
B1134025614682N01003728EA0000000912
B1134085614702N01003924EA0000000913
B1134135614765N01003991EA0000000926
B1134185614815N01003952EA0000000935
B1134245614800N01003842EA0000000949
B1134295614728N01003825EA0000000957
B1134345614651N01003927EA0000000961
B1134405614634N01004133EA0000000972
B1134455614684N01004251EA0000000973
B1134505614743N01004247EA0000000982
B1134565614753N01004144EA0000000993
B1135015614686N01004100EA0000001000
B1135065614606N01004190EA0000001007
B1135125614587N01004400EA0000001012
B1135175614640N01004520EA0000001016
B1135225614704N01004517EA0000001020
B1135285614713N01004401EA0000001033
B1135335614645N01004357EA0000001048
B1135385614564N01004445EA0000001051
B1135465614540N01004720EA0000001060
B1135525614613N01004835EA0000001058
B1135575614674N01004800EA0000001067
B1136025614675N01004699EA0000001077
B1136075614611N01004642EA0000001081
B1136125614524N01004720EA0000001086
B1136175614484N01004894EA0000001087
B1136225614518N01005055EA0000001090
B1136275614590N01005106EA0000001090
B1136325614639N01005037EA0000001099
B1136375614618N01004931EA0000001108
B1136425614537N01004909EA0000001114
B1136485614455N01005070EA0000001117
B1136535614468N01005250EA0000001118
B1136585614533N01005345EA0000001125
B1137055614629N01005332EA0000001140
B1137115614701N01005272EA0000001149
B1137175614771N01005196EA0000001146
B1137225614837N01005117EA0000001118
B1137275614915N01005022EA0000001105
B1137335615014N01004898EA0000001077
B1137395615118N01004759EA0000001055
B1137485615278N01004540EA0000001033
B1137565615419N01004332EA0000001003
B1138025615522N01004170EA0000000986
B1138085615626N01004014EA0000000970
B1138175615781N01003786EA0000000955
B1138265615930N01003560EA0000000939
B1138325616032N01003414EA0000000935
B1138375616118N01003299EA0000000932
B1138475616290N01003061EA0000000922
B1138535616399N01002918EA0000000913
B1139045616599N01002658EA0000000896
B1139105616699N01002516EA0000000896
B1139165616791N01002369EA0000000882
B1139215616868N01002245EA0000000874
B1139285616979N01002067EA0000000856
B1139335617062N01001944EA0000000848
B1139385617148N01001832EA0000000842
B1139445617251N01001701EA0000000833
B1139505617350N01001571EA0000000826
B1139565617443N01001441EA0000000823
B1140025617528N01001333EA0000000832
B1140075617597N01001241EA0000000828
B1140165617716N01001061EA0000000835
B1140215617776N01000966EA0000000856
B1140275617815N01000848EA0000000868
B1140325617844N01000740EA0000000860
B1140415617909N01000549EA0000000874
B1140465617960N01000476EA0000000864
B1140515618037N01000447EA0000000845
B1140565618131N01000455EA0000000829
B1141015618231N01000489EA0000000819
B1141065618331N01000505EA0000000813
B1141115618424N01000479EA0000000809
B1141165618505N01000420EA0000000806
B1141255618625N01000254EA0000000794
B1141335618701N01000062EA0000000785
B1141405618760N00959886EA0000000778
B1141485618835N00959688EA0000000764
B1141565618911N00959490EA0000000753
B1142015618962N00959364EA0000000743
B1142065619013N00959240EA0000000739
B1142135619091N00959075EA0000000727
B1142205619177N00958915EA0000000710
B1142285619278N00958731EA0000000691
B1142355619369N00958569EA0000000678
B1142425619462N00958412EA0000000665
B1142475619529N00958296EA0000000656
B1142535619608N00958159EA0000000651
B1143015619706N00957976EA0000000647
B1143135619851N00957712EA0000000635
B1143255619986N00957431EA0000000618
B1143335620068N00957230EA0000000609
B1143415620142N00957020EA0000000593
B1143495620212N00956809EA0000000576
B1143585620291N00956588EA0000000569
B1144045620344N00956446EA0000000565
B1144105620391N00956300EA0000000564
B1144195620419N00956064EA0000000558
B1144265620446N00955892EA0000000547
B1144335620474N00955726EA0000000545
B1144385620505N00955619EA0000000548
B1144435620567N00955609EA0000000565
B1144505620627N00955798EA0000000567
B1144555620598N00955976EA0000000576
B1145015620506N00956094EA0000000605
B1145075620433N00956046EA0000000607
B1145135620464N00955972EA0000000612
B1145185620527N00956026EA0000000613
B1145235620558N00956182EA0000000613
B1145335620472N00956492EA0000000645
B1145425620383N00956387EA0000000649
B1145495620451N00956348EA0000000656
B1146015620547N00956690EA0000000688
B1146065620488N00956822EA0000000696
B1146125620397N00956815EA0000000716
B1146185620394N00956720EA0000000735
B1146245620466N00956726EA0000000747
B1146305620528N00956879EA0000000759
B1146365620520N00957089EA0000000767
B1146415620453N00957209EA0000000766
B1146465620366N00957221EA0000000774
B1146515620329N00957135EA0000000794
B1146565620368N00957073EA0000000809
B1147015620435N00957138EA0000000822
B1147085620440N00957387EA0000000840
B1147135620368N00957497EA0000000857
B1147225620274N00957415EA0000000876
B1147295620331N00957342EA0000000898
B1147345620395N00957411EA0000000912
B1147405620422N00957613EA0000000921
B1147455620376N00957769EA0000000927
B1147535620253N00957809EA0000000936
B1147585620213N00957720EA0000000941
B1148045620242N00957618EA0000000966
B1148095620305N00957633EA0000000970
B1148145620352N00957765EA0000000977
B1148205620337N00957977EA0000000982
B1148255620261N00958082EA0000000990
B1148325620165N00958040EA0000001007
B1148375620169N00957946EA0000001020
B1148425620222N00957915EA0000001033
B1148485620289N00958032EA0000001026
B1148535620297N00958218EA0000001030
B1148585620258N00958390EA0000001040
B1149045620173N00958524EA0000001042
B1149095620096N00958524EA0000001042
B1149145620061N00958441EA0000001033
B1149265620131N00958268EA0000001054
B1149325620208N00958368EA0000001042
B1149375620230N00958546EA0000001040
B1149435620182N00958755EA0000001048
B1149485620099N00958838EA0000001060
B1149535620023N00958814EA0000001062
B1149585619994N00958724EA0000001072
B1150045620030N00958634EA0000001076
B1150095620089N00958608EA0000001073
B1150155620174N00958580EA0000001037
B1150215620277N00958530EA0000001018
B1150285620401N00958433EA0000001006
B1150335620485N00958348EA0000000997
B1150455620667N00958116EA0000000981
B1150505620739N00958010EA0000000973
B1150585620854N00957848EA0000000965
B1151045620940N00957731EA0000000957
B1151125621058N00957579EA0000000950
B1151185621147N00957473EA0000000944
B1151305621322N00957261EA0000000931
B1151455621495N00956924EA0000000901
B1151515621550N00956766EA0000000892
B1151585621607N00956574EA0000000878
B1152045621653N00956405EA0000000867
B1152095621688N00956262EA0000000866
B1152145621722N00956117EA0000000860
B1152195621756N00955972EA0000000857
B1152245621789N00955825EA0000000849
B1152385621885N00955419EA0000000845
B1152465621944N00955224EA0000000873
B1152525621987N00955073EA0000000858
B1152575622021N00954933EA0000000856
B1153045622065N00954738EA0000000875
B1153135622076N00954494EA0000000884
B1153205622068N00954307EA0000000890
B1153285622055N00954134EA0000000911
B1153345622102N00954045EA0000000900
B1153395622161N00953981EA0000000877
B1153445622226N00953887EA0000000859
B1153505622270N00953722EA0000000876
B1153555622289N00953600EA0000000896
B1154015622304N00953467EA0000000916
B1154065622314N00953355EA0000000922
B1154135622350N00953208EA0000000926
B1154195622383N00953095EA0000000933
B1154245622387N00952985EA0000000945
B1154315622396N00952842EA0000000941
B1154375622400N00952704EA0000000915
B1154435622394N00952530EA0000000887
B1154485622392N00952371EA0000000878
B1154565622392N00952139EA0000000908
B1155015622408N00952028EA0000000911
B1155075622449N00951898EA0000000891
B1155125622474N00951771EA0000000926
B1155185622496N00951666EA0000000952
B1155245622533N00951566EA0000000955
B1155305622575N00951465EA0000000981
B1155365622616N00951378EA0000000991
B1155465622696N00951257EA0000000988
B1155515622723N00951174EA0000000974
B1155575622751N00951047EA0000000957
B1156035622795N00950916EA0000000953
B1156095622859N00950805EA0000000974
B1156165622920N00950715EA0000001001
B1156285623040N00950575EA0000001027
B1156345623093N00950508EA0000001036
B1156405623151N00950431EA0000001016
B1156455623201N00950342EA0000001018
B1156525623271N00950230EA0000001042
B1156575623318N00950164EA0000001043
B1157025623368N00950088EA0000001015
B1157085623428N00949955EA0000000999
B1157135623475N00949844EA0000001004
B1157205623536N00949694EA0000001007
B1157275623597N00949556EA0000001019
B1157355623680N00949422EA0000001022
B1157405623739N00949344EA0000001026
B1157455623796N00949271EA0000001032
B1157505623852N00949206EA0000001047
B1157555623905N00949152EA0000001048
B1158015623994N00949125EA0000001034
B1158085624131N00949142EA0000001018
B1158145624254N00949164EA0000001009
B1158195624360N00949187EA0000001000
B1158255624490N00949216EA0000000991
B1158335624667N00949248EA0000000968
B1158405624825N00949284EA0000000954
B1158515625074N00949348EA0000000939
B1159015625301N00949402EA0000000917
B1159085625466N00949438EA0000000905
B1159145625606N00949473EA0000000894
B1159205625746N00949510EA0000000885
B1159265625889N00949559EA0000000879
B1159335626054N00949616EA0000000878
B1159415626244N00949684EA0000000863
B1159525626505N00949760EA0000000841
B1200005626693N00949799EA0000000823
B1200065626835N00949818EA0000000810
B1200195627124N00949802EA0000000799
B1200245627228N00949772EA0000000791
B1200305627349N00949701EA0000000778
B1200355627435N00949608EA0000000777
B1200405627517N00949506EA0000000776
B1200455627594N00949396EA0000000784
B1200525627683N00949262EA0000000836
B1200575627731N00949203EA0000000855
B1201035627750N00949092EA0000000869
B1201115627642N00949055EA0000000894
B1201165627583N00949203EA0000000905
B1201215627594N00949386EA0000000908
B1201265627657N00949500EA0000000918
B1201325627737N00949500EA0000000934
B1201385627756N00949407EA0000000951
B1201465627655N00949376EA0000000962
B1201515627589N00949515EA0000000972
B1201565627593N00949700EA0000000982
B1202015627659N00949793EA0000000993
B1202075627708N00949730EA0000001010
B1202125627656N00949676EA0000001016
B1202175627574N00949743EA0000001019
B1202235627522N00949944EA0000001026
B1202285627553N00950110EA0000001035
B1202335627625N00950171EA0000001048
B1202385627670N00950118EA0000001058
B1202435627649N00950037EA0000001072
B1202495627561N00950052EA0000001073
B1202545627498N00950187EA0000001079
B1203015627510N00950431EA0000001090
B1203065627572N00950543EA0000001108
B1203115627637N00950554EA0000001120
B1203165627655N00950479EA0000001127
B1203235627574N00950431EA0000001134
B1203285627501N00950551EA0000001139
B1203335627481N00950735EA0000001156
B1203385627528N00950884EA0000001170
B1203445627614N00950946EA0000001181
B1203525627724N00950942EA0000001182
B1203585627825N00950916EA0000001134
B1204045627948N00950889EA0000001108
B1204095628060N00950877EA0000001089
B1204165628221N00950871EA0000001075
B1204225628356N00950856EA0000001066
B1204275628466N00950838EA0000001064
B1204365628660N00950816EA0000001054
B1204415628765N00950810EA0000001051
B1204485628909N00950803EA0000001042
B1204545629032N00950794EA0000001032
B1204595629137N00950775EA0000001020
B1205065629280N00950728EA0000001015
B1205125629393N00950669EA0000001017
B1205175629481N00950603EA0000001018
B1205235629569N00950493EA0000001022
B1205295629629N00950375EA0000001048
B1205345629654N00950288EA0000001059
B1205395629633N00950208EA0000001049
B1205455629544N00950183EA0000001028
B1205505629453N00950267EA0000001009
B1205565629344N00950458EA0000001009
B1206015629247N00950615EA0000001007
B1206075629118N00950773EA0000001000
B1206175628893N00951052EA0000000969
B1206255628707N00951288EA0000000957
B1206325628549N00951495EA0000000956
B1206385628414N00951680EA0000000938
B1206445628275N00951871EA0000000927
B1206565627996N00952260EA0000000907
B1207025627857N00952437EA0000000901
B1207085627714N00952600EA0000000895
B1207155627542N00952762EA0000000897
B1207215627395N00952857EA0000000895
B1207315627155N00952981EA0000000897
B1207365627052N00953020EA0000000933
B1207415626981N00952985EA0000000954
B1207465626956N00952888EA0000000964
B1207525627005N00952821EA0000000973
B1207575627069N00952901EA0000000979
B1208025627093N00953076EA0000000987
B1208105627032N00953344EA0000001001
B1208175626927N00953365EA0000001015
B1208235626896N00953254EA0000001026
B1208285626932N00953189EA0000001035
B1208365627031N00953297EA0000001044
B1208425627056N00953498EA0000001049
B1208495626999N00953726EA0000001047
B1208565626889N00953747EA0000001061
B1209015626851N00953659EA0000001068
B1209095626913N00953561EA0000001085
B1209145626977N00953639EA0000001089
B1209205627002N00953833EA0000001091
B1209255626967N00954004EA0000001089
B1209305626889N00954091EA0000001097
B1209365626803N00954062EA0000001105
B1209415626782N00953970EA0000001116
B1209475626827N00953890EA0000001123
B1209525626892N00953941EA0000001125
B1209575626934N00954085EA0000001122
B1210025626927N00954268EA0000001110
B1210105626825N00954503EA0000001114
B1210165626726N00954593EA0000001137
B1210215626664N00954534EA0000001148
B1210265626667N00954429EA0000001154
B1210315626729N00954403EA0000001165
B1210375626798N00954551EA0000001170
B1210435626789N00954774EA0000001174
B1210495626704N00954925EA0000001187
B1210545626616N00954990EA0000001197
B1210595626528N00955063EA0000001189
B1211065626384N00955194EA0000001142
B1211145626197N00955342EA0000001127
B1211215626022N00955483EA0000001103
B1211285625842N00955628EA0000001091
B1211355625661N00955755EA0000001084
B1211405625535N00955840EA0000001084
B1211455625413N00955919EA0000001087
B1211575625126N00956095EA0000001077
B1212045624961N00956198EA0000001075
B1212095624842N00956272EA0000001063
B1212165624669N00956383EA0000001047
B1212215624543N00956459EA0000001044
B1212265624418N00956530EA0000001037
B1212325624267N00956615EA0000001029
B1212385624116N00956709EA0000001019
B1212445623966N00956808EA0000001011
B1212545623715N00956972EA0000001003
B1213015623543N00957111EA0000001002
B1213105623345N00957383EA0000000996
B1213175623198N00957611EA0000000992
B1213245623059N00957844EA0000000984
B1213295622960N00958010EA0000000981
B1213385622784N00958313EA0000000975
B1213465622630N00958587EA0000000969
B1213525622515N00958792EA0000000955
B1213585622399N00958997EA0000000946
B1214085622191N00959316EA0000000935
B1214145622059N00959495EA0000000931
B1214195621948N00959642EA0000000927
B1214245621838N00959784EA0000000920
B1214345621620N01000066EA0000000898
B1214445621406N01000372EA0000000873
B1214525621233N01000629EA0000000860
B1214585621105N01000823EA0000000856
B1215035621000N01000983EA0000000867
B1215135620832N01001266EA0000000882
B1215205620703N01001478EA0000000863
B1215265620586N01001657EA0000000855
B1215325620464N01001843EA0000000846
B1215405620295N01002091EA0000000858
B1215475620142N01002299EA0000000855
B1215525620036N01002432EA0000000894
B1216015619882N01002628EA0000000918
B1216065619803N01002742EA0000000922
B1216125619704N01002894EA0000000914
B1216175619623N01003002EA0000000940
B1216225619546N01003029EA0000000939
B1216275619485N01002945EA0000000940
B1216335619502N01002822EA0000000969
B1216385619573N01002851EA0000000992
B1216435619613N01003003EA0000001016
B1216485619590N01003190EA0000001028
B1216535619512N01003300EA0000001045
B1216585619437N01003273EA0000001052
B1217045619432N01003148EA0000001071
B1217095619493N01003141EA0000001095
B1217145619545N01003266EA0000001110
B1217205619553N01003500EA0000001119
B1217255619487N01003640EA0000001142
B1217315619401N01003607EA0000001148
B1217365619384N01003503EA0000001162
B1217425619441N01003437EA0000001186
B1217475619503N01003495EA0000001202
B1217525619526N01003656EA0000001201
B1217575619486N01003837EA0000001200
B1218025619411N01003952EA0000001220
B1218095619302N01003942EA0000001227
B1218145619275N01003842EA0000001235
B1218195619306N01003757EA0000001242
B1218245619373N01003786EA0000001261
B1218295619416N01003922EA0000001282
B1218345619398N01004103EA0000001281
B1218415619288N01004258EA0000001308
B1218465619208N01004254EA0000001324
B1218515619131N01004244EA0000001332
B1218565619044N01004228EA0000001332
B1219025618933N01004222EA0000001353
B1219085618824N01004230EA0000001352
B1219135618721N01004228EA0000001317
B1219245618448N01004229EA0000001289
B1219315618263N01004247EA0000001270
B1219425617963N01004252EA0000001241
B1219475617827N01004252EA0000001234
B1219525617693N01004248EA0000001221
B1220025617426N01004229EA0000001206
B1220075617292N01004213EA0000001197
B1220125617159N01004190EA0000001182
B1220175617021N01004169EA0000001170
B1220245616828N01004152EA0000001155
B1220355616517N01004245EA0000001141
B1220415616351N01004314EA0000001151
B1220525616058N01004432EA0000001142
B1221005615844N01004508EA0000001139
B1221075615668N01004565EA0000001150
B1221125615541N01004592EA0000001137
B1221205615333N01004608EA0000001112
B1221265615175N01004603EA0000001104
B1221335614995N01004572EA0000001093
B1221405614817N01004531EA0000001101
B1221465614685N01004453EA0000001124
B1221535614563N01004335EA0000001157
B1222005614458N01004248EA0000001180
B1222085614344N01004170EA0000001204
B1222145614255N01004123EA0000001213
B1222225614117N01004045EA0000001202
B1222285614001N01003969EA0000001190
B1222335613902N01003897EA0000001174
B1222385613799N01003818EA0000001163
B1222445613669N01003719EA0000001145
B1222505613530N01003621EA0000001126
B1222565613383N01003544EA0000001116
B1223025613227N01003501EA0000001105
B1223085613069N01003481EA0000001101
B1223145612914N01003457EA0000001095
B1223195612783N01003434EA0000001087
B1223245612654N01003421EA0000001086
B1223315612483N01003404EA0000001088
B1223385612310N01003423EA0000001069
B1223455612130N01003481EA0000001064
B1223525611945N01003543EA0000001051
B1223575611808N01003588EA0000001041
B1224035611648N01003651EA0000001037
B1224085611517N01003705EA0000001023
B1224165611305N01003791EA0000001000
B1224245611088N01003881EA0000000985
B1224295610954N01003937EA0000000975
B1224355610794N01003979EA0000000974
B1224455610535N01003966EA0000000949
B1224525610356N01003945EA0000000946
B1224595610173N01003949EA0000000937
B1225045610048N01003932EA0000000936
B1225095609930N01003888EA0000000930
B1225155609801N01003796EA0000000921
B1225205609698N01003707EA0000000914
B1225265609581N01003591EA0000000913
B1225335609448N01003444EA0000000909
B1225385609369N01003344EA0000000953
B1225455609286N01003227EA0000000974
B1225505609201N01003206EA0000000972
B1225555609111N01003311EA0000000967
B1226015609053N01003533EA0000000979
B1226065609069N01003715EA0000000982
B1226115609146N01003772EA0000000997
B1226165609188N01003695EA0000001026
B1226215609162N01003608EA0000001039
B1226265609081N01003614EA0000001028
B1226315609002N01003746EA0000001029
B1226385608977N01004018EA0000001055
B1226435609003N01004194EA0000001078
B1226485609071N01004250EA0000001092
B1226535609104N01004173EA0000001101
B1226585609061N01004086EA0000001111
B1227035608980N01004136EA0000001120
B1227095608948N01004357EA0000001127
B1227145608975N01004526EA0000001162
B1227205609044N01004588EA0000001170
B1227255609064N01004508EA0000001175
B1227305609014N01004431EA0000001175
B1227355608930N01004440EA0000001191
B1227405608854N01004530EA0000001215
B1227455608815N01004689EA0000001226
B1227505608849N01004847EA0000001243
B1227555608913N01004900EA0000001264
B1228025608950N01004806EA0000001278
B1228075608908N01004736EA0000001296
B1228125608843N01004708EA0000001308
B1228185608739N01004687EA0000001288
B1228235608641N01004625EA0000001274
B1228295608533N01004483EA0000001275
B1228355608417N01004348EA0000001270
B1228405608307N01004246EA0000001250
B1228455608187N01004157EA0000001249
B1228515608048N01004055EA0000001263
B1228565607947N01003980EA0000001304
B1229015607859N01003919EA0000001317
B1229065607774N01003854EA0000001310
B1229125607659N01003756EA0000001278
B1229205607491N01003642EA0000001297
B1229265607373N01003578EA0000001309
B1229315607273N01003522EA0000001312
B1229365607170N01003454EA0000001314
B1229415607074N01003396EA0000001342
B1229475606968N01003324EA0000001337
B1229525606877N01003258EA0000001319
B1229575606779N01003174EA0000001291
B1230025606683N01003075EA0000001286
B1230085606577N01002952EA0000001294
B1230145606472N01002830EA0000001291
B1230215606343N01002701EA0000001292
B1230265606252N01002613EA0000001294
B1230335606129N01002497EA0000001288
B1230405605997N01002370EA0000001255
B1230485605833N01002204EA0000001225
B1230545605704N01002071EA0000001204
B1231035605509N01001857EA0000001182
B1231125605312N01001651EA0000001162
B1231205605133N01001460EA0000001140
B1231255605019N01001339EA0000001123
B1231355604786N01001095EA0000001100
B1231415604649N01000947EA0000001094
B1231475604515N01000800EA0000001084
B1231535604383N01000648EA0000001068
B1231585604269N01000520EA0000001052
B1232485603174N00959296EA0000000998
B1232545603047N00959159EA0000000984
B1233015602898N00958995EA0000000973
B1233105602708N00958789EA0000000959
B1233215602486N00958536EA0000000945
B1233265602390N00958422EA0000000940
B1233315602293N00958311EA0000000937
B1233375602178N00958184EA0000000942
B1233435602063N00958074EA0000000966
B1233485601975N00958020EA0000000994
B1233535601884N00958010EA0000000994
B1233595601766N00958027EA0000000990
B1234065601626N00958051EA0000001003
B1234125601527N00958164EA0000001020
B1234175601513N00958339EA0000001011
B1234225601576N00958456EA0000001003
B1234295601673N00958421EA0000001009
B1234345601719N00958347EA0000001013
B1234435601646N00958204EA0000001026
B1234485601557N00958262EA0000001040
B1234535601515N00958429EA0000001046
B1234585601557N00958572EA0000001049
B1235035601623N00958584EA0000001052
B1235095601646N00958487EA0000001059
B1235145601596N00958418EA0000001067
B1235195601514N00958446EA0000001073
B1235245601443N00958568EA0000001080
B1235295601420N00958744EA0000001082
B1235345601456N00958891EA0000001085
B1235395601523N00958935EA0000001080
B1235445601565N00958873EA0000001087
B1235495601547N00958780EA0000001093
B1235545601491N00958716EA0000001105
B1236015601394N00958661EA0000001120
B1236065601317N00958623EA0000001113
B1236125601213N00958564EA0000001087
B1236235601002N00958441EA0000001070
B1236325600835N00958302EA0000001058
B1236375600746N00958211EA0000001054
B1236445600622N00958081EA0000001038
B1236525600478N00957934EA0000001035
B1237005600340N00957779EA0000001019
B1237055600251N00957672EA0000001002
B1237115600143N00957529EA0000000986
B1237185600018N00957349EA0000000964
B1237245559922N00957171EA0000000948
B1237305559824N00956990EA0000000937
B1237365559715N00956822EA0000000927
B1237465559507N00956593EA0000000918
B1237535559352N00956466EA0000000914
B1238005559198N00956363EA0000000919
B1238055559092N00956295EA0000000919
B1238125558943N00956219EA0000000922
B1238245558672N00956231EA0000000909
B1238335558456N00956296EA0000000893
B1238385558333N00956333EA0000000890
B1238465558141N00956408EA0000000888
B1238515558028N00956434EA0000000896
B1238585557893N00956412EA0000000906
B1239035557835N00956331EA0000000923
B1239085557856N00956238EA0000000941
B1239135557921N00956251EA0000000945
B1239185557963N00956394EA0000000943
B1239235557944N00956576EA0000000945
B1239285557877N00956707EA0000000953
B1239335557793N00956749EA0000000958
B1239405557687N00956729EA0000000967
B1239455557648N00956649EA0000000974
B1239505557675N00956580EA0000000979
B1239565557752N00956636EA0000000974
B1240015557781N00956801EA0000000982
B1240065557751N00956971EA0000000988
B1240115557690N00957113EA0000000994
B1240165557610N00957181EA0000000996
B1240215557536N00957141EA0000000995
B1240265557506N00957038EA0000000998
B1240315557536N00956955EA0000001003
B1240365557598N00956960EA0000001013
B1240415557653N00957074EA0000001006
B1240465557660N00957255EA0000001015
B1240515557612N00957411EA0000001022
B1240565557530N00957476EA0000001023
B1241015557458N00957431EA0000001022
B1241085557445N00957296EA0000001027
B1241135557499N00957261EA0000001028
B1241185557563N00957331EA0000001033
B1241235557593N00957487EA0000001030
B1241295557563N00957695EA0000001035
B1241365557472N00957897EA0000001025
B1241425557382N00958076EA0000001014
B1241505557259N00958329EA0000000993
B1241555557193N00958525EA0000000987
B1242005557195N00958729EA0000001017
B1242055557260N00958816EA0000001034
B1242105557310N00958764EA0000001039
B1242155557289N00958661EA0000001034
B1242205557209N00958639EA0000001030
B1242255557124N00958729EA0000001030
B1242305557078N00958897EA0000001039
B1242365557115N00959081EA0000001047
B1242415557182N00959096EA0000001052
B1242475557190N00958992EA0000001065
B1242525557120N00958960EA0000001067
B1242585557038N00959102EA0000001073
B1243035557045N00959284EA0000001085
B1243085557106N00959388EA0000001090
B1243135557162N00959359EA0000001100
B1243185557148N00959273EA0000001103
B1243235557071N00959260EA0000001107
B1243285556997N00959371EA0000001116
B1243335556979N00959550EA0000001133
B1243385557025N00959688EA0000001136
B1243455557112N00959684EA0000001146
B1243505557107N00959597EA0000001150
B1243555557041N00959564EA0000001153
B1244005556964N00959658EA0000001159
B1244055556937N00959837EA0000001174
B1244105556980N00959979EA0000001180
B1244165557058N00959979EA0000001184
B1244215557071N00959892EA0000001190
B1244275557007N00959822EA0000001189
B1244325556925N00959855EA0000001203
B1244375556861N00959982EA0000001219
B1244425556855N01000155EA0000001236
B1244485556921N01000295EA0000001236
B1244535556985N01000291EA0000001240
B1244595557003N01000195EA0000001246
B1245045556984N01000096EA0000001224
B1245105556953N00959945EA0000001206
B1245175556905N00959754EA0000001197
B1245225556863N00959611EA0000001185
B1245285556813N00959428EA0000001181
B1245335556777N00959274EA0000001185
B1245395556734N00959106EA0000001192
B1245455556688N00958932EA0000001175
B1245515556632N00958751EA0000001181
B1245575556573N00958571EA0000001172
B1246025556525N00958411EA0000001157
B1246095556464N00958173EA0000001152
B1246155556415N00957978EA0000001152
B1246215556372N00957779EA0000001143
B1246275556322N00957586EA0000001140
B1246335556268N00957393EA0000001131
B1246405556202N00957166EA0000001122
B1246475556135N00956940EA0000001116
B1246535556079N00956745EA0000001108
B1247035555982N00956417EA0000001092
B1247095555922N00956217EA0000001082
B1247165555859N00955981EA0000001082
B1247215555822N00955814EA0000001080
B1247315555763N00955481EA0000001071
B1247365555735N00955317EA0000001062
B1247445555691N00955061EA0000001053
B1247495555664N00954908EA0000001046
B1247555555630N00954720EA0000001036
B1248005555600N00954564EA0000001033
B1248065555564N00954378EA0000001035
B1248135555520N00954168EA0000001042
B1248205555488N00953961EA0000001055
B1248255555478N00953817EA0000001051
B1248315555438N00953640EA0000001045
B1248365555398N00953507EA0000001077
B1248435555352N00953381EA0000001102
B1248485555311N00953291EA0000001090
B1248535555248N00953208EA0000001089
B1248595555186N00953078EA0000001072
B1249045555147N00952945EA0000001066
B1249105555109N00952785EA0000001063
B1249155555076N00952642EA0000001078
B1249205555049N00952531EA0000001108
B1249265555012N00952408EA0000001081
B1249325554941N00952268EA0000001051
B1249375554868N00952149EA0000001053
B1249425554791N00952040EA0000001068
B1249505554687N00951923EA0000001091
B1249555554620N00951846EA0000001106
B1250025554517N00951768EA0000001107
B1250085554422N00951709EA0000001122
B1250145554340N00951636EA0000001127
B1250205554269N00951547EA0000001122
B1250265554191N00951427EA0000001078
B1250325554098N00951277EA0000001055
B1250375554017N00951148EA0000001048
B1250435553924N00950985EA0000001035
B1250495553830N00950818EA0000001024
B1251135553470N00950098EA0000000981
B1251185553410N00949935EA0000000977
B1251235553349N00949772EA0000000971
B1251285553291N00949615EA0000000976
B1251335553231N00949458EA0000000958
B1251385553163N00949294EA0000000939
B1251455553055N00949068EA0000000932
B1251515552962N00948880EA0000000929
B1251595552842N00948642EA0000000937
B1252045552760N00948517EA0000000940
B1252105552651N00948387EA0000000943
B1252165552545N00948265EA0000000953
B1252225552449N00948135EA0000000959
B1252285552376N00947999EA0000000972
B1252335552325N00947889EA0000000965
B1252385552273N00947769EA0000000948
B1252445552209N00947606EA0000000933
B1252515552151N00947425EA0000000974
B1252565552159N00947322EA0000000994
B1253015552228N00947339EA0000001010
B1253085552242N00947565EA0000001017
B1253135552170N00947672EA0000001031
B1253195552073N00947661EA0000001043
B1253265552017N00947549EA0000001071
B1253345552098N00947497EA0000001079
B1253435552162N00947742EA0000001086
B1253485552112N00947888EA0000001094
B1253535552030N00947905EA0000001102
B1253585551994N00947816EA0000001114
B1254035552038N00947755EA0000001122
B1254115552117N00947933EA0000001136
B1254165552077N00948089EA0000001140
B1254215551994N00948118EA0000001149
B1254265551964N00948033EA0000001164
B1254315552010N00947973EA0000001162
B1254365552081N00948040EA0000001168
B1254425552071N00948237EA0000001170
B1254475551988N00948322EA0000001180
B1254525551909N00948315EA0000001195
B1254575551859N00948247EA0000001198
B1255025551852N00948146EA0000001213
B1255075551897N00948080EA0000001219
B1255125551973N00948145EA0000001231
B1255175552002N00948313EA0000001242
B1255235551943N00948483EA0000001245
B1255295551841N00948505EA0000001240
B1255345551784N00948427EA0000001254
B1255395551781N00948327EA0000001266
B1255445551840N00948296EA0000001280
B1255495551905N00948385EA0000001285
B1255545551922N00948559EA0000001290
B1256005551856N00948721EA0000001299
B1256065551764N00948735EA0000001297
B1256115551712N00948660EA0000001308
B1256195551712N00948516EA0000001320
B1256245551735N00948425EA0000001312
B1256315551763N00948264EA0000001287
B1256375551787N00948089EA0000001258
B1256425551806N00947918EA0000001235
B1256485551827N00947699EA0000001221
B1256565551851N00947404EA0000001203
B1257015551864N00947223EA0000001203
B1257075551878N00947012EA0000001204
B1257125551889N00946842EA0000001194
B1257205551903N00946563EA0000001182
B1257275551913N00946330EA0000001184
B1257335551942N00946140EA0000001188
B1257385551964N00945984EA0000001197
B1257455551988N00945773EA0000001195
B1257505551999N00945619EA0000001182
B1257565552014N00945426EA0000001173
B1258035552032N00945200EA0000001178
B1258095552043N00945005EA0000001174
B1258155552048N00944802EA0000001167
B1258205552048N00944627EA0000001150
B1258255552041N00944449EA0000001146
B1258315552028N00944237EA0000001143
B1258405552008N00943917EA0000001128
B1258485551998N00943637EA0000001131
B1258535551994N00943468EA0000001131
B1258585551990N00943304EA0000001130
B1259045551984N00943109EA0000001129
B1259105551962N00942917EA0000001120
B1259165551921N00942728EA0000001110
B1259225551883N00942541EA0000001110
B1259285551855N00942368EA0000001139
B1259335551806N00942305EA0000001172
B1259395551724N00942410EA0000001181
B1259445551711N00942580EA0000001194
B1259505551784N00942704EA0000001212
B1259555551835N00942665EA0000001216
B1300015551820N00942565EA0000001225
B1300065551753N00942551EA0000001232
B1300125551674N00942670EA0000001253
B1300175551674N00942832EA0000001263
B1300225551740N00942919EA0000001276
B1300275551790N00942881EA0000001279
B1300325551792N00942795EA0000001285
B1300375551738N00942754EA0000001288
B1300435551650N00942839EA0000001297
B1300485551619N00943003EA0000001313
B1300535551649N00943162EA0000001330
B1300585551715N00943250EA0000001339
B1301035551777N00943232EA0000001339
B1301095551806N00943137EA0000001343
B1301145551795N00943050EA0000001339
B1301205551793N00942916EA0000001300
B1301265551811N00942742EA0000001287
B1301315551822N00942587EA0000001276
B1301365551831N00942423EA0000001270
B1301415551840N00942258EA0000001266
B1301475551848N00942061EA0000001254
B1301555551857N00941803EA0000001256
B1302025551863N00941581EA0000001247
B1302095551860N00941345EA0000001228
B1302145551850N00941171EA0000001206
B1302195551838N00940996EA0000001208
B1302245551826N00940824EA0000001209
B1302295551808N00940650EA0000001217
B1302345551785N00940480EA0000001244
B1302405551762N00940316EA0000001285
B1302455551748N00940183EA0000001283
B1302505551732N00940047EA0000001279
B1302575551718N00939832EA0000001244
B1303035551702N00939616EA0000001229
B1303095551687N00939398EA0000001214
B1303145551673N00939214EA0000001205
B1303195551655N00939029EA0000001190
B1303245551631N00938835EA0000001172
B1303315551591N00938556EA0000001161
B1303365551561N00938359EA0000001157
B1303415551531N00938163EA0000001151
B1303475551494N00937923EA0000001143
B1303535551458N00937681EA0000001153
B1303585551444N00937491EA0000001195
B1304035551438N00937366EA0000001259
B1304085551437N00937263EA0000001288
B1304155551439N00937121EA0000001312
B1304215551441N00936986EA0000001347
B1304265551445N00936881EA0000001361
B1304425551450N00936498EA0000001364
B1304485551459N00936312EA0000001345
B1304545551461N00936132EA0000001350
B1305015551452N00935937EA0000001357
B1305075551471N00935780EA0000001351
B1305145551531N00935592EA0000001322
B1305195551570N00935442EA0000001311
B1305245551567N00935274EA0000001300
B1305295551546N00935104EA0000001291
B1305345551526N00934928EA0000001280
B1305445551571N00934577EA0000001262
B1305495551625N00934414EA0000001254
B1305545551682N00934251EA0000001238
B1305595551744N00934085EA0000001226
B1306115551899N00933681EA0000001202
B1306195552008N00933411EA0000001188
B1306255552092N00933213EA0000001178
B1306305552162N00933048EA0000001166
B1306355552233N00932884EA0000001157
B1306405552303N00932715EA0000001143
B1306475552405N00932477EA0000001126
B1306575552556N00932143EA0000001108
B1307035552647N00931951EA0000001099
B1307105552753N00931726EA0000001086
B1307245552949N00931265EA0000001067
B1307325553057N00930996EA0000001045
B1307415553181N00930681EA0000001027
B1307515553311N00930330EA0000001024
B1307575553382N00930122EA0000001020
B1308075553496N00929785EA0000001011
B1308145553575N00929566EA0000001008
B1308195553629N00929413EA0000001006
B1308245553673N00929287EA0000001047
B1308315553730N00929130EA0000001037
B1308365553765N00928998EA0000001025
B1308445553813N00928760EA0000001021
B1308505553871N00928601EA0000001033
B1308565553930N00928462EA0000001072
B1309065554000N00928254EA0000001079
B1309115554028N00928134EA0000001084
B1309165554052N00928007EA0000001092
B1309225554082N00927850EA0000001087
B1309275554110N00927704EA0000001068
B1309345554143N00927489EA0000001061
B1309405554172N00927310EA0000001079
B1309455554196N00927185EA0000001113
B1309535554231N00927005EA0000001117
B1309595554256N00926866EA0000001134
B1310065554290N00926712EA0000001137
B1310115554304N00926594EA0000001143
B1310185554319N00926408EA0000001132
B1310245554333N00926231EA0000001123
B1310335554357N00925959EA0000001127
B1310395554372N00925775EA0000001116
B1310445554386N00925620EA0000001119
B1310505554405N00925436EA0000001133
B1310565554429N00925252EA0000001156
B1311035554454N00925059EA0000001177
B1311095554477N00924886EA0000001170
B1311145554500N00924727EA0000001170
B1311215554523N00924498EA0000001179
B1311325554529N00924139EA0000001197
B1311375554534N00923972EA0000001197
B1311435554543N00923761EA0000001172
B1311485554550N00923564EA0000001151
B1311535554558N00923360EA0000001142
B1311595554568N00923121EA0000001130
B1312055554577N00922880EA0000001102
B1312125554579N00922580EA0000001105
B1312195554567N00922296EA0000001116
B1312255554560N00922061EA0000001112
B1312305554556N00921868EA0000001108
B1312355554553N00921674EA0000001101
B1312405554550N00921477EA0000001095
B1312495554549N00921120EA0000001078
B1312545554553N00920923EA0000001073
B1312595554570N00920726EA0000001061
B1313055554611N00920488EA0000001038
B1313105554652N00920292EA0000001036
B1313155554693N00920101EA0000001026
B1313225554745N00919826EA0000001022
B1313275554771N00919632EA0000001036
B1313325554789N00919472EA0000001062
B1313395554812N00919239EA0000001019
B1313445554843N00919056EA0000001008
B1313525554909N00918772EA0000000991
B1313585554969N00918562EA0000000980
B1314045555034N00918356EA0000000965
B1314105555096N00918148EA0000000953
B1314155555149N00917970EA0000000939
B1314205555197N00917785EA0000000929
B1314285555275N00917485EA0000000914
B1314335555324N00917297EA0000000906
B1314395555380N00917075EA0000000901
B1314445555426N00916891EA0000000890
B1314495555470N00916702EA0000000880
B1314545555511N00916513EA0000000872
B1315015555568N00916253EA0000000862
B1315085555629N00916003EA0000000864
B1315145555681N00915805EA0000000861
B1315195555723N00915637EA0000000852
B1315255555768N00915437EA0000000854
B1315315555814N00915236EA0000000848
B1315375555854N00915047EA0000000874
B1315475555917N00914753EA0000000884
B1315545555971N00914544EA0000000870
B1315595556011N00914389EA0000000854
B1316045556040N00914221EA0000000845
B1316115556075N00913981EA0000000834
B1316175556115N00913774EA0000000816
B1316255556179N00913480EA0000000797
B1316315556229N00913250EA0000000787
B1316365556273N00913062EA0000000786
B1316415556308N00912892EA0000000828
B1316465556343N00912753EA0000000830
B1316515556401N00912629EA0000000824
B1316565556470N00912511EA0000000814
B1317015556550N00912397EA0000000800
B1317065556640N00912296EA0000000798
B1317115556734N00912206EA0000000799
B1317195556890N00912064EA0000000780
B1317265557031N00911925EA0000000761
B1317325557150N00911796EA0000000745
B1317375557247N00911683EA0000000735
B1317425557342N00911571EA0000000723
B1317475557438N00911454EA0000000706
B1317535557554N00911306EA0000000690
B1317595557668N00911160EA0000000683
B1318065557797N00910992EA0000000676
B1318135557920N00910827EA0000000670
B1318245558096N00910557EA0000000661
B1318305558184N00910401EA0000000656
B1318375558284N00910217EA0000000649
B1318455558397N00910006EA0000000637
B1318505558470N00909874EA0000000634
B1318575558580N00909702EA0000000626
B1319025558662N00909584EA0000000618
B1319105558795N00909397EA0000000600
B1319155558883N00909276EA0000000581
B1319235559027N00909069EA0000000558
B1319285559118N00908933EA0000000546
B1319385559300N00908646EA0000000515
B1319445559408N00908465EA0000000503
B1319505559517N00908288EA0000000498
B1319575559643N00908098EA0000000497
B1320025559731N00907966EA0000000490
B1320075559815N00907831EA0000000486
B1320135559912N00907666EA0000000476
B1320225600049N00907406EA0000000458
B1320275600120N00907257EA0000000451
B1320325600191N00907111EA0000000443
B1320405600301N00906866EA0000000425
B1320465600366N00906663EA0000000412
B1320515600415N00906483EA0000000399
B1320575600469N00906260EA0000000382
B1321045600523N00905991EA0000000368
B1321095600557N00905800EA0000000361
B1321155600589N00905571EA0000000351
B1321205600611N00905375EA0000000334
B1321265600636N00905131EA0000000314
B1321375600678N00904669EA0000000282
B1321425600696N00904459EA0000000274
B1321485600714N00904203EA0000000253
B1321545600732N00903942EA0000000241
B1322125600771N00903167EA0000000205
B1322175600777N00902951EA0000000192
B1322235600781N00902680EA0000000151
B1322305600769N00902347EA0000000127
B1322405600731N00901884EA0000000111
B1322465600724N00901624EA0000000119
B1322515600773N00901457EA0000000138
B1322565600867N00901423EA0000000163
B1323025600964N00901543EA0000000168
B1323075600994N00901720EA0000000165
B1323125600979N00901912EA0000000156
B1323195600906N00902144EA0000000156
B1323245600829N00902254EA0000000147
B1323295600757N00902214EA0000000131
B1323345600742N00902078EA0000000114
B1323415600728N00901871EA0000000096
B1323485600711N00901651EA0000000071
B1323545600696N00901456EA0000000049
B1323595600682N00901296EA0000000040
B1324065600659N00901101EA0000000040
B1324115600646N00900992EA0000000039
B1324185600626N00900874EA0000000039
