AOGNOGN
HFDTE100825
HFFXA050
HFPLTPILOTINCHARGE:
HFGTYGLIDERTYPE:LS-4
HFGIDGLIDERID:OY-XNV
HFDTM100GPSDATUM:WGS-1984
HFRFWFIRMWAREVERSION:
HFRHWHARDWAREVERSION:
HFFTYFRTYPE:OGN-FLIGHTBOOK
HFGPSGENERIC
HFPRSPRESSALTSENSOR:
HFCIDCOMPETITIONID:V8
B1009195600703N00901411EA0000000044
B1009195600703N00901411EA0000000044
B1009265600690N00901246EA0000000045
B1009315600678N00901113EA0000000057
B1009405600647N00900874EA0000000078
B1009475600617N00900692EA0000000101
B1009525600588N00900560EA0000000113
B1009585600548N00900408EA0000000144
B1010035600514N00900273EA0000000158
B1010125600443N00900049EA0000000193
B1010175600392N00859923EA0000000203
B1010235600326N00859775EA0000000227
B1010285600270N00859666EA0000000251
B1010335600209N00859569EA0000000267
B1010385600142N00859476EA0000000282
B1010475600018N00859318EA0000000310
B1010535559935N00859219EA0000000326
B1010585559863N00859136EA0000000347
B1011095559703N00858958EA0000000373
B1011145559630N00858888EA0000000384
B1011205559544N00858806EA0000000390
B1011265559454N00858714EA0000000391
B1011325559358N00858621EA0000000407
B1011375559281N00858548EA0000000427
B1011435559195N00858455EA0000000445
B1011515559125N00858273EA0000000464
B1012005559099N00858051EA0000000489
B1012075559062N00857873EA0000000517
B1012125559030N00857746EA0000000549
B1012275558943N00857374EA0000000626
B1012335558998N00857312EA0000000648
B1012385559051N00857431EA0000000659
B1012435559031N00857594EA0000000666
B1012545558879N00857591EA0000000684
B1012595558875N00857499EA0000000704
B1013045558934N00857520EA0000000717
B1013115558916N00857711EA0000000735
B1013165558839N00857726EA0000000750
B1013215558818N00857638EA0000000763
B1013295558900N00857702EA0000000782
B1013345558874N00857848EA0000000796
B1013405558786N00857856EA0000000812
B1013455558785N00857768EA0000000820
B1013505558844N00857795EA0000000828
B1013555558852N00857953EA0000000841
B1014035558737N00858028EA0000000853
B1014095558722N00857921EA0000000873
B1014145558773N00857936EA0000000872
B1014215558782N00858140EA0000000886
B1014285558675N00858216EA0000000894
B1014335558641N00858129EA0000000908
B1014395558705N00858129EA0000000907
B1014465558721N00858338EA0000000925
B1014515558650N00858442EA0000000924
B1014565558568N00858409EA0000000936
B1015035558595N00858315EA0000000947
B1015115558645N00858508EA0000000967
B1015185558551N00858645EA0000000969
B1015265558501N00858561EA0000000979
B1015315558555N00858570EA0000000978
B1015415558577N00858850EA0000000988
B1015485558479N00858962EA0000000998
B1015575558467N00858848EA0000001004
B1016025558526N00858883EA0000001010
B1016115558631N00859058EA0000001019
B1016165558698N00859148EA0000001014
B1016255558815N00859343EA0000001019
B1016315558829N00859541EA0000001032
B1016385558736N00859655EA0000001043
B1016435558684N00859588EA0000001055
B1016485558693N00859483EA0000001071
B1016575558793N00859485EA0000001082
B1017025558805N00859646EA0000001072
B1017075558753N00859781EA0000001085
B1017125558676N00859825EA0000001094
B1017195558569N00859766EA0000001089
B1017245558499N00859664EA0000001092
B1017295558438N00859543EA0000001097
B1017355558393N00859372EA0000001090
B1017465558404N00859069EA0000001104
B1017555558379N00858853EA0000001106
B1018045558262N00858712EA0000001103
B1018105558145N00858744EA0000001098
B1018185557998N00858926EA0000001082
B1018245557932N00859137EA0000001082
B1018365557953N00859594EA0000001077
B1018435557992N00859844EA0000001076
B1018515558036N00900129EA0000001072
B1018565558060N00900306EA0000001057
B1019025558092N00900531EA0000001047
B1019115558133N00900872EA0000001056
B1019185558087N00901111EA0000001074
B1019235558002N00901159EA0000001080
B1019295557935N00901075EA0000001086
B1019355557941N00900955EA0000001094
B1019425558022N00900922EA0000001096
B1019505558093N00901138EA0000001100
B1019585558003N00901364EA0000001113
B1020085557893N00901232EA0000001110
B1020135557947N00901142EA0000001100
B1020225558112N00901307EA0000001097
B1020275558141N00901506EA0000001126
B1020325558114N00901696EA0000001140
B1020385558032N00901879EA0000001150
B1020465557923N00902152EA0000001154
B1020545557832N00902461EA0000001158
B1020595557797N00902672EA0000001165
B1021055557773N00902925EA0000001174
B1021105557757N00903137EA0000001177
B1021185557733N00903494EA0000001176
B1021245557719N00903759EA0000001186
B1021305557706N00904027EA0000001178
B1021375557701N00904343EA0000001178
B1021465557701N00904732EA0000001179
B1021545557716N00905068EA0000001184
B1022015557731N00905351EA0000001189
B1022065557642N00905413EA0000001178
B1022155557573N00905152EA0000001169
B1022205557550N00904979EA0000001165
B1022255557519N00904803EA0000001157
B1022325557470N00904557EA0000001170
B1022525557795N00904165EA0000001138
B1023035557837N00903814EA0000001136
B1023085557875N00903671EA0000001125
B1023135557999N00903672EA0000001114
B1023195558139N00903738EA0000001130
B1023275558303N00903838EA0000001124
B1023365558491N00903945EA0000001110
B1023445558660N00904037EA0000001096
B1023505558787N00904098EA0000001085
B1023575558932N00904161EA0000001088
B1024025559025N00904188EA0000001091
B1024105559132N00904118EA0000001093
B1024185559188N00903959EA0000001078
B1024245559250N00903850EA0000001065
B1024325559331N00903695EA0000001052
B1024385559392N00903581EA0000001045
B1024445559455N00903466EA0000001046
B1024495559506N00903372EA0000001039
B1024565559590N00903259EA0000001036
B1025015559663N00903203EA0000001030
B1025065559742N00903160EA0000001026
B1025315600154N00902994EA0000000999
B1025365600239N00902961EA0000000991
B1025495600470N00902872EA0000000997
B1025565600600N00902834EA0000000998
B1026055600773N00902785EA0000000975
B1026105600869N00902760EA0000000962
B1026165600981N00902726EA0000000953
B1026265601165N00902684EA0000000943
B1026325601275N00902669EA0000000935
B1026405601423N00902666EA0000000931
B1026465601529N00902682EA0000000934
B1026515601611N00902692EA0000000945
B1026575601700N00902696EA0000000955
B1027035601743N00902612EA0000000967
B1027085601695N00902546EA0000000970
B1027135601619N00902640EA0000000968
B1027195601624N00902841EA0000000979
B1027265601708N00902882EA0000000985
B1027365601662N00902752EA0000000991
B1027435601555N00902905EA0000000982
B1027515601485N00903185EA0000000982
B1027595601516N00903454EA0000000983
B1028075601618N00903607EA0000000994
B1028125601680N00903613EA0000000995
B1028205601748N00903515EA0000001009
B1028265601775N00903423EA0000001019
B1028315601780N00903332EA0000001021
B1028385601790N00903205EA0000001028
B1028435601821N00903140EA0000001022
B1028495601863N00903062EA0000001016
B1028555601917N00902993EA0000001003
B1029045602006N00902873EA0000000990
B1029105602073N00902789EA0000000978
B1029165602142N00902698EA0000000968
B1029215602199N00902620EA0000000962
B1029315602311N00902455EA0000000948
B1029375602382N00902354EA0000000935
B1029435602458N00902252EA0000000923
B1029485602525N00902169EA0000000915
B1029565602636N00902032EA0000000912
B1030025602716N00901921EA0000000907
B1030105602824N00901773EA0000000895
B1030165602907N00901663EA0000000893
B1030235603014N00901558EA0000000884
B1030285603094N00901496EA0000000885
B1030345603187N00901429EA0000000883
B1030395603264N00901368EA0000000885
B1030445603344N00901308EA0000000884
B1030515603459N00901232EA0000000902
B1030565603485N00901132EA0000000928
B1031075603340N00901195EA0000000943
B1031125603324N00901368EA0000000951
B1031205603414N00901526EA0000000971
B1031255603447N00901457EA0000000976
B1031315603398N00901375EA0000000984
B1031405603292N00901565EA0000000994
B1031465603355N00901711EA0000001007
B1031525603412N00901647EA0000001014
B1032085603278N00901824EA0000001032
B1032135603348N00901893EA0000001043
B1032185603389N00901828EA0000001054
B1032315603252N00901948EA0000001070
B1032385603323N00902096EA0000001082
B1032435603377N00902039EA0000001088
B1032485603371N00901944EA0000001100
B1032565603259N00901993EA0000001111
B1033055603275N00902259EA0000001123
B1033105603346N00902272EA0000001128
B1033155603374N00902192EA0000001135
B1033205603342N00902111EA0000001141
B1033325603205N00902301EA0000001154
B1033375603246N00902436EA0000001153
B1033425603311N00902430EA0000001157
B1033505603283N00902305EA0000001168
B1034025603116N00902460EA0000001170
B1034075603099N00902644EA0000001168
B1034165603097N00903018EA0000001164
B1034215603065N00903231EA0000001168
B1034285602972N00903456EA0000001194
B1034385602798N00903694EA0000001196
B1034435602692N00903765EA0000001194
B1034505602577N00903670EA0000001192
B1034585602593N00903440EA0000001177
B1035035602645N00903312EA0000001167
B1035125602836N00903338EA0000001156
B1035185602970N00903417EA0000001161
B1035275603177N00903576EA0000001140
B1035505603633N00904259EA0000001098
B1035595603791N00904487EA0000001118
B1036085603927N00904631EA0000001119
B1036135603965N00904571EA0000001115
B1036245603819N00904469EA0000001093
B1036345603641N00904425EA0000001079
B1036445603462N00904400EA0000001066
B1036495603373N00904378EA0000001058
B1036555603270N00904334EA0000001054
B1037105603086N00904085EA0000001043
B1037265602958N00903763EA0000001073
B1037365602897N00903565EA0000001086
B1037445602844N00903391EA0000001091
B1037545602774N00903167EA0000001104
B1038015602714N00903009EA0000001114
B1038115602550N00903057EA0000001139
B1038195602569N00903315EA0000001146
B1038245602631N00903361EA0000001153
B1038405602505N00903374EA0000001179
B1038465602519N00903565EA0000001185
B1038515602577N00903618EA0000001194
B1039035602489N00903542EA0000001215
B1039095602432N00903713EA0000001216
B1039145602472N00903845EA0000001220
B1039195602526N00903838EA0000001230
B1039255602496N00903757EA0000001246
B1039305602420N00903775EA0000001247
B1039355602364N00903914EA0000001246
B1039405602380N00904068EA0000001250
B1039455602442N00904143EA0000001255
B1039525602502N00904081EA0000001261
B1039575602469N00904002EA0000001275
B1040025602388N00904009EA0000001282
B1040095602290N00904192EA0000001274
B1040225602358N00904651EA0000001276
B1040275602448N00904655EA0000001266
B1040325602516N00904552EA0000001249
B1040385602498N00904342EA0000001233
B1040435602394N00904230EA0000001263
B1040485602273N00904231EA0000001277
B1040575602160N00904584EA0000001261
B1041045602178N00904944EA0000001247
B1041225602194N00905955EA0000001205
B1041345602117N00906655EA0000001193
B1041405602076N00906998EA0000001201
B1041585601883N00907926EA0000001190
B1042045601804N00908211EA0000001182
B1042105601715N00908482EA0000001174
B1042245601498N00909070EA0000001161
B1048365558627N00924758EA0000000830
B1048525558599N00924768EA0000000866
B1048595558591N00924958EA0000000876
B1049105558582N00924878EA0000000879
B1049215558612N00925125EA0000000914
B1049485558597N00925425EA0000000957
B1049595558632N00925379EA0000000970
B1050075558600N00925605EA0000000967
B1050135558521N00925578EA0000000990
B1050255558606N00925648EA0000001009
B1050315558551N00925805EA0000001020
B1050375558486N00925739EA0000001021
B1050445558553N00925716EA0000001036
B1050525558513N00925931EA0000001042
B1051085558553N00925983EA0000001061
B1051145558483N00926130EA0000001068
B1051315558509N00926201EA0000001096
B1056575555514N00939340EA0000000913
B1057195555495N00939517EA0000000963
B1057405555484N00939699EA0000001010
B1106085553888N00957604EA0000001092
B1106285553854N00958326EA0000001095
B1106365553810N00958635EA0000001094
B1106435553759N00958914EA0000001111
B1106535553709N00959284EA0000001138
B1107015553688N00959567EA0000001168
B1107075553681N00959765EA0000001189
B1107125553680N00959924EA0000001201
B1107175553682N01000084EA0000001204
B1107245553689N01000313EA0000001208
B1107345553699N01000651EA0000001208
B1107415553701N01000894EA0000001222
B1107465553696N01001063EA0000001226
B1107545553677N01001332EA0000001238
B1108025553649N01001586EA0000001249
B1108085553630N01001780EA0000001244
B1108375553517N01001719EA0000001231
B1112175557539N01001493EA0000001071
B1112245557656N01001447EA0000001086
B1112355557838N01001398EA0000001096
B1112425557960N01001371EA0000001093
B1112555558195N01001345EA0000001075
B1113105558475N01001324EA0000001033
B1113185558630N01001319EA0000001015
B1113255558763N01001316EA0000001010
B1113375559000N01001307EA0000000995
B1113445559139N01001296EA0000000985
B1113525559302N01001280EA0000000972
B1114095559651N01001230EA0000000941
B1114165559795N01001212EA0000000931
B1114295600058N01001192EA0000000917
B1114355600176N01001183EA0000000907
B1114485600429N01001166EA0000000880
B1115035600739N01001172EA0000000841
B1115095600858N01001203EA0000000856
B1115165600981N01001242EA0000000843
B1115335601301N01001321EA0000000801
B1115395601415N01001350EA0000000798
B1115445601508N01001375EA0000000791
B1115515601640N01001412EA0000000771
B1116015601840N01001445EA0000000765
B1116115601958N01001631EA0000000823
B1116185601866N01001769EA0000000836
B1116245601827N01001663EA0000000842
B1116355601931N01001773EA0000000879
B1116435601837N01001899EA0000000889
B1116485601833N01001819EA0000000901
B1116555601907N01001920EA0000000920
B1117025601831N01002067EA0000000934
B1117075601805N01001995EA0000000938
B1117165601886N01002135EA0000000966
B1117245601793N01002224EA0000000973
B1117305601796N01002129EA0000000992
B1117415601851N01002353EA0000001012
B1117465601777N01002397EA0000001019
B1117525601768N01002300EA0000001032
B1117585601836N01002376EA0000001046
B1118095601727N01002538EA0000001069
B1118255601832N01002634EA0000001096
B1118355601708N01002771EA0000001121
B1118405601696N01002690EA0000001126
B1118475601772N01002743EA0000001135
B1118575601670N01002871EA0000001137
B1119105601744N01002940EA0000001159
B1119195601629N01003033EA0000001164
B1119245601612N01002943EA0000001176
B1119395601720N01003213EA0000001200
B1119505601567N01003369EA0000001225
B1119555601541N01003284EA0000001225
B1120105601664N01003441EA0000001244
B1120255601487N01003613EA0000001273
B1120355601497N01003432EA0000001282
B1120495601602N01003664EA0000001303
B1120545601532N01003762EA0000001307
B1120595601468N01003717EA0000001309
B1121045601483N01003631EA0000001317
B1121145601567N01003834EA0000001329
B1121205601491N01003969EA0000001333
B1121255601430N01003916EA0000001335
B1121315601458N01003824EA0000001340
B1126415607969N01005977EA0000000891
B1126495608011N01005889EA0000000910
B1126565607906N01005922EA0000000893
B1127015607849N01006078EA0000000911
B1127065607875N01006233EA0000000911
B1127155607995N01006262EA0000000911
B1127315608234N01006249EA0000000894
B1127375608320N01006324EA0000000902
B1127475608291N01006608EA0000000921
B1127525608216N01006595EA0000000929
B1128035608270N01006424EA0000000931
B1128135608395N01006626EA0000000941
B1128185608389N01006806EA0000000944
B1128255608290N01006963EA0000000938
B1128355608128N01006946EA0000000938
B1128405608069N01006870EA0000000950
B1128465608111N01006807EA0000000948
B1128545608201N01006946EA0000000960
B1128595608191N01007105EA0000000969
B1129045608121N01007182EA0000000974
B1129095608074N01007111EA0000000980
B1129165608134N01007054EA0000000973
B1129215608187N01007151EA0000000981
B1129265608184N01007307EA0000000984
B1129315608117N01007397EA0000000985
B1129365608052N01007357EA0000000987
B1129435608058N01007237EA0000000988
B1129525608163N01007361EA0000000989
B1129585608136N01007545EA0000000999
B1130035608060N01007576EA0000000998
B1130095608018N01007482EA0000001006
B1130175608096N01007458EA0000001006
B1130245608109N01007673EA0000001013
B1130315608011N01007750EA0000001014
B1130375607982N01007645EA0000001022
B1130435608048N01007627EA0000001019
B1130485608098N01007744EA0000001022
B1130535608100N01007910EA0000001030
B1130585608051N01008045EA0000001031
B1131035607975N01008064EA0000001028
B1131085607949N01007971EA0000001029
B1131165608013N01007843EA0000001032
B1131215608061N01007771EA0000001025
B1131285608136N01007671EA0000001005
B1131345608206N01007584EA0000000994
B1131455608345N01007437EA0000000976
B1131555608483N01007301EA0000000955
B1132015608572N01007221EA0000000947
B1132065608644N01007148EA0000000940
B1132165608787N01007002EA0000000924
B1132225608876N01006923EA0000000918
B1132345609050N01006760EA0000000895
B1132555609377N01006534EA0000000880
B1133045609533N01006474EA0000000872
B1133225609851N01006391EA0000000844
B1133285609958N01006371EA0000000844
B1133445610251N01006380EA0000000845
B1133505610315N01006277EA0000000877
B1133555610250N01006227EA0000000896
B1134005610188N01006363EA0000000900
B1134055610224N01006533EA0000000897
B1134105610293N01006530EA0000000922
B1134155610266N01006448EA0000000932
B1134205610186N01006525EA0000000930
B1134255610193N01006694EA0000000931
B1134305610258N01006705EA0000000947
B1134375610202N01006630EA0000000954
B1134435610144N01006789EA0000000957
B1134485610192N01006908EA0000000957
B1134535610247N01006879EA0000000964
B1135005610176N01006828EA0000000978
B1135055610140N01006977EA0000000978
B1135105610197N01007088EA0000000982
B1135195610204N01006996EA0000000992
B1135255610122N01007114EA0000001004
B1135305610141N01007271EA0000001012
B1135375610234N01007313EA0000000998
B1135485610417N01007228EA0000000980
B1135575610575N01007158EA0000000977
B1136105610804N01007066EA0000000955
B1136175610930N01007019EA0000000948
B1136265611091N01006960EA0000000936
B1136335611215N01006917EA0000000919
B1136395611323N01006872EA0000000910
B1136465611450N01006824EA0000000903
B1136575611648N01006750EA0000000891
B1137045611774N01006702EA0000000875
B1137105611883N01006658EA0000000863
B1137155611974N01006621EA0000000854
B1137225612098N01006575EA0000000841
B1137295612219N01006528EA0000000828
B1137375612353N01006473EA0000000808
B1137485612536N01006387EA0000000786
B1137565612670N01006332EA0000000772
B1138035612789N01006284EA0000000774
B1138095612893N01006256EA0000000801
B1138145612960N01006341EA0000000827
B1138195612954N01006516EA0000000839
B1138255612870N01006544EA0000000862
B1138315612858N01006431EA0000000873
B1138385612938N01006522EA0000000889
B1138435612908N01006679EA0000000901
B1138485612837N01006669EA0000000910
B1138535612849N01006599EA0000000918
B1138585612899N01006706EA0000000924
B1139035612856N01006859EA0000000940
B1139095612785N01006824EA0000000964
B1139155612833N01006798EA0000000967
B1139205612856N01006960EA0000000968
B1139255612782N01007059EA0000000996
B1139305612747N01007001EA0000001016
B1139355612786N01006969EA0000001018
B1139405612833N01007076EA0000001028
B1139475612783N01007291EA0000001045
B1139545612708N01007259EA0000001073
B1140005612762N01007226EA0000001077
B1140065612797N01007401EA0000001092
B1140115612737N01007530EA0000001112
B1140175612686N01007476EA0000001128
B1140225612728N01007441EA0000001134
B1140285612784N01007581EA0000001157
B1140335612741N01007744EA0000001171
B1140415612676N01007682EA0000001197
B1140515612737N01007877EA0000001219
B1140565612663N01007934EA0000001231
B1141065612715N01007898EA0000001249
B1141115612713N01008064EA0000001256
B1141175612639N01008073EA0000001263
B1141245612688N01007991EA0000001288
B1141295612730N01008125EA0000001300
B1141405612639N01008165EA0000001329
B1141465612723N01008108EA0000001319
B1141525612831N01008075EA0000001306
B1141585612948N01008041EA0000001294
B1142045613068N01008007EA0000001280
B1142105613186N01007972EA0000001273
B1142165613308N01007938EA0000001257
B1142215613410N01007905EA0000001237
B1142275613532N01007860EA0000001223
B1142335613650N01007809EA0000001215
B1142415613803N01007749EA0000001200
B1142475613917N01007708EA0000001191
B1142535614029N01007659EA0000001183
B1142595614141N01007598EA0000001178
B1143045614238N01007555EA0000001178
B1143205614540N01007421EA0000001148
B1143315614753N01007316EA0000001120
B1143385614891N01007250EA0000001104
B1143455615032N01007180EA0000001089
B1144005615338N01007029EA0000001056
B1144055615436N01006969EA0000001048
B1144115615549N01006891EA0000001043
B1144165615640N01006823EA0000001041
B1144295615869N01006627EA0000001034
B1144345615958N01006554EA0000001029
B1144395616050N01006488EA0000001017
B1144505616257N01006357EA0000001004
B1144565616373N01006290EA0000000997
B1145015616470N01006234EA0000000993
B1145075616587N01006169EA0000000979
B1145165616765N01006074EA0000000953
B1145215616865N01006026EA0000000943
B1145295617026N01005955EA0000000929
B1145345617127N01005918EA0000000927
B1145435617304N01005852EA0000000924
B1145505617440N01005801EA0000000918
B1145565617558N01005759EA0000000907
B1146015617659N01005729EA0000000899
B1146065617760N01005702EA0000000895
B1146115617859N01005676EA0000000890
B1146205618033N01005638EA0000000881
B1146275618161N01005616EA0000000880
B1146335618268N01005598EA0000000871
B1146385618358N01005578EA0000000866
B1146495618553N01005551EA0000000862
B1147165618978N01005523EA0000000905
B1147255619119N01005493EA0000000894
B1148035619705N01005229EA0000000892
B1148145619868N01005117EA0000000876
B1148205619959N01005052EA0000000865
B1148295620093N01004950EA0000000853
B1150215620712N01005296EA0000001078
B1151095620651N01005693EA0000001184
B1151315620593N01005925EA0000001221
B1151585620585N01006151EA0000001245
B1152235620549N01006413EA0000001280
B1152545620581N01006520EA0000001311
B1153015620626N01006355EA0000001300
B1153065620652N01006233EA0000001306
B1153125620673N01006112EA0000001332
B1153185620673N01005989EA0000001346
B1153245620656N01005866EA0000001365
B1153395620597N01005554EA0000001374
B1153485620543N01005354EA0000001365
B1153575620488N01005148EA0000001347
B1154025620462N01005020EA0000001334
B1154105620422N01004813EA0000001323
B1154205620375N01004545EA0000001307
B1154265620361N01004401EA0000001329
B1154325620343N01004257EA0000001315
B1154435620279N01003961EA0000001296
B1154525620189N01003725EA0000001275
B1155005620111N01003524EA0000001269
B1156285618912N01001691EA0000001164
B1156365618788N01001555EA0000001165
B1156465618641N01001367EA0000001151
B1156515618572N01001265EA0000001148
B1157015618452N01001035EA0000001123
B1157075618373N01000905EA0000001113
B1157145618276N01000763EA0000001120
B1157255618117N01000553EA0000001127
B1157365617961N01000328EA0000001110
B1157425617877N01000204EA0000001103
B1157495617791N01000039EA0000001100
B1157595617714N00959760EA0000001078
B1158105617652N00959441EA0000001070
B1158225617560N00959106EA0000001043
B1158315617479N00958862EA0000001040
B1158385617406N00958679EA0000001033
B1158455617318N00958500EA0000001022
B1158535617212N00958288EA0000001014
B1159015617108N00958098EA0000001016
B1159065617047N00957983EA0000001012
B1159125616981N00957839EA0000001005
B1159195616901N00957669EA0000000989
B1159255616830N00957514EA0000000975
B1159315616759N00957351EA0000000962
B1159395616662N00957133EA0000000948
B1159445616601N00956993EA0000000938
B1159495616542N00956862EA0000000947
B1159555616473N00956715EA0000000939
B1200015616402N00956566EA0000000926
B1200065616343N00956442EA0000000921
B1200115616287N00956317EA0000000930
B1200195616195N00956126EA0000000938
B1200245616142N00956001EA0000000935
B1200325616047N00955803EA0000000929
B1200395615956N00955640EA0000000924
B1200455615870N00955505EA0000000910
B1200515615779N00955379EA0000000897
B1200565615702N00955275EA0000000885
B1201015615620N00955171EA0000000866
B1201115615457N00954944EA0000000834
B1201175615357N00954813EA0000000828
B1201245615256N00954679EA0000000833
B1201295615193N00954590EA0000000827
B1201365615102N00954463EA0000000815
B1201445614990N00954319EA0000000802
B1201535614861N00954155EA0000000801
B1202025614733N00953989EA0000000797
B1202105614620N00953855EA0000000788
B1202155614549N00953772EA0000000779
B1202245614414N00953636EA0000000771
B1202325614293N00953517EA0000000758
B1202375614218N00953436EA0000000748
B1202435614128N00953339EA0000000732
B1202495614038N00953238EA0000000725
B1202545613967N00953149EA0000000726
B1203015613880N00953030EA0000000746
B1203085613804N00952925EA0000000747
B1203135613744N00952851EA0000000755
B1203235613727N00952728EA0000000788
B1203285613773N00952841EA0000000787
B1203405613620N00953030EA0000000802
B1203455613612N00952949EA0000000807
B1203515613678N00953008EA0000000817
B1203575613660N00953214EA0000000821
B1204025613579N00953259EA0000000827
B1204085613563N00953169EA0000000840
B1204135613616N00953213EA0000000844
B1204235613536N00953498EA0000000853
B1204325613483N00953406EA0000000865
B1204385613545N00953504EA0000000866
B1204585613295N00953597EA0000000864
B1205055613227N00953444EA0000000874
B1205125613141N00953278EA0000000882
B1205255612973N00952994EA0000000873
B1205325612882N00952843EA0000000859
B1205385612800N00952722EA0000000845
B1205445612720N00952608EA0000000835
B1205495612653N00952518EA0000000834
B1205555612577N00952419EA0000000831
B1206015612495N00952329EA0000000822
B1206095612384N00952211EA0000000818
B1206165612290N00952109EA0000000821
B1206255612222N00951988EA0000000841
B1206305612281N00952005EA0000000834
B1206515612177N00952271EA0000000852
B1207055612169N00952606EA0000000862
B1207135612103N00952523EA0000000873
B1207195612167N00952552EA0000000876
B1207295612125N00952862EA0000000892
B1207345612052N00952867EA0000000888
B1207405612060N00952779EA0000000892
B1207455612122N00952828EA0000000900
B1207545612090N00953112EA0000000907
B1208035612006N00953043EA0000000917
B1208085612061N00953060EA0000000926
B1208185611990N00953305EA0000000936
B1208245611967N00953226EA0000000951
B1208295612016N00953249EA0000000951
B1208405611955N00953559EA0000000958
B1208485611899N00953476EA0000000957
B1208545611967N00953502EA0000000966
B1209075611883N00953807EA0000000976
B1209145611860N00953712EA0000000982
B1209205611924N00953776EA0000000983
B1209285611870N00954019EA0000000989
B1209375611809N00953931EA0000000989
B1209425611868N00953949EA0000001000
B1209535611814N00954253EA0000001003
B1210025611754N00954149EA0000001007
B1210095611833N00954209EA0000001015
B1210175611783N00954447EA0000001018
B1210275611713N00954336EA0000001026
B1210335611779N00954381EA0000001035
B1210425611725N00954647EA0000001025
B1210475611636N00954654EA0000001018
B1210535611534N00954600EA0000001016
B1210595611433N00954525EA0000001006
B1211105611239N00954393EA0000000975
B1211195611079N00954279EA0000000957
B1211245610994N00954216EA0000000949
B1211305610893N00954135EA0000000938
B1211355610810N00954063EA0000000926
B1211415610713N00953969EA0000000910
B1211465610636N00953884EA0000000898
B1211525610547N00953788EA0000000890
B1212005610420N00953683EA0000000882
B1212075610311N00953600EA0000000880
B1212125610235N00953542EA0000000880
B1212175610163N00953473EA0000000878
B1212235610078N00953384EA0000000871
B1212295609994N00953293EA0000000856
B1212365609903N00953176EA0000000851
B1212415609843N00953082EA0000000844
B1212465609782N00952986EA0000000857
B1212535609698N00952861EA0000000871
B1213045609582N00952662EA0000000879
B1213175609537N00952393EA0000000862
B1213225609493N00952287EA0000000860
B1213285609442N00952163EA0000000852
B1213335609397N00952057EA0000000852
B1213395609368N00951939EA0000000884
B1213525609420N00952183EA0000000916
B1214025609306N00952161EA0000000937
B1214105609397N00952205EA0000000950
B1214305609314N00952352EA0000000992
B1214515609251N00952591EA0000001025
B1214565609319N00952620EA0000001034
B1215025609306N00952822EA0000001048
B1215105609208N00952803EA0000001062
B1215165609274N00952787EA0000001067
B1215215609297N00952952EA0000001086
B1215265609231N00953062EA0000001091
B1215355609186N00952947EA0000001101
B1215405609249N00952976EA0000001113
B1215485609221N00953210EA0000001120
B1215545609143N00953172EA0000001132
B1216015609206N00953143EA0000001137
B1216095609210N00953388EA0000001153
B1216185609107N00953350EA0000001156
B1216235609152N00953305EA0000001163
B1216465609118N00953491EA0000001183
B1217115609120N00953722EA0000001219
B1217205609151N00953971EA0000001216
B1217265609061N00953999EA0000001223
B1217315609061N00953910EA0000001230
B1217365609127N00953926EA0000001232
B1217435609132N00954141EA0000001225
B1217525609024N00954119EA0000001222
B1217575609061N00954044EA0000001221
B1218025609132N00954115EA0000001221
B1218095609110N00954327EA0000001211
B1218175609009N00954286EA0000001198
B1218545608795N00953396EA0000001094
B1219055608701N00953127EA0000001073
B1219135608618N00952938EA0000001056
B1220115608208N00951591EA0000000991
B1220195608102N00951437EA0000000973
B1220255608015N00951325EA0000000961
B1220325607911N00951198EA0000000950
B1220405607786N00951061EA0000000933
B1220515607597N00950898EA0000000908
B1221045607352N00950733EA0000000885
B1221155607148N00950586EA0000000873
B1221295606923N00950364EA0000000861
B1221555606540N00949928EA0000000849
B1222025606418N00949846EA0000000838
B1222285606016N00949452EA0000000810
B1225215604061N00945744EA0000000660
B1225395604052N00946164EA0000000639
B1225485603887N00946188EA0000000626
B1225575603715N00946177EA0000000623
B1226025603618N00946190EA0000000619
B1226245603308N00946104EA0000000658
B1226505603266N00946317EA0000000675
B1227045603343N00946589EA0000000697
B1227145603260N00946551EA0000000710
B1227455603217N00946725EA0000000737
B1227565603266N00946965EA0000000753
B1228285603030N00946506EA0000000784
B1228545603033N00946650EA0000000847
B1229155602990N00946898EA0000000883
B1229595602943N00947239EA0000000950
B1230215602900N00947381EA0000001003
B1230335602959N00947618EA0000001028
B1230405602863N00947652EA0000001036
B1230465602879N00947569EA0000001039
B1230575602884N00947829EA0000001064
B1231025602817N00947801EA0000001070
B1231075602841N00947730EA0000001073
B1231155602901N00947902EA0000001097
B1231235602794N00947954EA0000001099
B1231285602817N00947891EA0000001107
B1231495602770N00948063EA0000001139
B1232095602713N00948283EA0000001155
B1232145602747N00948226EA0000001162
B1232255602789N00948511EA0000001182
B1232325602698N00948508EA0000001182
B1232375602728N00948446EA0000001186
B1232595602697N00948652EA0000001215
B1244075603919N00935141EA0000000809
B1244185604006N00934887EA0000000789
B1245165604790N00934441EA0000000746
B1245235604838N00934301EA0000000727
B1245285604858N00934182EA0000000718
B1245375604888N00933957EA0000000703
B1245435604912N00933809EA0000000694
B1245575604967N00933465EA0000000664
B1246235605101N00932883EA0000000645
B1250055604919N00933956EA0000001025
B1250275604893N00934115EA0000001050
B1250415604921N00934015EA0000001061
B1252005605066N00933324EA0000001056
B1252425604875N00933088EA0000001112
B1253065604803N00933195EA0000001166
B1255385604084N00929798EA0000001276
B1255435604076N00929705EA0000001274
B1255485604066N00929602EA0000001269
B1255565604050N00929430EA0000001260
B1256035604035N00929273EA0000001252
B1256105604016N00929112EA0000001242
B1256505603846N00928147EA0000001195
B1257055603782N00927784EA0000001179
B1257465603591N00926759EA0000001119
B1257565603539N00926502EA0000001108
B1258085603477N00926195EA0000001093
B1258145603444N00926038EA0000001086
B1258235603399N00925799EA0000001085
B1258345603338N00925502EA0000001070
B1259215602973N00924384EA0000001013
B1259415602848N00923900EA0000000983
B1259495602802N00923693EA0000000972
B1300015602723N00923379EA0000000950
B1300085602676N00923192EA0000000943
B1300145602632N00923041EA0000000944
B1300235602562N00922827EA0000000938
B1300315602499N00922639EA0000000934
B1300415602422N00922411EA0000000925
B1301055602340N00921790EA0000000889
B1301115602334N00921619EA0000000877
B1301165602320N00921475EA0000000869
B1301245602285N00921244EA0000000859
B1301355602236N00920947EA0000000859
B1301425602206N00920769EA0000000848
B1305145600165N00918091EA0000000688
B1305335600154N00918242EA0000000706
B1305545600107N00918402EA0000000724
B1306105600146N00918486EA0000000724
B1306305600137N00918644EA0000000746
B1306525600105N00918659EA0000000757
B1306575600085N00918815EA0000000758
B1307215600072N00918913EA0000000774
B1307445600086N00918972EA0000000782
B1308015600109N00919040EA0000000791
B1308285600056N00919286EA0000000788
B1308435600145N00919149EA0000000785
B1308525600134N00919378EA0000000772
B1308585600074N00919327EA0000000776
B1309075600139N00919275EA0000000777
B1309465600268N00919006EA0000000748
B1310005600191N00919206EA0000000754
B1310085600272N00919213EA0000000744
B1310375600249N00919479EA0000000732
B1312325600352N00917024EA0000000669
B1312575600333N00916458EA0000000655
B1314255600967N00915304EA0000000647
B1314475600996N00915136EA0000000642
B1314595600995N00915433EA0000000663
B1315115600969N00915340EA0000000672
B1315225600974N00915619EA0000000695
B1315365600974N00915563EA0000000711
B1315425600959N00915742EA0000000725
B1316015600914N00915884EA0000000746
B1316245600800N00915449EA0000000729
B1316545600722N00914702EA0000000702
B1317215600649N00913991EA0000000690
B1317275600632N00913832EA0000000684
B1317365600605N00913592EA0000000681
B1317415600591N00913461EA0000000681
B1317515600568N00913195EA0000000665
B1321315600407N00906918EA0000000376
B1321385600435N00906710EA0000000365
B1321485600478N00906409EA0000000343
B1322005600520N00906043EA0000000321
B1322145600583N00905617EA0000000296
B1322255600644N00905276EA0000000276
B1322315600676N00905092EA0000000270
B1322385600716N00904879EA0000000263
B1322445600750N00904696EA0000000253
B1322515600781N00904476EA0000000239
B1322575600799N00904283EA0000000226
B1323055600817N00904026EA0000000214
B1323245600811N00903421EA0000000186
B1323365600798N00903043EA0000000166
B1323445600786N00902797EA0000000154
B1323505600774N00902614EA0000000144
B1324055600748N00902150EA0000000114
B1324115600735N00901957EA0000000100
B1324165600724N00901792EA0000000087
B1324215600711N00901629EA0000000067
B1324325600680N00901259EA0000000038
B1324375600665N00901106EA0000000040
B1324455600641N00900902EA0000000039
B1324525600621N00900773EA0000000040
