AOGNOGN
HFDTE100825
HFFXA050
HFPLTPILOTINCHARGE:
HFGTYGLIDERTYPE:PA-18 Super Cub
HFGIDGLIDERID:OY-RPY
HFDTM100GPSDATUM:WGS-1984
HFRFWFIRMWAREVERSION:
HFRHWHARDWAREVERSION:
HFFTYFRTYPE:OGN-FLIGHTBOOK
HFGPSGENERIC
HFPRSPRESSALTSENSOR:
HFCIDCOMPETITIONID:PY
B0948345600679N00901310EA0000000044
B0948385600671N00901225EA0000000043
B0948445600658N00901071EA0000000045
B0948515600647N00900856EA0000000047
B0948565600639N00900690EA0000000054
B0949035600626N00900452EA0000000071
B0949155600594N00900060EA0000000094
B0949255600553N00859760EA0000000115
B0949315600525N00859573EA0000000116
B0949365600499N00859416EA0000000126
B0949435600461N00859207EA0000000140
B0949485600437N00859055EA0000000148
B0949545600407N00858863EA0000000153
B0950045600357N00858553EA0000000183
B0950115600328N00858343EA0000000189
B0950175600301N00858162EA0000000198
B0950285600253N00857828EA0000000216
B0950405600267N00857461EA0000000218
B0950465600326N00857301EA0000000228
B0950525600410N00857185EA0000000241
B0950595600520N00857071EA0000000246
B0951055600621N00856984EA0000000250
B0951115600726N00856914EA0000000254
B0951165600817N00856860EA0000000259
B0951255600974N00856758EA0000000268
B0951325601097N00856677EA0000000274
B0951425601282N00856590EA0000000288
B0951475601374N00856560EA0000000297
B0951555601527N00856502EA0000000300
B0952035601686N00856464EA0000000336
B0952085601784N00856465EA0000000360
B0952155601923N00856517EA0000000371
B0952265602123N00856756EA0000000379
B0952355602266N00857028EA0000000386
B0952425602352N00857284EA0000000397
B0952495602420N00857561EA0000000414
B0952545602465N00857749EA0000000442
B0953025602543N00858063EA0000000436
B0953075602598N00858262EA0000000449
B0953145602674N00858524EA0000000479
B0953205602736N00858750EA0000000479
B0953255602786N00858949EA0000000479
B0953345602878N00859314EA0000000486
B0953425602972N00859633EA0000000502
B0953505603061N00859943EA0000000519
B0953555603113N00900147EA0000000519
B0954035603193N00900485EA0000000534
B0954105603254N00900786EA0000000545
B0954195603339N00901166EA0000000562
B0954255603399N00901410EA0000000580
B0954345603363N00901853EA0000000504
B0954405603195N00902050EA0000000442
B0954515602849N00902229EA0000000338
B0954585602632N00902309EA0000000278
B0955035602478N00902335EA0000000240
B0955105602272N00902359EA0000000210
B0955205601999N00902380EA0000000181
B0955265601841N00902403EA0000000175
B0955315601713N00902442EA0000000176
B0955365601590N00902500EA0000000175
B0955435601430N00902581EA0000000174
B0955485601325N00902618EA0000000165
B0955595601126N00902517EA0000000138
B0956085600998N00902365EA0000000118
B0956135600944N00902263EA0000000107
B0956185600898N00902153EA0000000101
B0956275600830N00901941EA0000000089
B0956345600787N00901766EA0000000073
B0956425600749N00901567EA0000000048
B0956485600725N00901421EA0000000037
B0956575600706N00901248EA0000000035
