AOGNOGN
HFDTE100825
HFFXA050
HFPLTPILOTINCHARGE:
HFGTYGLIDERTYPE:ASW-20
HFGIDGLIDERID:OY-XLH
HFDTM100GPSDATUM:WGS-1984
HFRFWFIRMWAREVERSION:
HFRHWHARDWAREVERSION:
HFFTYFRTYPE:OGN-FLIGHTBOOK
HFGPSGENERIC
HFPRSPRESSALTSENSOR:
HFCIDCOMPETITIONID:LH
B1025455600712N00901460EA0000000036
B1025455600712N00901460EA0000000036
B1025525600699N00901292EA0000000037
B1025585600682N00901122EA0000000047
B1026055600662N00900927EA0000000074
B1026125600638N00900743EA0000000097
B1026185600624N00900594EA0000000119
B1026255600610N00900411EA0000000136
B1026305600591N00900273EA0000000151
B1026365600567N00900107EA0000000172
B1026425600542N00859947EA0000000195
B1026475600524N00859817EA0000000213
B1026545600492N00859633EA0000000239
B1026595600473N00859498EA0000000264
B1027075600438N00859297EA0000000291
B1027135600416N00859147EA0000000305
B1027185600398N00859023EA0000000314
B1027235600377N00858900EA0000000326
B1027295600347N00858755EA0000000341
B1027385600292N00858538EA0000000365
B1027435600257N00858424EA0000000384
B1027525600181N00858224EA0000000403
B1027595600093N00858102EA0000000418
B1028045600014N00858044EA0000000430
B1028095559921N00858019EA0000000445
B1028165559783N00858053EA0000000480
B1028235559643N00858194EA0000000479
B1028295559544N00858402EA0000000484
B1028365559455N00858676EA0000000502
B1028415559414N00858890EA0000000520
B1028465559414N00859088EA0000000547
B1028515559460N00859247EA0000000545
B1028585559562N00859409EA0000000524
B1029045559665N00859490EA0000000523
B1029115559772N00859564EA0000000552
B1029165559820N00859684EA0000000563
B1029215559795N00859828EA0000000579
B1029275559715N00859849EA0000000571
B1029325559700N00859745EA0000000562
B1029375559747N00859669EA0000000567
B1029425559820N00859695EA0000000566
B1029475559856N00859852EA0000000564
B1029525559825N00900020EA0000000570
B1029585559732N00900065EA0000000589
B1030035559692N00859968EA0000000584
B1030085559718N00859869EA0000000593
B1030145559789N00859940EA0000000605
B1030195559792N00900095EA0000000599
B1030245559736N00900220EA0000000603
B1030315559625N00900220EA0000000606
B1030365559581N00900128EA0000000610
B1030415559609N00900046EA0000000609
B1030465559675N00900085EA0000000617
B1030515559704N00900234EA0000000615
B1030565559676N00900404EA0000000630
B1031025559581N00900489EA0000000640
B1031075559529N00900403EA0000000637
B1031125559566N00900333EA0000000644
B1031175559616N00900436EA0000000646
B1031225559607N00900611EA0000000666
B1031275559543N00900728EA0000000672
B1031325559473N00900684EA0000000667
B1031375559503N00900606EA0000000664
B1031425559564N00900696EA0000000673
B1031475559557N00900857EA0000000686
B1031535559469N00900930EA0000000692
B1031585559448N00900854EA0000000694
B1032035559507N00900846EA0000000687
B1032085559549N00900983EA0000000696
B1032135559536N00901155EA0000000709
B1032195559454N00901228EA0000000718
B1032245559436N00901141EA0000000719
B1032295559493N00901119EA0000000721
B1032345559537N00901243EA0000000731
B1032395559504N00901399EA0000000737
B1032445559427N00901442EA0000000744
B1032495559380N00901375EA0000000745
B1032545559401N00901290EA0000000747
B1032595559464N00901327EA0000000760
B1033045559501N00901473EA0000000766
B1033115559459N00901680EA0000000775
B1033165559383N00901676EA0000000773
B1033225559354N00901569EA0000000778
B1033275559409N00901536EA0000000785
B1033335559455N00901703EA0000000787
B1033385559407N00901862EA0000000801
B1033435559333N00901934EA0000000810
B1033485559277N00901888EA0000000795
B1033535559301N00901805EA0000000805
B1033585559360N00901873EA0000000811
B1034035559348N00902034EA0000000812
B1034085559273N00902082EA0000000817
B1034145559237N00901996EA0000000821
B1034195559276N00901931EA0000000824
B1034245559340N00901981EA0000000839
B1034295559365N00902132EA0000000844
B1034345559316N00902275EA0000000847
B1034395559235N00902288EA0000000850
B1034445559210N00902197EA0000000856
B1034495559255N00902140EA0000000864
B1034545559321N00902203EA0000000871
B1035005559330N00902402EA0000000880
B1035055559262N00902502EA0000000888
B1035115559184N00902447EA0000000884
B1035165559208N00902367EA0000000892
B1035215559275N00902424EA0000000894
B1035265559283N00902599EA0000000893
B1035315559210N00902726EA0000000897
B1035365559132N00902705EA0000000909
B1035415559132N00902609EA0000000908
B1035465559195N00902596EA0000000915
B1035515559240N00902734EA0000000921
B1035565559197N00902900EA0000000925
B1036015559111N00902927EA0000000929
B1036065559086N00902836EA0000000937
B1036125559150N00902793EA0000000939
B1036175559206N00902925EA0000000945
B1036225559188N00903112EA0000000954
B1036275559105N00903196EA0000000966
B1036325559050N00903134EA0000000968
B1036385559089N00903039EA0000000969
B1036435559160N00903098EA0000000987
B1036485559173N00903274EA0000000987
B1036545559080N00903400EA0000000999
B1036595559012N00903355EA0000001008
B1037045559017N00903265EA0000001013
B1037105559087N00903264EA0000001023
B1037155559124N00903415EA0000001021
B1037205559075N00903574EA0000001026
B1037265558982N00903562EA0000001022
B1037315558982N00903454EA0000001017
B1037365559050N00903448EA0000001026
B1037435559078N00903669EA0000001022
B1037485558993N00903777EA0000001023
B1037535558922N00903720EA0000001037
B1037585558930N00903618EA0000001030
B1038035558999N00903615EA0000001032
B1038095559021N00903822EA0000001037
B1038145558934N00903917EA0000001048
B1038195558871N00903848EA0000001060
B1038245558884N00903746EA0000001045
B1038305558972N00903778EA0000001055
B1038365558962N00903984EA0000001075
B1038415558889N00904086EA0000001094
B1038465558807N00904082EA0000001093
B1038525558749N00903989EA0000001093
B1038585558728N00903868EA0000001083
B1039045558726N00903729EA0000001082
B1039105558735N00903602EA0000001094
B1039165558755N00903470EA0000001098
B1039225558776N00903334EA0000001110
B1039275558795N00903218EA0000001114
B1039345558819N00903044EA0000001117
B1039405558842N00902900EA0000001111
B1039465558877N00902752EA0000001092
B1039525558911N00902589EA0000001079
B1039595558952N00902399EA0000001088
B1040045558983N00902281EA0000001106
B1040105559026N00902152EA0000001110
B1040205559106N00901957EA0000001113
B1040255559149N00901862EA0000001113
B1040325559207N00901722EA0000001119
B1040375559255N00901630EA0000001113
B1040435559311N00901520EA0000001115
B1040505559372N00901401EA0000001112
B1040565559420N00901282EA0000001098
B1041045559462N00901097EA0000001092
B1041105559479N00900960EA0000001094
B1041235559476N00900661EA0000001093
B1041295559469N00900500EA0000001072
B1041345559466N00900350EA0000001059
B1041415559467N00900142EA0000001049
B1041495559480N00859908EA0000001032
B1041555559489N00859735EA0000001018
B1042005559492N00859586EA0000001009
B1042055559493N00859435EA0000000997
B1042115559498N00859251EA0000000981
B1042175559511N00859067EA0000000971
B1042235559535N00858886EA0000000964
B1042305559567N00858670EA0000000947
B1042355559589N00858514EA0000000936
B1042435559619N00858249EA0000000916
B1042485559639N00858088EA0000000917
B1042565559672N00857841EA0000000914
B1043055559698N00857558EA0000000919
B1043125559709N00857360EA0000000944
B1043185559719N00857207EA0000000944
B1043255559732N00857044EA0000000938
B1043315559745N00856907EA0000000931
B1043375559784N00856787EA0000000922
B1043435559832N00856664EA0000000904
B1043485559872N00856554EA0000000896
B1043555559932N00856414EA0000000910
B1044025600000N00856295EA0000000909
B1044075600059N00856222EA0000000901
B1044135600142N00856147EA0000000886
B1044185600219N00856096EA0000000874
B1044245600323N00856073EA0000000869
B1044295600411N00856116EA0000000879
B1044355600500N00856258EA0000000877
B1044405600574N00856375EA0000000876
B1044475600686N00856441EA0000000876
B1044525600762N00856519EA0000000872
B1044575600819N00856663EA0000000861
B1045045600884N00856894EA0000000859
B1045095600895N00857072EA0000000865
B1045145600869N00857250EA0000000851
B1045195600793N00857383EA0000000850
B1045245600701N00857446EA0000000854
B1045295600605N00857503EA0000000849
B1045345600541N00857667EA0000000855
B1045395600582N00857829EA0000000859
B1045445600642N00857788EA0000000869
B1045495600628N00857688EA0000000869
B1045545600550N00857665EA0000000874
B1045595600481N00857773EA0000000884
B1046045600479N00857951EA0000000882
B1046095600536N00858059EA0000000883
B1046145600590N00858032EA0000000886
B1046195600595N00857940EA0000000894
B1046245600537N00857918EA0000000899
B1046305600512N00858101EA0000000897
B1046355600575N00858150EA0000000898
B1046405600588N00858063EA0000000903
B1046455600523N00858045EA0000000905
B1046515600488N00858229EA0000000898
B1046565600557N00858327EA0000000903
B1047035600638N00858275EA0000000911
B1047085600610N00858196EA0000000911
B1047135600533N00858251EA0000000915
B1047185600511N00858417EA0000000914
B1047235600567N00858543EA0000000920
B1047285600627N00858531EA0000000918
B1047345600605N00858426EA0000000916
B1047395600531N00858436EA0000000925
B1047445600480N00858565EA0000000920
B1047505600523N00858742EA0000000924
B1047565600588N00858714EA0000000925
B1048015600566N00858626EA0000000923
B1048065600488N00858650EA0000000919
B1048115600448N00858809EA0000000922
B1048185600489N00859041EA0000000920
B1048235600555N00859131EA0000000915
B1048285600610N00859087EA0000000903
B1048335600621N00858974EA0000000895
B1048385600569N00858871EA0000000901
B1048445600506N00858762EA0000000905
B1048495600456N00858668EA0000000907
B1048545600410N00858583EA0000000915
B1048595600357N00858512EA0000000910
B1049065600305N00858381EA0000000896
B1049115600267N00858279EA0000000890
B1049195600163N00858155EA0000000876
B1049275600043N00858044EA0000000853
B1049325559960N00857971EA0000000846
B1049385559847N00857921EA0000000841
B1049455559708N00857923EA0000000845
B1049505559614N00857932EA0000000843
B1049585559469N00858076EA0000000837
B1050035559408N00858237EA0000000835
B1050085559390N00858428EA0000000832
B1050145559449N00858610EA0000000824
B1050195559524N00858682EA0000000812
B1050245559605N00858675EA0000000799
B1050305559709N00858665EA0000000787
B1050365559816N00858668EA0000000780
B1050425559926N00858702EA0000000772
B1050475600019N00858734EA0000000761
B1050525600114N00858779EA0000000756
B1050575600203N00858863EA0000000753
B1051025600284N00858981EA0000000745
B1051075600357N00859123EA0000000734
B1051125600430N00859266EA0000000725
B1051175600494N00859426EA0000000724
B1051225600546N00859601EA0000000722
B1051295600635N00859809EA0000000712
B1051345600702N00859955EA0000000707
B1051425600804N00900218EA0000000692
B1051505600882N00900506EA0000000693
B1051565600941N00900727EA0000000680
B1052015600995N00900906EA0000000680
B1052065601073N00901029EA0000000677
B1052135601204N00901099EA0000000668
B1052185601292N00901102EA0000000683
B1052235601373N00901137EA0000000693
B1052285601441N00901111EA0000000695
B1052335601509N00901073EA0000000702
B1052385601521N00900982EA0000000707
B1052435601448N00900972EA0000000717
B1052485601399N00901113EA0000000720
B1052535601433N00901274EA0000000727
B1052585601511N00901307EA0000000738
B1053035601534N00901215EA0000000747
B1053085601468N00901189EA0000000758
B1053135601403N00901303EA0000000770
B1053185601420N00901474EA0000000786
B1053235601493N00901512EA0000000794
B1053285601502N00901420EA0000000808
B1053335601429N00901435EA0000000826
B1053385601406N00901594EA0000000846
B1053445601485N00901665EA0000000858
B1053495601490N00901574EA0000000868
B1053545601415N00901570EA0000000880
B1054015601392N00901785EA0000000905
B1054065601461N00901826EA0000000917
B1054115601474N00901736EA0000000927
B1054165601401N00901727EA0000000939
B1054225601367N00901919EA0000000951
B1054275601432N00901969EA0000000975
B1054325601452N00901885EA0000000983
B1054375601384N00901857EA0000000997
B1054425601331N00901979EA0000001005
B1054475601355N00902141EA0000001009
B1054525601423N00902205EA0000001031
B1054575601468N00902150EA0000001030
B1055025601439N00902058EA0000001043
B1055075601354N00902081EA0000001048
B1055125601303N00902230EA0000001061
B1055175601333N00902380EA0000001070
B1055225601401N00902405EA0000001082
B1055275601420N00902317EA0000001089
B1055325601353N00902286EA0000001100
B1055375601290N00902410EA0000001106
B1055435601308N00902600EA0000001121
B1055485601377N00902653EA0000001127
B1055535601433N00902601EA0000001131
B1055595601451N00902489EA0000001144
B1056055601401N00902400EA0000001151
B1056105601322N00902400EA0000001145
B1056165601223N00902510EA0000001137
B1056225601124N00902661EA0000001128
B1056295601006N00902834EA0000001123
B1056355600907N00902985EA0000001125
B1056435600783N00903174EA0000001126
B1056505600668N00903315EA0000001123
B1056565600560N00903374EA0000001116
B1057015600473N00903381EA0000001113
B1057065600385N00903410EA0000001108
B1057115600299N00903456EA0000001103
B1057165600215N00903491EA0000001094
B1057215600161N00903424EA0000001079
B1057265600157N00903301EA0000001058
B1057325600177N00903149EA0000001043
B1057395600212N00902963EA0000001018
B1057455600249N00902796EA0000001004
B1057505600283N00902656EA0000000995
B1058005600354N00902390EA0000000990
B1058085600412N00902190EA0000000983
B1058165600469N00902002EA0000000984
B1058225600518N00901870EA0000000974
B1058285600570N00901739EA0000000965
B1058355600628N00901587EA0000000959
B1058405600691N00901533EA0000000957
B1058465600786N00901584EA0000000949
B1058515600869N00901666EA0000000931
B1058565600948N00901772EA0000000931
B1059015601018N00901898EA0000000927
B1059075601098N00902060EA0000000916
B1059135601176N00902228EA0000000907
B1059185601240N00902366EA0000000904
B1059235601302N00902501EA0000000896
B1059305601393N00902691EA0000000886
B1059365601474N00902851EA0000000877
B1059435601566N00903041EA0000000876
B1059485601632N00903164EA0000000869
B1059535601697N00903294EA0000000862
B1059595601759N00903470EA0000000872
B1100055601807N00903669EA0000000873
B1100105601872N00903776EA0000000884
B1100155601922N00903746EA0000000887
B1100205601895N00903660EA0000000885
B1100255601819N00903658EA0000000891
B1100305601744N00903741EA0000000895
B1100355601707N00903900EA0000000896
B1100405601741N00904041EA0000000893
B1100455601804N00904039EA0000000889
B1100505601817N00903934EA0000000879
B1100555601763N00903854EA0000000896
B1101005601692N00903939EA0000000905
B1101055601716N00904086EA0000000905
B1101105601778N00904078EA0000000899
B1101165601778N00903950EA0000000905
B1101215601733N00903874EA0000000909
B1101265601652N00903939EA0000000904
B1101315601617N00904112EA0000000901
B1101365601656N00904255EA0000000907
B1101425601730N00904250EA0000000908
B1101475601726N00904157EA0000000909
B1101525601650N00904153EA0000000913
B1101575601596N00904290EA0000000916
B1102025601621N00904437EA0000000921
B1102075601682N00904491EA0000000918
B1102125601727N00904432EA0000000914
B1102175601721N00904336EA0000000913
B1102225601656N00904281EA0000000900
B1102285601541N00904342EA0000000902
B1102335601449N00904408EA0000000890
B1102385601368N00904524EA0000000882
B1102435601301N00904672EA0000000875
B1102505601204N00904881EA0000000862
B1102565601131N00905077EA0000000855
B1103015601073N00905245EA0000000839
B1103095600969N00905511EA0000000823
B1103155600904N00905729EA0000000819
B1103205600859N00905918EA0000000815
B1103265600816N00906147EA0000000814
B1103315600773N00906325EA0000000812
B1103375600711N00906525EA0000000804
B1103425600658N00906695EA0000000809
B1103475600597N00906830EA0000000833
B1103525600531N00906827EA0000000841
B1103575600522N00906739EA0000000843
B1104035600588N00906703EA0000000851
B1104085600649N00906807EA0000000849
B1104135600655N00906981EA0000000860
B1104185600599N00907087EA0000000871
B1104235600547N00907039EA0000000871
B1104285600574N00906963EA0000000873
B1104335600649N00907023EA0000000872
B1104385600660N00907202EA0000000883
B1104435600602N00907311EA0000000900
B1104485600543N00907279EA0000000898
B1104535600554N00907190EA0000000906
B1104585600623N00907202EA0000000914
B1105035600671N00907347EA0000000912
B1105085600646N00907514EA0000000927
B1105135600580N00907560EA0000000936
B1105185600558N00907476EA0000000929
B1105235600624N00907466EA0000000942
B1105285600674N00907604EA0000000940
B1105335600659N00907780EA0000000950
B1105385600593N00907866EA0000000962
B1105435600541N00907813EA0000000960
B1105485600570N00907718EA0000000969
B1105535600639N00907755EA0000000983
B1105595600677N00907946EA0000000980
B1106045600638N00908104EA0000000988
B1106095600565N00908147EA0000000991
B1106145600530N00908065EA0000001005
B1106195600571N00907998EA0000001009
B1106245600641N00908069EA0000001015
B1106295600651N00908236EA0000001021
B1106345600596N00908352EA0000001024
B1106395600525N00908354EA0000001032
B1106445600511N00908264EA0000001040
B1106495600568N00908229EA0000001052
B1106545600626N00908336EA0000001051
B1106595600615N00908508EA0000001050
B1107045600544N00908561EA0000001063
B1107105600515N00908460EA0000001068
B1107155600574N00908423EA0000001079
B1107205600629N00908551EA0000001079
B1107255600605N00908725EA0000001075
B1107305600528N00908804EA0000001085
B1107355600467N00908754EA0000001098
B1107405600470N00908659EA0000001104
B1107455600524N00908612EA0000001112
B1107505600597N00908661EA0000001113
B1107555600658N00908782EA0000001113
B1108035600721N00909047EA0000001093
B1108085600763N00909225EA0000001087
B1108145600814N00909438EA0000001079
B1108195600860N00909617EA0000001070
B1108245600914N00909795EA0000001065
B1108295600970N00909972EA0000001057
B1108355601038N00910181EA0000001052
B1108405601096N00910346EA0000001050
B1108465601161N00910549EA0000001049
B1108515601217N00910705EA0000001055
B1108565601280N00910834EA0000001068
B1109015601332N00910950EA0000001074
B1109065601389N00911070EA0000001067
B1109135601468N00911226EA0000001075
B1109205601548N00911390EA0000001055
B1109255601613N00911523EA0000001040
B1109325601702N00911733EA0000001037
B1109375601754N00911900EA0000001046
B1109425601797N00912051EA0000001056
B1109475601841N00912191EA0000001060
B1109555601921N00912378EA0000001074
B1110015601983N00912504EA0000001085
B1110065602043N00912515EA0000001092
B1110125602034N00912404EA0000001093
B1110175601955N00912410EA0000001092
B1110225601902N00912554EA0000001089
B1110285601885N00912763EA0000001099
B1110335601924N00912895EA0000001101
B1110385601980N00912877EA0000001102
B1110435601959N00912780EA0000001109
B1110485601878N00912801EA0000001119
B1110535601854N00912961EA0000001127
B1110585601908N00913063EA0000001130
B1111035601959N00913021EA0000001130
B1111085601937N00912917EA0000001141
B1111135601855N00912894EA0000001142
B1111185601783N00913016EA0000001151
B1111235601777N00913201EA0000001156
B1111285601821N00913343EA0000001159
B1111335601891N00913371EA0000001164
B1111385601910N00913275EA0000001167
B1111435601845N00913202EA0000001176
B1111485601759N00913268EA0000001187
B1111535601722N00913437EA0000001197
B1111585601739N00913604EA0000001201
B1112065601821N00913822EA0000001214
B1112115601875N00913943EA0000001234
B1112165601926N00914056EA0000001224
B1112215601984N00914174EA0000001216
B1112265602043N00914307EA0000001210
B1112315602103N00914447EA0000001206
B1112365602160N00914590EA0000001204
B1112415602218N00914728EA0000001199
B1112465602284N00914854EA0000001195
B1112535602373N00915030EA0000001193
B1113035602521N00915228EA0000001170
B1113085602595N00915339EA0000001163
B1113135602665N00915453EA0000001182
B1113195602738N00915579EA0000001194
B1113255602807N00915696EA0000001183
B1113305602871N00915814EA0000001159
B1113365602952N00915970EA0000001161
B1113425603036N00916109EA0000001161
B1113475603107N00916216EA0000001156
B1113545603204N00916386EA0000001151
B1113595603275N00916512EA0000001139
B1114055603363N00916666EA0000001124
B1114105603438N00916798EA0000001115
B1114165603528N00916959EA0000001100
B1114225603615N00917121EA0000001094
B1114275603687N00917259EA0000001084
B1114325603766N00917386EA0000001079
B1114375603849N00917476EA0000001084
B1114425603931N00917560EA0000001074
B1114495604050N00917680EA0000001056
B1114545604135N00917758EA0000001060
B1115005604227N00917872EA0000001069
B1115075604334N00918011EA0000001077
B1115125604408N00918043EA0000001096
B1115175604414N00917950EA0000001104
B1115225604339N00917958EA0000001113
B1115285604303N00918143EA0000001125
B1115345604369N00918245EA0000001132
B1115395604408N00918186EA0000001128
B1115445604377N00918090EA0000001125
B1115505604284N00918123EA0000001142
B1115555604230N00918270EA0000001146
B1116005604254N00918429EA0000001155
B1116055604322N00918450EA0000001155
B1116105604330N00918355EA0000001158
B1116155604254N00918332EA0000001165
B1116205604190N00918457EA0000001172
B1116255604198N00918627EA0000001176
B1116315604281N00918684EA0000001173
B1116365604302N00918585EA0000001176
B1116415604248N00918511EA0000001183
B1116465604161N00918551EA0000001180
B1116515604126N00918715EA0000001194
B1116565604173N00918846EA0000001194
B1117015604246N00918871EA0000001193
B1117065604290N00918799EA0000001193
B1117115604250N00918712EA0000001199
B1117165604165N00918772EA0000001194
B1117215604153N00918950EA0000001203
B1117265604186N00919104EA0000001211
B1117325604222N00919271EA0000001216
B1117375604254N00919409EA0000001200
B1117425604296N00919563EA0000001184
B1117475604341N00919710EA0000001179
B1117525604384N00919859EA0000001176
B1117575604426N00919998EA0000001179
B1118055604498N00920227EA0000001177
B1118105604543N00920373EA0000001176
B1118165604596N00920554EA0000001173
B1118215604643N00920698EA0000001181
B1118275604706N00920868EA0000001179
B1118325604756N00921011EA0000001179
B1118375604804N00921165EA0000001179
B1118425604855N00921311EA0000001169
B1118475604905N00921467EA0000001160
B1118525604960N00921620EA0000001157
B1118585605031N00921804EA0000001147
B1119055605128N00922022EA0000001131
B1119115605221N00922214EA0000001110
B1119185605345N00922428EA0000001090
B1119235605439N00922561EA0000001106
B1119285605524N00922687EA0000001114
B1119335605599N00922799EA0000001113
B1119395605699N00922932EA0000001091
B1119445605793N00923041EA0000001071
B1119495605889N00923150EA0000001070
B1119555605997N00923281EA0000001067
B1120035606131N00923478EA0000001053
B1120085606212N00923611EA0000001058
B1120145606304N00923748EA0000001064
B1120225606429N00923932EA0000001043
B1120285606510N00924108EA0000001038
B1120335606558N00924291EA0000001030
B1120385606616N00924450EA0000001026
B1120435606690N00924553EA0000001019
B1120485606771N00924580EA0000001006
B1120555606884N00924573EA0000000993
B1121015606977N00924557EA0000000994
B1121085607083N00924528EA0000000989
B1121165607184N00924434EA0000000980
B1121215607219N00924343EA0000000976
B1121295607195N00924164EA0000000959
B1121345607158N00924055EA0000000953
B1121425607092N00923887EA0000000949
B1121475607058N00923789EA0000000955
B1121525607025N00923684EA0000000939
B1121585606977N00923557EA0000000931
B1122035606937N00923451EA0000000930
B1122085606892N00923367EA0000000928
B1122155606840N00923233EA0000000903
B1122225606792N00923085EA0000000901
B1122275606759N00922983EA0000000905
B1122325606724N00922884EA0000000921
B1122375606722N00922793EA0000000931
B1122425606785N00922797EA0000000939
B1122475606821N00922934EA0000000950
B1122525606786N00923092EA0000000953
B1122575606708N00923147EA0000000956
B1123025606663N00923077EA0000000963
B1123075606685N00923001EA0000000968
B1123125606746N00922998EA0000000974
B1123185606803N00923142EA0000000975
B1123235606780N00923314EA0000000992
B1123285606706N00923387EA0000001003
B1123335606645N00923343EA0000001003
B1123385606648N00923258EA0000001010
B1123435606709N00923251EA0000001014
B1123485606767N00923363EA0000001013
B1123535606775N00923543EA0000001030
B1123585606717N00923666EA0000001037
B1124035606648N00923644EA0000001045
B1124085606651N00923557EA0000001046
B1124135606717N00923570EA0000001053
B1124185606757N00923718EA0000001062
B1124235606723N00923879EA0000001074
B1124285606651N00923911EA0000001080
B1124335606650N00923830EA0000001078
B1124395606737N00923864EA0000001082
B1124445606774N00924032EA0000001095
B1124495606733N00924195EA0000001098
B1124545606656N00924232EA0000001097
B1124595606611N00924159EA0000001097
B1125055606636N00924056EA0000001111
B1125105606700N00924054EA0000001125
B1125155606739N00924198EA0000001139
B1125205606698N00924359EA0000001143
B1125265606607N00924378EA0000001152
B1125315606592N00924294EA0000001158
B1125365606642N00924242EA0000001170
B1125415606711N00924308EA0000001180
B1125485606740N00924539EA0000001199
B1125535606693N00924686EA0000001207
B1125585606616N00924717EA0000001206
B1126035606584N00924646EA0000001222
B1126085606626N00924590EA0000001224
B1126145606708N00924689EA0000001242
B1126195606718N00924876EA0000001252
B1126245606668N00925032EA0000001264
B1126305606577N00925081EA0000001260
B1126355606520N00925034EA0000001258
B1126425606508N00924909EA0000001257
B1126475606549N00924850EA0000001264
B1126545606640N00924953EA0000001266
B1126595606658N00925125EA0000001282
B1127045606616N00925283EA0000001287
B1127095606541N00925373EA0000001288
B1127155606453N00925372EA0000001295
B1127235606390N00925248EA0000001287
B1127285606361N00925152EA0000001280
B1127345606324N00925028EA0000001269
B1127395606285N00924928EA0000001273
B1127445606225N00924859EA0000001276
B1127495606159N00924799EA0000001277
B1127545606088N00924759EA0000001276
B1127595606007N00924727EA0000001261
B1128055605924N00924657EA0000001252
B1128115605859N00924551EA0000001236
B1128165605815N00924450EA0000001230
B1128235605779N00924311EA0000001228
B1128295605749N00924196EA0000001224
B1128345605720N00924093EA0000001217
B1128395605689N00923984EA0000001233
B1128445605658N00923904EA0000001262
B1128495605627N00923832EA0000001276
B1128545605596N00923757EA0000001284
B1129005605559N00923653EA0000001289
B1129055605534N00923558EA0000001279
B1129115605497N00923435EA0000001262
B1129165605464N00923326EA0000001257
B1129245605405N00923161EA0000001248
B1129335605342N00922977EA0000001239
B1129385605311N00922874EA0000001232
B1129435605281N00922758EA0000001215
B1129485605246N00922637EA0000001219
B1129545605200N00922510EA0000001221
B1129595605170N00922408EA0000001229
B1130045605143N00922304EA0000001233
B1130115605106N00922180EA0000001225
B1130165605067N00922083EA0000001230
B1130215605020N00922007EA0000001243
B1130285604952N00921897EA0000001234
B1130335604897N00921817EA0000001229
B1130395604813N00921743EA0000001220
B1130465604692N00921702EA0000001221
B1130515604602N00921679EA0000001199
B1130565604501N00921660EA0000001186
B1131015604400N00921640EA0000001181
B1131065604302N00921617EA0000001173
B1131115604206N00921583EA0000001166
B1131165604114N00921542EA0000001163
B1131245603969N00921492EA0000001150
B1131295603873N00921485EA0000001148
B1131345603777N00921479EA0000001154
B1131405603672N00921473EA0000001190
B1131455603604N00921444EA0000001194
B1131515603550N00921360EA0000001197
B1131575603502N00921271EA0000001217
B1132035603455N00921185EA0000001228
B1132115603399N00921073EA0000001247
B1132165603368N00921004EA0000001255
B1132215603339N00920931EA0000001260
B1132305603287N00920793EA0000001257
B1132355603260N00920712EA0000001262
B1132405603231N00920633EA0000001268
B1132465603191N00920535EA0000001287
B1132525603141N00920443EA0000001304
B1132575603096N00920371EA0000001312
B1133025603045N00920297EA0000001310
B1133075602987N00920217EA0000001291
B1133135602904N00920104EA0000001264
B1133205602800N00919961EA0000001246
B1133255602724N00919852EA0000001228
B1133315602629N00919715EA0000001224
B1133365602553N00919610EA0000001227
B1133425602463N00919492EA0000001221
B1133495602355N00919367EA0000001216
B1133555602265N00919276EA0000001211
B1134025602165N00919164EA0000001194
B1134105602064N00919011EA0000001177
B1134155602010N00918907EA0000001169
B1134215601940N00918783EA0000001153
B1134265601875N00918686EA0000001143
B1134315601808N00918588EA0000001131
B1134365601744N00918484EA0000001119
B1134425601670N00918351EA0000001107
B1134485601598N00918218EA0000001098
B1134545601534N00918079EA0000001088
B1134595601494N00917959EA0000001081
B1135055601454N00917809EA0000001070
B1135125601411N00917628EA0000001052
B1135215601361N00917391EA0000001039
B1135265601336N00917265EA0000001030
B1135335601297N00917091EA0000001017
B1135385601273N00916968EA0000001010
B1135465601232N00916778EA0000001001
B1135515601218N00916658EA0000000989
B1135575601203N00916507EA0000000970
B1136025601184N00916380EA0000000956
B1136075601161N00916253EA0000000955
B1136135601127N00916120EA0000000967
B1136185601093N00916024EA0000000978
B1136235601063N00915927EA0000000986
B1136285601038N00915837EA0000001004
B1136335601064N00915779EA0000001000
B1136385601127N00915836EA0000000978
B1136435601147N00916003EA0000000973
B1136485601093N00916146EA0000000971
B1136535601017N00916173EA0000000981
B1136585600968N00916116EA0000000980
B1137035600974N00916030EA0000000973
B1137085600993N00915937EA0000000960
B1137145600981N00915797EA0000000938
B1137215600955N00915611EA0000000922
B1137275600932N00915449EA0000000914
B1137335600907N00915288EA0000000908
B1137385600888N00915156EA0000000899
B1137465600856N00914941EA0000000886
B1137515600835N00914806EA0000000873
B1137595600801N00914589EA0000000860
B1138105600757N00914287EA0000000839
B1138155600740N00914153EA0000000834
B1138205600722N00914026EA0000000823
B1138255600691N00913904EA0000000813
B1138325600639N00913744EA0000000800
B1138375600603N00913625EA0000000796
B1138435600561N00913482EA0000000796
B1138495600525N00913338EA0000000789
B1138545600493N00913214EA0000000791
B1138595600458N00913104EA0000000802
B1139065600415N00912963EA0000000815
B1139115600393N00912861EA0000000823
B1139165600401N00912772EA0000000849
B1139215600464N00912791EA0000000861
B1139265600492N00912942EA0000000866
B1139315600437N00913070EA0000000870
B1139365600371N00913053EA0000000882
B1139415600369N00912959EA0000000895
B1139465600431N00912939EA0000000900
B1139525600484N00913102EA0000000916
B1139585600433N00913272EA0000000921
B1140035600360N00913295EA0000000931
B1140085600303N00913247EA0000000944
B1140135600311N00913165EA0000000959
B1140185600376N00913175EA0000000960
B1140235600424N00913312EA0000000972
B1140285600406N00913473EA0000000977
B1140335600340N00913555EA0000000988
B1140385600281N00913516EA0000000997
B1140435600288N00913425EA0000001003
B1140485600356N00913416EA0000001013
B1140535600415N00913527EA0000001020
B1140585600407N00913697EA0000001025
B1141035600345N00913802EA0000001033
B1141085600275N00913792EA0000001044
B1141135600271N00913705EA0000001057
B1141185600335N00913697EA0000001057
B1141235600387N00913830EA0000001062
B1141285600365N00913990EA0000001066
B1141335600289N00914054EA0000001073
B1141385600233N00913998EA0000001088
B1141435600228N00913901EA0000001092
B1141485600283N00913849EA0000001099
B1141535600352N00913918EA0000001108
B1141585600370N00914075EA0000001108
B1142035600321N00914208EA0000001113
B1142085600249N00914232EA0000001124
B1142145600195N00914152EA0000001133
B1142215600121N00914046EA0000001129
B1142265600047N00913999EA0000001129
B1142315559962N00913986EA0000001123
B1142365559880N00913976EA0000001124
B1142415559801N00913957EA0000001112
B1142465559724N00913912EA0000001105
B1142535559620N00913826EA0000001096
B1142595559527N00913737EA0000001084
B1143055559431N00913657EA0000001092
B1143105559360N00913599EA0000001092
B1143175559256N00913533EA0000001088
B1143245559149N00913466EA0000001072
B1143305559054N00913411EA0000001068
B1143375558942N00913343EA0000001062
B1143425558862N00913296EA0000001060
B1143475558784N00913254EA0000001063
B1143535558692N00913206EA0000001060
B1144005558591N00913134EA0000001053
B1144085558475N00913035EA0000001036
B1144135558403N00912979EA0000001037
B1144185558340N00912919EA0000001036
B1144245558265N00912835EA0000001033
B1144295558207N00912777EA0000001048
B1144355558141N00912698EA0000001056
B1144415558125N00912606EA0000001070
B1144465558171N00912568EA0000001057
B1144515558232N00912638EA0000001052
B1144565558249N00912805EA0000001044
B1145025558201N00913003EA0000001041
B1145075558134N00913135EA0000001044
B1145125558052N00913189EA0000001058
B1145175558002N00913136EA0000001063
B1145225558024N00913063EA0000001059
B1145275558090N00913100EA0000001051
B1145325558119N00913257EA0000001054
B1145375558080N00913407EA0000001063
B1145425558008N00913436EA0000001067
B1145475557969N00913363EA0000001072
B1145525558013N00913319EA0000001072
B1145575558063N00913437EA0000001065
B1146025558036N00913603EA0000001065
B1146075557965N00913698EA0000001076
B1146125557896N00913678EA0000001082
B1146175557889N00913581EA0000001087
B1146225557953N00913598EA0000001093
B1146275557966N00913754EA0000001097
B1146325557900N00913852EA0000001104
B1146375557838N00913804EA0000001109
B1146435557871N00913711EA0000001114
B1146495557933N00913838EA0000001117
B1146545557892N00913990EA0000001123
B1146595557817N00914016EA0000001138
B1147045557784N00913931EA0000001138
B1147095557821N00913859EA0000001141
B1147145557884N00913916EA0000001147
B1147195557897N00914071EA0000001147
B1147245557844N00914211EA0000001149
B1147295557766N00914238EA0000001159
B1147345557716N00914161EA0000001162
B1147395557715N00914068EA0000001166
B1147455557780N00914034EA0000001168
B1147505557836N00914120EA0000001167
B1147555557862N00914271EA0000001160
B1148005557826N00914423EA0000001161
B1148055557746N00914487EA0000001174
B1148105557677N00914475EA0000001178
B1148155557668N00914388EA0000001176
B1148205557729N00914369EA0000001170
B1148265557785N00914516EA0000001170
B1148315557742N00914672EA0000001171
B1148385557630N00914740EA0000001184
B1148435557575N00914688EA0000001179
B1148485557582N00914582EA0000001166
B1148545557657N00914549EA0000001174
B1148595557722N00914631EA0000001164
B1149045557743N00914798EA0000001164
B1149105557702N00915002EA0000001166
B1149165557623N00915147EA0000001172
B1149215557543N00915200EA0000001172
B1149265557475N00915173EA0000001163
B1149315557436N00915083EA0000001148
B1149365557428N00914965EA0000001125
B1149415557409N00914837EA0000001111
B1149465557384N00914707EA0000001099
B1149525557362N00914546EA0000001085
B1149585557345N00914373EA0000001068
B1150035557326N00914225EA0000001065
B1150085557299N00914082EA0000001065
B1150145557272N00913914EA0000001061
B1150215557260N00913720EA0000001052
B1150305557242N00913460EA0000001035
B1150385557228N00913223EA0000001021
B1150465557207N00912980EA0000001009
B1150525557189N00912797EA0000001006
B1150575557171N00912652EA0000001008
B1151025557155N00912511EA0000001007
B1151085557136N00912348EA0000000997
B1151165557100N00912127EA0000000980
B1151215557076N00911988EA0000000975
B1151275557051N00911824EA0000000974
B1151335557024N00911652EA0000000965
B1151385557000N00911505EA0000000959
B1151455556971N00911291EA0000000950
B1151505556951N00911148EA0000000972
B1151555556933N00911023EA0000000979
B1152015556909N00910898EA0000001016
B1152065556892N00910814EA0000001014
B1152145556866N00910669EA0000001006
B1152195556851N00910560EA0000001003
B1152245556837N00910454EA0000001029
B1152305556825N00910366EA0000001035
B1152355556816N00910278EA0000001014
B1152405556804N00910174EA0000001009
B1152475556787N00910021EA0000000998
B1152545556771N00909857EA0000000985
B1152595556756N00909740EA0000000986
B1153045556740N00909629EA0000000981
B1153105556724N00909488EA0000000971
B1153185556680N00909306EA0000000963
B1153245556642N00909173EA0000000952
B1153295556604N00909063EA0000000949
B1153345556570N00908957EA0000000949
B1153395556535N00908851EA0000000932
B1153445556500N00908735EA0000000919
B1153505556454N00908595EA0000000915
B1153565556406N00908453EA0000000905
B1154015556368N00908326EA0000000894
B1154065556355N00908181EA0000000889
B1154135556403N00907995EA0000000883
B1154185556453N00907888EA0000000912
B1154245556501N00907787EA0000000914
B1154295556541N00907700EA0000000914
B1154345556585N00907608EA0000000905
B1154435556590N00907408EA0000000901
B1154495556547N00907282EA0000000891
B1154545556509N00907170EA0000000881
B1154595556472N00907053EA0000000876
B1155045556435N00906936EA0000000866
B1155095556400N00906812EA0000000867
B1155145556371N00906710EA0000000890
B1155225556333N00906564EA0000000888
B1155285556323N00906439EA0000000881
B1155335556328N00906328EA0000000889
B1155385556353N00906243EA0000000902
B1155435556417N00906218EA0000000901
B1155485556483N00906306EA0000000917
B1155535556473N00906466EA0000000917
B1155585556398N00906543EA0000000916
B1156035556326N00906507EA0000000917
B1156085556304N00906416EA0000000927
B1156135556355N00906372EA0000000925
B1156185556422N00906460EA0000000926
B1156235556428N00906630EA0000000933
B1156285556355N00906708EA0000000930
B1156335556320N00906625EA0000000933
B1156385556379N00906584EA0000000928
B1156435556457N00906652EA0000000937
B1156485556478N00906812EA0000000948
B1156545556395N00906903EA0000000945
B1156595556344N00906832EA0000000940
B1157055556296N00906710EA0000000946
B1157125556242N00906588EA0000000963
B1157175556222N00906490EA0000000975
B1157225556289N00906515EA0000000976
B1157275556265N00906678EA0000000988
B1157325556181N00906716EA0000000999
B1157375556149N00906640EA0000001019
B1157425556198N00906602EA0000001019
B1157475556264N00906702EA0000001017
B1157525556253N00906875EA0000001032
B1157585556156N00906944EA0000001043
B1158035556128N00906851EA0000001064
B1158085556188N00906833EA0000001064
B1158145556233N00907009EA0000001070
B1158195556174N00907149EA0000001078
B1158245556096N00907139EA0000001099
B1158295556103N00907047EA0000001099
B1158345556174N00907097EA0000001093
B1158405556176N00907312EA0000001106
B1158455556105N00907419EA0000001118
B1158505556031N00907394EA0000001120
B1158555556018N00907293EA0000001125
B1159005556071N00907242EA0000001118
B1159055556145N00907311EA0000001130
B1159105556166N00907466EA0000001141
B1159155556110N00907596EA0000001149
B1159205556029N00907617EA0000001158
B1159255555985N00907535EA0000001155
B1159305556004N00907446EA0000001154
B1159355556064N00907430EA0000001163
B1159405556118N00907529EA0000001161
B1159455556115N00907704EA0000001165
B1159505556054N00907826EA0000001178
B1159555555978N00907840EA0000001179
B1200005555939N00907761EA0000001178
B1200065555939N00907623EA0000001165
B1200115555947N00907519EA0000001178
B1200175555953N00907399EA0000001178
B1200225555957N00907300EA0000001171
B1200315555958N00907098EA0000001174
B1200385555948N00906940EA0000001164
B1200455555934N00906771EA0000001154
B1200515555916N00906636EA0000001152
B1200565555909N00906519EA0000001140
B1201015555906N00906396EA0000001134
B1201105555908N00906169EA0000001127
B1201165555906N00906010EA0000001140
B1201215555893N00905899EA0000001181
B1201265555885N00905810EA0000001194
B1201325555877N00905695EA0000001180
B1201385555867N00905573EA0000001164
B1201435555855N00905459EA0000001149
B1201485555838N00905345EA0000001146
B1201565555796N00905167EA0000001139
B1202015555758N00905067EA0000001140
B1202075555712N00904943EA0000001126
B1202135555654N00904842EA0000001142
B1202195555598N00904742EA0000001134
B1202255555554N00904627EA0000001132
B1202305555541N00904518EA0000001125
B1202365555519N00904402EA0000001151
B1202435555484N00904271EA0000001131
B1202495555442N00904140EA0000001120
B1202565555373N00903998EA0000001111
B1203025555321N00903865EA0000001107
B1203115555248N00903654EA0000001100
B1203165555226N00903540EA0000001111
B1203215555210N00903431EA0000001106
B1203265555198N00903318EA0000001102
B1203325555184N00903171EA0000001090
B1203385555169N00903010EA0000001075
B1203435555149N00902870EA0000001065
B1203485555131N00902728EA0000001060
B1203535555092N00902612EA0000001081
B1204015555059N00902428EA0000001067
B1204065555048N00902294EA0000001068
B1204195555044N00901969EA0000001068
B1204245555047N00901857EA0000001061
B1204295555056N00901736EA0000001053
B1204345555062N00901610EA0000001056
B1204395555066N00901496EA0000001071
B1204465555070N00901353EA0000001076
B1204535555066N00901208EA0000001059
B1204595555067N00901076EA0000001047
B1205045555072N00900954EA0000001037
B1205105555086N00900805EA0000001031
B1205205555105N00900555EA0000001016
B1205265555122N00900401EA0000001015
B1205325555129N00900254EA0000001040
B1205395555126N00900106EA0000001041
B1205525555136N00859864EA0000001069
B1205585555153N00859758EA0000001067
B1206035555172N00859666EA0000001053
B1206105555216N00859519EA0000001035
B1206155555254N00859414EA0000001025
B1206205555294N00859309EA0000001014
B1206265555345N00859178EA0000001003
B1206315555389N00859066EA0000001011
B1206365555426N00858962EA0000001028
B1206465555491N00858794EA0000001025
B1206525555535N00858701EA0000001034
B1206595555589N00858593EA0000001018
B1207055555637N00858490EA0000001010
B1207135555683N00858327EA0000000993
B1207185555708N00858214EA0000000991
B1207245555736N00858082EA0000000983
B1207325555762N00857889EA0000000973
B1207375555782N00857773EA0000000978
B1207425555813N00857688EA0000000979
B1207505555884N00857553EA0000000952
B1207555555927N00857459EA0000000943
B1208035555989N00857296EA0000000932
B1208085556027N00857191EA0000000926
B1208135556065N00857088EA0000000922
B1208195556111N00856964EA0000000907
B1208265556159N00856792EA0000000885
B1208315556202N00856678EA0000000886
B1208365556261N00856596EA0000000877
B1208425556336N00856500EA0000000868
B1208485556425N00856433EA0000000857
B1208555556537N00856375EA0000000848
B1209005556619N00856344EA0000000845
B1209065556717N00856313EA0000000844
B1209125556814N00856283EA0000000840
B1209195556927N00856251EA0000000838
B1209245557003N00856231EA0000000837
B1209325557124N00856195EA0000000829
B1209405557246N00856158EA0000000813
B1209475557357N00856116EA0000000803
B1209525557434N00856096EA0000000805
B1209575557507N00856083EA0000000809
B1210035557592N00856105EA0000000816
B1210085557663N00856142EA0000000809
B1210145557755N00856205EA0000000810
B1210195557831N00856262EA0000000824
B1210245557892N00856243EA0000000846
B1210305557852N00856152EA0000000849
B1210355557777N00856239EA0000000846
B1210415557795N00856437EA0000000859
B1210465557850N00856540EA0000000864
B1210515557895N00856505EA0000000867
B1210565557855N00856429EA0000000870
B1211025557763N00856491EA0000000881
B1211075557746N00856656EA0000000887
B1211125557804N00856743EA0000000890
B1211185557836N00856661EA0000000895
B1211235557781N00856589EA0000000895
B1211285557700N00856609EA0000000898
B1211335557663N00856761EA0000000892
B1211385557714N00856892EA0000000903
B1211435557782N00856939EA0000000907
B1211505557804N00856822EA0000000908
B1211555557728N00856800EA0000000914
B1212005557657N00856909EA0000000907
B1212065557673N00857108EA0000000909
B1212125557742N00857229EA0000000925
B1212175557801N00857254EA0000000935
B1212225557849N00857203EA0000000932
B1212275557835N00857107EA0000000928
B1212325557756N00857102EA0000000931
B1212385557679N00857245EA0000000928
B1212435557673N00857429EA0000000927
B1212485557717N00857574EA0000000931
B1212535557793N00857594EA0000000931
B1212585557797N00857499EA0000000957
B1213035557730N00857468EA0000000953
B1213085557658N00857567EA0000000953
B1213135557641N00857739EA0000000951
B1213185557684N00857876EA0000000957
B1213235557754N00857888EA0000000950
B1213285557781N00857790EA0000000964
B1213335557731N00857719EA0000000978
B1213385557644N00857736EA0000000977
B1213435557577N00857838EA0000000990
B1213485557559N00857998EA0000000985
B1213565557617N00858205EA0000000998
B1214025557683N00858299EA0000000987
B1214085557761N00858330EA0000000982
B1214145557809N00858259EA0000000983
B1214205557846N00858179EA0000000990
B1214255557882N00858110EA0000000979
B1214305557932N00858029EA0000000972
B1214365557994N00857970EA0000000982
B1214415558050N00857921EA0000000970
B1214465558114N00857869EA0000000958
B1214515558178N00857815EA0000000952
B1214565558240N00857758EA0000000937
B1215025558321N00857688EA0000000918
B1215075558389N00857630EA0000000910
B1215125558459N00857572EA0000000902
B1215185558543N00857515EA0000000910
B1215255558641N00857449EA0000000906
B1215305558709N00857417EA0000000934
B1215355558751N00857374EA0000000945
B1215405558724N00857299EA0000000943
B1215455558647N00857347EA0000000950
B1215505558621N00857512EA0000000956
B1215555558669N00857639EA0000000957
B1216005558728N00857617EA0000000964
B1216055558726N00857526EA0000000974
B1216105558664N00857477EA0000000980
B1216155558588N00857562EA0000000994
B1216205558567N00857733EA0000000994
B1216255558613N00857870EA0000001002
B1216305558679N00857878EA0000001005
B1216355558706N00857801EA0000001014
B1216405558687N00857704EA0000001022
B1216455558616N00857708EA0000001035
B1216515558585N00857893EA0000001043
B1216565558637N00858000EA0000001049
B1217015558705N00858013EA0000001056
B1217065558744N00857935EA0000001061
B1217115558737N00857825EA0000001067
B1217165558676N00857771EA0000001076
B1217215558594N00857842EA0000001079
B1217265558546N00857998EA0000001089
B1217315558569N00858157EA0000001098
B1217365558636N00858245EA0000001109
B1217425558718N00858239EA0000001124
B1217475558747N00858163EA0000001138
B1217535558731N00858048EA0000001142
B1217585558707N00857940EA0000001136
B1218045558672N00857818EA0000001156
B1218095558644N00857726EA0000001175
B1218145558617N00857645EA0000001196
B1218195558591N00857555EA0000001192
B1218265558552N00857412EA0000001176
B1218315558517N00857306EA0000001169
B1218365558502N00857191EA0000001164
B1218425558524N00857056EA0000001145
B1218505558566N00856876EA0000001127
B1218555558576N00856753EA0000001112
B1219005558556N00856621EA0000001101
B1219095558505N00856385EA0000001092
B1219185558463N00856143EA0000001087
B1219245558441N00855983EA0000001087
B1219305558418N00855829EA0000001090
B1219365558401N00855684EA0000001093
B1219415558390N00855572EA0000001086
B1219525558392N00855324EA0000001077
B1219585558411N00855186EA0000001072
B1220045558436N00855061EA0000001084
B1220105558456N00854953EA0000001077
B1220165558472N00854839EA0000001065
B1220245558499N00854689EA0000001070
B1220305558530N00854583EA0000001052
B1220355558557N00854483EA0000001037
B1220405558592N00854382EA0000001029
B1220465558669N00854319EA0000001041
B1220525558758N00854299EA0000001030
B1221005558890N00854297EA0000001024
B1221065558990N00854312EA0000001025
B1221115559073N00854339EA0000001025
B1221165559153N00854369EA0000001022
B1221245559281N00854417EA0000000998
B1221305559380N00854444EA0000000986
B1221355559457N00854458EA0000000988
B1221455559607N00854487EA0000000958
B1221505559682N00854486EA0000000951
B1221565559771N00854512EA0000000957
B1222015559841N00854525EA0000000942
B1222065559914N00854527EA0000000931
B1222125559999N00854491EA0000000913
B1222175600069N00854448EA0000000904
B1222265600199N00854388EA0000000888
B1222315600276N00854351EA0000000882
B1222365600355N00854301EA0000000887
B1222415600420N00854261EA0000000917
B1222465600441N00854178EA0000000923
B1222515600380N00854149EA0000000930
B1222565600322N00854263EA0000000934
B1223015600335N00854422EA0000000946
B1223065600398N00854453EA0000000956
B1223115600415N00854370EA0000000958
B1223165600358N00854315EA0000000956
B1223215600287N00854400EA0000000963
B1223265600273N00854564EA0000000983
B1223315600318N00854697EA0000000991
B1223365600380N00854689EA0000000997
B1223415600378N00854601EA0000000999
B1223465600314N00854555EA0000000998
B1223515600231N00854616EA0000001002
B1223565600191N00854776EA0000001021
B1224015600228N00854927EA0000001043
B1224065600303N00855003EA0000001045
B1224115600356N00854945EA0000001048
B1224165600334N00854853EA0000001055
B1224225600245N00854856EA0000001060
B1224275600187N00854989EA0000001073
B1224325600190N00855159EA0000001090
B1224375600250N00855259EA0000001106
B1224425600312N00855256EA0000001112
B1224495600361N00855149EA0000001099
B1224545600387N00855033EA0000001085
B1225005600409N00854876EA0000001087
B1225085600439N00854683EA0000001087
B1225145600464N00854542EA0000001088
B1225205600493N00854401EA0000001080
B1225265600523N00854267EA0000001078
B1225315600562N00854156EA0000001068
B1225365600600N00854042EA0000001074
B1225445600628N00853862EA0000001086
B1225495600633N00853748EA0000001091
B1225555600648N00853616EA0000001090
B1226005600668N00853505EA0000001081
B1226055600686N00853382EA0000001076
B1226115600698N00853231EA0000001078
B1226175600689N00853082EA0000001095
B1226245600674N00852908EA0000001071
B1226315600665N00852715EA0000001056
B1226365600645N00852577EA0000001053
B1226415600626N00852434EA0000001044
B1226465600608N00852293EA0000001043
B1226535600597N00852102EA0000001032
B1226585600589N00851962EA0000001036
B1227065600576N00851789EA0000001066
B1227125600580N00851660EA0000001068
B1227195600592N00851491EA0000001054
B1227265600601N00851301EA0000001060
B1227315600620N00851173EA0000001064
B1227375600649N00851032EA0000001064
B1227425600679N00850917EA0000001086
B1227505600738N00850757EA0000001092
B1227555600779N00850648EA0000001090
B1228015600835N00850494EA0000001071
B1228065600883N00850363EA0000001074
B1228115600926N00850235EA0000001080
B1228185600982N00850056EA0000001071
B1228255601021N00849857EA0000001057
B1228305601039N00849705EA0000001062
B1228355601056N00849553EA0000001068
B1228405601072N00849413EA0000001090
B1228475601090N00849223EA0000001085
B1228545601104N00849001EA0000001080
B1229015601121N00848776EA0000001090
B1229075601126N00848578EA0000001099
B1229135601135N00848374EA0000001091
B1229185601161N00848209EA0000001089
B1229235601188N00848046EA0000001081
B1229295601227N00847848EA0000001070
B1229395601289N00847506EA0000001075
B1229485601288N00847167EA0000001059
B1229575601267N00846811EA0000001051
B1230045601263N00846535EA0000001036
B1230095601282N00846343EA0000001029
B1230155601317N00846119EA0000001027
B1230215601352N00845902EA0000001015
B1230265601373N00845719EA0000001004
B1230315601394N00845535EA0000001006
B1230365601400N00845359EA0000001009
B1230425601398N00845161EA0000001017
B1230495601386N00844938EA0000001018
B1230575601367N00844698EA0000001013
B1231025601350N00844537EA0000001004
B1231085601321N00844347EA0000000998
B1231165601297N00844088EA0000000988
B1231215601287N00843927EA0000001003
B1231275601275N00843761EA0000000988
B1231325601270N00843605EA0000000969
B1231385601263N00843407EA0000000952
B1231455601253N00843182EA0000000951
B1231505601246N00843022EA0000000936
B1231565601248N00842822EA0000000920
B1232025601253N00842609EA0000000900
B1232075601256N00842431EA0000000895
B1232125601259N00842252EA0000000882
B1232175601258N00842064EA0000000863
B1232225601281N00841882EA0000000867
B1232275601362N00841787EA0000000886
B1232325601464N00841802EA0000000899
B1232385601576N00841932EA0000000901
B1232445601659N00842127EA0000000903
B1232495601718N00842305EA0000000904
B1232555601771N00842531EA0000000908
B1233005601791N00842722EA0000000919
B1233065601778N00842952EA0000000932
B1233145601756N00843224EA0000000947
B1233205601734N00843427EA0000000948
B1233265601700N00843630EA0000000950
B1233315601668N00843798EA0000000962
B1233365601645N00843961EA0000000967
B1233445601623N00844237EA0000000967
B1233495601608N00844405EA0000000987
B1233545601596N00844565EA0000000996
B1234015601584N00844794EA0000001002
B1234095601572N00845061EA0000001012
B1234145601568N00845231EA0000001011
B1234255601568N00845606EA0000001014
B1234305601576N00845775EA0000001004
B1234365601594N00845992EA0000000985
B1234415601613N00846191EA0000000970
B1234485601643N00846479EA0000000962
B1234585601692N00846867EA0000000965
B1235035601701N00847055EA0000000970
B1235085601698N00847243EA0000000972
B1235145601698N00847450EA0000000987
B1235195601694N00847619EA0000000975
B1235245601681N00847797EA0000000966
B1235295601660N00847977EA0000000959
B1235345601631N00848157EA0000000945
B1235405601576N00848362EA0000000938
B1235465601516N00848568EA0000000939
B1235525601466N00848758EA0000000959
B1235585601417N00848946EA0000000949
B1236035601374N00849120EA0000000945
B1236095601324N00849331EA0000000946
B1236175601251N00849623EA0000000930
B1236225601210N00849804EA0000000947
B1236275601173N00849968EA0000000956
B1236335601124N00850162EA0000000974
B1236395601077N00850359EA0000000998
B1236525600972N00850796EA0000001023
B1236595600927N00851043EA0000001030
B1237055600887N00851249EA0000001049
B1237105600849N00851415EA0000001048
B1237165600802N00851623EA0000001040
B1237215600767N00851796EA0000001043
B1237265600727N00851963EA0000001045
B1237315600686N00852129EA0000001043
B1237385600621N00852369EA0000001018
B1237435600578N00852555EA0000001017
B1237495600528N00852770EA0000001013
B1237545600495N00852952EA0000001004
B1238005600454N00853177EA0000000992
B1238055600418N00853363EA0000000989
B1238115600385N00853581EA0000000980
B1238195600378N00853897EA0000000948
B1238255600389N00854146EA0000000927
B1238305600400N00854372EA0000000903
B1238355600413N00854607EA0000000886
B1238435600438N00854984EA0000000861
B1238495600456N00855267EA0000000846
B1238555600474N00855549EA0000000830
B1239025600507N00855885EA0000000808
B1239085600538N00856169EA0000000807
B1239145600561N00856453EA0000000794
B1239225600578N00856841EA0000000778
B1239295600578N00857182EA0000000766
B1239345600566N00857427EA0000000750
B1239395600553N00857682EA0000000731
B1239465600536N00858042EA0000000713
B1239515600525N00858302EA0000000691
B1239585600509N00858668EA0000000683
B1240095600506N00859244EA0000000659
B1240225600519N00859924EA0000000633
B1240315600543N00900406EA0000000606
B1240385600565N00900780EA0000000594
B1240455600587N00901154EA0000000578
B1240505600571N00901418EA0000000575
B1240555600515N00901662EA0000000567
B1241005600427N00901866EA0000000559
B1241055600310N00901998EA0000000553
B1241105600186N00902020EA0000000546
B1241155600084N00901931EA0000000526
B1241205600034N00901763EA0000000504
B1241255600013N00901575EA0000000492
B1241305600003N00901383EA0000000479
B1241365600034N00901158EA0000000467
B1241425600090N00900951EA0000000457
B1241475600124N00900774EA0000000458
B1241525600113N00900604EA0000000468
B1241575600031N00900505EA0000000467
B1242025559918N00900568EA0000000453
B1242075559876N00900786EA0000000446
B1242125559941N00900962EA0000000435
B1242175600041N00900973EA0000000415
B1242225600096N00900837EA0000000394
B1242275600044N00900681EA0000000382
B1242325559924N00900696EA0000000388
B1242375559860N00900891EA0000000382
B1242425559893N00901106EA0000000371
B1242475559986N00901199EA0000000359
B1242525600077N00901143EA0000000344
B1242575600119N00900995EA0000000321
B1243035600094N00900780EA0000000311
B1243095600063N00900577EA0000000325
B1243155600039N00900411EA0000000335
B1243205600017N00900282EA0000000322
B1243265559991N00900129EA0000000315
B1243315559983N00900006EA0000000314
B1243365600003N00859897EA0000000308
B1243415600059N00859825EA0000000308
B1243465600130N00859871EA0000000312
B1243525600168N00900070EA0000000296
B1243575600172N00900255EA0000000295
B1244045600166N00900513EA0000000281
B1244125600167N00900813EA0000000279
B1244175600165N00900990EA0000000277
B1244245600162N00901239EA0000000269
B1244305600169N00901457EA0000000258
B1244365600183N00901678EA0000000253
B1244425600196N00901901EA0000000241
B1244475600207N00902090EA0000000241
B1244525600243N00902264EA0000000231
B1244575600309N00902400EA0000000214
B1245035600409N00902529EA0000000191
B1245105600537N00902619EA0000000179
B1245165600644N00902615EA0000000177
B1245235600756N00902571EA0000000171
B1245285600832N00902524EA0000000159
B1245335600864N00902407EA0000000149
B1245415600830N00902196EA0000000132
B1245515600780N00901942EA0000000120
B1245575600756N00901794EA0000000101
B1246025600739N00901670EA0000000083
B1246075600722N00901542EA0000000065
B1246145600691N00901367EA0000000038
B1246215600664N00901212EA0000000031
B1246285600638N00901108EA0000000033
