AOGNOGN
HFDTE100825
HFFXA050
HFPLTPILOTINCHARGE:
HFGTYGLIDERTYPE:PA-25 Pawnee
HFGIDGLIDERID:LN-EIC
HFDTM100GPSDATUM:WGS-1984
HFRFWFIRMWAREVERSION:
HFRHWHARDWAREVERSION:
HFFTYFRTYPE:OGN-FLIGHTBOOK
HFGPSGENERIC
HFPRSPRESSALTSENSOR:
HFCIDCOMPETITIONID:IC
B0915565600684N00901262EA0000000049
B0915565600684N00901262EA0000000049
B0916035600674N00901101EA0000000050
B0916095600664N00900926EA0000000065
B0916145600656N00900790EA0000000096
B0916205600645N00900643EA0000000121
B0916275600634N00900476EA0000000141
B0916335600636N00900325EA0000000152
B0916405600677N00900169EA0000000182
B0916475600751N00900055EA0000000201
B0916525600819N00859998EA0000000213
B0916585600909N00859972EA0000000235
B0917055601021N00900004EA0000000260
B0917115601118N00900002EA0000000295
B0917165601190N00859963EA0000000314
B0917225601263N00859885EA0000000344
B0917275601306N00859799EA0000000362
B0917325601331N00859692EA0000000374
B0917375601351N00859575EA0000000388
B0917475601407N00859350EA0000000424
B0917525601433N00859241EA0000000442
B0918005601484N00859077EA0000000460
B0918065601520N00858950EA0000000470
B0918115601550N00858837EA0000000486
B0918185601604N00858688EA0000000508
B0918235601648N00858583EA0000000531
B0918285601695N00858478EA0000000553
B0918335601756N00858396EA0000000568
B0918385601859N00858479EA0000000526
B0918435601920N00858712EA0000000470
B0918485601927N00859004EA0000000418
B0918545601885N00859356EA0000000373
B0918595601827N00859635EA0000000326
B0919045601753N00859906EA0000000281
B0919095601669N00900164EA0000000246
B0919145601579N00900399EA0000000236
B0919205601470N00900654EA0000000216
B0919275601332N00900916EA0000000187
B0919355601195N00901211EA0000000175
B0919425601119N00901477EA0000000174
B0919485601066N00901692EA0000000153
B0919535601007N00901864EA0000000132
B0919585600907N00901962EA0000000108
B0920035600810N00901912EA0000000091
B0920105600752N00901711EA0000000064
B0920165600737N00901530EA0000000039
B0920225600725N00901386EA0000000037
