AOGNOGN
HFDTE100825
HFFXA050
HFPLTPILOTINCHARGE:
HFGTYGLIDERTYPE:PA-25 Pawnee
HFGIDGLIDERID:LN-EIC
HFDTM100GPSDATUM:WGS-1984
HFRFWFIRMWAREVERSION:
HFRHWHARDWAREVERSION:
HFFTYFRTYPE:OGN-FLIGHTBOOK
HFGPSGENERIC
HFPRSPRESSALTSENSOR:
HFCIDCOMPETITIONID:IC
B0951315600698N00901349EA0000000039
B0951345600694N00901293EA0000000038
B0951425600679N00901098EA0000000038
B0951505600662N00900851EA0000000049
B0951575600641N00900630EA0000000070
B0952025600625N00900477EA0000000092
B0952075600614N00900323EA0000000106
B0952145600655N00900119EA0000000131
B0952195600720N00900014EA0000000156
B0952245600799N00859948EA0000000172
B0952315600922N00859912EA0000000192
B0952385601051N00859912EA0000000210
B0952435601139N00859895EA0000000234
B0952515601244N00859779EA0000000265
B0952595601280N00859582EA0000000287
B0953055601277N00859421EA0000000307
B0953105601270N00859285EA0000000310
B0953165601267N00859118EA0000000325
B0953235601264N00858924EA0000000344
B0953365601266N00858562EA0000000387
B0953425601272N00858400EA0000000408
B0953485601282N00858238EA0000000427
B0953545601293N00858069EA0000000448
B0954015601307N00857876EA0000000486
B0954065601319N00857741EA0000000504
B0954145601406N00857580EA0000000533
B0954195601496N00857556EA0000000549
B0954245601596N00857621EA0000000557
B0954305601712N00857738EA0000000556
B0954355601748N00857962EA0000000500
B0954415601714N00858280EA0000000456
B0954475601672N00858607EA0000000407
B0954545601613N00858998EA0000000361
B0954595601576N00859283EA0000000326
B0955075601527N00859741EA0000000286
B0955125601501N00900025EA0000000264
B0955195601447N00900397EA0000000232
B0955245601393N00900643EA0000000222
B0955305601308N00900893EA0000000212
B0955355601233N00901079EA0000000204
B0955415601155N00901297EA0000000188
B0955505601033N00901609EA0000000151
B0955555600945N00901754EA0000000117
B0956005600836N00901806EA0000000084
B0956065600751N00901669EA0000000060
B0956115600730N00901518EA0000000039
B0956165600715N00901389EA0000000035
B0956235600700N00901284EA0000000035
