AOGNOGN
HFDTE100825
HFFXA050
HFPLTPILOTINCHARGE:
HFGTYGLIDERTYPE:PA-25 Pawnee
HFGIDGLIDERID:LN-EIC
HFDTM100GPSDATUM:WGS-1984
HFRFWFIRMWAREVERSION:
HFRHWHARDWAREVERSION:
HFFTYFRTYPE:OGN-FLIGHTBOOK
HFGPSGENERIC
HFPRSPRESSALTSENSOR:
HFCIDCOMPETITIONID:IC
B0946345600703N00901307EA0000000038
B0946345600703N00901307EA0000000038
B0946425600686N00901102EA0000000041
B0946475600673N00900950EA0000000057
B0946525600661N00900799EA0000000080
B0946575600648N00900656EA0000000108
B0947035600626N00900496EA0000000140
B0947085600622N00900362EA0000000161
B0947165600676N00900177EA0000000185
B0947215600741N00900091EA0000000208
B0947265600818N00900028EA0000000231
B0947315600905N00900000EA0000000265
B0947365600992N00900004EA0000000290
B0947435601109N00900021EA0000000320
B0947485601188N00859999EA0000000339
B0947545601252N00859891EA0000000359
B0948025601265N00859668EA0000000394
B0948075601251N00859521EA0000000420
B0948125601235N00859369EA0000000445
B0948175601213N00859220EA0000000473
B0948225601174N00859076EA0000000508
B0948275601144N00858931EA0000000540
B0948345601180N00858739EA0000000539
B0948395601298N00858739EA0000000461
B0948445601417N00858936EA0000000409
B0948505601479N00859258EA0000000355
B0948565601493N00859600EA0000000306
B0949035601473N00900001EA0000000242
B0949105601418N00900384EA0000000208
B0949155601359N00900628EA0000000189
B0949205601290N00900851EA0000000183
B0949265601209N00901098EA0000000180
B0949315601151N00901290EA0000000179
B0949395601081N00901587EA0000000158
B0949445601028N00901770EA0000000140
B0949495600946N00901915EA0000000122
B0949545600843N00901958EA0000000098
B0949595600770N00901859EA0000000080
B0950115600732N00901510EA0000000038
B0950175600722N00901377EA0000000036
