AOGNOGN
HFDTE100825
HFFXA050
HFPLTPILOTINCHARGE:
HFGTYGLIDERTYPE:LS-1 f
HFGIDGLIDERID:OY-OXK
HFDTM100GPSDATUM:WGS-1984
HFRFWFIRMWAREVERSION:
HFRHWHARDWAREVERSION:
HFFTYFRTYPE:OGN-FLIGHTBOOK
HFGPSGENERIC
HFPRSPRESSALTSENSOR:
HFCIDCOMPETITIONID:OK
B0924295601866N00859208EA0000000427
B0924355601920N00859095EA0000000441
B0924385601946N00859039EA0000000446
B0924435601988N00858940EA0000000452
B0924515602058N00858780EA0000000466
B0924575602110N00858661EA0000000482
B0925055602179N00858495EA0000000497
B0925145602265N00858316EA0000000514
B0925215602330N00858176EA0000000530
B0925265602376N00858075EA0000000545
B0925315602422N00857976EA0000000566
B0925375602433N00857847EA0000000580
B0925435602334N00857901EA0000000582
B0925495602334N00858084EA0000000592
B0925545602393N00858108EA0000000593
B0925595602436N00858050EA0000000592
B0926055602451N00857933EA0000000603
B0926105602423N00857842EA0000000609
B0926155602348N00857860EA0000000608
B0926215602314N00858039EA0000000598
B0926265602362N00858137EA0000000607
B0926325602426N00858140EA0000000618
B0926375602445N00858069EA0000000630
B0926435602386N00858008EA0000000635
B0926485602328N00858108EA0000000629
B0926535602343N00858256EA0000000628
B0926595602407N00858336EA0000000642
B0927045602447N00858295EA0000000647
B0927105602420N00858198EA0000000653
B0927155602343N00858246EA0000000657
B0927205602334N00858400EA0000000657
B0927255602394N00858457EA0000000665
B0927305602424N00858391EA0000000674
B0927375602355N00858315EA0000000688
B0927425602288N00858402EA0000000686
B0927475602287N00858554EA0000000682
B0927535602361N00858621EA0000000687
B0927585602417N00858595EA0000000697
B0928035602421N00858510EA0000000701
B0928105602326N00858487EA0000000703
B0928155602269N00858603EA0000000701
B0928205602284N00858749EA0000000701
B0928255602342N00858827EA0000000710
B0928315602400N00858803EA0000000713
B0928385602341N00858715EA0000000710
B0928435602257N00858755EA0000000716
B0928485602176N00858829EA0000000717
B0928535602117N00858959EA0000000719
B0929005602098N00859191EA0000000718
B0929065602148N00859297EA0000000726
B0929115602175N00859223EA0000000726
B0929195602123N00859070EA0000000729
B0929245602080N00858982EA0000000727
B0929295602009N00858937EA0000000731
B0929345601927N00858993EA0000000732
B0929395601882N00859134EA0000000731
B0929445601897N00859283EA0000000717
B0929505601956N00859425EA0000000708
B0929555602015N00859488EA0000000711
B0930015602075N00859441EA0000000711
B0930075602102N00859335EA0000000718
B0930125602111N00859241EA0000000729
B0930175602072N00859169EA0000000725
B0930225601995N00859246EA0000000727
B0930305601891N00859419EA0000000714
B0930355601826N00859352EA0000000713
B0930405601787N00859252EA0000000707
B0930475601784N00859101EA0000000701
B0930575601788N00858893EA0000000710
B0931035601841N00858856EA0000000700
B0931095601869N00859039EA0000000699
B0931145601823N00859183EA0000000712
B0931205601739N00859149EA0000000700
B0931255601771N00859073EA0000000709
B0931315601821N00859208EA0000000701
B0931375601744N00859338EA0000000710
B0931425601698N00859265EA0000000707
B0931475601747N00859197EA0000000702
B0931525601812N00859193EA0000000713
B0931575601855N00859318EA0000000723
B0932025601804N00859447EA0000000727
B0932075601739N00859398EA0000000726
B0932125601752N00859290EA0000000736
B0932175601807N00859268EA0000000746
B0932225601833N00859414EA0000000744
B0932275601756N00859480EA0000000750
B0932325601752N00859387EA0000000757
B0932385601817N00859481EA0000000764
B0932435601771N00859616EA0000000773
B0932485601711N00859568EA0000000777
B0932535601741N00859492EA0000000785
B0932595601799N00859612EA0000000789
B0933045601742N00859727EA0000000800
B0933095601699N00859653EA0000000802
B0933145601755N00859632EA0000000803
B0933215601751N00859834EA0000000818
B0933265601676N00859826EA0000000822
B0933315601686N00859735EA0000000826
B0933365601747N00859787EA0000000827
B0933435601709N00859983EA0000000842
B0933485601644N00859937EA0000000842
B0933535601678N00859867EA0000000847
B0933585601738N00859949EA0000000855
B0934035601721N00900101EA0000000862
B0934085601642N00900132EA0000000865
B0934135601612N00900033EA0000000864
B0934195601676N00859975EA0000000870
B0934245601739N00900056EA0000000883
B0934305601710N00900241EA0000000879
B0934355601624N00900264EA0000000887
B0934405601589N00900167EA0000000897
B0934475601658N00900119EA0000000906
B0934525601688N00900256EA0000000914
B0934575601629N00900360EA0000000919
B0935025601571N00900297EA0000000918
B0935085601615N00900208EA0000000928
B0935135601669N00900317EA0000000927
B0935185601633N00900463EA0000000939
B0935275601564N00900369EA0000000949
B0935345601646N00900441EA0000000949
B0935395601629N00900602EA0000000958
B0935445601554N00900638EA0000000967
B0935525601579N00900540EA0000000971
B0935575601627N00900665EA0000000967
B0936025601582N00900799EA0000000977
B0936075601515N00900775EA0000000974
B0936125601534N00900687EA0000000979
B0936185601608N00900782EA0000000982
B0936235601604N00900946EA0000000990
B0936285601543N00901060EA0000000991
B0936335601464N00901102EA0000000991
B0936395601369N00901074EA0000000983
B0936445601280N00901031EA0000000963
B0936515601143N00900953EA0000000955
B0937055600870N00900803EA0000000928
B0937125600741N00900733EA0000000915
B0937195600612N00900660EA0000000905
B0937245600522N00900606EA0000000900
B0937315600399N00900529EA0000000895
B0937385600280N00900453EA0000000893
B0937445600181N00900384EA0000000882
B0937555600002N00900253EA0000000874
B0938025559888N00900172EA0000000862
B0938105559753N00900082EA0000000854
B0938165559659N00859995EA0000000844
B0938225559571N00859889EA0000000831
B0938285559497N00859755EA0000000832
B0938345559434N00859615EA0000000836
B0938395559383N00859498EA0000000842
B0938485559285N00859298EA0000000846
B0938565559167N00859158EA0000000841
B0939015559078N00859170EA0000000864
B0939075559034N00859348EA0000000856
B0939135559055N00859565EA0000000845
B0939195559111N00859733EA0000000870
B0939285559155N00859644EA0000000893
B0939345559068N00859694EA0000000906
B0939395559068N00859851EA0000000910
B0939485559158N00859843EA0000000931
B0939545559104N00859765EA0000000936
B0939595559032N00859847EA0000000951
B0940045559025N00900004EA0000000960
B0940105559090N00900095EA0000000967
B0940155559126N00900042EA0000000973
B0940205559079N00859980EA0000000969
B0940255559001N00900057EA0000000983
B0940305558987N00900208EA0000000990
B0940355559044N00900277EA0000000990
B0940425559058N00900182EA0000001001
B0940475558983N00900175EA0000001004
B0940525558932N00900307EA0000001013
B0940595558982N00900463EA0000001018
B0941045559031N00900427EA0000001028
B0941105559002N00900330EA0000001031
B0941155558922N00900371EA0000001032
B0941205558894N00900527EA0000001042
B0941265558951N00900646EA0000001047
B0941335558996N00900573EA0000001057
B0941395558919N00900529EA0000001059
B0941445558856N00900644EA0000001073
B0941505558864N00900826EA0000001074
B0941555558924N00900900EA0000001080
B0942005558968N00900840EA0000001082
B0942055558943N00900726EA0000001074
B0942105558936N00900602EA0000001072
B0942155559001N00900560EA0000001068
B0942205559065N00900693EA0000001055
B0942255559064N00900900EA0000001053
B0942365559058N00901346EA0000001066
B0942415559023N00901542EA0000001073
B0942465558985N00901731EA0000001080
B0942525558943N00901957EA0000001089
B0942575558890N00902123EA0000001100
B0943035558798N00902213EA0000001109
B0943085558741N00902145EA0000001102
B0943135558754N00902014EA0000001095
B0943195558801N00901845EA0000001085
B0943265558845N00901624EA0000001080
B0943315558877N00901449EA0000001078
B0943385558900N00901197EA0000001083
B0943445558902N00900982EA0000001072
B0943525558866N00900702EA0000001066
B0943595558815N00900482EA0000001070
B0944045558776N00900339EA0000001085
B0944095558767N00900209EA0000001094
B0944145558777N00900075EA0000001082
B0944245558797N00859799EA0000001073
B0944305558802N00859635EA0000001068
B0944365558805N00859469EA0000001051
B0944425558808N00859291EA0000001039
B0944525558807N00858991EA0000001026
B0944595558812N00858781EA0000001024
B0945085558830N00858522EA0000001018
B0945135558839N00858378EA0000001012
B0945185558849N00858236EA0000001011
B0945245558860N00858069EA0000001018
B0945305558866N00857903EA0000001014
B0945385558865N00857677EA0000001036
B0945445558869N00857523EA0000001046
B0945495558868N00857391EA0000001047
B0945555558864N00857233EA0000001050
B0946005558861N00857097EA0000001052
B0946105558861N00856832EA0000001054
B0946155558893N00856708EA0000001054
B0946215558945N00856562EA0000001050
B0946275559000N00856419EA0000001046
B0946345559068N00856251EA0000001033
B0946445559169N00856014EA0000001023
B0946525559244N00855824EA0000001017
B0946585559298N00855680EA0000001028
B0947055559357N00855518EA0000001033
B0947135559423N00855332EA0000001036
B0947195559466N00855183EA0000001042
B0947265559517N00854997EA0000001023
B0947355559591N00854751EA0000001025
B0947435559649N00854533EA0000001038
B0947495559680N00854378EA0000001036
B0947545559718N00854256EA0000001034
B0948015559772N00854092EA0000001056
B0948065559782N00853964EA0000001056
B0948115559795N00853821EA0000001047
B0948205559877N00853969EA0000001031
B0948265559831N00854241EA0000001028
B0948335559772N00854556EA0000001029
B0948395559718N00854823EA0000001016
B0948455559656N00855094EA0000001003
B0948505559597N00855314EA0000000997
B0948565559523N00855569EA0000001005
B0949015559462N00855768EA0000000999
B0949065559404N00855968EA0000000993
B0949135559327N00856267EA0000000975
B0949195559241N00856505EA0000001001
B0949265559134N00856750EA0000001001
B0949315559060N00856939EA0000001001
B0949375558977N00857169EA0000000999
B0949445558888N00857434EA0000001009
B0949495558830N00857626EA0000000995
B0949555558757N00857873EA0000000992
B0950015558690N00858117EA0000001016
B0950075558642N00858355EA0000001029
B0950145558564N00858606EA0000001034
B0950205558487N00858801EA0000001044
B0950265558425N00859012EA0000001048
B0950315558395N00859200EA0000001045
B0950365558385N00859398EA0000001040
B0950435558368N00859686EA0000001034
B0950525558338N00900055EA0000001049
B0950585558315N00900294EA0000001047
B0951085558275N00900703EA0000001051
B0951185558248N00901131EA0000001043
B0951265558236N00901477EA0000001039
B0951315558218N00901689EA0000001039
B0951375558193N00901942EA0000001025
B0951465558148N00902346EA0000000998
B0951535558113N00902663EA0000000991
B0952035558061N00903098EA0000000987
B0952085558033N00903308EA0000000979
B0952145558004N00903562EA0000000973
B0952195557983N00903773EA0000000976
B0952255557971N00904017EA0000000994
B0952325557966N00904294EA0000000983
B0952395557950N00904582EA0000000984
B0952455557934N00904831EA0000000987
B0952505557918N00905032EA0000001003
B0952555557898N00905221EA0000001016
B0953025557864N00905485EA0000001027
B0953085557837N00905708EA0000001032
B0953155557834N00905959EA0000001048
B0953205557896N00906040EA0000001054
B0953265557951N00905976EA0000001050
B0953315557950N00905869EA0000001041
B0953385557944N00905711EA0000001040
B0953455557952N00905551EA0000001038
B0953515557963N00905408EA0000001019
B0953595557967N00905178EA0000001025
B0954055557880N00905171EA0000001049
B0954115557819N00905353EA0000001034
B0954165557784N00905540EA0000001032
B0954215557749N00905717EA0000001044
B0954305557679N00906007EA0000001063
B0954365557734N00906144EA0000001060
B0954415557781N00906092EA0000001075
B0954515557673N00906066EA0000001086
B0954565557632N00906209EA0000001097
B0955025557685N00906349EA0000001091
B0955075557749N00906318EA0000001087
B0955135557779N00906193EA0000001081
B0955195557789N00906044EA0000001081
B0955265557719N00905941EA0000001097
B0955315557638N00906010EA0000001097
B0955385557618N00906254EA0000001099
B0955445557686N00906425EA0000001094
B0955515557776N00906654EA0000001077
B0955575557767N00906901EA0000001085
B0956025557692N00907046EA0000001087
B0956075557600N00907062EA0000001088
B0956145557515N00906919EA0000001073
B0956195557491N00906777EA0000001082
B0956265557559N00906645EA0000001091
B0956325557662N00906806EA0000001068
B0956395557763N00907050EA0000001085
B0956445557837N00907154EA0000001094
B0956495557885N00907088EA0000001089
B0956545557853N00906972EA0000001075
B0957005557789N00906835EA0000001056
B0957065557721N00906690EA0000001049
B0957145557659N00906479EA0000001054
B0957195557646N00906342EA0000001055
B0957275557654N00906125EA0000001033
B0957335557671N00905947EA0000001019
B0957405557688N00905742EA0000001018
B0957475557703N00905546EA0000001014
B0957565557728N00905303EA0000001010
B0958015557742N00905172EA0000001005
B0958075557765N00905015EA0000001001
B0958145557794N00904835EA0000000996
B0958195557818N00904711EA0000000987
B0958255557841N00904560EA0000000976
B0958315557849N00904403EA0000000959
B0958395557833N00904190EA0000000951
B0958485557804N00903964EA0000000945
B0958555557799N00903793EA0000000943
B0959025557779N00903611EA0000000926
B0959095557742N00903421EA0000000949
B0959195557742N00903182EA0000000955
B0959265557761N00903026EA0000000966
B0959315557771N00902919EA0000000966
B0959405557790N00902729EA0000000963
B0959465557824N00902608EA0000000946
B0959525557891N00902498EA0000000928
B0959575557956N00902391EA0000000927
B1000025558037N00902313EA0000000924
B1000075558136N00902356EA0000000923
B1000125558176N00902533EA0000000928
B1000175558119N00902699EA0000000934
B1000225558033N00902731EA0000000938
B1000275558012N00902616EA0000000928
B1000345558117N00902643EA0000000933
B1000415558077N00902869EA0000000932
B1000475557976N00902884EA0000000948
B1000525557956N00902783EA0000000953
B1000575558011N00902721EA0000000955
B1001055558123N00902861EA0000000934
B1001105558091N00903047EA0000000924
B1001165558004N00903241EA0000000922
B1001225557922N00903437EA0000000928
B1001285557839N00903616EA0000000942
B1001345557751N00903766EA0000000955
B1001425557641N00903989EA0000000957
B1001505557564N00904269EA0000000946
B1001585557524N00904581EA0000000942
B1002045557505N00904818EA0000000963
B1002105557422N00904892EA0000000990
B1002165557420N00904777EA0000001003
B1002235557481N00904921EA0000001009
B1002285557404N00904993EA0000001024
B1002365557433N00904900EA0000001048
B1002465557384N00905124EA0000001063
B1002515557363N00905023EA0000001074
B1002565557426N00905030EA0000001091
B1003025557432N00905219EA0000001090
B1003075557357N00905201EA0000001080
B1003125557382N00905056EA0000001079
B1003185557416N00904883EA0000001075
B1003235557446N00904746EA0000001076
B1003305557500N00904579EA0000001075
B1003355557563N00904508EA0000001077
B1003405557642N00904534EA0000001087
B1003465557739N00904634EA0000001090
B1003525557842N00904729EA0000001089
B1003585557949N00904812EA0000001085
B1004035558034N00904887EA0000001082
B1004085558117N00904965EA0000001074
B1004165558266N00905062EA0000001061
B1004245558419N00905160EA0000001060
B1004295558510N00905219EA0000001056
B1004365558636N00905301EA0000001054
B1004415558723N00905359EA0000001051
B1004465558810N00905413EA0000001046
B1004545558952N00905492EA0000001041
B1005015559072N00905562EA0000001037
B1005075559176N00905606EA0000001027
B1005155559317N00905635EA0000001017
B1005205559404N00905642EA0000001011
B1005275559530N00905657EA0000001008
B1005325559618N00905677EA0000001014
B1005405559753N00905726EA0000001031
B1005455559809N00905662EA0000001041
B1005505559797N00905552EA0000001062
B1005555559725N00905526EA0000001076
B1006025559642N00905692EA0000001088
B1006105559637N00905990EA0000001075
B1006195559624N00906359EA0000001077
B1006255559606N00906610EA0000001072
B1006355559555N00907024EA0000001076
B1006425559510N00907293EA0000001073
B1006495559454N00907556EA0000001063
B1006545559371N00907639EA0000001064
B1006595559339N00907517EA0000001049
B1007065559382N00907319EA0000001035
B1007145559442N00907094EA0000001026
B1007205559490N00906935EA0000001034
B1007275559552N00906757EA0000001033
B1007355559632N00906560EA0000001035
B1007405559690N00906452EA0000001044
B1007465559761N00906326EA0000001040
B1007535559761N00906141EA0000001055
B1007585559701N00906050EA0000001061
B1008035559613N00906045EA0000001066
B1008095559525N00906183EA0000001085
B1008145559540N00906345EA0000001097
B1008195559612N00906415EA0000001099
B1008245559683N00906400EA0000001101
B1008315559691N00906269EA0000001111
B1008365559648N00906181EA0000001103
B1008435559537N00906121EA0000001106
B1008485559455N00906229EA0000001114
B1008555559425N00906496EA0000001112
B1009015559410N00906751EA0000001102
B1009065559386N00906974EA0000001097
B1009115559362N00907201EA0000001090
B1009275559286N00907938EA0000001082
B1009325559263N00908170EA0000001078
B1009385559233N00908441EA0000001077
B1009475559190N00908832EA0000001074
B1010005559140N00909397EA0000001045
B1010105559093N00909850EA0000001017
B1010155559062N00910074EA0000001009
B1010225559016N00910378EA0000001007
B1010275558982N00910586EA0000001035
B1010335558916N00910747EA0000001067
B1010385558878N00910681EA0000001070
B1010435558937N00910662EA0000001079
B1010505558914N00910857EA0000001094
B1010565558866N00910787EA0000001100
B1011025558938N00910803EA0000001111
B1011095558899N00910997EA0000001131
B1011145558850N00910939EA0000001132
B1011215558926N00910945EA0000001147
B1011265558906N00911108EA0000001155
B1011315558839N00911073EA0000001158
B1011365558866N00910960EA0000001150
B1011415558960N00911013EA0000001134
B1011475558995N00911278EA0000001136
B1011535558888N00911452EA0000001140
B1011585558808N00911359EA0000001136
B1012055558786N00911109EA0000001143
B1012105558753N00910948EA0000001151
B1012155558725N00910793EA0000001143
B1012215558681N00910615EA0000001134
B1012275558649N00910433EA0000001124
B1012325558626N00910282EA0000001124
B1012395558604N00910071EA0000001134
B1012465558600N00909856EA0000001124
B1012515558631N00909711EA0000001120
B1012565558675N00909580EA0000001112
B1013015558721N00909455EA0000001105
B1013085558784N00909285EA0000001088
B1013155558847N00909105EA0000001081
B1013225558903N00908923EA0000001078
B1013315558966N00908682EA0000001071
B1013365559003N00908558EA0000001083
B1013445559050N00908367EA0000001092
B1013495559074N00908247EA0000001091
B1013545559104N00908121EA0000001087
B1014025559152N00907900EA0000001073
B1014085559184N00907728EA0000001064
B1014165559223N00907510EA0000001055
B1014245559282N00907314EA0000001049
B1014295559322N00907191EA0000001041
B1014345559361N00907070EA0000001035
B1014415559416N00906890EA0000001022
B1014535559498N00906566EA0000000998
B1014595559537N00906401EA0000000986
B1015095559607N00906130EA0000000968
B1015185559680N00905897EA0000000958
B1015235559718N00905768EA0000000956
B1015285559768N00905651EA0000000950
B1015345559858N00905566EA0000000951
B1015405559954N00905517EA0000000962
B1015455600033N00905485EA0000000961
B1015515600103N00905390EA0000000971
B1015575600113N00905272EA0000000984
B1016025600049N00905218EA0000000981
B1016075559968N00905293EA0000000989
B1016125559950N00905463EA0000000989
B1016185600017N00905599EA0000001001
B1016235600075N00905570EA0000001009
B1016285600069N00905484EA0000001015
B1016345559989N00905460EA0000001016
B1016405559914N00905596EA0000001016
B1016455559927N00905766EA0000001016
B1016515600001N00905888EA0000001024
B1016565600053N00905840EA0000001030
B1017015600030N00905758EA0000001036
B1017065559961N00905740EA0000001034
B1017115559895N00905845EA0000001041
B1017175559926N00906024EA0000001041
B1017225559994N00906034EA0000001042
B1017275600025N00905944EA0000001038
B1017325600005N00905846EA0000001046
B1017375559939N00905814EA0000001044
B1017445559826N00905907EA0000001036
B1017495559793N00906075EA0000001032
B1017545559834N00906220EA0000001039
B1017595559899N00906239EA0000001046
B1018045559928N00906164EA0000001043
B1018105559879N00906071EA0000001035
B1018175559777N00905989EA0000001008
B1018235559671N00905922EA0000000995
B1018285559586N00905851EA0000000999
B1018335559542N00905744EA0000001023
B1018385559584N00905710EA0000001032
B1018435559615N00905852EA0000001020
B1018485559542N00905966EA0000001021
B1018545559442N00905932EA0000001027
B1019025559350N00905803EA0000001013
B1019075559279N00905716EA0000000987
B1019125559198N00905630EA0000000978
B1019195559080N00905510EA0000000966
B1019245558993N00905430EA0000000956
B1019295558904N00905354EA0000000952
B1019345558812N00905288EA0000000949
B1019395558729N00905205EA0000000956
B1019445558711N00905089EA0000000984
B1019515558782N00905169EA0000000989
B1019565558725N00905291EA0000000991
B1020035558684N00905185EA0000001005
B1020095558752N00905246EA0000001003
B1020145558726N00905394EA0000001011
B1020225558645N00905331EA0000001021
B1020275558692N00905303EA0000001022
B1020345558734N00905483EA0000001018
B1020395558666N00905581EA0000001020
B1020445558606N00905513EA0000001027
B1020495558577N00905401EA0000001016
B1020545558536N00905273EA0000000989
B1021005558486N00905099EA0000000981
B1021055558446N00904957EA0000000974
B1021105558403N00904821EA0000000970
B1021175558339N00904644EA0000000964
B1021235558283N00904500EA0000000956
B1021325558199N00904287EA0000000946
B1021395558112N00904143EA0000000933
B1021445558033N00904059EA0000000922
B1021515557913N00903952EA0000000907
B1021595557770N00903832EA0000000880
B1022045557682N00903745EA0000000877
B1022095557600N00903654EA0000000893
B1022145557518N00903636EA0000000933
B1022215557496N00903835EA0000000947
B1022265557558N00903856EA0000000969
B1022325557537N00903747EA0000000987
B1022375557466N00903801EA0000001001
B1022425557462N00903955EA0000001004
B1022475557524N00903977EA0000001025
B1022535557501N00903874EA0000001052
B1022585557433N00903948EA0000001055
B1023035557441N00904109EA0000001061
B1023085557504N00904112EA0000001080
B1023135557494N00904009EA0000001103
B1023195557408N00904054EA0000001114
B1023245557393N00904216EA0000001123
B1023295557455N00904276EA0000001136
B1023355557450N00904158EA0000001162
B1023405557377N00904220EA0000001167
B1023455557422N00904339EA0000001158
B1023505557490N00904234EA0000001155
B1023575557544N00904005EA0000001162
B1024065557546N00903640EA0000001158
B1024135557548N00903330EA0000001153
B1024195557575N00903063EA0000001151
B1024245557610N00902871EA0000001183
B1024315557641N00902696EA0000001234
B1024405557700N00902516EA0000001226
B1024455557740N00902426EA0000001220
B1024515557799N00902332EA0000001216
B1024595557894N00902252EA0000001211
B1025055557978N00902262EA0000001209
B1025105558048N00902340EA0000001207
B1025155558110N00902461EA0000001204
B1025225558199N00902632EA0000001196
B1025315558343N00902649EA0000001181
B1025375558440N00902610EA0000001176
B1025425558518N00902578EA0000001177
B1025505558584N00902757EA0000001174
B1026005558384N00903079EA0000001084
B1026065558236N00903316EA0000001057
B1026145558057N00903652EA0000001069
B1026195557954N00903857EA0000001078
B1026255557834N00904102EA0000001080
B1026305557748N00904321EA0000001082
B1026375557627N00904613EA0000001100
B1026425557539N00904811EA0000001113
B1026535557360N00905189EA0000001170
B1026585557308N00905365EA0000001193
B1027035557337N00905539EA0000001188
B1027105557448N00905735EA0000001173
B1027195557614N00905955EA0000001153
B1027245557717N00906016EA0000001149
B1027375557942N00906139EA0000001162
B1027425557914N00906335EA0000001152
B1027485557812N00906546EA0000001125
B1027575557656N00906888EA0000001109
B1028035557554N00907118EA0000001096
B1028115557412N00907416EA0000001083
B1028175557294N00907621EA0000001077
B1028225557194N00907786EA0000001073
B1028315557015N00908084EA0000001078
B1028365556920N00908252EA0000001083
B1028415556831N00908425EA0000001084
B1028465556749N00908597EA0000001097
B1028555556629N00908924EA0000001122
B1029015556562N00909147EA0000001122
B1029115556462N00909563EA0000001099
B1029205556369N00909944EA0000001111
B1029275556302N00910230EA0000001124
B1029355556237N00910580EA0000001121
B1029425556185N00910899EA0000001123
B1029495556137N00911220EA0000001112
B1030015556056N00911770EA0000001095
B1030065556024N00912004EA0000001084
B1030115555991N00912238EA0000001081
B1030265555872N00912930EA0000001061
B1030345555801N00913289EA0000001053
B1030395555760N00913508EA0000001041
B1030475555691N00913868EA0000001044
B1030535555628N00914115EA0000001069
B1030595555564N00914345EA0000001077
B1031115555483N00914821EA0000001089
B1031215555427N00915251EA0000001063
B1031275555389N00915518EA0000001069
B1031355555322N00915868EA0000001074
B1031435555253N00916216EA0000001075
B1031485555204N00916427EA0000001074
B1031545555135N00916682EA0000001064
B1032015555059N00916983EA0000001085
B1032075555009N00917239EA0000001094
B1032135554967N00917491EA0000001121
B1032195554941N00917741EA0000001143
B1032255554921N00917987EA0000001150
B1032325554929N00918289EA0000001137
B1032375554998N00918470EA0000001130
B1032435555093N00918681EA0000001119
B1032485555173N00918851EA0000001125
B1032545555266N00919056EA0000001113
B1033015555381N00919291EA0000001109
B1033065555462N00919454EA0000001102
B1033125555558N00919645EA0000001092
B1033185555655N00919835EA0000001083
B1033235555737N00919984EA0000001092
B1033285555817N00920123EA0000001080
B1033355555931N00920321EA0000001066
B1033405556019N00920459EA0000001047
B1033485556164N00920671EA0000001036
B1033535556246N00920817EA0000001029
B1033585556312N00920996EA0000001014
B1034045556367N00921243EA0000001013
B1034115556391N00921556EA0000001016
B1034165556403N00921772EA0000001021
B1034215556414N00921985EA0000001024
B1034275556434N00922241EA0000001027
B1034365556469N00922622EA0000001032
B1034425556494N00922876EA0000001028
B1034475556503N00923093EA0000001021
B1034535556504N00923355EA0000001027
B1035125556506N00924173EA0000001017
B1035175556510N00924403EA0000001014
B1035235556509N00924674EA0000001021
B1035305556509N00924977EA0000001001
B1035385556512N00925328EA0000000992
B1035445556517N00925583EA0000000985
B1035515556538N00925883EA0000000969
B1035575556536N00926151EA0000000981
B1036025556531N00926358EA0000000992
B1036105556521N00926683EA0000000991
B1036155556520N00926890EA0000000998
B1036205556539N00927075EA0000001002
B1036265556616N00927223EA0000000993
B1036325556716N00927350EA0000000969
B1036375556807N00927455EA0000000957
B1036425556899N00927558EA0000000946
B1036485557010N00927684EA0000000928
B1036555557143N00927826EA0000000913
B1037005557237N00927915EA0000000922
B1037075557358N00928029EA0000000937
B1037135557444N00928050EA0000000953
B1037185557454N00927959EA0000000966
B1037235557373N00927942EA0000000974
B1037285557323N00928103EA0000000984
B1037345557383N00928249EA0000000992
B1037395557426N00928192EA0000001000
B1037455557349N00928130EA0000001017
B1037505557287N00928263EA0000001027
B1037565557338N00928416EA0000001020
B1038015557395N00928381EA0000001035
B1038065557355N00928289EA0000001056
B1038115557272N00928357EA0000001070
B1038185557297N00928560EA0000001054
B1038235557360N00928508EA0000001067
B1038315557306N00928400EA0000001105
B1038365557246N00928539EA0000001105
B1038415557284N00928687EA0000001107
B1038465557332N00928628EA0000001123
B1038535557229N00928605EA0000001142
B1038585557194N00928781EA0000001147
B1039035557250N00928892EA0000001144
B1039085557300N00928822EA0000001162
B1039135557266N00928719EA0000001178
B1039185557176N00928739EA0000001179
B1039265557137N00929013EA0000001179
B1039315557193N00929177EA0000001157
B1039385557272N00929452EA0000001155
B1039445557335N00929701EA0000001158
B1039505557370N00929963EA0000001177
B1039555557398N00930179EA0000001180
B1040025557451N00930471EA0000001192
B1040115557567N00930799EA0000001192
B1040195557679N00931080EA0000001172
B1040245557751N00931258EA0000001155
B1040355557903N00931659EA0000001134
B1040415557980N00931884EA0000001123
B1040505558092N00932221EA0000001109
B1040555558151N00932408EA0000001102
B1041045558256N00932743EA0000001094
B1041115558340N00932995EA0000001087
B1041175558415N00933212EA0000001081
B1041235558488N00933427EA0000001075
B1041295558564N00933643EA0000001062
B1041365558655N00933900EA0000001049
B1041435558748N00934156EA0000001038
B1041485558813N00934341EA0000001035
B1041545558888N00934560EA0000001031
B1042035558998N00934887EA0000001016
B1042095559072N00935099EA0000001006
B1042165559159N00935346EA0000000995
B1042265559283N00935698EA0000000983
B1042315559346N00935870EA0000000973
B1042385559435N00936115EA0000000965
B1042465559531N00936397EA0000000957
B1042545559627N00936690EA0000000947
B1043045559747N00937067EA0000000926
B1043125559843N00937365EA0000000926
B1043185559910N00937578EA0000000936
B1043295600036N00937966EA0000000919
B1043345600096N00938144EA0000000913
B1043445600211N00938502EA0000000900
B1043555600336N00938897EA0000000885
B1044015600396N00939114EA0000000871
B1044125600506N00939521EA0000000857
B1044185600566N00939734EA0000000854
B1044245600622N00939913EA0000000884
B1044295600668N00940048EA0000000890
B1044365600741N00940234EA0000000890
B1044415600773N00940387EA0000000899
B1044465600746N00940553EA0000000892
B1044525600741N00940767EA0000000879
B1044575600766N00940943EA0000000866
B1045085600784N00941345EA0000000865
B1045145600795N00941551EA0000000862
B1045205600825N00941743EA0000000856
B1045275600879N00941933EA0000000855
B1045345600976N00942068EA0000000825
B1045395601052N00942194EA0000000813
B1045445601120N00942335EA0000000802
B1045505601177N00942552EA0000000787
B1045565601192N00942805EA0000000775
B1046015601177N00943028EA0000000759
B1046085601146N00943344EA0000000744
B1046145601121N00943617EA0000000729
B1046255601086N00944120EA0000000717
B1046335601058N00944478EA0000000707
B1046405601035N00944796EA0000000689
B1046455601019N00945022EA0000000682
B1046535600992N00945385EA0000000665
B1047015600966N00945740EA0000000662
B1047075600942N00946004EA0000000655
B1047135600907N00946269EA0000000646
B1047285600820N00946928EA0000000636
B1047335600790N00947147EA0000000635
B1047515600649N00947375EA0000000676
B1048125600584N00947659EA0000000680
B1048175600649N00947667EA0000000680
B1048285600652N00948031EA0000000699
B1048345600570N00948029EA0000000702
B1048405600615N00947969EA0000000705
B1048525600585N00948260EA0000000721
B1048585600548N00948167EA0000000723
B1049165600487N00948376EA0000000740
B1049215600520N00948313EA0000000749
B1049265600576N00948414EA0000000753
B1049405600441N00948514EA0000000764
B1049595600417N00948759EA0000000778
B1050045600414N00948673EA0000000780
B1050095600479N00948698EA0000000787
B1050175600477N00948952EA0000000788
B1050255600356N00948980EA0000000793
B1050305600352N00948890EA0000000794
B1050355600420N00948897EA0000000797
B1050435600453N00949124EA0000000802
B1050525600325N00949237EA0000000803
B1050595600342N00949101EA0000000803
B1051045600403N00949057EA0000000815
B1051175600346N00949292EA0000000818
B1051225600341N00949189EA0000000817
B1051285600401N00949129EA0000000818
B1051505600303N00949406EA0000000814
B1051565600337N00949325EA0000000810
B1052045600363N00949552EA0000000811
B1052125600259N00949795EA0000000806
B1052255600105N00950029EA0000000826
B1052485600069N00950178EA0000000834
B1052555600144N00950138EA0000000842
B1053105600062N00950291EA0000000850
B1053325600053N00950444EA0000000869
B1053485600133N00950633EA0000000895
B1053545600046N00950624EA0000000899
B1053595600065N00950541EA0000000905
B1054045600132N00950599EA0000000909
B1054175600008N00950778EA0000000916
B1054345600078N00950929EA0000000930
B1054405559992N00950928EA0000000936
B1054465600025N00950845EA0000000937
B1054525600088N00950965EA0000000943
B1054595600029N00951173EA0000000946
B1055065559922N00951190EA0000000939
B1055125559953N00951091EA0000000950
B1055235559925N00951329EA0000000954
B1055285559884N00951239EA0000000956
B1055335559917N00951162EA0000000968
B1055405559950N00951351EA0000000970
B1055465559856N00951403EA0000000974
B1055515559851N00951312EA0000000981
B1055565559919N00951353EA0000000980
B1056095559784N00951532EA0000000992
B1056145559790N00951446EA0000000997
B1056205559864N00951550EA0000000990
B1056265559852N00951785EA0000000981
B1056325559819N00952044EA0000000979
B1056385559784N00952305EA0000000968
B1056445559747N00952566EA0000000964
B1056495559710N00952784EA0000000954
B1056565559674N00953091EA0000000968
B1057045559757N00953257EA0000001005
B1057095559780N00953155EA0000001014
B1057145559721N00953095EA0000001040
B1057205559675N00953257EA0000001051
B1057335559693N00953229EA0000001096
B1057385559654N00953372EA0000001092
B1057525559702N00953329EA0000001137
B1057575559624N00953367EA0000001139
B1058025559597N00953519EA0000001148
B1058085559670N00953633EA0000001159
B1058195559684N00953491EA0000001179
B1058245559610N00953569EA0000001179
B1058305559623N00953740EA0000001195
B1058375559696N00953724EA0000001205
B1058425559660N00953645EA0000001209
B1058475559587N00953702EA0000001204
B1058535559546N00953907EA0000001198
B1059015559499N00954207EA0000001210
B1059065559469N00954401EA0000001197
B1059135559415N00954699EA0000001169
B1059235559387N00955148EA0000001163
B1059355559307N00955665EA0000001160
B1059415559267N00955924EA0000001148
B1059485559219N00956221EA0000001138
B1059555559170N00956512EA0000001141
B1100045559109N00956871EA0000001156
B1100105559034N00957070EA0000001151
B1100175558934N00957288EA0000001161
B1100235558877N00957513EA0000001166
B1100285558837N00957704EA0000001163
B1100365558791N00958006EA0000001162
B1100445558791N00958308EA0000001164
B1100495558850N00958442EA0000001147
B1100545558937N00958526EA0000001116
B1101015559073N00958629EA0000001088
B1101065559175N00958699EA0000001073
B1101165559386N00958825EA0000001062
B1101215559488N00958889EA0000001059
B1101285559625N00958972EA0000001052
B1101375559798N00959071EA0000001038
B1101425559892N00959116EA0000001029
B1101475559985N00959154EA0000001023
B1101545600111N00959209EA0000001019
B1101595600199N00959244EA0000001022
B1102045600279N00959287EA0000001047
B1102115600378N00959312EA0000001047
B1102175600456N00959396EA0000001048
B1102225600531N00959431EA0000001032
B1102295600656N00959449EA0000001009
B1102345600753N00959462EA0000000994
B1102435600927N00959491EA0000000983
B1102525601099N00959513EA0000000966
B1103015601267N00959531EA0000000956
B1103085601398N00959578EA0000000949
B1103185601587N00959653EA0000000935
B1103265601741N00959699EA0000000918
B1103315601837N00959725EA0000000913
B1103445602092N00959814EA0000000878
B1103505602213N00959856EA0000000868
B1103565602334N00959896EA0000000858
B1104015602435N00959926EA0000000848
B1104095602599N00959987EA0000000841
B1104145602699N01000028EA0000000845
B1104205602788N01000032EA0000000876
B1104255602782N00959940EA0000000884
B1104305602698N00959944EA0000000877
B1104355602657N01000109EA0000000873
B1104405602696N01000262EA0000000851
B1104455602769N01000364EA0000000850
B1104515602858N01000451EA0000000867
B1104575602935N01000535EA0000000868
B1105045603026N01000669EA0000000865
B1105125603149N01000816EA0000000844
B1105205603279N01000950EA0000000822
B1105275603400N01001067EA0000000799
B1105325603490N01001147EA0000000785
B1105385603599N01001231EA0000000781
B1105445603687N01001375EA0000000794
B1105495603740N01001517EA0000000809
B1105545603780N01001665EA0000000806
B1105595603845N01001705EA0000000807
B1106065603906N01001615EA0000000803
B1106125603930N01001512EA0000000808
B1106175603906N01001423EA0000000808
B1106245603838N01001321EA0000000800
B1106305603814N01001209EA0000000794
B1106355603822N01001102EA0000000781
B1106435603886N01000944EA0000000772
B1106485603913N01000846EA0000000789
B1106535603899N01000752EA0000000802
B1106595603905N01000651EA0000000794
B1107045603959N01000621EA0000000806
B1107095604018N01000729EA0000000819
B1107155603985N01000918EA0000000823
B1107205603914N01000922EA0000000805
B1107255603891N01000805EA0000000811
B1107305603901N01000731EA0000000832
B1107355603959N01000804EA0000000828
B1107405603939N01000987EA0000000831
B1107455603862N01001004EA0000000839
B1107525603809N01000882EA0000000838
B1107575603826N01000805EA0000000855
B1108055603868N01001006EA0000000865
B1108115603792N01001000EA0000000878
B1108165603843N01000989EA0000000890
B1108225603835N01001185EA0000000903
B1108275603769N01001168EA0000000908
B1108325603808N01001120EA0000000922
B1108425603770N01001366EA0000000932
B1108495603760N01001263EA0000000952
B1108585603803N01001492EA0000000962
B1109045603698N01001531EA0000000963
B1109095603677N01001439EA0000000985
B1109145603735N01001459EA0000000993
B1109245603653N01001676EA0000000998
B1109295603615N01001588EA0000001015
B1109375603689N01001599EA0000001027
B1109425603686N01001770EA0000001027
B1109505603564N01001780EA0000001045
B1109555603566N01001695EA0000001051
B1110035603640N01001824EA0000001063
B1110095603565N01001968EA0000001065
B1110145603506N01001902EA0000001067
B1110195603536N01001829EA0000001071
B1110245603596N01001811EA0000001077
B1110315603670N01001720EA0000001056
B1110375603749N01001632EA0000001032
B1110465603873N01001496EA0000001016
B1110515603954N01001462EA0000001023
B1111015604096N01001369EA0000001048
B1111075604144N01001263EA0000001061
B1111125604180N01001165EA0000001046
B1111185604226N01001034EA0000001028
B1111335604369N01000714EA0000001000
B1111415604473N01000585EA0000000991
B1111485604574N01000470EA0000000980
B1111545604656N01000369EA0000000982
B1112005604722N01000254EA0000000984
B1112055604771N01000149EA0000000974
B1112165604837N00959869EA0000000975
B1112235604898N00959726EA0000000981
B1112285604955N00959643EA0000000966
B1112345605054N00959598EA0000000959
B1112395605145N00959593EA0000000952
B1112455605259N00959599EA0000000956
B1112575605459N00959600EA0000000962
B1113045605580N00959595EA0000000928
B1113115605712N00959588EA0000000915
B1113165605807N00959585EA0000000913
B1113245605950N00959587EA0000000920
B1113315606070N00959596EA0000000918
B1113365606154N00959606EA0000000913
B1113445606292N00959617EA0000000905
B1113535606445N00959626EA0000000890
B1113595606548N00959633EA0000000880
B1114055606648N00959628EA0000000867
B1114125606769N00959573EA0000000849
B1114195606885N00959478EA0000000845
B1114265607006N00959411EA0000000848
B1114315607091N00959355EA0000000849
B1114375607192N00959325EA0000000874
B1114425607265N00959297EA0000000892
B1114475607289N00959221EA0000000910
B1114525607233N00959171EA0000000903
B1114575607147N00959229EA0000000904
B1115025607094N00959373EA0000000919
B1115075607101N00959537EA0000000922
B1115125607157N00959643EA0000000920
B1115175607225N00959629EA0000000922
B1115225607272N00959564EA0000000935
B1115285607240N00959491EA0000000931
B1115335607161N00959540EA0000000922
B1115385607099N00959675EA0000000931
B1115445607109N00959863EA0000000943
B1115495607174N00959877EA0000000936
B1115555607148N00959782EA0000000943
B1116015607054N00959824EA0000000940
B1116065606982N00959917EA0000000959
B1116115606976N01000076EA0000000950
B1116165607044N01000118EA0000000950
B1116215607045N01000032EA0000000959
B1116265606989N00959972EA0000000966
B1116325606902N00959969EA0000000981
B1116375606855N01000114EA0000000968
B1116425606900N01000252EA0000000983
B1116485606956N01000224EA0000000989
B1116535606912N01000153EA0000000999
B1116585606843N01000251EA0000001003
B1117045606888N01000411EA0000000994
B1117095606936N01000365EA0000001009
B1117155606885N01000285EA0000001022
B1117215606801N01000403EA0000001030
B1117275606821N01000591EA0000001029
B1117325606890N01000637EA0000001041
B1117375606922N01000574EA0000001057
B1117425606871N01000519EA0000001061
B1117475606791N01000569EA0000001065
B1117525606745N01000717EA0000001071
B1117575606745N01000890EA0000001074
B1118025606792N01001004EA0000001088
B1118085606839N01000944EA0000001079
B1118135606803N01000848EA0000001092
B1118185606732N01000821EA0000001101
B1118245606638N01000916EA0000001108
B1118295606617N01001082EA0000001100
B1118355606686N01001190EA0000001102
B1118405606734N01001144EA0000001110
B1118475606722N01001021EA0000001117
B1118525606663N01000969EA0000001116
B1118575606586N01001041EA0000001123
B1119045606567N01001267EA0000001104
B1119125606673N01001427EA0000001099
B1119185606758N01001536EA0000001116
B1119265606803N01001749EA0000001136
B1119315606730N01001811EA0000001133
B1119365606717N01001717EA0000001133
B1119415606760N01001647EA0000001156
B1119565606712N01001895EA0000001166
B1120115606719N01002067EA0000001182
B1120175606700N01001970EA0000001189
B1120295606691N01002207EA0000001196
B1120345606669N01002121EA0000001214
B1120395606728N01002108EA0000001220
B1120445606803N01002176EA0000001189
B1120515606931N01002292EA0000001165
B1120565607027N01002377EA0000001155
B1121025607144N01002479EA0000001151
B1121115607316N01002645EA0000001143
B1121205607486N01002805EA0000001139
B1121285607636N01002944EA0000001132
B1121365607780N01003079EA0000001132
B1121415607869N01003152EA0000001124
B1121485607998N01003251EA0000001101
B1121565608151N01003359EA0000001091
B1122015608247N01003417EA0000001086
B1122085608374N01003492EA0000001098
B1122135608461N01003550EA0000001101
B1122185608547N01003613EA0000001100
B1122245608662N01003689EA0000001091
B1122295608752N01003806EA0000001104
B1122345608753N01003992EA0000001157
B1122405608674N01004007EA0000001148
B1122465608724N01003954EA0000001154
B1122525608786N01004120EA0000001172
B1122575608745N01004267EA0000001175
B1123025608682N01004234EA0000001179
B1123075608707N01004158EA0000001187
B1123125608770N01004167EA0000001209
B1123175608788N01004312EA0000001215
B1123225608711N01004367EA0000001209
B1123285608687N01004250EA0000001239
B1123335608731N01004200EA0000001258
B1123415608776N01004383EA0000001273
B1123465608693N01004431EA0000001279
B1123515608678N01004340EA0000001300
B1123565608740N01004356EA0000001308
B1124025608839N01004389EA0000001301
B1124085608945N01004331EA0000001291
B1124145609055N01004260EA0000001279
B1124195609149N01004203EA0000001268
B1124245609241N01004151EA0000001265
B1124305609346N01004093EA0000001263
B1124375609465N01004028EA0000001254
B1124445609585N01003964EA0000001243
B1124495609673N01003918EA0000001233
B1124555609777N01003851EA0000001218
B1125045609941N01003753EA0000001201
B1125105610051N01003695EA0000001188
B1125155610146N01003643EA0000001176
B1125225610275N01003561EA0000001161
B1125325610457N01003434EA0000001147
B1125375610550N01003381EA0000001144
B1125425610643N01003332EA0000001137
B1125485610755N01003272EA0000001131
B1125545610865N01003208EA0000001129
B1126045611049N01003103EA0000001116
B1126115611176N01003031EA0000001106
B1126165611271N01002978EA0000001102
B1126225611381N01002905EA0000001115
B1126315611548N01002841EA0000001099
B1126415611749N01002800EA0000001081
B1126495611908N01002757EA0000001063
B1126585612085N01002701EA0000001040
B1127105612315N01002620EA0000001020
B1127165612429N01002583EA0000001011
B1127285612654N01002492EA0000000995
B1127375612821N01002422EA0000000987
B1127455612966N01002361EA0000000976
B1127525613094N01002312EA0000000959
B1128015613266N01002260EA0000000944
B1128105613441N01002215EA0000000948
B1128165613551N01002193EA0000000970
B1128215613637N01002180EA0000000970
B1128285613763N01002145EA0000000954
B1128365613912N01002097EA0000000957
B1128425614022N01002068EA0000000954
B1128505614169N01002033EA0000000935
B1128565614281N01002014EA0000000919
B1129025614392N01001993EA0000000908
B1129075614481N01001975EA0000000896
B1129145614609N01001950EA0000000884
B1129215614734N01001917EA0000000877
B1129325614930N01001857EA0000000876
B1129385615028N01001820EA0000000903
B1129445615049N01001723EA0000000929
B1129535614951N01001885EA0000000949
B1129585615008N01001939EA0000000960
B1130035615000N01001851EA0000000972
B1130085614921N01001893EA0000000983
B1130135614920N01002060EA0000000990
B1130185614976N01002059EA0000001006
B1130245614935N01001984EA0000001023
B1130295614866N01002092EA0000001024
B1130345614899N01002231EA0000001035
B1130405614949N01002184EA0000001051
B1130455614894N01002140EA0000001066
B1130505614827N01002256EA0000001067
B1130565614869N01002415EA0000001079
B1131015614921N01002392EA0000001090
B1131075614884N01002311EA0000001104
B1131125614805N01002390EA0000001111
B1131185614806N01002579EA0000001125
B1131235614862N01002585EA0000001123
B1131285614857N01002489EA0000001141
B1131335614789N01002478EA0000001148
B1131415614768N01002723EA0000001155
B1131465614832N01002732EA0000001157
B1131515614865N01002657EA0000001173
B1131565614810N01002608EA0000001176
B1132025614738N01002768EA0000001181
B1132075614777N01002907EA0000001196
B1132125614825N01002885EA0000001203
B1132175614794N01002807EA0000001203
B1132225614708N01002807EA0000001210
B1132285614639N01002964EA0000001220
B1132345614692N01003114EA0000001212
B1132395614775N01003174EA0000001199
B1132455614887N01003243EA0000001181
B1132505614985N01003303EA0000001178
B1132575615128N01003367EA0000001168
B1133105615389N01003453EA0000001153
B1133175615528N01003538EA0000001150
B1133255615687N01003630EA0000001144
B1133345615864N01003718EA0000001141
B1133415616000N01003778EA0000001141
B1133525616217N01003859EA0000001140
B1134035616435N01003958EA0000001140
B1134095616548N01004019EA0000001132
B1134195616743N01004140EA0000001109
B1134255616858N01004217EA0000001100
B1134315616971N01004306EA0000001090
B1134385617101N01004414EA0000001078
B1134445617213N01004512EA0000001063
B1134495617307N01004606EA0000001052
B1134565617439N01004751EA0000001038
B1135025617551N01004874EA0000001029
B1135075617643N01004973EA0000001026
B1135135617745N01005095EA0000001040
B1135195617837N01005227EA0000001043
B1135285617976N01005443EA0000001036
B1135365618120N01005593EA0000001042
B1135445618264N01005713EA0000001032
B1135525618408N01005811EA0000001024
B1136045618620N01005962EA0000001013
B1136095618710N01006050EA0000001007
B1136165618836N01006192EA0000001002
B1136215618927N01006293EA0000000994
B1136325619138N01006508EA0000000964
B1136445619368N01006743EA0000000944
B1136505619480N01006858EA0000000939
B1137155619928N01007309EA0000000894
B1137315620212N01007623EA0000000861
B1137375620319N01007697EA0000000870
B1137425620400N01007722EA0000000894
B1137485620442N01007647EA0000000928
B1138025620380N01007874EA0000000948
B1138075620429N01007826EA0000000963
B1138155620423N01007676EA0000000987
B1138285620361N01007898EA0000001035
B1138345620420N01007856EA0000001054
B1138435620317N01007878EA0000001088
B1138515620369N01008074EA0000001107
B1138565620399N01007992EA0000001124
B1139075620272N01008114EA0000001151
B1139145620344N01008247EA0000001179
B1139195620362N01008170EA0000001196
B1139255620277N01008168EA0000001204
B1139395620329N01008443EA0000001249
B1139465620282N01008366EA0000001266
B1139525620205N01008524EA0000001280
B1139575620247N01008663EA0000001292
B1140115620181N01008631EA0000001320
B1140175620190N01008837EA0000001337
B1140225620253N01008843EA0000001341
B1140275620239N01008753EA0000001355
B1140335620146N01008802EA0000001366
B1140385620118N01008986EA0000001371
B1140435620173N01009109EA0000001382
B1140485620224N01009066EA0000001389
B1140555620150N01009004EA0000001402
B1141015620086N01009189EA0000001405
B1141065620134N01009325EA0000001414
B1141115620184N01009278EA0000001418
B1141175620147N01009149EA0000001406
B1141225620085N01009037EA0000001394
B1141285620003N01008894EA0000001388
B1141335619956N01008765EA0000001405
B1141385619914N01008648EA0000001407
B1141445619848N01008506EA0000001395
B1141505619771N01008361EA0000001395
B1141555619681N01008282EA0000001406
B1142005619589N01008228EA0000001411
B1142085619425N01008165EA0000001383
B1142155619266N01008135EA0000001370
B1142225619109N01008109EA0000001365
B1142305618944N01008035EA0000001360
B1142375618798N01007977EA0000001352
B1142425618691N01007943EA0000001345
B1142535618450N01007894EA0000001332
B1143015618265N01007887EA0000001327
B1143085618103N01007873EA0000001313
B1143145617964N01007857EA0000001299
B1143195617848N01007841EA0000001289
B1143295617606N01007941EA0000001266
B1143345617483N01008013EA0000001260
B1143395617362N01008103EA0000001253
B1143465617195N01008234EA0000001242
B1143515617077N01008326EA0000001235
B1143585616910N01008430EA0000001224
B1144035616791N01008471EA0000001221
B1144085616671N01008494EA0000001216
B1144165616483N01008513EA0000001207
B1144255616273N01008533EA0000001182
B1144345616060N01008546EA0000001161
B1144405615919N01008570EA0000001160
B1144465615783N01008600EA0000001151
B1144565615544N01008673EA0000001125
B1145015615426N01008709EA0000001122
B1145075615290N01008744EA0000001121
B1145135615159N01008777EA0000001113
B1145205615004N01008817EA0000001098
B1145285614827N01008875EA0000001088
B1145375614626N01008945EA0000001069
B1145595614142N01009112EA0000001027
B1146045614031N01009166EA0000001018
B1146105613899N01009233EA0000001028
B1146155613798N01009287EA0000001045
B1146205613695N01009344EA0000001036
B1146265613569N01009414EA0000001024
B1146335613418N01009492EA0000001001
B1146465613119N01009609EA0000000971
B1146515613002N01009649EA0000000963
B1146585612844N01009700EA0000000952
B1147035612734N01009713EA0000000943
B1147085612633N01009697EA0000000943
B1147155612500N01009649EA0000000946
B1147215612391N01009631EA0000000957
B1147265612301N01009691EA0000000967
B1147325612224N01009858EA0000000971
B1147375612158N01009991EA0000000968
B1147425612071N01010041EA0000000952
B1147485611951N01010052EA0000000926
B1147545611827N01010042EA0000000916
B1148015611682N01010018EA0000000904
B1148115611472N01009993EA0000000890
B1148175611344N01009979EA0000000880
B1148285611109N01009948EA0000000871
B1148355610963N01009938EA0000000867
B1148405610859N01009930EA0000000860
B1148505610652N01009902EA0000000842
B1148575610506N01009884EA0000000825
B1149025610402N01009868EA0000000843
B1149075610318N01009843EA0000000862
B1149135610216N01009820EA0000000864
B1149205610094N01009886EA0000000855
B1149255609998N01009921EA0000000829
B1149325609858N01009924EA0000000806
B1149375609752N01009922EA0000000796
B1149475609540N01009926EA0000000787
B1149545609400N01009884EA0000000769
B1150015609270N01009799EA0000000754
B1150065609176N01009734EA0000000754
B1150125609070N01009649EA0000000773
B1150175609005N01009568EA0000000801
B1150225609030N01009498EA0000000817
B1150275609082N01009613EA0000000818
B1150325609055N01009782EA0000000820
B1150375608966N01009824EA0000000826
B1150445608924N01009695EA0000000821
B1150515609007N01009696EA0000000859
B1150565609010N01009858EA0000000860
B1151015608931N01009898EA0000000867
B1151065608929N01009801EA0000000886
B1151125608992N01009903EA0000000896
B1151175608937N01010041EA0000000907
B1151225608878N01009977EA0000000925
B1151285608927N01009935EA0000000940
B1151345608957N01010116EA0000000956
B1151395608888N01010216EA0000000966
B1151445608845N01010136EA0000000974
B1151495608898N01010125EA0000000994
B1151565608905N01010339EA0000001006
B1152015608825N01010369EA0000001020
B1152075608814N01010270EA0000001034
B1152135608882N01010335EA0000001041
B1152185608871N01010501EA0000001053
B1152235608791N01010540EA0000001060
B1152285608771N01010446EA0000001065
B1152345608842N01010485EA0000001080
B1152395608837N01010650EA0000001097
B1152445608759N01010710EA0000001101
B1152495608728N01010618EA0000001105
B1152565608809N01010649EA0000001119
B1153025608793N01010840EA0000001127
B1153085608696N01010857EA0000001136
B1153135608703N01010769EA0000001132
B1153205608792N01010853EA0000001148
B1153255608788N01011017EA0000001152
B1153315608684N01011086EA0000001157
B1153385608667N01010967EA0000001167
B1153435608728N01011029EA0000001169
B1153505608696N01011257EA0000001179
B1153555608612N01011268EA0000001181
B1154005608599N01011162EA0000001187
B1154085608695N01011227EA0000001201
B1154135608684N01011386EA0000001209
B1154185608600N01011455EA0000001204
B1154245608488N01011417EA0000001194
B1154295608387N01011369EA0000001188
B1154345608285N01011312EA0000001172
B1154405608161N01011237EA0000001162
B1154485607996N01011138EA0000001151
B1154565607827N01011047EA0000001139
B1155035607663N01011025EA0000001131
B1155095607518N01011032EA0000001127
B1155165607354N01011025EA0000001127
B1155215607240N01011017EA0000001125
B1155335606975N01011013EA0000001116
B1155425606782N01011020EA0000001102
B1155495606633N01011026EA0000001087
B1155555606503N01011028EA0000001076
B1156005606392N01011040EA0000001087
B1156085606232N01011072EA0000001096
B1156165606060N01011132EA0000001086
B1156255605868N01011215EA0000001096
B1156305605762N01011232EA0000001091
B1156445605450N01011224EA0000001054
B1156585605136N01011213EA0000001027
B1157125604820N01011200EA0000001005
B1157185604684N01011205EA0000000993
B1157245604547N01011199EA0000000976
B1157315604407N01011121EA0000000964
B1157365604319N01011038EA0000000957
B1157415604229N01010965EA0000000950
B1157465604136N01010901EA0000000942
B1157535604010N01010808EA0000000934
B1157595603903N01010739EA0000000936
B1158065603772N01010681EA0000000937
B1158215603538N01010539EA0000000986
B1158415603457N01010913EA0000000969
B1158485603473N01011127EA0000000975
B1158565603520N01011018EA0000000972
B1159055603410N01010974EA0000000998
B1159105603410N01011136EA0000000993
B1159155603467N01011144EA0000001001
B1159285603376N01011108EA0000000999
B1159345603405N01011303EA0000000993
B1159395603473N01011387EA0000001013
B1200015603389N01011437EA0000001019
B1200065603382N01011613EA0000001024
B1200235603355N01011647EA0000001050
B1200285603360N01011816EA0000001057
B1200415603350N01011775EA0000001083
B1200485603340N01011994EA0000001099
B1201055603294N01011997EA0000001107
B1201165603353N01012322EA0000001142
B1201325603289N01012273EA0000001156
B1201375603296N01012437EA0000001173
B1201425603358N01012478EA0000001185
B1201525603345N01012342EA0000001178
B1201585603272N01012253EA0000001144
B1202105603126N01011962EA0000001130
B1202185603050N01011746EA0000001126
B1202265602998N01011521EA0000001115
B1202355602960N01011264EA0000001132
B1202415602944N01011105EA0000001143
B1202475602928N01010959EA0000001151
B1202525602911N01010851EA0000001170
B1202575602925N01010773EA0000001191
B1203105602899N01011019EA0000001201
B1203255602912N01011172EA0000001231
B1203335602859N01011077EA0000001256
B1203455602855N01011313EA0000001267
B1203505602803N01011245EA0000001286
B1204065602799N01011436EA0000001308
B1204125602755N01011344EA0000001321
B1204255602777N01011562EA0000001331
B1204305602720N01011498EA0000001336
B1204355602754N01011423EA0000001342
B1204465602752N01011675EA0000001369
B1204565602721N01011530EA0000001383
B1205085602682N01011777EA0000001415
B1205135602648N01011681EA0000001422
B1205295602625N01011843EA0000001441
B1205345602606N01011704EA0000001441
B1205395602602N01011548EA0000001445
B1205465602600N01011312EA0000001435
B1205535602596N01011076EA0000001445
B1205585602593N01010912EA0000001447
B1206035602591N01010756EA0000001449
B1206105602592N01010539EA0000001446
B1206175602596N01010316EA0000001434
B1206225602601N01010154EA0000001431
B1206305602666N01009940EA0000001429
B1206385602770N01009774EA0000001417
B1206475602894N01009595EA0000001404
B1206545602992N01009459EA0000001393
B1207015603094N01009331EA0000001385
B1207105603223N01009164EA0000001373
B1207165603306N01009050EA0000001363
B1207245603412N01008891EA0000001348
B1207295603477N01008790EA0000001341
B1207395603580N01008554EA0000001330
B1207455603618N01008386EA0000001319
B1207515603654N01008217EA0000001310
B1207565603693N01008084EA0000001303
B1208015603759N01007988EA0000001292
B1208105603859N01007788EA0000001277
B1208165603890N01007621EA0000001270
B1208235603925N01007424EA0000001264
B1208285603950N01007282EA0000001262
B1208375604001N01007034EA0000001249
B1208435604033N01006869EA0000001245
B1208485604058N01006742EA0000001250
B1208535604083N01006613EA0000001242
B1208585604105N01006475EA0000001255
B1209045604129N01006329EA0000001272
B1209095604144N01006205EA0000001250
B1209155604159N01006029EA0000001230
B1209205604171N01005882EA0000001228
B1209285604189N01005655EA0000001227
B1209385604208N01005382EA0000001221
B1209435604216N01005244EA0000001214
B1209485604221N01005105EA0000001200
B1209555604225N01004898EA0000001193
B1210045604225N01004650EA0000001207
B1210095604214N01004515EA0000001211
B1210145604194N01004391EA0000001237
B1210205604189N01004250EA0000001221
B1210275604161N01004059EA0000001208
B1210405604099N01003693EA0000001195
B1210465604070N01003512EA0000001193
B1210565604019N01003213EA0000001177
B1211015603990N01003065EA0000001176
B1211075603955N01002890EA0000001168
B1211125603926N01002742EA0000001161
B1211175603899N01002593EA0000001158
B1211235603868N01002415EA0000001166
B1211285603841N01002286EA0000001174
B1211365603794N01002069EA0000001167
B1211445603745N01001855EA0000001170
B1211525603693N01001651EA0000001172
B1212015603634N01001430EA0000001161
B1212085603587N01001248EA0000001171
B1212175603521N01001006EA0000001174
B1212235603476N01000838EA0000001163
B1212355603396N01000509EA0000001156
B1213175603186N00959302EA0000001085
B1213245603162N00959088EA0000001070
B1213345603143N00958782EA0000001058
B1213415603139N00958569EA0000001046
B1213575603135N00958086EA0000001028
B1214055603116N00957851EA0000001024
B1214115603079N00957679EA0000001022
B1214265602996N00957260EA0000001020
B1214385602952N00956928EA0000001003
B1214505602954N00956583EA0000000977
B1214585602972N00956357EA0000000975
B1215075602992N00956111EA0000000968
B1215135603006N00955952EA0000000964
B1215185603016N00955814EA0000000957
B1215235603026N00955678EA0000000955
B1215285603035N00955542EA0000000945
B1215375603048N00955278EA0000000939
B1215495603027N00955019EA0000000978
B1215545602947N00955088EA0000000978
B1216025602989N00955317EA0000000959
B1216075603062N00955318EA0000000946
B1216195603119N00955135EA0000000982
B1216245603044N00955209EA0000000985
B1216345603116N00955429EA0000000989
B1216435603118N00955318EA0000001007
B1216485603044N00955397EA0000001011
B1217005603130N00955534EA0000001024
B1217075603076N00955450EA0000001024
B1217155603010N00955659EA0000001033
B1217215603084N00955736EA0000001039
B1217325603057N00955617EA0000001037
B1217575602996N00955926EA0000001065
B1218205602981N00956089EA0000001078
B1218255602904N00956164EA0000001081
B1218445602947N00956272EA0000001100
B1218515602867N00956434EA0000001103
B1219145602827N00956530EA0000001118
B1219195602811N00956702EA0000001122
B1219285602911N00956834EA0000001137
B1219335602940N00956759EA0000001135
B1219385602932N00956648EA0000001112
B1219505602908N00956305EA0000001081
B1220005602896N00956011EA0000001069
B1220055602893N00955862EA0000001060
B1220115602887N00955682EA0000001055
B1220195602881N00955453EA0000001050
B1220255602877N00955287EA0000001049
B1220365602866N00954996EA0000001033
B1220425602854N00954834EA0000001030
B1220505602846N00954620EA0000001025
B1220565602840N00954461EA0000001018
B1221025602835N00954298EA0000000996
B1221095602826N00954096EA0000000979
B1221145602823N00953954EA0000000979
B1221205602822N00953788EA0000000982
B1221255602817N00953652EA0000000980
B1221335602797N00953440EA0000000988
B1221395602759N00953302EA0000001005
B1221445602761N00953198EA0000001011
B1221495602824N00953240EA0000001004
B1221555602792N00953427EA0000001004
B1222015602692N00953405EA0000001019
B1222065602711N00953322EA0000001014
B1222115602759N00953433EA0000001002
B1222165602713N00953590EA0000001016
B1222215602629N00953617EA0000001026
B1222265602603N00953522EA0000001026
B1222315602662N00953535EA0000001014
B1222375602713N00953717EA0000001016
B1222455602641N00953886EA0000001032
B1222505602621N00953794EA0000001037
B1222565602688N00953855EA0000001049
B1223035602618N00954012EA0000001053
B1223085602593N00953922EA0000001065
B1223135602652N00953940EA0000001072
B1223225602663N00954230EA0000001089
B1223285602579N00954241EA0000001086
B1223345602605N00954143EA0000001102
B1223535602560N00954272EA0000001115
B1223585602614N00954245EA0000001126
B1224525602257N00954236EA0000001116
B1224575602189N00954128EA0000001111
B1225235601809N00953582EA0000001110
B1225325601718N00953368EA0000001105
B1225415601652N00953118EA0000001086
B1225465601622N00952978EA0000001072
B1225545601626N00952749EA0000001057
B1226025601644N00952510EA0000001041
B1226085601658N00952331EA0000001034
B1226195601679N00952009EA0000001014
B1226275601693N00951772EA0000001000
B1226415601716N00951350EA0000000974
B1226495601732N00951112EA0000000967
B1226565601745N00950910EA0000000956
B1227015601757N00950768EA0000000943
B1227085601778N00950554EA0000000929
B1227155601794N00950351EA0000000928
B1227255601814N00950073EA0000000917
B1227315601824N00949901EA0000000912
B1227365601827N00949756EA0000000906
B1227455601830N00949485EA0000000889
B1227505601834N00949327EA0000000892
B1227555601833N00949181EA0000000915
B1228015601822N00949021EA0000000896
B1228095601817N00948785EA0000000880
B1228205601836N00948476EA0000000858
B1228255601882N00948353EA0000000845
B1228325601981N00948208EA0000000832
B1228405602097N00948049EA0000000835
B1228455602165N00947948EA0000000842
B1228525602243N00947815EA0000000864
B1228575602304N00947726EA0000000843
B1229045602406N00947609EA0000000841
B1229095602478N00947525EA0000000839
B1229185602605N00947380EA0000000828
B1229235602678N00947309EA0000000823
B1229305602789N00947219EA0000000808
B1229375602903N00947134EA0000000820
B1229425602970N00947081EA0000000852
B1229475603039N00947121EA0000000877
B1229565602971N00947336EA0000000888
B1230025602930N00947240EA0000000890
B1230085603001N00947290EA0000000911
B1230135602974N00947450EA0000000915
B1230185602898N00947447EA0000000919
B1230245602915N00947345EA0000000935
B1230305602982N00947453EA0000000941
B1230375602935N00947660EA0000000960
B1230435602848N00947648EA0000000954
B1230485602869N00947567EA0000000962
B1230535602938N00947610EA0000000968
B1231005602921N00947826EA0000000979
B1231055602849N00947803EA0000000986
B1231105602877N00947741EA0000001000
B1231195602888N00947978EA0000001004
B1231245602821N00947950EA0000001007
B1231295602864N00947902EA0000001017
B1231375602877N00948127EA0000001023
B1231445602774N00948107EA0000001039
B1231495602786N00948033EA0000001045
B1232015602750N00948300EA0000001059
B1232065602704N00948241EA0000001061
B1232125602757N00948190EA0000001063
B1232175602815N00948302EA0000001069
B1232265602727N00948488EA0000001079
B1232325602731N00948400EA0000001085
B1232375602794N00948485EA0000001090
B1232465602707N00948663EA0000001102
B1232515602705N00948577EA0000001109
B1232565602770N00948635EA0000001113
B1233055602687N00948798EA0000001120
B1233105602701N00948715EA0000001131
B1233215602691N00948962EA0000001139
B1233285602661N00948861EA0000001153
B1233335602724N00948913EA0000001151
B1233445602620N00949065EA0000001170
B1233495602642N00948985EA0000001176
B1233555602710N00949101EA0000001176
B1234005602671N00949260EA0000001186
B1234085602558N00949279EA0000001201
B1234135602578N00949206EA0000001204
B1234335602511N00949352EA0000001206
B1234415602443N00949153EA0000001188
B1234465602399N00949024EA0000001178
B1234515602355N00948891EA0000001170
B1235065602181N00948560EA0000001207
B1235235601983N00948268EA0000001221
B1235295601921N00948122EA0000001221
B1235345601872N00948007EA0000001238
B1235405601816N00947882EA0000001255
B1235465601765N00947759EA0000001258
B1235545601702N00947567EA0000001254
B1236035601629N00947342EA0000001246
B1236125601557N00947106EA0000001268
B1236175601512N00946977EA0000001266
B1236255601429N00946746EA0000001260
B1236335601357N00946525EA0000001275
B1236405601328N00946320EA0000001267
B1236465601336N00946140EA0000001262
B1236555601398N00945879EA0000001246
B1237025601449N00945679EA0000001241
B1237075601483N00945538EA0000001234
B1237135601525N00945367EA0000001224
B1237225601594N00945111EA0000001211
B1237285601641N00944941EA0000001202
B1237375601711N00944691EA0000001194
B1237445601764N00944503EA0000001188
B1237575601860N00944166EA0000001174
B1238035601905N00944014EA0000001169
B1238205602024N00943576EA0000001154
B1238285602075N00943370EA0000001148
B1238415602137N00943024EA0000001127
B1238495602150N00942798EA0000001114
B1238575602160N00942570EA0000001102
B1239085602204N00942263EA0000001086
B1239135602222N00942120EA0000001076
B1239185602240N00941973EA0000001072
B1239265602263N00941748EA0000001071
B1239325602281N00941584EA0000001063
B1239425602312N00941307EA0000001052
B1239495602335N00941115EA0000001047
B1239545602352N00940982EA0000001041
B1240045602387N00940710EA0000001026
B1240115602417N00940521EA0000001016
B1240285602496N00940067EA0000000993
B1240345602530N00939909EA0000000984
B1240425602590N00939704EA0000000973
B1240505602650N00939510EA0000000975
B1240555602684N00939394EA0000000969
B1241015602724N00939254EA0000000961
B1241065602760N00939137EA0000000957
B1241125602807N00939002EA0000000953
B1241185602854N00938869EA0000000945
B1241235602894N00938753EA0000000936
B1241285602931N00938633EA0000000928
B1241415603028N00938323EA0000000912
B1241525603106N00938066EA0000000900
B1241585603148N00937931EA0000000893
B1242065603200N00937747EA0000000885
B1242115603234N00937631EA0000000881
B1242175603274N00937494EA0000000876
B1242275603337N00937268EA0000000866
B1242335603373N00937130EA0000000859
B1242415603415N00936939EA0000000850
B1242485603459N00936778EA0000000839
B1242535603496N00936669EA0000000833
B1242585603533N00936562EA0000000826
B1243075603600N00936373EA0000000813
B1243125603638N00936265EA0000000806
B1243205603696N00936089EA0000000793
B1243295603760N00935887EA0000000782
B1243405603832N00935628EA0000000764
B1243465603872N00935481EA0000000753
B1243535603921N00935307EA0000000741
B1244005603974N00935140EA0000000736
B1244065604018N00934995EA0000000727
B1244115604054N00934871EA0000000715
B1244195604110N00934669EA0000000702
B1244245604151N00934549EA0000000692
B1244305604239N00934468EA0000000682
B1244355604323N00934428EA0000000673
B1244435604458N00934364EA0000000667
B1244485604545N00934332EA0000000663
B1244545604644N00934291EA0000000671
B1245015604744N00934217EA0000000659
B1245105604852N00934056EA0000000647
B1245185604922N00933872EA0000000631
B1245235604958N00933744EA0000000618
B1246225605027N00932209EA0000000601
B1246385605059N00932427EA0000000614
B1246435605045N00932343EA0000000621
B1246505604951N00932435EA0000000626
B1246555604975N00932587EA0000000630
B1247015605059N00932610EA0000000639
B1247075605055N00932519EA0000000653
B1247155604990N00932702EA0000000654
B1247205605059N00932768EA0000000667
B1247285605057N00932650EA0000000692
B1247335604988N00932720EA0000000697
B1247395605010N00932900EA0000000700
B1247465605062N00932833EA0000000725
B1247525604978N00932869EA0000000732
B1247585604998N00933053EA0000000746
B1248085605016N00932964EA0000000772
B1248135604954N00933070EA0000000783
B1248185604996N00933195EA0000000789
B1248245605022N00933108EA0000000811
B1248325604931N00933227EA0000000823
B1248395605008N00933324EA0000000840
B1248445605006N00933231EA0000000853
B1248505604923N00933299EA0000000870
B1248565604959N00933464EA0000000877
B1249015605015N00933419EA0000000896
B1249065604968N00933354EA0000000911
B1249135604920N00933537EA0000000931
B1249185604987N00933586EA0000000938
B1249235604995N00933492EA0000000957
B1249285604922N00933516EA0000000970
B1249365604957N00933718EA0000000987
B1249425604985N00933625EA0000001001
B1249475604914N00933639EA0000001013
B1249525604900N00933801EA0000001014
B1249585604974N00933826EA0000001033
B1250045604931N00933748EA0000001042
B1250115604886N00933943EA0000001052
B1250165604954N00933987EA0000001065
B1250225604942N00933888EA0000001072
B1250315604881N00934093EA0000001086
B1250375604958N00934101EA0000001097
B1250425604932N00934018EA0000001098
B1250475604860N00934091EA0000001108
B1251145604832N00934330EA0000001139
B1251195604897N00934392EA0000001143
B1251255604938N00934280EA0000001131
B1251315604953N00934116EA0000001110
B1251375604966N00933928EA0000001098
B1251435604961N00933735EA0000001092
B1251485604958N00933580EA0000001101
B1251535604956N00933440EA0000001108
B1251585604960N00933302EA0000001107
B1252065604949N00933077EA0000001104
B1252125604954N00932939EA0000001133
B1252175604975N00932842EA0000001137
B1252235604916N00932746EA0000001154
B1252315604860N00932584EA0000001146
B1252375604834N00932422EA0000001120
B1252435604804N00932251EA0000001123
B1252485604760N00932121EA0000001139
B1252545604708N00931971EA0000001141
B1252595604669N00931852EA0000001170
B1253045604699N00931784EA0000001190
B1253125604710N00932004EA0000001182
B1253195604622N00931926EA0000001200
B1253265604577N00931760EA0000001226
B1253335604530N00931587EA0000001219
B1253385604499N00931448EA0000001220
B1253475604442N00931195EA0000001233
B1253595604369N00930865EA0000001234
B1254045604340N00930730EA0000001221
B1254165604273N00930395EA0000001196
B1254235604276N00930202EA0000001219
B1254365604274N00929857EA0000001204
B1254425604264N00929688EA0000001227
B1254475604247N00929560EA0000001252
B1254525604225N00929456EA0000001285
B1254575604203N00929356EA0000001278
B1255065604159N00929122EA0000001260
B1255135604121N00928927EA0000001246
B1255185604096N00928779EA0000001238
B1255255604063N00928574EA0000001233
B1255325604032N00928378EA0000001228
B1255385604009N00928212EA0000001220
B1255455603988N00928019EA0000001215
B1255545603958N00927776EA0000001205
B1256035603922N00927537EA0000001194
B1256085603901N00927406EA0000001191
B1256145603873N00927252EA0000001186
B1256235603839N00927019EA0000001172
B1256285603821N00926891EA0000001164
B1256355603795N00926708EA0000001152
B1256445603762N00926473EA0000001139
B1256515603738N00926287EA0000001124
B1256575603714N00926126EA0000001116
B1257035603685N00925965EA0000001102
B1257085603662N00925823EA0000001094
B1257145603644N00925648EA0000001089
B1257275603616N00925274EA0000001079
B1257335603603N00925105EA0000001075
B1257385603588N00924964EA0000001068
B1257455603555N00924769EA0000001060
B1257595603516N00924376EA0000001041
B1258075603507N00924153EA0000001033
B1258145603482N00923964EA0000001024
B1258225603464N00923746EA0000001010
B1258275603457N00923605EA0000001002
B1258395603436N00923262EA0000000986
B1258445603398N00923128EA0000000977
B1258525603307N00922930EA0000000962
B1258575603244N00922805EA0000000943
B1259025603182N00922674EA0000000942
B1259075603122N00922549EA0000000937
B1259145603037N00922381EA0000000928
B1259195602977N00922263EA0000000923
B1259255602904N00922125EA0000000914
B1259325602812N00921973EA0000000905
B1259415602687N00921784EA0000000895
B1259485602594N00921636EA0000000887
B1259545602514N00921514EA0000000883
B1300015602420N00921382EA0000000877
B1300095602314N00921230EA0000000867
B1300155602232N00921118EA0000000863
B1300205602164N00921028EA0000000859
B1300285602053N00920885EA0000000845
B1300345601969N00920780EA0000000837
B1300395601902N00920689EA0000000830
B1300465601809N00920553EA0000000823
B1300525601732N00920433EA0000000816
B1300575601670N00920331EA0000000811
B1301025601606N00920229EA0000000806
B1301105601502N00920067EA0000000797
B1301195601391N00919880EA0000000792
B1301275601292N00919714EA0000000783
B1301365601180N00919522EA0000000775
B1301435601093N00919374EA0000000773
B1301535600963N00919174EA0000000765
B1301585600900N00919075EA0000000759
B1302095600754N00918847EA0000000745
B1302145600695N00918733EA0000000746
B1302195600646N00918616EA0000000740
B1302255600597N00918462EA0000000725
B1302315600572N00918297EA0000000717
B1302365600583N00918161EA0000000708
B1302425600598N00917993EA0000000694
B1302485600627N00917829EA0000000688
B1302585600675N00917568EA0000000687
B1303055600712N00917381EA0000000661
B1303125600751N00917196EA0000000652
B1303185600788N00917034EA0000000624
B1303235600820N00916884EA0000000609
B1303345600908N00916604EA0000000610
B1303435600986N00916823EA0000000626
B1303485600917N00916958EA0000000597
B1303545600797N00917093EA0000000563
B1303595600688N00917196EA0000000546
B1304075600519N00917385EA0000000536
B1304135600403N00917555EA0000000537
B1304195600281N00917665EA0000000548
B1304285600161N00917605EA0000000583
B1304335600224N00917606EA0000000577
B1304395600220N00917809EA0000000586
B1304445600147N00917812EA0000000598
B1304495600164N00917730EA0000000599
B1304565600226N00917900EA0000000599
B1305015600159N00918020EA0000000615
B1305065600109N00917963EA0000000620
B1305175600185N00918100EA0000000632
B1305235600097N00918130EA0000000634
B1305345600176N00918192EA0000000644
B1305395600111N00918303EA0000000655
B1305445600064N00918234EA0000000651
B1305555600153N00918392EA0000000668
B1306005600075N00918435EA0000000668
B1306165600158N00918521EA0000000687
B1306215600086N00918598EA0000000688
B1306395600097N00918654EA0000000698
B1306445600021N00918672EA0000000692
B1306495559995N00918572EA0000000700
B1306545600045N00918504EA0000000704
B1307025600120N00918670EA0000000737
B1307075600054N00918765EA0000000738
B1307125600017N00918690EA0000000732
B1307235600129N00918735EA0000000760
B1307285600070N00918862EA0000000761
B1307345600023N00918780EA0000000773
B1307445600124N00918912EA0000000783
B1307505600039N00919004EA0000000780
B1307555600003N00918909EA0000000786
B1308025600084N00918888EA0000000794
B1308075600104N00919053EA0000000797
B1308125600033N00919113EA0000000797
B1308195600042N00918988EA0000000795
B1308255600131N00918988EA0000000793
B1308315600166N00919186EA0000000792
B1308365600106N00919307EA0000000796
B1308415600045N00919261EA0000000795
B1308465600057N00919169EA0000000802
B1308515600130N00919196EA0000000799
B1308565600147N00919366EA0000000803
B1309015600082N00919450EA0000000803
B1309065600032N00919386EA0000000801
B1309135600057N00919272EA0000000802
B1309185600131N00919261EA0000000793
B1309235600190N00919202EA0000000789
B1309295600217N00919078EA0000000783
B1309345600267N00918997EA0000000789
B1309395600241N00918915EA0000000789
B1309455600173N00919053EA0000000796
B1309505600228N00919167EA0000000798
B1309555600275N00919107EA0000000793
B1310015600216N00919028EA0000000786
B1310095600103N00919154EA0000000789
B1310155600161N00919318EA0000000799
B1310205600192N00919251EA0000000800
B1310285600105N00919376EA0000000787
B1310335600142N00919551EA0000000805
B1310405600230N00919554EA0000000807
B1310465600234N00919438EA0000000807
B1310525600246N00919319EA0000000782
B1310585600262N00919174EA0000000776
B1311035600273N00919053EA0000000766
B1311085600280N00918920EA0000000771
B1311145600264N00918788EA0000000801
B1311215600266N00918640EA0000000780
B1311285600271N00918465EA0000000774
B1311345600270N00918316EA0000000786
B1311395600265N00918205EA0000000783
B1311455600259N00918055EA0000000774
B1312015600260N00917661EA0000000761
B1312085600262N00917473EA0000000749
B1312135600267N00917336EA0000000746
B1312185600272N00917210EA0000000757
B1312235600277N00917087EA0000000744
B1312315600287N00916862EA0000000726
B1312365600295N00916719EA0000000719
B1312425600290N00916548EA0000000722
B1312485600260N00916411EA0000000738
B1312535600249N00916303EA0000000718
B1312595600296N00916187EA0000000707
B1313045600366N00916133EA0000000701
B1313095600420N00916048EA0000000694
B1313145600465N00915944EA0000000682
B1313195600511N00915838EA0000000679
B1313245600559N00915737EA0000000675
B1313315600632N00915600EA0000000667
B1313385600708N00915470EA0000000661
B1313465600797N00915325EA0000000656
B1313525600872N00915228EA0000000653
B1313585600925N00915112EA0000000665
B1314035600956N00915018EA0000000682
B1314095600954N00914905EA0000000685
B1314155600977N00914818EA0000000683
B1314205601047N00914888EA0000000686
B1314255601070N00915042EA0000000696
B1314315601001N00915214EA0000000710
B1314365600930N00915200EA0000000714
B1314415600955N00915120EA0000000706
B1314465601021N00915179EA0000000712
B1314515601033N00915334EA0000000725
B1314575600946N00915389EA0000000737
B1315035600951N00915294EA0000000737
B1315085601016N00915327EA0000000726
B1315155601010N00915556EA0000000753
B1315205600934N00915582EA0000000756
B1315265600899N00915446EA0000000746
B1315325600885N00915278EA0000000730
B1315385600872N00915099EA0000000725
B1315445600859N00914921EA0000000721
B1315525600837N00914689EA0000000719
B1315585600814N00914518EA0000000715
B1316045600791N00914344EA0000000710
B1316105600773N00914167EA0000000701
B1316155600761N00914015EA0000000693
B1316215600749N00913834EA0000000692
B1316265600739N00913689EA0000000695
B1316345600722N00913463EA0000000692
B1316395600713N00913322EA0000000688
B1316465600709N00913123EA0000000683
B1316535600706N00912922EA0000000677
B1317015600700N00912689EA0000000671
B1317075600694N00912517EA0000000662
B1317135600688N00912346EA0000000652
B1317205600681N00912145EA0000000644
B1317275600674N00911941EA0000000623
B1317335600664N00911761EA0000000615
B1317385600656N00911612EA0000000608
B1317445600649N00911435EA0000000602
B1317505600644N00911260EA0000000593
B1317555600640N00911114EA0000000584
B1318075600637N00910769EA0000000570
B1318325600638N00910055EA0000000544
B1318405600637N00909830EA0000000534
B1318495600635N00909575EA0000000525
B1319005600630N00909268EA0000000514
B1319055600629N00909131EA0000000508
B1319115600626N00908965EA0000000499
B1319225600620N00908661EA0000000485
B1319465600619N00908008EA0000000461
B1319545600618N00907789EA0000000450
B1320005600617N00907623EA0000000440
B1320235600622N00906975EA0000000401
B1320345600624N00906670EA0000000384
B1320395600626N00906533EA0000000377
B1320475600634N00906317EA0000000364
B1320555600644N00906098EA0000000351
B1321045600652N00905841EA0000000330
B1321155600661N00905523EA0000000314
B1321275600673N00905179EA0000000299
B1321375600680N00904891EA0000000282
B1321455600687N00904661EA0000000272
B1321565600685N00904342EA0000000257
B1322025600686N00904171EA0000000249
B1322085600692N00903997EA0000000241
B1322155600699N00903814EA0000000251
B1322205600704N00903686EA0000000240
B1322255600713N00903543EA0000000211
B1322305600731N00903385EA0000000201
B1322355600745N00903222EA0000000188
B1322425600761N00902982EA0000000171
B1322485600770N00902762EA0000000148
B1322535600772N00902566EA0000000125
B1322585600761N00902362EA0000000108
B1323055600742N00902075EA0000000091
B1323125600729N00901791EA0000000076
B1323195600705N00901514EA0000000061
B1323245600688N00901316EA0000000045
B1323315600662N00901043EA0000000038
B1323365600647N00900885EA0000000038
B1323445600627N00900660EA0000000036
B1323515600605N00900501EA0000000035
B1323575600594N00900418EA0000000036
