AOGNOGN
HFDTE100825
HFFXA050
HFPLTPILOTINCHARGE:
HFGTYGLIDERTYPE:ASW-22 BL
HFGIDGLIDERID:D-3593
HFDTM100GPSDATUM:WGS-1984
HFRFWFIRMWAREVERSION:
HFRHWHARDWAREVERSION:
HFFTYFRTYPE:OGN-FLIGHTBOOK
HFGPSGENERIC
HFPRSPRESSALTSENSOR:
HFCIDCOMPETITIONID:22
B1039065600712N00901528EA0000000031
B1039085600710N00901496EA0000000031
B1039135600701N00901394EA0000000031
B1039195600688N00901242EA0000000034
B1039245600675N00901105EA0000000047
B1039305600663N00900947EA0000000067
B1039375600648N00900753EA0000000088
B1039425600631N00900621EA0000000112
B1039485600614N00900485EA0000000136
B1039545600593N00900349EA0000000147
B1040015600572N00900188EA0000000163
B1040085600539N00900025EA0000000175
B1040145600499N00859890EA0000000193
B1040225600453N00859713EA0000000204
B1040285600413N00859578EA0000000215
B1040335600381N00859459EA0000000217
B1040385600347N00859340EA0000000230
B1040435600306N00859230EA0000000243
B1040505600226N00859100EA0000000258
B1040585600098N00859002EA0000000273
B1041055559976N00858943EA0000000296
B1041115559869N00858935EA0000000318
B1041175559753N00858961EA0000000329
B1041235559645N00859050EA0000000360
B1041295559552N00859208EA0000000365
B1041345559498N00859392EA0000000370
B1041395559456N00859590EA0000000389
B1041445559417N00859775EA0000000409
B1041495559379N00859958EA0000000423
B1041565559319N00900216EA0000000439
B1042025559267N00900442EA0000000465
B1042075559212N00900616EA0000000483
B1042125559155N00900788EA0000000496
B1042185559101N00901007EA0000000508
B1042235559067N00901188EA0000000508
B1042305559034N00901451EA0000000491
B1042355559013N00901641EA0000000484
B1042425558982N00901910EA0000000479
B1042485558953N00902122EA0000000492
B1042575558909N00902438EA0000000493
B1043025558883N00902619EA0000000491
B1043075558855N00902799EA0000000493
B1043155558802N00903084EA0000000507
B1043215558758N00903294EA0000000523
B1043265558689N00903385EA0000000551
B1043315558642N00903334EA0000000559
B1043365558679N00903290EA0000000559
B1043415558731N00903394EA0000000561
B1043465558732N00903552EA0000000579
B1043515558683N00903669EA0000000592
B1043565558622N00903663EA0000000605
B1044015558638N00903599EA0000000600
B1044065558706N00903620EA0000000607
B1044145558765N00903820EA0000000634
B1044195558701N00903895EA0000000648
B1044255558703N00903811EA0000000667
B1044305558757N00903890EA0000000680
B1044355558724N00904024EA0000000696
B1044405558666N00903995EA0000000708
B1044455558688N00903914EA0000000720
B1044505558752N00903948EA0000000739
B1044555558768N00904096EA0000000752
B1045005558709N00904195EA0000000762
B1045055558661N00904137EA0000000776
B1045105558703N00904069EA0000000784
B1045165558771N00904187EA0000000807
B1045215558735N00904323EA0000000812
B1045265558671N00904305EA0000000826
B1045315558671N00904212EA0000000838
B1045405558749N00904352EA0000000860
B1045455558695N00904459EA0000000868
B1045505558649N00904401EA0000000877
B1045555558670N00904316EA0000000887
B1046005558735N00904367EA0000000898
B1046055558738N00904529EA0000000915
B1046105558672N00904596EA0000000922
B1046155558648N00904515EA0000000923
B1046205558689N00904448EA0000000936
B1046275558772N00904564EA0000000941
B1046325558745N00904728EA0000000954
B1046375558678N00904754EA0000000963
B1046425558677N00904660EA0000000965
B1046485558750N00904650EA0000000978
B1046535558779N00904802EA0000000981
B1046585558728N00904934EA0000000987
B1047035558677N00904895EA0000000992
B1047085558687N00904801EA0000001001
B1047135558739N00904772EA0000001008
B1047185558784N00904882EA0000001020
B1047235558744N00905023EA0000001023
B1047285558689N00905006EA0000001035
B1047345558724N00904936EA0000001033
B1047395558780N00905021EA0000001041
B1047455558757N00905204EA0000001035
B1047505558687N00905232EA0000001055
B1047565558680N00905138EA0000001054
B1048015558740N00905152EA0000001051
B1048065558778N00905294EA0000001066
B1048155558750N00905622EA0000001045
B1048205558750N00905828EA0000001038
B1048285558829N00906098EA0000001021
B1048365558922N00906343EA0000001009
B1048425558993N00906521EA0000000996
B1048475559052N00906676EA0000000989
B1048525559111N00906833EA0000000981
B1048575559171N00906989EA0000000980
B1049055559262N00907239EA0000000979
B1049125559339N00907450EA0000000979
B1049195559413N00907661EA0000000975
B1049275559496N00907906EA0000000975
B1049335559558N00908085EA0000000971
B1049425559658N00908341EA0000000957
B1049515559749N00908596EA0000000938
B1049565559794N00908758EA0000000929
B1050045559851N00909045EA0000000920
B1050115559893N00909305EA0000000923
B1050165559917N00909489EA0000000928
B1050215559940N00909673EA0000000916
B1050265559968N00909867EA0000000894
B1050315600003N00910063EA0000000900
B1050375600036N00910285EA0000000910
B1050425600058N00910463EA0000000922
B1050505600132N00910658EA0000000952
B1050555600161N00910588EA0000000971
B1051005600098N00910571EA0000000979
B1051075600070N00910756EA0000001006
B1051125600126N00910800EA0000001007
B1051175600131N00910721EA0000001020
B1051225600058N00910748EA0000001030
B1051275600029N00910893EA0000001048
B1051325600078N00910983EA0000001053
B1051375600120N00910925EA0000001058
B1051435600061N00910871EA0000001074
B1051495600008N00911026EA0000001086
B1051545600048N00911146EA0000001094
B1051595600102N00911120EA0000001106
B1052045600081N00911038EA0000001121
B1052095600013N00911051EA0000001129
B1052145559978N00911192EA0000001136
B1052195600024N00911295EA0000001145
B1052245600065N00911239EA0000001152
B1052295600031N00911164EA0000001164
B1052345559958N00911203EA0000001179
B1052395559945N00911352EA0000001193
B1052445600000N00911420EA0000001196
B1052495600036N00911351EA0000001205
B1052545600009N00911261EA0000001217
B1052595559935N00911242EA0000001225
B1053075559844N00911447EA0000001242
B1053125559869N00911596EA0000001255
B1053175559931N00911629EA0000001261
B1053225559952N00911551EA0000001274
B1053275559900N00911495EA0000001285
B1053335559822N00911608EA0000001301
B1053395559860N00911742EA0000001305
B1053445559921N00911701EA0000001301
B1053495559975N00911625EA0000001309
B1053555600045N00911528EA0000001321
B1054015600115N00911423EA0000001342
B1054065600178N00911332EA0000001346
B1054125600256N00911209EA0000001348
B1054175600329N00911111EA0000001364
B1054245600420N00910989EA0000001372
B1054305600498N00910883EA0000001357
B1054395600608N00910726EA0000001357
B1054455600678N00910626EA0000001347
B1054515600719N00910487EA0000001342
B1054565600705N00910350EA0000001340
B1055025600662N00910192EA0000001342
B1055075600620N00910075EA0000001349
B1055145600559N00909919EA0000001343
B1055235600484N00909712EA0000001333
B1055305600435N00909544EA0000001323
B1055355600400N00909425EA0000001321
B1055435600345N00909239EA0000001320
B1055505600297N00909084EA0000001318
B1055555600267N00908976EA0000001317
B1056015600231N00908850EA0000001313
B1056105600171N00908665EA0000001305
B1056185600114N00908493EA0000001293
B1056245600070N00908357EA0000001285
B1056325600008N00908172EA0000001276
B1056405559951N00907981EA0000001266
B1056485559898N00907776EA0000001249
B1056545559865N00907613EA0000001237
B1056595559844N00907473EA0000001232
B1057085559812N00907223EA0000001230
B1057135559793N00907089EA0000001225
B1057185559782N00906953EA0000001217
B1057245559790N00906790EA0000001209
B1057305559826N00906625EA0000001192
B1057365559879N00906459EA0000001187
B1057425559939N00906301EA0000001181
B1057475559994N00906175EA0000001173
B1057545600073N00906001EA0000001166
B1058005600136N00905848EA0000001157
B1058055600187N00905716EA0000001143
B1058115600248N00905553EA0000001152
B1058185600323N00905384EA0000001161
B1058235600380N00905267EA0000001168
B1058305600466N00905098EA0000001171
B1058355600539N00904976EA0000001173
B1058425600655N00904798EA0000001174
B1058475600741N00904654EA0000001158
B1058545600864N00904438EA0000001166
B1058595600946N00904276EA0000001164
B1059045601023N00904126EA0000001186
B1059105601103N00903979EA0000001201
B1059165601178N00903841EA0000001201
B1059215601237N00903716EA0000001185
B1059285601315N00903526EA0000001173
B1059345601380N00903357EA0000001163
B1059415601455N00903153EA0000001144
B1059465601506N00903007EA0000001140
B1059525601560N00902834EA0000001139
B1059595601615N00902638EA0000001139
B1100055601649N00902474EA0000001139
B1100105601674N00902337EA0000001126
B1100175601709N00902138EA0000001114
B1100225601738N00901993EA0000001105
B1100275601767N00901845EA0000001090
B1100335601800N00901666EA0000001075
B1100385601832N00901523EA0000001074
B1100455601873N00901324EA0000001071
B1100505601902N00901184EA0000001064
B1100555601931N00901047EA0000001060
B1101025601971N00900849EA0000001039
B1101085602011N00900669EA0000001035
B1101135602040N00900534EA0000001050
B1101195602076N00900375EA0000001027
B1101265602122N00900181EA0000001021
B1101315602147N00900048EA0000001018
B1101375602175N00859892EA0000001008
B1101425602198N00859759EA0000001003
B1101485602220N00859603EA0000001003
B1101545602244N00859448EA0000000991
B1102025602270N00859230EA0000000999
B1102085602281N00859064EA0000000991
B1102155602264N00858857EA0000001000
B1102205602239N00858723EA0000001031
B1102265602211N00858593EA0000001046
B1102325602181N00858435EA0000001026
B1102385602148N00858270EA0000001039
B1102445602115N00858119EA0000001047
B1102495602086N00858005EA0000001045
B1102545602053N00857877EA0000001007
B1103015602008N00857674EA0000000996
B1103105601968N00857425EA0000000990
B1103185601946N00857205EA0000000982
B1103235601935N00857069EA0000000975
B1103315601923N00856851EA0000000967
B1103365601915N00856717EA0000000969
B1103445601910N00856501EA0000000964
B1103525601945N00856299EA0000000952
B1103585602004N00856162EA0000000939
B1104035602051N00856066EA0000000973
B1104095602094N00855981EA0000000987
B1104155602141N00855885EA0000000981
B1104225602199N00855757EA0000000971
B1104285602246N00855644EA0000000963
B1104385602336N00855433EA0000000920
B1104445602392N00855283EA0000000910
B1104495602438N00855161EA0000000899
B1104555602495N00855021EA0000000900
B1105015602550N00854884EA0000000892
B1105065602594N00854766EA0000000887
B1105115602630N00854644EA0000000882
B1105195602712N00854457EA0000000868
B1105255602777N00854313EA0000000862
B1105365602886N00854044EA0000000859
B1105435602951N00853875EA0000000844
B1105485602994N00853742EA0000000836
B1105565603036N00853516EA0000000842
B1106025603057N00853352EA0000000850
B1106085603077N00853194EA0000000847
B1106155603094N00853003EA0000000860
B1106205603105N00852887EA0000000882
B1106255603114N00852789EA0000000901
B1106315603124N00852676EA0000000902
B1106375603137N00852549EA0000000892
B1106445603156N00852355EA0000000879
B1106535603174N00852089EA0000000867
B1106595603182N00851910EA0000000859
B1107055603189N00851730EA0000000852
B1107105603193N00851581EA0000000844
B1107185603204N00851342EA0000000828
B1107235603209N00851194EA0000000828
B1107285603213N00851056EA0000000830
B1107345603219N00850896EA0000000820
B1107395603230N00850761EA0000000820
B1107445603246N00850637EA0000000827
B1107505603270N00850507EA0000000843
B1107575603300N00850375EA0000000845
B1108065603349N00850233EA0000000881
B1108165603389N00850108EA0000000899
B1108225603406N00850034EA0000000904
B1108325603423N00849879EA0000000934
B1108385603433N00849788EA0000000942
B1108455603449N00849656EA0000000908
B1108535603452N00849439EA0000000880
B1109055603447N00849107EA0000000877
B1109125603451N00848916EA0000000866
B1109265603450N00848517EA0000000843
B1109375603450N00848227EA0000000850
B1109435603452N00848084EA0000000863
B1109555603457N00847846EA0000000871
B1110015603455N00847711EA0000000866
B1110065603449N00847609EA0000000883
B1110115603440N00847512EA0000000888
B1110195603425N00847356EA0000000879
B1110265603416N00847195EA0000000870
B1110335603406N00847033EA0000000869
B1110395603398N00846905EA0000000876
B1110465603388N00846754EA0000000863
B1110555603380N00846548EA0000000844
B1111085603374N00846246EA0000000841
B1111195603379N00846002EA0000000825
B1111275603366N00845818EA0000000833
B1111435603321N00845443EA0000000814
B1112115603309N00844759EA0000000784
B1112455603308N00843984EA0000000795
B1112525603303N00843869EA0000000822
B1113035603298N00843673EA0000000792
B1113085603296N00843548EA0000000774
B1113215603301N00843211EA0000000771
B1113285603316N00843040EA0000000766
B1113375603339N00842826EA0000000749
B1113435603350N00842691EA0000000757
B1113505603352N00842555EA0000000777
B1114365603401N00841588EA0000000746
B1114425603428N00841446EA0000000738
B1114495603466N00841284EA0000000723
B1122435604428N00834259EA0000001118
B1122535604486N00834075EA0000001126
B1123015604539N00833923EA0000001130
B1123065604573N00833820EA0000001137
B1123125604611N00833696EA0000001134
B1123175604645N00833578EA0000001143
B1123265604698N00833352EA0000001129
B1123475604816N00832836EA0000001116
B1123575604883N00832596EA0000001108
B1124025604920N00832482EA0000001104
B1124195605039N00832119EA0000001083
B1124265605084N00831955EA0000001075
B1124355605129N00831742EA0000001069
B1124455605164N00831510EA0000001056
B1124515605181N00831367EA0000001045
B1125035605209N00831068EA0000001026
B1125105605222N00830882EA0000001015
B1125165605226N00830720EA0000001007
B1125335605198N00830264EA0000000990
B1125385605129N00830202EA0000001009
B1125435605038N00830245EA0000001010
B1125485604961N00830375EA0000001013
B1125545604894N00830583EA0000001006
B1126025604846N00830862EA0000001018
B1126075604822N00831043EA0000001031
B1126165604782N00831343EA0000001058
B1126215604756N00831503EA0000001059
B1126275604725N00831721EA0000001045
B1126325604700N00831909EA0000001059
B1126415604656N00832227EA0000001071
B1126465604629N00832408EA0000001069
B1126515604602N00832601EA0000001065
B1127115604500N00833365EA0000001083
B1127185604462N00833597EA0000001097
B1127235604431N00833753EA0000001100
B1127325604380N00834041EA0000001104
B1127395604339N00834275EA0000001103
B1127505604261N00834640EA0000001107
B1128005604195N00834989EA0000001088
B1128065604168N00835202EA0000001089
B1128125604139N00835413EA0000001071
B1128225604091N00835812EA0000001048
B1128275604067N00836012EA0000001056
B1128325604045N00836203EA0000001067
B1128385604022N00836424EA0000001064
B1128455603995N00836703EA0000001040
B1128515603969N00836953EA0000001017
B1128595603923N00837303EA0000001004
B1129045603891N00837514EA0000001006
B1129125603844N00837859EA0000000975
B1129175603813N00838085EA0000000975
B1129265603757N00838473EA0000000996
B1129315603728N00838661EA0000000994
B1129365603694N00838865EA0000000978
B1129425603644N00839124EA0000000976
B1129485603598N00839384EA0000000981
B1129535603566N00839579EA0000001022
B1129585603541N00839725EA0000001038
B1130035603517N00839868EA0000001047
B1130105603481N00840079EA0000001043
B1130175603457N00840325EA0000001049
B1130225603442N00840508EA0000001050
B1130275603428N00840700EA0000001054
B1130395603389N00841170EA0000001054
B1130445603370N00841369EA0000001047
B1130505603349N00841610EA0000001041
B1130565603329N00841854EA0000001026
B1131025603311N00842110EA0000001005
B1131105603284N00842463EA0000000982
B1131155603268N00842684EA0000000973
B1131205603244N00842875EA0000001029
B1131255603229N00843019EA0000001061
B1131325603203N00843218EA0000001064
B1131415603157N00843530EA0000001068
B1131465603126N00843718EA0000001081
B1131515603096N00843888EA0000001095
B1131575603052N00844103EA0000001075
B1132045602984N00844396EA0000001038
B1132145602875N00844846EA0000001022
B1132225602788N00845197EA0000001022
B1132275602735N00845418EA0000001018
B1132325602682N00845639EA0000001021
B1132385602620N00845895EA0000001027
B1132455602548N00846180EA0000001032
B1132525602473N00846460EA0000001027
B1132585602414N00846701EA0000001020
B1133035602365N00846908EA0000001007
B1133105602299N00847215EA0000001000
B1133155602257N00847437EA0000000999
B1133225602196N00847746EA0000001000
B1133275602153N00847958EA0000001012
B1133325602115N00848151EA0000001026
B1133405602066N00848425EA0000001051
B1133505602009N00848771EA0000001052
B1133565601983N00848985EA0000001054
B1134015601971N00849176EA0000001064
B1134085602002N00849434EA0000001073
B1134145602053N00849636EA0000001079
B1134195602095N00849806EA0000001072
B1134255602148N00850004EA0000001066
B1134315602206N00850203EA0000001060
B1134365602252N00850388EA0000001057
B1134435602295N00850667EA0000001053
B1134505602311N00850958EA0000001049
B1134585602313N00851291EA0000001043
B1135045602295N00851547EA0000001040
B1135095602279N00851752EA0000001060
B1135145602265N00851941EA0000001067
B1135205602257N00852175EA0000001055
B1135255602258N00852386EA0000001055
B1135305602262N00852590EA0000001064
B1135365602266N00852817EA0000001071
B1135435602277N00853099EA0000001053
B1135485602290N00853312EA0000001046
B1135595602310N00853781EA0000001034
B1136065602317N00854083EA0000001020
B1136125602323N00854343EA0000001020
B1136285602321N00854988EA0000001013
B1136365602306N00855319EA0000001010
B1136445602283N00855632EA0000001023
B1136525602259N00855929EA0000001024
B1136575602243N00856114EA0000001020
B1137025602229N00856311EA0000001018
B1137075602216N00856506EA0000001038
B1137125602203N00856687EA0000001038
B1137175602183N00856877EA0000001029
B1137225602160N00857059EA0000001051
B1137275602137N00857230EA0000001050
B1137335602112N00857450EA0000001041
B1137385602088N00857642EA0000001041
B1137435602066N00857837EA0000001040
B1137485602046N00858037EA0000001038
B1137535602028N00858241EA0000001025
B1138005602005N00858558EA0000000984
B1138105601972N00859065EA0000000956
B1138165601953N00859373EA0000000943
B1138235601933N00859724EA0000000937
B1138295601917N00900015EA0000000934
B1138345601904N00900254EA0000000928
B1138405601890N00900541EA0000000917
B1138475601873N00900875EA0000000908
B1138535601858N00901161EA0000000903
B1139025601838N00901574EA0000000907
B1139075601827N00901802EA0000000904
B1139145601803N00902126EA0000000902
B1139195601785N00902334EA0000000931
B1139255601766N00902548EA0000000954
B1139305601752N00902722EA0000000952
B1139355601733N00902906EA0000000952
B1139405601712N00903090EA0000000960
B1139465601684N00903319EA0000000970
B1139535601649N00903571EA0000000990
B1139595601616N00903776EA0000001002
B1140065601564N00904024EA0000001002
B1140145601521N00904349EA0000000998
B1140195601494N00904552EA0000001005
B1140245601466N00904755EA0000001013
B1140295601445N00904954EA0000001027
B1140355601421N00905186EA0000001023
B1140405601398N00905389EA0000001017
B1140455601371N00905590EA0000001022
B1140505601346N00905791EA0000001019
B1140555601323N00906002EA0000001017
B1141005601302N00906216EA0000001030
B1141075601278N00906487EA0000001056
B1141125601263N00906679EA0000001053
B1141175601250N00906885EA0000001040
B1141225601244N00907102EA0000001031
B1141295601243N00907399EA0000001023
B1141355601241N00907658EA0000001025
B1141405601238N00907870EA0000001038
B1141475601231N00908150EA0000001049
B1141525601225N00908351EA0000001048
B1142025601211N00908747EA0000001041
B1142085601200N00908992EA0000001030
B1142145601179N00909247EA0000001013
B1142195601148N00909460EA0000001012
B1142285601065N00909819EA0000001003
B1142355600983N00910085EA0000001003
B1142425600898N00910340EA0000000994
B1142515600794N00910680EA0000000978
B1142585600723N00910948EA0000000977
B1143045600665N00911175EA0000000966
B1143135600582N00911528EA0000000946
B1143185600535N00911737EA0000000925
B1143295600419N00912214EA0000000903
B1143345600365N00912434EA0000000893
B1143425600281N00912790EA0000000883
B1143525600170N00913227EA0000000872
B1143575600115N00913446EA0000000866
B1144045600038N00913751EA0000000857
B1144145559935N00914183EA0000000849
B1144275559813N00914737EA0000000829
B1144355559741N00915068EA0000000854
B1144405559697N00915239EA0000000862
B1144465559632N00915429EA0000000848
B1144515559555N00915554EA0000000838
B1145005559388N00915687EA0000000826
B1145075559252N00915759EA0000000823
B1145125559155N00915804EA0000000821
B1145175559059N00915846EA0000000833
B1145245558934N00915878EA0000000844
B1145315558821N00916028EA0000000846
B1145365558827N00916212EA0000000868
B1145425558907N00916314EA0000000871
B1145475558928N00916239EA0000000881
B1145535558850N00916220EA0000000891
B1145585558776N00916326EA0000000891
B1146045558727N00916526EA0000000907
B1146095558766N00916676EA0000000918
B1146155558838N00916669EA0000000941
B1146205558818N00916592EA0000000949
B1146265558734N00916623EA0000000962
B1146315558692N00916764EA0000000967
B1146375558733N00916936EA0000000981
B1146425558790N00916919EA0000000986
B1146475558782N00916818EA0000000992
B1146525558715N00916783EA0000001008
B1146575558653N00916894EA0000001023
B1147025558665N00917059EA0000001024
B1147085558733N00917072EA0000001038
B1147135558743N00916973EA0000001041
B1147185558700N00916893EA0000001047
B1147235558624N00916932EA0000001048
B1147285558600N00917100EA0000001049
B1147335558635N00917264EA0000001055
B1147385558697N00917372EA0000001068
B1147435558762N00917381EA0000001069
B1147485558769N00917284EA0000001080
B1147535558720N00917214EA0000001083
B1147585558643N00917277EA0000001087
B1148035558606N00917439EA0000001100
B1148085558609N00917614EA0000001106
B1148155558638N00917869EA0000001102
B1148205558667N00918066EA0000001094
B1148265558708N00918331EA0000001078
B1148325558738N00918610EA0000001091
B1148395558772N00918923EA0000001088
B1148465558803N00919241EA0000001079
B1148535558828N00919580EA0000001066
B1148585558847N00919825EA0000001064
B1149035558868N00920065EA0000001061
B1149085558889N00920298EA0000001063
B1149145558910N00920563EA0000001062
B1149195558929N00920787EA0000001060
B1149255558949N00921028EA0000001098
B1149315558962N00921225EA0000001133
B1149365558978N00921387EA0000001132
B1149435559021N00921628EA0000001115
B1149485559063N00921800EA0000001121
B1149545559115N00922001EA0000001113
B1149595559160N00922179EA0000001119
B1150045559202N00922340EA0000001123
B1150105559256N00922538EA0000001114
B1150165559311N00922746EA0000001106
B1150215559354N00922917EA0000001141
B1150265559387N00923057EA0000001168
B1150315559419N00923189EA0000001165
B1150375559464N00923366EA0000001151
B1150425559511N00923538EA0000001141
B1150475559557N00923715EA0000001143
B1150525559601N00923890EA0000001138
B1150575559645N00924067EA0000001144
B1151045559701N00924302EA0000001155
B1151105559756N00924512EA0000001143
B1151185559840N00924792EA0000001145
B1151265559925N00925067EA0000001129
B1151325559993N00925287EA0000001117
B1151405600090N00925587EA0000001102
B1151455600154N00925777EA0000001099
B1151525600246N00926045EA0000001095
B1151575600316N00926242EA0000001074
B1152035600404N00926479EA0000001070
B1152095600488N00926719EA0000001058
B1152175600601N00927039EA0000001054
B1152225600669N00927237EA0000001048
B1152275600737N00927439EA0000001040
B1152345600826N00927713EA0000001049
B1152445600947N00928117EA0000001010
B1152525601037N00928442EA0000001046
B1152585601082N00928627EA0000001093
B1153045601120N00928794EA0000001090
B1153145601203N00929094EA0000001074
B1153225601289N00929390EA0000001039
B1153375601412N00929946EA0000001067
B1153425601445N00930132EA0000001071
B1153525601500N00930484EA0000001081
B1153585601534N00930697EA0000001099
B1154085601579N00931036EA0000001106
B1154145601607N00931260EA0000001110
B1154205601633N00931485EA0000001109
B1154305601656N00931882EA0000001104
B1154365601667N00932110EA0000001108
B1154415601679N00932294EA0000001110
B1154465601691N00932475EA0000001103
B1154535601712N00932738EA0000001091
B1154595601728N00932980EA0000001076
B1155085601753N00933374EA0000001054
B1155135601769N00933601EA0000001045
B1155215601798N00933965EA0000001028
B1155265601815N00934189EA0000001038
B1155315601828N00934384EA0000001056
B1155365601841N00934588EA0000001040
B1155415601857N00934810EA0000001024
B1155475601877N00935093EA0000001014
B1155535601896N00935384EA0000001010
B1156015601918N00935769EA0000001000
B1156115601952N00936240EA0000000984
B1156195601978N00936612EA0000000976
B1156265602001N00936927EA0000000967
B1156355602038N00937326EA0000000964
B1156415602061N00937572EA0000000977
B1156465602079N00937768EA0000000987
B1156515602097N00937968EA0000000974
B1157015602116N00938376EA0000000957
B1157065602115N00938579EA0000000943
B1157115602064N00938763EA0000000946
B1157185601943N00938908EA0000000954
B1157285601766N00938898EA0000000971
B1157385601743N00938693EA0000000969
B1157445601818N00938658EA0000000968
B1157505601897N00938787EA0000000967
B1157555601921N00938975EA0000000969
B1158025601877N00939243EA0000000971
B1158075601814N00939416EA0000000978
B1158185601710N00939393EA0000001003
B1158285601785N00939616EA0000001016
B1158425601685N00939588EA0000001036
B1158535601773N00939799EA0000001055
B1159045601702N00939785EA0000001065
B1159105601778N00939815EA0000001067
B1159195601808N00940075EA0000001100
B1159505601710N00940206EA0000001195
B1159585601803N00940275EA0000001213
B1200035601780N00940431EA0000001225
B1200135601690N00940372EA0000001252
B1200205601762N00940482EA0000001257
B1200265601725N00940682EA0000001277
B1200355601633N00940645EA0000001297
B1200415601702N00940609EA0000001311
B1200485601762N00940799EA0000001325
B1201005601651N00940859EA0000001356
B1201065601710N00940817EA0000001363
B1201115601769N00940912EA0000001359
B1201165601747N00941080EA0000001370
B1201235601641N00941128EA0000001377
B1201325601613N00940970EA0000001387
B1201375601682N00940986EA0000001381
B1201425601740N00941132EA0000001374
B1201535601844N00941530EA0000001366
B1201595601912N00941764EA0000001351
B1202045601961N00941963EA0000001363
B1202145602040N00942364EA0000001339
B1202205602077N00942610EA0000001330
B1202255602073N00942823EA0000001320
B1202315602025N00943070EA0000001316
B1202365601978N00943264EA0000001311
B1202435601898N00943528EA0000001300
B1202525601786N00943863EA0000001290
B1202575601712N00944016EA0000001293
B1203035601614N00944004EA0000001292
B1203085601605N00943882EA0000001281
B1203155601629N00943693EA0000001273
B1203225601674N00943518EA0000001265
B1203295601719N00943349EA0000001257
B1203365601763N00943186EA0000001257
B1203415601795N00943076EA0000001250
B1203465601825N00942966EA0000001233
B1203515601858N00942849EA0000001222
B1204045601927N00942548EA0000001230
B1204165601950N00942282EA0000001244
B1204235601956N00942129EA0000001243
B1204295601965N00941991EA0000001250
B1204355601972N00941867EA0000001260
B1204405601981N00941759EA0000001247
B1204485601996N00941551EA0000001225
B1206115601587N00939325EA0000001214
B1206215601493N00939078EA0000001183
B1206265601433N00938950EA0000001180
B1206325601366N00938809EA0000001200
B1206395601288N00938662EA0000001221
B1206445601236N00938577EA0000001238
B1206545601126N00938396EA0000001229
B1207035601025N00938209EA0000001215
B1207115600930N00938037EA0000001202
B1207175600857N00937901EA0000001192
B1207265600753N00937710EA0000001189
B1207325600685N00937580EA0000001177
B1207435600567N00937331EA0000001169
B1207515600483N00937159EA0000001165
B1208005600381N00936963EA0000001149
B1208055600321N00936852EA0000001141
B1208105600257N00936741EA0000001135
B1208165600184N00936622EA0000001141
B1208225600116N00936514EA0000001135
B1208285600050N00936398EA0000001118
B1208345559978N00936278EA0000001107
B1208395559916N00936183EA0000001093
B1208445559857N00936087EA0000001106
B1208495559799N00936002EA0000001115
B1208545559746N00935912EA0000001112
B1209015559690N00935749EA0000001098
B1209065559679N00935619EA0000001096
B1209135559683N00935441EA0000001103
B1209295559686N00935057EA0000001100
B1209355559687N00934905EA0000001098
B1209405559686N00934774EA0000001101
B1209565559700N00934412EA0000001119
B1210115559726N00934062EA0000001152
B1210165559730N00933969EA0000001160
B1210235559737N00933827EA0000001165
B1210285559744N00933720EA0000001169
B1210365559754N00933535EA0000001147
B1210425559760N00933390EA0000001150
B1210475559762N00933263EA0000001144
B1210535559766N00933114EA0000001162
B1211025559768N00932929EA0000001184
B1211085559772N00932809EA0000001186
B1211145559782N00932673EA0000001170
B1211195559800N00932551EA0000001179
B1211255559818N00932429EA0000001214
B1211325559843N00932306EA0000001233
B1211385559866N00932201EA0000001257
B1211445559888N00932106EA0000001276
B1211495559907N00932023EA0000001277
B1211565559908N00931869EA0000001261
B1212085559855N00931540EA0000001264
B1212135559834N00931415EA0000001262
B1212225559800N00931155EA0000001232
B1212285559780N00930973EA0000001226
B1212365559753N00930729EA0000001212
B1212435559729N00930514EA0000001203
B1212485559711N00930363EA0000001195
B1212545559689N00930181EA0000001180
B1213015559660N00929968EA0000001173
B1213115559622N00929677EA0000001162
B1213235559567N00929315EA0000001135
B1213285559537N00929164EA0000001122
B1213355559495N00928946EA0000001104
B1213405559469N00928789EA0000001097
B1213485559425N00928536EA0000001083
B1213555559385N00928319EA0000001074
B1214015559348N00928145EA0000001072
B1214095559302N00927913EA0000001058
B1214145559273N00927768EA0000001055
B1214205559241N00927594EA0000001047
B1214265559210N00927423EA0000001044
B1214365559156N00927133EA0000001031
B1214415559129N00926989EA0000001028
B1214475559098N00926813EA0000001012
B1214535559066N00926633EA0000000998
B1215005559015N00926418EA0000000979
B1215085558930N00926177EA0000000971
B1215135558869N00926039EA0000000978
B1215205558783N00925868EA0000000986
B1215265558711N00925726EA0000000987
B1215325558637N00925589EA0000000985
B1215385558566N00925440EA0000000982
B1215435558513N00925319EA0000001006
B1215515558446N00925154EA0000001034
B1215565558402N00925055EA0000001044
B1216025558353N00924939EA0000001075
B1216085558301N00924823EA0000001085
B1216195558206N00924590EA0000001116
B1216265558146N00924435EA0000001118
B1216315558106N00924312EA0000001129
B1216365558072N00924197EA0000001140
B1216435558024N00924050EA0000001157
B1216515557969N00923876EA0000001173
B1216585557926N00923726EA0000001159
B1217035557894N00923606EA0000001161
B1217085557859N00923486EA0000001158
B1217165557789N00923281EA0000001145
B1217235557720N00923104EA0000001171
B1217295557666N00922974EA0000001189
B1217355557613N00922848EA0000001197
B1217425557554N00922703EA0000001207
B1217485557504N00922570EA0000001192
B1217535557458N00922432EA0000001160
B1218005557390N00922212EA0000001146
B1218095557306N00921933EA0000001144
B1218145557264N00921777EA0000001131
B1218195557223N00921616EA0000001132
B1218245557193N00921456EA0000001136
B1218305557168N00921260EA0000001145
B1218365557149N00921088EA0000001166
B1218415557136N00920943EA0000001153
B1218465557119N00920782EA0000001134
B1218525557089N00920585EA0000001154
B1218585557060N00920413EA0000001179
B1219045557036N00920258EA0000001201
B1219105557014N00920122EA0000001211
B1219185556983N00919911EA0000001183
B1219235556965N00919750EA0000001176
B1219295556945N00919561EA0000001180
B1219365556927N00919358EA0000001199
B1219415556915N00919224EA0000001200
B1219515556892N00918921EA0000001173
B1219575556880N00918724EA0000001161
B1220025556872N00918554EA0000001145
B1220075556865N00918384EA0000001145
B1220125556860N00918216EA0000001140
B1220175556857N00918056EA0000001150
B1220225556853N00917900EA0000001136
B1220285556849N00917712EA0000001134
B1220355556837N00917485EA0000001110
B1220415556827N00917279EA0000001103
B1220465556820N00917113EA0000001121
B1220525556813N00916951EA0000001139
B1220585556812N00916786EA0000001124
B1221045556808N00916605EA0000001109
B1221105556811N00916416EA0000001111
B1221155556819N00916262EA0000001137
B1221205556827N00916134EA0000001153
B1221275556847N00915929EA0000001124
B1221325556866N00915759EA0000001133
B1221375556877N00915608EA0000001164
B1221435556885N00915452EA0000001189
B1221485556888N00915344EA0000001222
B1221535556891N00915254EA0000001244
B1221585556892N00915161EA0000001247
B1222035556895N00915043EA0000001231
B1222115556908N00914791EA0000001198
B1222165556915N00914615EA0000001194
B1222225556923N00914401EA0000001183
B1222275556928N00914217EA0000001179
B1222335556931N00914009EA0000001180
B1222415556935N00913732EA0000001162
B1222475556930N00913520EA0000001150
B1222545556920N00913280EA0000001141
B1222595556910N00913110EA0000001132
B1223065556899N00912871EA0000001114
B1223115556891N00912699EA0000001106
B1223165556889N00912527EA0000001093
B1223225556883N00912324EA0000001080
B1223275556878N00912150EA0000001064
B1223345556869N00911911EA0000001067
B1223415556861N00911682EA0000001046
B1223465556857N00911516EA0000001026
B1223545556840N00911243EA0000001016
B1223595556826N00911095EA0000001038
B1224045556811N00910956EA0000001025
B1224105556801N00910769EA0000000990
B1224165556811N00910562EA0000000975
B1224215556822N00910398EA0000000995
B1224265556828N00910265EA0000001003
B1224315556837N00910128EA0000000985
B1224385556851N00909938EA0000000981
B1224435556865N00909803EA0000000973
B1224495556883N00909636EA0000000956
B1224555556896N00909482EA0000000981
B1225005556904N00909369EA0000000978
B1225075556918N00909185EA0000000959
B1225145556921N00908984EA0000000946
B1225195556924N00908837EA0000000938
B1225255556930N00908662EA0000000933
B1225315556935N00908486EA0000000924
B1225375556939N00908305EA0000000910
B1225425556941N00908151EA0000000900
B1225485556946N00907961EA0000000890
B1225535556952N00907800EA0000000884
B1225585556958N00907634EA0000000879
B1226045556965N00907456EA0000000904
B1226105556977N00907288EA0000000885
B1226155556988N00907132EA0000000876
B1226205556996N00906978EA0000000897
B1226255557002N00906866EA0000000939
B1226315557012N00906742EA0000000927
B1226375557030N00906591EA0000000913
B1226435557049N00906440EA0000000918
B1226485557066N00906320EA0000000928
B1226545557083N00906187EA0000000951
B1227015557101N00906033EA0000000969
B1227075557119N00905913EA0000000998
B1227125557087N00905830EA0000001003
B1227185557011N00905950EA0000001010
B1227235557017N00906127EA0000001023
B1227285557067N00906238EA0000001038
B1227335557125N00906214EA0000001050
B1227385557136N00906134EA0000001054
B1227435557081N00906089EA0000001062
B1227485557016N00906185EA0000001068
B1227535557007N00906351EA0000001080
B1227585557054N00906464EA0000001095
B1228045557123N00906448EA0000001100
B1228095557169N00906377EA0000001084
B1228145557212N00906280EA0000001078
B1228195557254N00906180EA0000001086
B1228245557294N00906076EA0000001086
B1228295557335N00905966EA0000001082
B1228355557398N00905832EA0000001090
B1228405557448N00905735EA0000001111
B1228475557522N00905600EA0000001089
B1228565557631N00905391EA0000001061
B1229015557694N00905264EA0000001053
B1229065557754N00905137EA0000001056
B1229125557825N00904990EA0000001054
B1229175557881N00904875EA0000001057
B1229235557948N00904737EA0000001038
B1229315558022N00904525EA0000001028
B1229395558081N00904327EA0000001033
B1229445558116N00904202EA0000001022
B1229505558163N00904041EA0000001013
B1229555558197N00903901EA0000001022
B1230005558223N00903760EA0000001027
B1230055558246N00903635EA0000001062
B1230105558258N00903542EA0000001084
B1230165558273N00903433EA0000001074
B1230235558301N00903257EA0000001030
B1230285558341N00903103EA0000001008
B1230355558406N00902886EA0000001002
B1230425558479N00902679EA0000001001
B1230515558581N00902425EA0000000992
B1230585558659N00902230EA0000000971
B1231055558734N00902028EA0000000964
B1231105558785N00901886EA0000000965
B1231155558831N00901745EA0000000959
B1231225558894N00901542EA0000000938
B1231285558944N00901364EA0000000934
B1231345558982N00901191EA0000000935
B1231415559021N00901016EA0000000939
B1231465559047N00900889EA0000000935
B1231575559111N00900602EA0000000922
B1232025559138N00900475EA0000000926
B1232105559177N00900299EA0000000945
B1232155559196N00900201EA0000000957
B1232235559224N00900050EA0000000949
B1232295559253N00859932EA0000000951
B1232385559299N00859761EA0000000945
B1232445559332N00859642EA0000000956
B1232545559354N00859440EA0000000961
B1233005559369N00859310EA0000000968
B1233065559384N00859184EA0000000980
B1233125559403N00859051EA0000000983
B1233175559420N00858929EA0000000992
B1233225559438N00858825EA0000001017
B1233295559464N00858695EA0000001012
B1233355559492N00858556EA0000001008
B1233425559524N00858388EA0000001007
B1233485559547N00858237EA0000001015
B1233535559564N00858128EA0000001052
B1233585559580N00858043EA0000001057
B1234035559597N00857939EA0000001046
B1234095559631N00857792EA0000001037
B1234145559664N00857658EA0000001037
B1234205559702N00857494EA0000001037
B1234255559729N00857347EA0000001029
B1234315559757N00857171EA0000001049
B1234365559766N00857061EA0000001077
B1234415559770N00856957EA0000001073
B1234515559771N00856705EA0000001085
B1234565559765N00856594EA0000001090
B1235025559755N00856427EA0000001057
B1235075559745N00856266EA0000001053
B1235155559734N00855999EA0000001049
B1235205559735N00855822EA0000001036
B1235305559737N00855453EA0000001017
B1235355559742N00855278EA0000001033
B1235405559747N00855126EA0000001037
B1235455559753N00854969EA0000001028
B1235505559757N00854828EA0000001069
B1235555559759N00854720EA0000001082
B1236015559775N00854570EA0000001083
B1236065559797N00854453EA0000001102
B1236135559835N00854278EA0000001084
B1236185559876N00854140EA0000001086
B1236235559915N00854001EA0000001104
B1236285559940N00853858EA0000001122
B1236345559961N00853683EA0000001130
B1236415600002N00853463EA0000001120
B1236465600045N00853296EA0000001127
B1236525600106N00853099EA0000001136
B1236585600171N00852898EA0000001145
B1237035600226N00852721EA0000001115
B1237085600289N00852526EA0000001094
B1237145600370N00852295EA0000001099
B1237195600432N00852109EA0000001098
B1237255600507N00851894EA0000001093
B1237305600566N00851720EA0000001089
B1237365600642N00851503EA0000001081
B1237435600727N00851233EA0000001074
B1237495600795N00850978EA0000001064
B1237545600850N00850756EA0000001057
B1237595600900N00850528EA0000001048
B1238045600934N00850299EA0000001051
B1238095600972N00850082EA0000001058
B1238175601042N00849749EA0000001059
B1238225601087N00849538EA0000001052
B1238285601140N00849269EA0000001038
B1238355601201N00848939EA0000001014
B1238415601250N00848645EA0000000994
B1238465601280N00848396EA0000000983
B1239055601365N00847486EA0000000952
B1239115601404N00847230EA0000000974
B1239285601478N00846546EA0000000989
B1239345601505N00846274EA0000000953
B1239435601548N00845850EA0000000918
B1240295601520N00844009EA0000000933
