AOGNOGN
HFDTE300625
HFFXA050
HFPLTPILOTINCHARGE:
HFGTYGLIDERTYPE:UFO
HFGIDGLIDERID:D-9813
HFDTM100GPSDATUM:WGS-1984
HFRFWFIRMWAREVERSION:
HFRHWHARDWAREVERSION:
HFFTYFRTYPE:OGN-FLIGHTBOOK
HFGPSGENERIC
HFPRSPRESSALTSENSOR:
HFCIDCOMPETITIONID:
B1143225553071N01213974EA0000000019
B1143265553079N01213891EA0000000019
B1143325553097N01213727EA0000000022
B1143395553121N01213531EA0000000055
B1143445553133N01213396EA0000000071
B1143515553156N01213208EA0000000096
B1143595553177N01212988EA0000000135
B1144045553166N01212848EA0000000163
B1144095553122N01212719EA0000000184
B1144155553044N01212589EA0000000202
B1144205552970N01212496EA0000000221
B1144255552892N01212408EA0000000254
B1144305552813N01212330EA0000000274
B1144355552735N01212251EA0000000294
B1144425552625N01212138EA0000000327
B1144485552517N01212070EA0000000356
B1144535552418N01212068EA0000000377
B1144595552302N01212134EA0000000392
B1145045552213N01212239EA0000000407
B1145095552130N01212371EA0000000418
B1145155552043N01212553EA0000000444
B1145225551945N01212773EA0000000469
B1145325551811N01213097EA0000000498
B1145385551733N01213288EA0000000518
B1145445551655N01213477EA0000000538
B1145495551588N01213632EA0000000553
B1145555551514N01213821EA0000000572
B1146025551467N01214081EA0000000589
B1146095551466N01214357EA0000000611
B1146165551494N01214609EA0000000637
B1146225551530N01214821EA0000000658
B1146295551575N01215059EA0000000703
B1146355551623N01215234EA0000000727
B1146405551698N01215279EA0000000724
B1146465551752N01215158EA0000000732
B1146515551710N01215032EA0000000724
B1146565551617N01214985EA0000000721
B1147075551417N01215127EA0000000722
B1147135551383N01215316EA0000000721
B1147195551426N01215487EA0000000715
B1147275551540N01215566EA0000000706
B1147335551620N01215514EA0000000709
B1147385551668N01215432EA0000000715
B1147445551745N01215424EA0000000706
B1147495551790N01215539EA0000000714
B1147575551733N01215755EA0000000702
B1148045551618N01215750EA0000000706
B1148105551556N01215645EA0000000706
B1148185551486N01215473EA0000000706
B1148235551434N01215369EA0000000715
B1148295551331N01215364EA0000000693
B1148365551277N01215584EA0000000695
B1148445551371N01215755EA0000000680
B1148515551471N01215684EA0000000699
B1149015551566N01215503EA0000000692
B1149065551619N01215443EA0000000687
B1149115551684N01215484EA0000000678
B1149225551694N01215813EA0000000665
B1149275551646N01215962EA0000000669
B1149325551587N01216091EA0000000665
B1149385551511N01216242EA0000000675
B1149435551456N01216371EA0000000687
B1149525551336N01216360EA0000000694
B1149585551357N01216245EA0000000695
B1150065551453N01216321EA0000000703
B1150115551477N01216460EA0000000708
B1150165551440N01216599EA0000000713
B1150215551360N01216636EA0000000716
B1150265551300N01216563EA0000000718
B1150315551297N01216452EA0000000723
B1150365551349N01216398EA0000000728
B1150435551432N01216474EA0000000735
B1150495551425N01216650EA0000000738
B1150545551351N01216730EA0000000746
B1151005551268N01216667EA0000000745
B1151055551258N01216549EA0000000750
B1151135551346N01216496EA0000000757
B1151185551398N01216593EA0000000760
B1151235551410N01216744EA0000000763
B1151285551363N01216883EA0000000771
B1151345551270N01216910EA0000000779
B1151395551231N01216812EA0000000783
B1151445551258N01216718EA0000000788
B1151515551343N01216753EA0000000788
B1151575551376N01216921EA0000000798
B1152035551338N01217097EA0000000798
B1152085551257N01217155EA0000000796
B1152135551192N01217098EA0000000797
B1152185551173N01216989EA0000000802
B1152285551276N01216903EA0000000807
B1152335551339N01216983EA0000000813
B1152385551372N01217120EA0000000818
B1152435551349N01217280EA0000000818
B1152485551278N01217386EA0000000821
B1152565551156N01217312EA0000000812
B1153025551138N01217177EA0000000820
B1153075551172N01217087EA0000000825
B1153195551338N01217102EA0000000831
B1153245551393N01217221EA0000000824
B1153295551408N01217382EA0000000817
B1153345551373N01217530EA0000000809
B1153435551234N01217613EA0000000813
B1153495551157N01217540EA0000000816
B1153545551130N01217432EA0000000813
B1154015551155N01217277EA0000000813
B1154295551358N01217571EA0000000808
B1154345551288N01217637EA0000000795
B1154465551149N01217494EA0000000784
B1154585551076N01217235EA0000000791
B1155035551057N01217117EA0000000795
B1155085551080N01217013EA0000000789
B1155165551178N01217003EA0000000777
B1155215551223N01217110EA0000000765
B1155265551223N01217258EA0000000753
B1155315551174N01217395EA0000000738
B1155365551091N01217474EA0000000740
B1155435550966N01217489EA0000000753
B1155485550879N01217488EA0000000759
B1155535550808N01217440EA0000000755
B1155585550800N01217326EA0000000754
B1156055550883N01217313EA0000000767
B1156105550923N01217432EA0000000761
B1156165550913N01217616EA0000000766
B1156255550804N01217832EA0000000768
B1156305550723N01217883EA0000000769
B1156355550647N01217849EA0000000764
B1156405550603N01217751EA0000000761
B1156455550602N01217631EA0000000753
B1156505550631N01217518EA0000000746
B1156565550682N01217415EA0000000762
B1157025550741N01217335EA0000000763
B1157085550806N01217267EA0000000751
B1157145550880N01217208EA0000000736
B1157195550944N01217157EA0000000726
B1157245551004N01217107EA0000000726
B1157305551070N01217041EA0000000723
B1157355551126N01216978EA0000000716
B1157435551212N01216875EA0000000726
B1157495551274N01216811EA0000000731
B1157565551352N01216745EA0000000726
B1158015551410N01216706EA0000000730
B1158105551523N01216751EA0000000739
B1158155551560N01216876EA0000000737
B1158215551532N01217063EA0000000733
B1158275551436N01217161EA0000000727
B1158325551354N01217132EA0000000732
B1158395551301N01216989EA0000000742
B1158445551301N01216875EA0000000750
B1158495551345N01216813EA0000000754
B1158555551411N01216885EA0000000749
B1159005551420N01217028EA0000000750
B1159075551342N01217207EA0000000748
B1159125551254N01217236EA0000000753
B1159175551177N01217185EA0000000757
B1159245551121N01217033EA0000000760
B1159295551124N01216918EA0000000744
B1159355551181N01216838EA0000000726
B1159465551319N01216761EA0000000699
B1159555551430N01216688EA0000000692
B1200055551551N01216602EA0000000701
B1200105551556N01216482EA0000000699
B1200155551479N01216401EA0000000703
B1200205551378N01216473EA0000000704
B1200255551340N01216636EA0000000708
B1200335551408N01216848EA0000000697
B1200385551489N01216866EA0000000703
B1200435551554N01216795EA0000000711
B1200495551594N01216649EA0000000724
B1200545551571N01216513EA0000000727
B1201005551468N01216436EA0000000736
B1201055551372N01216513EA0000000742
B1201105551324N01216675EA0000000740
B1201155551337N01216855EA0000000733
B1201275551499N01217039EA0000000736
B1201325551563N01216968EA0000000748
B1201405551640N01216824EA0000000750
B1201455551669N01216704EA0000000744
B1201525551692N01216537EA0000000764
B1202015551799N01216538EA0000000760
B1202065551828N01216673EA0000000754
B1202115551801N01216823EA0000000762
B1202185551696N01216937EA0000000770
B1202235551617N01216903EA0000000776
B1202285551580N01216791EA0000000787
B1202415551692N01216638EA0000000788
B1202465551738N01216742EA0000000775
B1202525551725N01216927EA0000000779
B1202575551676N01217066EA0000000792
B1203025551601N01217126EA0000000798
B1203095551525N01217014EA0000000798
B1203145551543N01216906EA0000000812
B1203235551660N01216906EA0000000818
B1203285551702N01217028EA0000000820
B1203345551681N01217210EA0000000836
B1203395551610N01217297EA0000000836
B1203445551529N01217288EA0000000834
B1203515551467N01217141EA0000000832
B1203565551489N01217020EA0000000834
B1204065551617N01216976EA0000000842
B1204115551668N01217074EA0000000835
B1204175551679N01217252EA0000000838
B1204315551528N01217624EA0000000840
B1204365551450N01217706EA0000000832
B1204415551369N01217703EA0000000829
B1204465551311N01217621EA0000000823
B1204515551286N01217501EA0000000831
B1204575551273N01217351EA0000000833
B1205025551307N01217251EA0000000840
B1205085551387N01217258EA0000000846
B1205135551425N01217374EA0000000844
B1205195551406N01217555EA0000000850
B1205255551347N01217725EA0000000853
B1205305551265N01217796EA0000000849
B1205355551183N01217767EA0000000864
B1205425551124N01217621EA0000000860
B1205475551139N01217510EA0000000866
B1205525551189N01217442EA0000000869
B1205595551282N01217454EA0000000874
B1206045551343N01217517EA0000000871
B1206095551385N01217631EA0000000872
B1206165551398N01217843EA0000000875
B1206305551256N01218195EA0000000857
B1206375551143N01218277EA0000000857
B1206425551058N01218294EA0000000852
B1206495550936N01218239EA0000000850
B1206555550845N01218164EA0000000849
B1207015550762N01218080EA0000000844
B1207065550721N01217974EA0000000836
B1207125550720N01217837EA0000000838
B1207185550761N01217726EA0000000836
B1207235550812N01217648EA0000000829
B1207315550900N01217543EA0000000825
B1207365550954N01217475EA0000000825
B1207425551019N01217412EA0000000825
B1207495551104N01217366EA0000000801
B1207595551231N01217283EA0000000785
B1208045551274N01217203EA0000000779
B1208145551236N01216965EA0000000765
B1208215551191N01216806EA0000000760
B1208265551169N01216695EA0000000753
B1208315551149N01216581EA0000000748
B1208375551144N01216448EA0000000741
B1208425551180N01216369EA0000000737
B1209115551534N01216490EA0000000718
B1209185551595N01216631EA0000000723
B1209235551601N01216770EA0000000716
B1209285551554N01216909EA0000000706
B1209335551475N01216982EA0000000707
B1209395551380N01216951EA0000000702
B1209465551309N01216826EA0000000699
B1209525551293N01216697EA0000000695
B1209575551313N01216603EA0000000691
B1210025551352N01216526EA0000000685
B1210075551402N01216466EA0000000681
B1210235551598N01216421EA0000000660
B1210495551931N01216454EA0000000658
B1210545551995N01216482EA0000000654
B1210595552021N01216604EA0000000655
B1211075551927N01216737EA0000000663
B1211125551863N01216682EA0000000670
B1211185551840N01216554EA0000000673
B1211245551900N01216490EA0000000663
B1211295551962N01216553EA0000000655
B1211345552000N01216678EA0000000662
B1211395551997N01216827EA0000000663
B1211445551948N01216953EA0000000667
B1211505551858N01217041EA0000000664
B1211555551777N01217038EA0000000659
B1212015551722N01216926EA0000000674
B1212065551742N01216824EA0000000681
B1212125551816N01216842EA0000000701
B1212205551814N01217051EA0000000708
B1212255551746N01217128EA0000000703
B1212305551667N01217101EA0000000708
B1212355551619N01216998EA0000000712
B1212405551614N01216876EA0000000712
B1212495551708N01216798EA0000000704
B1212555551777N01216889EA0000000710
B1213075551783N01217203EA0000000741
B1213125551707N01217261EA0000000737
B1213195551609N01217175EA0000000743
B1213245551594N01217054EA0000000753
B1213295551627N01216957EA0000000757
B1213365551713N01216946EA0000000759
B1213415551760N01217045EA0000000759
B1213485551763N01217246EA0000000760
B1213535551715N01217384EA0000000770
B1213585551634N01217452EA0000000775
B1214035551551N01217429EA0000000768
B1214105551485N01217276EA0000000781
B1214155551496N01217158EA0000000785
B1214315551675N01217174EA0000000782
B1214415551704N01217443EA0000000785
B1214465551680N01217594EA0000000797
B1214515551639N01217743EA0000000806
B1214565551564N01217832EA0000000816
B1215015551489N01217791EA0000000820
B1215075551464N01217659EA0000000820
B1215125551501N01217575EA0000000817
B1215185551580N01217592EA0000000830
B1215235551618N01217709EA0000000840
B1215285551608N01217866EA0000000852
B1215355551518N01218024EA0000000851
B1215405551433N01218030EA0000000857
B1215455551372N01217951EA0000000843
B1215525551375N01217790EA0000000848
B1216015551480N01217746EA0000000861
B1216065551545N01217789EA0000000865
B1216115551592N01217898EA0000000877
B1216185551567N01218106EA0000000890
B1216235551494N01218201EA0000000886
B1216285551406N01218203EA0000000879
B1216335551341N01218126EA0000000877
B1216385551317N01218010EA0000000886
B1216435551337N01217903EA0000000893
B1216535551453N01217853EA0000000901
B1217005551508N01217998EA0000000904
B1217055551499N01218151EA0000000905
B1217105551442N01218285EA0000000910
B1217185551303N01218382EA0000000915
B1217245551201N01218337EA0000000910
B1217315551136N01218185EA0000000910
B1217365551140N01218066EA0000000912
B1217445551224N01217998EA0000000912
B1217515551308N01218084EA0000000908
B1217575551358N01218223EA0000000910
B1218045551386N01218424EA0000000907
B1218145551299N01218706EA0000000897
B1218195551214N01218779EA0000000885
B1218255551115N01218754EA0000000889
B1218305551071N01218657EA0000000886
B1218385551092N01218486EA0000000883
B1218465551143N01218343EA0000000888
B1218515551170N01218243EA0000000883
B1218565551146N01218119EA0000000869
B1219015551065N01218047EA0000000859
B1219065550971N01218082EA0000000856
B1219115550900N01218208EA0000000846
B1219175550867N01218405EA0000000841
B1219235550889N01218585EA0000000832
B1219425551130N01218838EA0000000828
B1219495551218N01218768EA0000000834
B1219545551283N01218736EA0000000828
B1220015551370N01218663EA0000000818
B1220065551408N01218565EA0000000821
B1220125551407N01218424EA0000000823
B1220175551361N01218311EA0000000814
B1220235551270N01218219EA0000000798
B1220285551181N01218189EA0000000788
B1220375551012N01218223EA0000000776
B1220435550913N01218266EA0000000773
B1220485550829N01218286EA0000000764
B1220535550755N01218248EA0000000763
B1220585550712N01218150EA0000000762
B1221045550710N01218022EA0000000761
B1221115550736N01217886EA0000000753
B1221185550779N01217750EA0000000729
B1221255550833N01217618EA0000000726
B1221315550879N01217525EA0000000714
B1221365550922N01217447EA0000000706
B1221415550969N01217371EA0000000697
B1221485551043N01217301EA0000000686
B1221545551115N01217262EA0000000670
B1222005551189N01217227EA0000000663
B1222065551264N01217190EA0000000644
B1222145551361N01217119EA0000000638
B1222235551465N01217034EA0000000644
B1222295551525N01216996EA0000000648
B1222365551605N01217063EA0000000643
B1222415551635N01217195EA0000000638
B1222465551595N01217334EA0000000642
B1222515551518N01217362EA0000000641
B1222565551467N01217283EA0000000639
B1223025551470N01217161EA0000000637
B1223085551492N01217053EA0000000635
B1223135551529N01216983EA0000000626
B1223475551988N01216952EA0000000598
B1223555551997N01217177EA0000000618
B1224005551930N01217241EA0000000625
B1224055551870N01217189EA0000000635
B1224105551868N01217087EA0000000642
B1224285551912N01217347EA0000000671
B1224335551837N01217338EA0000000675
B1224385551800N01217246EA0000000681
B1224435551820N01217156EA0000000692
B1224485551880N01217150EA0000000691
B1224555551945N01217290EA0000000708
B1225005551933N01217435EA0000000717
B1225055551873N01217526EA0000000719
B1225125551779N01217475EA0000000721
B1225175551755N01217370EA0000000729
B1225225551781N01217280EA0000000731
B1225315551889N01217294EA0000000751
B1225365551923N01217421EA0000000756
B1225415551902N01217568EA0000000762
B1225465551837N01217647EA0000000758
B1225515551763N01217628EA0000000759
B1225585551721N01217492EA0000000774
B1226035551733N01217387EA0000000775
B1226095551800N01217335EA0000000788
B1226225551852N01217617EA0000000789
B1226275551780N01217693EA0000000787
B1226325551705N01217671EA0000000778
B1226375551657N01217578EA0000000775
B1226455551640N01217393EA0000000791
B1226555551698N01217203EA0000000787
B1227055551818N01217133EA0000000798
B1227105551879N01217187EA0000000789
B1227165551937N01217307EA0000000787
B1227275551947N01217627EA0000000784
B1227325551921N01217782EA0000000790
B1227385551866N01217950EA0000000771
B1227445551778N01218063EA0000000770
B1227495551696N01218069EA0000000765
B1227565551613N01217960EA0000000756
B1228015551588N01217849EA0000000752
B1228075551602N01217729EA0000000758
B1228135551639N01217617EA0000000756
B1228185551669N01217527EA0000000760
B1228235551711N01217456EA0000000759
B1228295551779N01217421EA0000000750
B1228355551854N01217463EA0000000739
B1228415551920N01217569EA0000000729
B1228525551960N01217877EA0000000734
B1229055551848N01218250EA0000000730
B1229115551766N01218372EA0000000721
B1229165551688N01218448EA0000000716
B1229225551590N01218502EA0000000709
B1229305551469N01218478EA0000000706
B1229385551391N01218339EA0000000717
B1229435551375N01218229EA0000000715
B1229495551393N01218108EA0000000706
B1230015551528N01218040EA0000000716
B1230065551577N01218114EA0000000723
B1230115551586N01218249EA0000000723
B1230175551533N01218402EA0000000721
B1230235551438N01218477EA0000000720
B1230285551350N01218464EA0000000720
B1230345551269N01218366EA0000000722
B1230395551253N01218251EA0000000722
B1230445551282N01218157EA0000000724
B1230585551442N01218096EA0000000713
B1231045551518N01218140EA0000000712
B1231125551620N01218233EA0000000699
B1231185551698N01218300EA0000000704
B1231255551788N01218366EA0000000694
B1231465552061N01218377EA0000000677
B1231545552142N01218273EA0000000662
B1232125552321N01218032EA0000000641
B1232205552393N01217902EA0000000635
B1232285552459N01217764EA0000000637
B1232385552527N01217590EA0000000646
B1232465552600N01217526EA0000000658
B1232515552648N01217604EA0000000661
B1232585552653N01217796EA0000000658
B1233125552464N01217949EA0000000655
B1233425552588N01217526EA0000000649
B1233475552649N01217517EA0000000650
B1233525552713N01217519EA0000000645
B1233575552770N01217448EA0000000638
B1234025552776N01217314EA0000000638
B1234075552719N01217198EA0000000640
B1234145552592N01217159EA0000000629
B1234195552503N01217228EA0000000619
B1234245552440N01217364EA0000000614
B1234315552333N01217474EA0000000610
B1234365552254N01217442EA0000000608
B1234445552181N01217281EA0000000608
B1234525552167N01217101EA0000000610
B1235005552188N01216930EA0000000610
B1235055552211N01216834EA0000000617
B1235105552239N01216751EA0000000623
B1235155552284N01216691EA0000000627
B1235225552372N01216766EA0000000622
B1235285552374N01216945EA0000000622
B1235335552307N01217044EA0000000621
B1235395552205N01217043EA0000000630
B1235465552119N01216930EA0000000633
B1235515552084N01216824EA0000000634
B1235585552131N01216720EA0000000644
B1236035552189N01216760EA0000000645
B1236095552234N01216906EA0000000646
B1236145552235N01217064EA0000000643
B1236195552190N01217200EA0000000640
B1236245552110N01217271EA0000000640
B1236305552015N01217252EA0000000645
B1236355551950N01217191EA0000000647
B1236415551929N01217064EA0000000642
B1236475551987N01216996EA0000000642
B1236525552048N01217049EA0000000643
B1236575552082N01217177EA0000000650
B1237045552057N01217383EA0000000657
B1237095551989N01217479EA0000000656
B1237145551908N01217492EA0000000660
B1237215551820N01217404EA0000000660
B1237275551768N01217289EA0000000662
B1237325551764N01217182EA0000000659
B1237395551824N01217121EA0000000660
B1237445551874N01217189EA0000000655
B1237525551899N01217415EA0000000648
B1237595551859N01217614EA0000000650
B1238045551795N01217714EA0000000656
B1238095551717N01217753EA0000000654
B1238145551649N01217701EA0000000650
B1238205551630N01217581EA0000000647
B1238295551721N01217526EA0000000645
B1238385551813N01217683EA0000000644
B1238435551831N01217822EA0000000647
B1238485551805N01217966EA0000000650
B1238535551741N01218064EA0000000649
B1238585551663N01218080EA0000000645
B1239035551609N01218008EA0000000637
B1239085551606N01217907EA0000000641
B1239165551664N01217786EA0000000644
B1239365551883N01217766EA0000000648
B1239415551900N01217900EA0000000646
B1239465551858N01218028EA0000000643
B1239535551750N01218046EA0000000633
B1239585551702N01217958EA0000000636
B1240105551706N01217723EA0000000637
B1240165551738N01217625EA0000000631
B1240245551791N01217495EA0000000646
B1240345551856N01217341EA0000000642
B1240395551894N01217257EA0000000639
B1240445551930N01217175EA0000000640
B1240495551969N01217107EA0000000647
B1240545552025N01217080EA0000000644
B1241015552100N01217198EA0000000651
B1241095552086N01217449EA0000000651
B1241145552022N01217559EA0000000655
B1241195551940N01217591EA0000000660
B1241245551874N01217529EA0000000665
B1241295551862N01217421EA0000000671
B1241375551946N01217358EA0000000675
B1241425551998N01217455EA0000000684
B1241495551992N01217672EA0000000695
B1241545551929N01217780EA0000000698
B1241595551852N01217786EA0000000703
B1242045551806N01217699EA0000000701
B1242095551820N01217598EA0000000706
B1242175551913N01217552EA0000000713
B1242225551981N01217593EA0000000726
B1242285552033N01217737EA0000000717
B1242335552020N01217895EA0000000709
B1242385551960N01218021EA0000000704
B1242435551881N01218060EA0000000703
B1242485551811N01218018EA0000000700
B1242535551779N01217916EA0000000697
B1243005551788N01217763EA0000000705
B1243055551815N01217677EA0000000712
B1243125551901N01217685EA0000000718
B1243175551946N01217798EA0000000714
B1243225551940N01217952EA0000000706
B1243275551877N01218063EA0000000700
B1243355551750N01218049EA0000000704
B1243415551695N01217945EA0000000709
B1243485551663N01217798EA0000000717
B1243535551656N01217688EA0000000715
B1244025551741N01217613EA0000000720
B1244085551794N01217735EA0000000717
B1244135551792N01217888EA0000000716
B1244195551739N01218054EA0000000720
B1244265551641N01218195EA0000000729
B1244315551560N01218214EA0000000732
B1244365551509N01218135EA0000000728
B1244425551531N01218022EA0000000728
B1244475551591N01218017EA0000000732
B1244535551660N01218107EA0000000743
B1244595551717N01218254EA0000000736
B1245065551714N01218481EA0000000741
B1245115551648N01218588EA0000000745
B1245165551565N01218615EA0000000742
B1245225551482N01218547EA0000000740
B1245275551445N01218443EA0000000733
B1245345551460N01218292EA0000000733
B1245395551490N01218196EA0000000736
B1245465551533N01218078EA0000000740
B1245525551578N01217976EA0000000731
B1245575551620N01217891EA0000000737
B1246025551665N01217809EA0000000730
B1246085551723N01217713EA0000000728
B1246165551801N01217588EA0000000709
B1246235551870N01217474EA0000000712
B1246285551914N01217401EA0000000711
B1246345551969N01217313EA0000000710
B1246405552026N01217220EA0000000699
B1246485552098N01217101EA0000000704
B1246535552146N01217042EA0000000700
B1247145552412N01216978EA0000000690
B1247215552496N01217081EA0000000682
B1247265552553N01217173EA0000000671
B1247355552674N01217167EA0000000657
B1247405552709N01217074EA0000000659
B1247455552692N01216960EA0000000658
B1247505552626N01216878EA0000000661
B1247565552534N01216814EA0000000665
B1248055552381N01216742EA0000000652
B1248115552279N01216708EA0000000652
B1248185552168N01216639EA0000000644
B1248245552092N01216540EA0000000635
B1248315552032N01216402EA0000000626
B1248395551976N01216231EA0000000620
B1248455551941N01216102EA0000000612
B1248515551903N01215968EA0000000601
B1248575551866N01215837EA0000000595
B1249095551794N01215578EA0000000582
B1249165551741N01215433EA0000000577
B1249225551705N01215306EA0000000563
B1249275551682N01215195EA0000000557
B1249345551661N01215037EA0000000548
B1249415551657N01214881EA0000000544
B1249475551651N01214750EA0000000536
B1249565551648N01214558EA0000000525
B1250045551674N01214395EA0000000511
B1250105551703N01214279EA0000000495
B1250155551729N01214182EA0000000483
B1250245551773N01214001EA0000000463
B1250325551809N01213853EA0000000458
B1250435551845N01213640EA0000000431
B1250495551862N01213527EA0000000422
B1250555551879N01213415EA0000000412
B1251005551899N01213336EA0000000404
B1251085551940N01213197EA0000000386
B1251185551986N01213016EA0000000367
B1251265552019N01212868EA0000000352
B1251315552033N01212770EA0000000338
B1251385552065N01212639EA0000000323
B1251485552170N01212543EA0000000309
B1251555552258N01212507EA0000000290
B1252025552351N01212523EA0000000285
B1252075552415N01212550EA0000000278
B1252145552513N01212605EA0000000271
B1252195552584N01212645EA0000000277
B1252255552669N01212675EA0000000263
B1252305552734N01212654EA0000000253
B1252365552785N01212557EA0000000237
B1252415552788N01212442EA0000000225
B1252465552722N01212373EA0000000224
B1252535552616N01212484EA0000000211
B1252585552591N01212645EA0000000207
B1253045552596N01212835EA0000000198
B1253105552615N01213020EA0000000185
B1253185552645N01213269EA0000000178
B1253275552650N01213549EA0000000197
B1253325552645N01213702EA0000000202
B1253385552632N01213887EA0000000202
B1253445552607N01214081EA0000000188
B1253495552597N01214253EA0000000177
B1253555552642N01214448EA0000000168
B1254015552710N01214610EA0000000159
B1254075552797N01214711EA0000000149
B1254125552877N01214762EA0000000135
B1254185552963N01214691EA0000000123
B1254245552994N01214542EA0000000110
B1254295553007N01214416EA0000000083
B1254355553025N01214267EA0000000058
B1254405553035N01214145EA0000000038
B1254485553053N01213948EA0000000014
B1254545553066N01213833EA0000000015
