AOGNOGN
HFDTE100825
HFFXA050
HFPLTPILOTINCHARGE:
HFGTYGLIDERTYPE:ASK-21
HFGIDGLIDERID:OY-TRX
HFDTM100GPSDATUM:WGS-1984
HFRFWFIRMWAREVERSION:
HFRHWHARDWAREVERSION:
HFFTYFRTYPE:OGN-FLIGHTBOOK
HFGPSGENERIC
HFPRSPRESSALTSENSOR:
HFCIDCOMPETITIONID:TR
B1421415610663N01004797EA0000000240
B1421435610671N01004769EA0000000269
B1421465610676N01004718EA0000000321
B1421525610683N01004619EA0000000402
B1421575610697N01004539EA0000000443
B1422025610714N01004444EA0000000466
B1422095610752N01004294EA0000000473
B1422145610785N01004209EA0000000469
B1422195610848N01004210EA0000000460
B1422245610916N01004260EA0000000450
B1422295610985N01004278EA0000000437
B1422345611036N01004236EA0000000429
B1422405610966N01004176EA0000000400
B1422455610935N01004366EA0000000380
B1422505611016N01004438EA0000000369
B1422565611042N01004616EA0000000365
B1423015610974N01004583EA0000000335
B1423075611047N01004556EA0000000342
B1423135611125N01004581EA0000000340
B1423185611182N01004580EA0000000328
B1423235611213N01004510EA0000000310
B1423285611204N01004403EA0000000297
B1423335611176N01004296EA0000000295
B1423385611209N01004238EA0000000288
B1423445611274N01004407EA0000000266
B1423495611273N01004626EA0000000259
B1423565611263N01004928EA0000000253
B1424015611249N01005129EA0000000257
B1424065611219N01005316EA0000000252
B1424115611150N01005461EA0000000248
B1424195611014N01005645EA0000000231
B1424245610919N01005729EA0000000226
B1424295610823N01005765EA0000000221
B1424345610746N01005731EA0000000209
B1424395610728N01005617EA0000000179
B1424455610740N01005461EA0000000152
B1424515610735N01005307EA0000000123
B1424565610735N01005191EA0000000099
B1425025610736N01005046EA0000000071
B1425085610739N01004918EA0000000066
B1425145610743N01004838EA0000000066
