AOGNOGN
HFDTE100825
HFFXA050
HFPLTPILOTINCHARGE:
HFGTYGLIDERTYPE:ASK-21
HFGIDGLIDERID:OY-TRX
HFDTM100GPSDATUM:WGS-1984
HFRFWFIRMWAREVERSION:
HFRHWHARDWAREVERSION:
HFFTYFRTYPE:OGN-FLIGHTBOOK
HFGPSGENERIC
HFPRSPRESSALTSENSOR:
HFCIDCOMPETITIONID:TR
B0907455610631N01004995EA0000000078
B0907505610649N01004898EA0000000171
B0907555610667N01004826EA0000000269
B0908005610686N01004751EA0000000365
B0908055610702N01004671EA0000000441
B0908105610719N01004580EA0000000506
B0908165610745N01004479EA0000000551
B0908215610764N01004407EA0000000553
B0908325610811N01004271EA0000000531
B0908385610868N01004264EA0000000524
B0908445610930N01004272EA0000000513
B0908545611030N01004266EA0000000508
B0909025611122N01004242EA0000000482
B0909085611198N01004216EA0000000479
B0909155611275N01004203EA0000000485
B0909225611350N01004192EA0000000480
B0909295611423N01004175EA0000000476
B0909365611494N01004153EA0000000486
B0909415611547N01004157EA0000000488
B0909465611581N01004271EA0000000490
B0909525611529N01004425EA0000000479
B0909575611467N01004401EA0000000471
B0910035611448N01004306EA0000000471
B0910085611437N01004218EA0000000464
B0910135611423N01004122EA0000000468
B0910185611412N01004043EA0000000487
B0910245611456N01004026EA0000000489
B0910295611472N01004163EA0000000488
B0910345611405N01004235EA0000000482
B0910405611391N01004149EA0000000491
B0910455611440N01004219EA0000000497
B0910505611409N01004357EA0000000494
B0910565611336N01004325EA0000000499
B0911015611339N01004258EA0000000504
B0911065611384N01004331EA0000000505
B0911125611324N01004454EA0000000511
B0911175611305N01004393EA0000000512
B0911225611348N01004456EA0000000510
B0911285611294N01004593EA0000000517
B0911335611264N01004536EA0000000514
B0911385611308N01004573EA0000000513
B0911445611271N01004737EA0000000518
B0911495611209N01004717EA0000000518
B0911545611189N01004645EA0000000515
B0912005611186N01004556EA0000000512
B0912055611207N01004502EA0000000504
B0912125611279N01004590EA0000000499
B0912205611334N01004796EA0000000504
B0912255611361N01004929EA0000000504
B0912305611320N01005053EA0000000497
B0912355611271N01005012EA0000000492
B0912405611317N01004998EA0000000494
B0912455611342N01005130EA0000000498
B0912505611303N01005261EA0000000489
B0912555611241N01005253EA0000000483
B0913015611243N01005155EA0000000488
B0913065611253N01005079EA0000000499
B0913115611267N01005009EA0000000504
B0913165611317N01005031EA0000000494
B0913215611309N01005180EA0000000485
B0913265611241N01005207EA0000000489
B0913315611204N01005151EA0000000494
B0913365611209N01005082EA0000000492
B0913415611229N01005018EA0000000484
B0913475611269N01004957EA0000000476
B0913525611306N01004907EA0000000473
B0913575611347N01004859EA0000000474
B0914035611404N01004820EA0000000476
B0914095611463N01004783EA0000000473
B0914165611536N01004734EA0000000469
B0914255611635N01004686EA0000000451
B0914345611734N01004635EA0000000450
B0914405611793N01004595EA0000000440
B0914455611807N01004517EA0000000431
B0914505611750N01004455EA0000000423
B0914565611650N01004455EA0000000417
B0915075611470N01004452EA0000000398
B0915125611405N01004401EA0000000395
B0915175611406N01004311EA0000000388
B0915225611467N01004324EA0000000378
B0915285611483N01004515EA0000000385
B0915335611407N01004596EA0000000369
B0915385611355N01004531EA0000000369
B0915445611387N01004456EA0000000355
B0915495611445N01004529EA0000000350
B0915545611435N01004695EA0000000349
B0916005611344N01004764EA0000000331
B0916055611297N01004681EA0000000331
B0916105611262N01004593EA0000000323
B0916185611214N01004464EA0000000322
B0916245611199N01004366EA0000000318
B0916295611248N01004364EA0000000312
B0916355611299N01004506EA0000000310
B0916405611334N01004627EA0000000312
B0916455611363N01004752EA0000000312
B0916505611358N01004903EA0000000306
B0916555611338N01005061EA0000000289
B0917045611285N01005375EA0000000265
B0917095611248N01005553EA0000000262
B0917175611130N01005749EA0000000260
B0917255611001N01005904EA0000000261
B0917305610920N01005992EA0000000251
B0917375610797N01006031EA0000000236
B0917425610741N01005956EA0000000222
B0917475610738N01005833EA0000000206
B0917555610737N01005645EA0000000182
B0918015610734N01005511EA0000000163
B0918095610737N01005319EA0000000134
B0918145610739N01005191EA0000000111
B0918195610744N01005068EA0000000091
B0918275610747N01004883EA0000000070
B0918345610749N01004771EA0000000068
