AOGNOGN
HFDTE100825
HFFXA050
HFPLTPILOTINCHARGE:
HFGTYGLIDERTYPE:ASK-21
HFGIDGLIDERID:OY-TRX
HFDTM100GPSDATUM:WGS-1984
HFRFWFIRMWAREVERSION:
HFRHWHARDWAREVERSION:
HFFTYFRTYPE:OGN-FLIGHTBOOK
HFGPSGENERIC
HFPRSPRESSALTSENSOR:
HFCIDCOMPETITIONID:TR
B1345465610629N01005004EA0000000071
B1345475610633N01004984EA0000000076
B1345525610648N01004902EA0000000154
B1345575610656N01004828EA0000000229
B1346025610671N01004744EA0000000314
B1346085610682N01004653EA0000000386
B1346135610694N01004564EA0000000434
B1346185610712N01004480EA0000000471
B1346245610741N01004353EA0000000483
B1346295610757N01004278EA0000000495
B1346405610789N01004122EA0000000478
B1346455610801N01004052EA0000000466
B1346505610835N01004007EA0000000456
B1346565610904N01004024EA0000000445
B1347025610977N01004047EA0000000432
B1347145611131N01004085EA0000000407
B1347215611225N01004105EA0000000410
B1347285611303N01004128EA0000000431
B1347335611345N01004115EA0000000431
B1347385611321N01004045EA0000000436
B1347445611240N01004128EA0000000435
B1347495611231N01004280EA0000000443
B1347545611276N01004353EA0000000448
B1348005611297N01004288EA0000000448
B1348065611232N01004221EA0000000447
B1348115611163N01004299EA0000000464
B1348165611159N01004443EA0000000462
B1348215611208N01004474EA0000000470
B1348265611195N01004400EA0000000472
B1348325611113N01004381EA0000000490
B1348375611064N01004500EA0000000492
B1348425611087N01004637EA0000000498
B1348485611140N01004691EA0000000506
B1348535611130N01004614EA0000000508
B1348585611059N01004630EA0000000523
B1349055611024N01004821EA0000000524
B1349105611075N01004875EA0000000528
B1349155611081N01004809EA0000000532
B1349205611011N01004811EA0000000541
B1349265610978N01004977EA0000000537
B1349315611024N01005043EA0000000545
B1349365611036N01004978EA0000000547
B1349415610972N01004954EA0000000555
B1349465610917N01005066EA0000000556
B1349525610942N01005218EA0000000553
B1349575610991N01005223EA0000000560
B1350025610984N01005155EA0000000559
B1350085610895N01005164EA0000000568
B1350135610847N01005283EA0000000563
B1350185610861N01005428EA0000000560
B1350245610920N01005504EA0000000564
B1350295610955N01005471EA0000000565
B1350345610939N01005392EA0000000567
B1350405610853N01005398EA0000000568
B1350455610807N01005534EA0000000568
B1350505610805N01005684EA0000000569
B1350565610855N01005790EA0000000569
B1351015610885N01005753EA0000000572
B1351065610849N01005685EA0000000575
B1351125610765N01005754EA0000000578
B1351175610745N01005906EA0000000571
B1351225610762N01006057EA0000000563
B1351285610773N01006251EA0000000567
B1351355610787N01006476EA0000000587
B1351405610829N01006560EA0000000595
B1351455610860N01006502EA0000000592
B1351505610831N01006425EA0000000608
B1351555610762N01006464EA0000000622
B1352005610731N01006607EA0000000632
B1352055610768N01006718EA0000000644
B1352105610810N01006699EA0000000639
B1352165610791N01006589EA0000000657
B1352215610745N01006531EA0000000668
B1352265610680N01006612EA0000000675
B1352325610700N01006777EA0000000683
B1352375610754N01006796EA0000000696
B1352435610778N01006717EA0000000710
B1352485610733N01006663EA0000000720
B1352535610664N01006725EA0000000724
B1352595610643N01006904EA0000000728
B1353045610687N01007004EA0000000742
B1353095610744N01007014EA0000000751
B1353145610787N01006960EA0000000760
B1353205610792N01006858EA0000000770
B1353255610746N01006802EA0000000774
B1353305610677N01006856EA0000000774
B1353365610623N01007022EA0000000782
B1353415610600N01007171EA0000000791
B1353495610595N01007404EA0000000807
B1353555610652N01007465EA0000000817
B1354005610643N01007396EA0000000827
B1354055610575N01007410EA0000000838
B1354105610526N01007530EA0000000840
B1354155610506N01007678EA0000000850
B1354225610511N01007880EA0000000856
B1354275610556N01007974EA0000000853
B1354325610602N01007958EA0000000848
B1354385610590N01007861EA0000000848
B1354435610542N01007807EA0000000855
B1354485610471N01007844EA0000000860
B1354535610435N01007984EA0000000861
B1354585610467N01008098EA0000000865
B1355035610513N01008076EA0000000865
B1355085610498N01007993EA0000000869
B1355145610413N01007970EA0000000873
B1355195610338N01008017EA0000000881
B1355245610300N01008148EA0000000881
B1355295610328N01008271EA0000000886
B1355345610372N01008260EA0000000885
B1355405610348N01008152EA0000000886
B1355455610311N01008070EA0000000895
B1355505610287N01007990EA0000000894
B1355555610291N01007908EA0000000889
B1356005610283N01007823EA0000000885
B1356085610265N01007676EA0000000880
B1356165610254N01007513EA0000000876
B1356215610248N01007412EA0000000869
B1356295610234N01007267EA0000000869
B1356365610219N01007141EA0000000857
B1356425610209N01007026EA0000000847
B1356515610202N01006841EA0000000831
B1356585610196N01006694EA0000000821
B1357045610191N01006573EA0000000820
B1357135610175N01006400EA0000000809
B1357245610144N01006186EA0000000786
B1357315610113N01006049EA0000000767
B1357395610076N01005886EA0000000749
B1357455610047N01005744EA0000000722
B1357525610010N01005578EA0000000720
B1358025609952N01005362EA0000000710
B1358095609907N01005209EA0000000711
B1358165609873N01005081EA0000000721
B1358215609854N01004998EA0000000724
B1358295609824N01004872EA0000000707
B1358405609787N01004678EA0000000695
B1358495609757N01004529EA0000000688
B1359025609723N01004310EA0000000677
B1359145609690N01004112EA0000000662
B1359215609666N01003997EA0000000646
B1359285609645N01003878EA0000000627
B1359335609624N01003776EA0000000592
B1359395609590N01003630EA0000000577
B1359445609577N01003513EA0000000579
B1359495609557N01003406EA0000000575
B1359555609503N01003297EA0000000577
B1400005609479N01003212EA0000000580
B1400055609500N01003142EA0000000577
B1400105609556N01003124EA0000000580
B1400175609636N01003124EA0000000567
B1400225609703N01003134EA0000000560
B1400285609783N01003152EA0000000562
B1400365609876N01003157EA0000000566
B1400465609988N01003184EA0000000563
B1400555610093N01003230EA0000000562
B1401025610175N01003275EA0000000567
B1401135610306N01003371EA0000000550
B1401185610365N01003416EA0000000542
B1401235610424N01003458EA0000000539
B1401305610504N01003517EA0000000535
B1401375610584N01003580EA0000000523
B1401435610653N01003643EA0000000512
B1401495610721N01003706EA0000000502
B1402005610845N01003833EA0000000490
B1402085610940N01003893EA0000000477
B1402135610999N01003916EA0000000474
B1402185611054N01003928EA0000000473
B1402265611140N01003942EA0000000464
B1402375611258N01003972EA0000000451
B1402425611314N01003993EA0000000440
B1402505611404N01004020EA0000000438
B1402565611471N01004036EA0000000437
B1403025611540N01004049EA0000000435
B1403085611606N01004062EA0000000435
B1403175611701N01004092EA0000000426
B1403225611737N01004062EA0000000420
B1403285611708N01003995EA0000000416
B1403335611637N01004011EA0000000410
B1403385611562N01004094EA0000000402
B1403445611470N01004195EA0000000395
B1403495611394N01004274EA0000000390
B1403545611318N01004286EA0000000384
B1404005611303N01004201EA0000000375
B1404055611363N01004210EA0000000370
B1404105611423N01004225EA0000000362
B1404165611412N01004138EA0000000339
B1404215611329N01004160EA0000000341
B1404265611253N01004245EA0000000333
B1404325611185N01004213EA0000000327
B1404375611220N01004173EA0000000317
B1404425611271N01004262EA0000000315
B1404515611352N01004474EA0000000300
B1404565611405N01004527EA0000000289
B1405015611409N01004461EA0000000281
B1405065611342N01004449EA0000000275
B1405115611291N01004591EA0000000263
B1405165611277N01004768EA0000000253
B1405255611256N01005112EA0000000228
B1405335611234N01005419EA0000000227
B1405385611169N01005566EA0000000221
B1405465611027N01005704EA0000000210
B1405525610914N01005766EA0000000195
B1405585610807N01005729EA0000000198
B1406035610731N01005685EA0000000194
B1406125610723N01005497EA0000000162
B1406215610724N01005289EA0000000131
B1406285610733N01005126EA0000000098
B1406355610738N01004953EA0000000067
B1406405610739N01004845EA0000000065
