AOGNOGN
HFDTE190725
HFFXA050
HFPLTPILOTINCHARGE:
HFGTYGLIDERTYPE:ASK-21
HFGIDGLIDERID:OY-XMF
HFDTM100GPSDATUM:WGS-1984
HFRFWFIRMWAREVERSION:
HFRHWHARDWAREVERSION:
HFFTYFRTYPE:OGN-FLIGHTBOOK
HFGPSGENERIC
HFPRSPRESSALTSENSOR:
HFCIDCOMPETITIONID:X1
B1302075650927N00926967EA0000000034
B1302105650915N00927031EA0000000035
B1302155650896N00927164EA0000000099
B1302205650884N00927280EA0000000173
B1302275650850N00927450EA0000000262
B1302325650822N00927593EA0000000311
B1302385650787N00927779EA0000000335
B1302445650755N00927951EA0000000348
B1302495650731N00928076EA0000000356
B1302555650699N00928218EA0000000356
B1303015650667N00928363EA0000000355
B1303065650640N00928483EA0000000360
B1303115650612N00928598EA0000000367
B1303185650600N00928767EA0000000378
B1303235650644N00928874EA0000000387
B1303285650708N00928912EA0000000397
B1303355650790N00928840EA0000000398
B1303405650792N00928706EA0000000397
B1303455650730N00928624EA0000000418
B1303525650624N00928650EA0000000438
B1303585650595N00928801EA0000000437
B1304035650636N00928915EA0000000446
B1304095650720N00928933EA0000000451
B1304145650766N00928835EA0000000459
B1304195650753N00928700EA0000000465
B1304265650658N00928607EA0000000486
B1304325650579N00928688EA0000000501
B1304375650565N00928817EA0000000511
B1304435650626N00928914EA0000000522
B1304485650690N00928861EA0000000517
B1304535650712N00928726EA0000000525
B1305005650635N00928624EA0000000553
B1305055650569N00928684EA0000000562
B1305105650554N00928810EA0000000570
B1305175650624N00928926EA0000000571
B1305225650691N00928875EA0000000575
B1305275650725N00928750EA0000000592
B1305345650686N00928553EA0000000594
B1305395650620N00928466EA0000000601
B1305455650520N00928499EA0000000602
B1305515650480N00928647EA0000000622
B1305565650519N00928750EA0000000637
B1306025650600N00928769EA0000000660
B1306085650645N00928661EA0000000666
B1306135650611N00928544EA0000000674
B1306185650544N00928505EA0000000676
B1306255650481N00928647EA0000000685
B1306315650516N00928784EA0000000703
B1306365650557N00928887EA0000000714
B1306425650597N00929040EA0000000713
B1306475650672N00929109EA0000000674
B1306525650742N00929038EA0000000643
B1306595650722N00928832EA0000000662
B1307045650671N00928695EA0000000667
B1307095650603N00928588EA0000000692
B1307165650491N00928646EA0000000734
B1307215650462N00928772EA0000000761
B1307265650496N00928880EA0000000776
B1307325650571N00928838EA0000000788
B1307375650571N00928695EA0000000800
B1307425650498N00928614EA0000000818
B1307475650427N00928667EA0000000852
B1307525650409N00928795EA0000000862
B1307575650452N00928902EA0000000875
B1308025650524N00928913EA0000000890
B1308075650570N00928816EA0000000903
B1308125650563N00928681EA0000000916
B1308175650498N00928596EA0000000929
B1308245650397N00928665EA0000000966
B1308305650383N00928814EA0000000991
B1308355650428N00928903EA0000000991
B1308415650509N00928860EA0000001009
B1308465650521N00928732EA0000001028
B1308525650450N00928646EA0000001045
B1308575650379N00928713EA0000001054
B1309035650374N00928880EA0000001070
B1309085650436N00928947EA0000001078
B1309155650518N00928859EA0000001086
B1309225650485N00928699EA0000001099
B1309285650392N00928686EA0000001101
B1309345650314N00928815EA0000001111
B1309395650316N00928960EA0000001122
B1309445650384N00929019EA0000001122
B1309495650436N00928925EA0000001145
B1309545650420N00928798EA0000001155
B1310005650325N00928783EA0000001161
B1310055650277N00928904EA0000001172
B1310105650297N00929035EA0000001183
B1310155650359N00929089EA0000001180
B1310225650445N00928992EA0000001177
B1310275650506N00928901EA0000001173
B1310325650582N00928880EA0000001177
B1310385650626N00929004EA0000001179
B1310465650609N00929248EA0000001151
B1310575650577N00929637EA0000001130
B1311025650589N00929812EA0000001145
B1311075650662N00929896EA0000001147
B1311125650740N00929837EA0000001151
B1311185650762N00929664EA0000001158
B1311235650710N00929544EA0000001161
B1311325650568N00929564EA0000001174
B1311375650558N00929711EA0000001177
B1311425650624N00929797EA0000001180
B1311495650720N00929700EA0000001188
B1311545650700N00929562EA0000001193
B1311595650618N00929510EA0000001196
B1312045650533N00929565EA0000001205
B1312095650489N00929692EA0000001217
B1312155650546N00929815EA0000001228
B1312215650631N00929763EA0000001229
B1312265650639N00929624EA0000001233
B1312315650576N00929536EA0000001244
B1312395650467N00929662EA0000001250
B1312445650476N00929808EA0000001267
B1312495650540N00929887EA0000001272
B1312575650655N00929789EA0000001279
B1313025650652N00929647EA0000001287
B1313195650544N00929854EA0000001310
B1313255650631N00929811EA0000001321
B1313315650623N00929658EA0000001334
B1313425650471N00929734EA0000001348
B1313475650481N00929876EA0000001352
B1313525650561N00929910EA0000001350
B1313595650620N00929743EA0000001356
B1314065650540N00929602EA0000001377
B1314135650460N00929720EA0000001392
B1314195650518N00929848EA0000001389
B1314245650581N00929791EA0000001394
B1314295650577N00929648EA0000001394
B1314395650431N00929505EA0000001402
B1314445650374N00929631EA0000001411
B1314495650418N00929771EA0000001406
B1314565650534N00929755EA0000001419
B1315015650574N00929618EA0000001403
B1315065650592N00929435EA0000001391
B1315115650654N00929278EA0000001388
B1315165650735N00929130EA0000001375
B1315245650868N00928837EA0000001352
B1315295650936N00928630EA0000001362
B1315345650972N00928408EA0000001379
B1315405651022N00928159EA0000001375
B1315455651086N00927954EA0000001352
B1315525651239N00927738EA0000001323
B1315585651383N00927551EA0000001285
B1316055651553N00927314EA0000001269
B1316125651730N00927089EA0000001230
B1316185651891N00926921EA0000001209
B1316235652027N00926768EA0000001177
B1316285652147N00926566EA0000001161
B1316355652257N00926223EA0000001178
B1316415652341N00925959EA0000001184
B1316465652398N00925741EA0000001183
B1316525652500N00925534EA0000001165
B1316575652622N00925478EA0000001145
B1317025652739N00925563EA0000001123
B1317095652766N00925873EA0000001097
B1317145652657N00925997EA0000001097
B1317205652521N00925867EA0000001099
B1317275652387N00925644EA0000001070
B1317325652289N00925464EA0000001037
B1317375652183N00925276EA0000001012
B1317435652056N00925040EA0000000984
B1317505651902N00924784EA0000000976
B1317565651746N00924698EA0000000976
B1318015651622N00924776EA0000000954
B1318065651550N00924981EA0000000933
B1318115651568N00925219EA0000000928
B1318175651670N00925425EA0000000924
B1318245651838N00925466EA0000000915
B1318305651960N00925317EA0000000918
B1318365652053N00925138EA0000000940
B1318455652169N00924880EA0000000942
B1318515652226N00924687EA0000000933
B1318565652212N00924503EA0000000929
B1319015652136N00924377EA0000000911
B1319095651970N00924463EA0000000887
B1319185651875N00924785EA0000000880
B1319255651846N00925052EA0000000877
B1319305651893N00925205EA0000000878
B1319355651994N00925270EA0000000865
B1319425652156N00925273EA0000000840
B1319505652340N00925225EA0000000832
B1319555652446N00925160EA0000000828
B1320015652557N00925028EA0000000827
B1320175652705N00924499EA0000000839
B1320225652766N00924369EA0000000837
B1320285652865N00924330EA0000000834
B1320335652937N00924406EA0000000833
B1320415653030N00924587EA0000000824
B1320505653141N00924795EA0000000814
B1320575653221N00924951EA0000000814
B1321065653312N00925112EA0000000817
B1321125653370N00925218EA0000000813
B1321185653430N00925316EA0000000813
B1321235653480N00925375EA0000000819
B1321425653719N00925461EA0000000808
B1321485653800N00925498EA0000000800
B1321535653827N00925611EA0000000806
B1322095653625N00925881EA0000000816
B1322235653387N00925998EA0000000837
B1322315653259N00926041EA0000000851
B1322375653151N00926068EA0000000850
B1322425653061N00926091EA0000000851
B1322485652954N00926124EA0000000848
B1322545652850N00926091EA0000000845
B1323025652797N00925878EA0000000844
B1323075652812N00925730EA0000000852
B1323165652835N00925483EA0000000862
B1323225652882N00925346EA0000000858
B1323275652945N00925325EA0000000871
B1323325652995N00925384EA0000000870
B1323395653018N00925552EA0000000877
B1323445652976N00925673EA0000000881
B1323495652898N00925736EA0000000886
B1323565652779N00925812EA0000000876
B1324015652687N00925802EA0000000879
B1324145652595N00925468EA0000000878
B1324325652708N00924976EA0000000881
B1324375652743N00924828EA0000000882
B1324435652788N00924661EA0000000885
B1324525652854N00924403EA0000000872
B1324575652911N00924289EA0000000862
B1325045653008N00924274EA0000000856
B1325115653069N00924427EA0000000856
B1325175653058N00924596EA0000000869
B1325225652998N00924703EA0000000877
B1325385652784N00924488EA0000000887
B1325455652841N00924345EA0000000898
B1325505652904N00924366EA0000000900
B1325565652915N00924513EA0000000915
B1326255652555N00923985EA0000000919
B1326325652488N00923763EA0000000912
B1326375652395N00923699EA0000000910
B1326425652305N00923732EA0000000910
B1326515652188N00923901EA0000000912
B1327005652089N00924113EA0000000900
B1327055652037N00924244EA0000000902
B1327115652019N00924409EA0000000915
B1327195652090N00924542EA0000000929
B1327265652184N00924527EA0000000938
B1327315652247N00924461EA0000000945
B1327365652310N00924395EA0000000965
B1327435652388N00924295EA0000000985
B1327485652444N00924224EA0000000989
B1327535652500N00924152EA0000000990
B1327595652568N00924046EA0000000992
B1328225652808N00923547EA0000001021
B1328275652865N00923452EA0000001017
B1328335652945N00923406EA0000001016
B1328415653055N00923386EA0000001010
B1328485653153N00923369EA0000001006
B1328575653281N00923352EA0000000996
B1329065653412N00923340EA0000000989
B1329285653577N00922778EA0000000962
B1329365653502N00922505EA0000000946
B1330045653046N00921725EA0000000910
B1330135652884N00921539EA0000000913
B1330345652635N00921046EA0000000935
B1330435652731N00920910EA0000000944
B1330485652797N00920978EA0000000946
B1330545652818N00921146EA0000000956
B1331065652644N00921318EA0000000959
B1331145652538N00921138EA0000000968
B1331195652543N00921002EA0000000978
B1331285652647N00920971EA0000000996
B1331335652680N00921073EA0000001000
B1331385652657N00921199EA0000001000
B1331515652464N00921091EA0000001004
B1331585652425N00920881EA0000001027
B1332035652403N00920755EA0000001049
B1332175652348N00920378EA0000001041
B1332295652157N00920243EA0000001036
B1332355652062N00920335EA0000001032
B1332405652028N00920479EA0000001031
B1332465652058N00920644EA0000001042
B1332515652115N00920716EA0000001061
B1332565652185N00920704EA0000001062
B1333055652247N00920482EA0000001072
B1333105652206N00920344EA0000001069
B1333165652097N00920285EA0000001061
B1333225652003N00920398EA0000001071
B1333285651984N00920570EA0000001085
B1333335652024N00920685EA0000001093
B1333385652098N00920726EA0000001094
B1333435652162N00920672EA0000001106
B1333495652181N00920514EA0000001117
B1333545652149N00920376EA0000001117
B1333595652075N00920281EA0000001114
B1334065651943N00920297EA0000001113
B1334115651879N00920411EA0000001119
B1334175651894N00920574EA0000001134
B1334235651993N00920625EA0000001102
B1334285652094N00920547EA0000001086
B1334335652177N00920399EA0000001077
B1334485652226N00919746EA0000001093
B1335015652042N00919244EA0000001051
B1335095651876N00919023EA0000001063
B1335165651712N00918894EA0000001046
B1335305651354N00918949EA0000001028
B1335405651120N00918856EA0000001040
B1335485651081N00918550EA0000001068
B1335565651070N00918264EA0000001074
B1336015651049N00918087EA0000001072
B1336135650835N00918026EA0000001073
B1336205650776N00918259EA0000001065
B1336265650748N00918492EA0000001045
B1336365650620N00918869EA0000001006
B1336425650504N00919071EA0000000994
B1336505650354N00919309EA0000000990
B1336565650235N00919467EA0000000979
B1337135649882N00919909EA0000000932
B1337345649428N00920538EA0000000886
B1337395649321N00920716EA0000000886
B1337505649093N00921065EA0000000888
B1337575648978N00921327EA0000000890
B1338045648910N00921636EA0000000889
B1338105648890N00921929EA0000000892
B1338175648887N00922275EA0000000901
B1338225648880N00922523EA0000000886
B1338275648861N00922759EA0000000889
B1338345648765N00923030EA0000000885
B1338445648513N00922993EA0000000895
B1338505648409N00922778EA0000000889
B1338555648382N00922547EA0000000882
B1339015648425N00922294EA0000000875
B1339065648517N00922178EA0000000858
B1339115648623N00922218EA0000000853
B1339175648701N00922390EA0000000866
B1339235648739N00922579EA0000000871
B1339285648709N00922733EA0000000875
B1339385648521N00922800EA0000000866
B1339435648437N00922673EA0000000864
B1339485648419N00922488EA0000000859
B1339535648458N00922331EA0000000848
B1340005648573N00922238EA0000000824
B1340055648672N00922204EA0000000805
B1340105648775N00922218EA0000000795
B1340155648831N00922348EA0000000810
B1340215648833N00922534EA0000000819
B1340265648828N00922685EA0000000820
B1340325648814N00922871EA0000000818
B1340375648802N00923037EA0000000810
B1340435648796N00923248EA0000000809
B1340535648803N00923585EA0000000824
B1341015648801N00923877EA0000000800
B1341085648810N00924160EA0000000789
B1341155648868N00924432EA0000000775
B1341205648936N00924598EA0000000747
B1341255649033N00924712EA0000000724
B1341305649146N00924757EA0000000706
B1341355649259N00924702EA0000000693
B1341415649334N00924466EA0000000684
B1341465649296N00924229EA0000000671
B1341525649149N00924087EA0000000656
B1341585649016N00924199EA0000000651
B1342055649015N00924455EA0000000620
B1342105649102N00924564EA0000000597
B1342175649252N00924654EA0000000566
B1342225649358N00924734EA0000000546
B1342275649467N00924815EA0000000525
B1342345649619N00924954EA0000000485
B1342415649768N00925089EA0000000484
B1342465649858N00925175EA0000000502
B1342525649952N00925256EA0000000519
B1342575650026N00925314EA0000000509
B1343025650106N00925375EA0000000494
B1343075650191N00925439EA0000000478
B1343135650288N00925534EA0000000459
B1343215650432N00925649EA0000000434
B1343275650536N00925757EA0000000416
B1343335650633N00925885EA0000000388
B1343385650718N00925992EA0000000375
B1343435650810N00926079EA0000000361
B1343505650934N00926205EA0000000343
B1343575651047N00926341EA0000000319
B1344025651125N00926433EA0000000310
B1344075651174N00926561EA0000000301
B1344135651168N00926750EA0000000289
B1344195651148N00926944EA0000000267
B1344255651142N00927138EA0000000255
B1344315651176N00927302EA0000000238
B1344385651234N00927485EA0000000217
B1344445651286N00927641EA0000000206
B1344515651325N00927838EA0000000203
B1344565651272N00927948EA0000000209
B1345015651179N00927914EA0000000200
B1345085651124N00927677EA0000000192
B1345145651139N00927471EA0000000192
B1345255651192N00927101EA0000000172
B1345325651227N00926865EA0000000151
B1345375651216N00926678EA0000000139
B1345445651108N00926480EA0000000122
B1345495651004N00926460EA0000000109
B1345545650932N00926567EA0000000086
B1345595650910N00926726EA0000000069
B1346055650895N00926926EA0000000044
B1346105650874N00927095EA0000000031
B1346175650843N00927275EA0000000030
B1346245650827N00927380EA0000000029
