AOGNOGN
HFDTE240825
HFFXA050
HFPLTPILOTINCHARGE:
HFGTYGLIDERTYPE:Twin Astir I
HFGIDGLIDERID:OY-XJA
HFDTM100GPSDATUM:WGS-1984
HFRFWFIRMWAREVERSION:
HFRHWHARDWAREVERSION:
HFFTYFRTYPE:OGN-FLIGHTBOOK
HFGPSGENERIC
HFPRSPRESSALTSENSOR:
HFCIDCOMPETITIONID:E4
B1154375610634N01004970EA0000000072
B1154405610652N01004901EA0000000114
B1154455610677N01004815EA0000000214
B1154505610704N01004729EA0000000292
B1154565610731N01004615EA0000000364
B1155015610756N01004508EA0000000402
B1155065610780N01004393EA0000000429
B1155125610808N01004261EA0000000450
B1155175610825N01004178EA0000000462
B1155235610818N01004084EA0000000456
B1155295610778N01003985EA0000000449
B1155385610700N01003856EA0000000444
B1155445610647N01003773EA0000000439
B1155545610569N01003632EA0000000433
B1156005610517N01003560EA0000000447
B1156055610446N01003581EA0000000434
B1156105610385N01003707EA0000000424
B1156165610406N01003882EA0000000431
B1156215610470N01003940EA0000000435
B1156265610527N01003919EA0000000434
B1156325610533N01003813EA0000000435
B1156375610467N01003774EA0000000441
B1156425610396N01003863EA0000000458
B1156485610394N01004048EA0000000460
B1156535610455N01004096EA0000000463
B1156585610482N01004022EA0000000456
B1157045610410N01003954EA0000000458
B1157105610329N01004083EA0000000480
B1157155610346N01004229EA0000000486
B1157215610420N01004247EA0000000485
B1157265610430N01004153EA0000000483
B1157325610376N01004059EA0000000493
B1157375610299N01004064EA0000000510
B1157435610237N01004224EA0000000510
B1157485610263N01004372EA0000000523
B1157535610322N01004389EA0000000529
B1157585610335N01004303EA0000000532
B1158035610269N01004257EA0000000542
B1158085610195N01004346EA0000000554
B1158135610183N01004510EA0000000560
B1158185610238N01004601EA0000000564
B1158245610293N01004533EA0000000565
B1158295610258N01004443EA0000000575
B1158345610179N01004487EA0000000593
B1158405610154N01004682EA0000000597
B1158455610210N01004781EA0000000613
B1158505610264N01004752EA0000000610
B1158565610241N01004638EA0000000605
B1159015610155N01004660EA0000000626
B1159065610116N01004813EA0000000641
B1159125610172N01004959EA0000000649
B1159175610221N01004910EA0000000650
B1159225610178N01004826EA0000000646
B1159285610073N01004892EA0000000662
B1159335610064N01005062EA0000000674
B1159385610129N01005130EA0000000676
B1159445610144N01005022EA0000000682
B1159495610063N01005013EA0000000690
B1159545610009N01005148EA0000000713
B1200005610047N01005305EA0000000717
B1200055610105N01005300EA0000000723
B1200105610111N01005214EA0000000726
B1200165610033N01005175EA0000000728
B1200215609967N01005288EA0000000738
B1200265609979N01005439EA0000000750
B1200325610052N01005484EA0000000753
B1200375610067N01005406EA0000000757
B1200425610007N01005357EA0000000747
B1200485609921N01005478EA0000000749
B1200535609931N01005635EA0000000759
B1200585609988N01005702EA0000000759
B1201045610020N01005627EA0000000763
B1201095609974N01005557EA0000000756
B1201155609871N01005602EA0000000757
B1201205609785N01005662EA0000000770
B1201255609701N01005688EA0000000794
B1201305609658N01005615EA0000000798
B1201365609705N01005565EA0000000809
B1201415609744N01005684EA0000000823
B1201465609697N01005829EA0000000842
B1201525609604N01005815EA0000000857
B1201575609600N01005732EA0000000864
B1202025609655N01005761EA0000000875
B1202085609657N01005944EA0000000901
B1202135609579N01006022EA0000000919
B1202185609518N01005971EA0000000922
B1202245609549N01005905EA0000000924
B1202295609597N01006007EA0000000935
B1202345609565N01006164EA0000000952
B1202405609472N01006178EA0000000957
B1202455609459N01006092EA0000000959
B1202505609512N01006092EA0000000964
B1202565609543N01006263EA0000000971
B1203015609485N01006404EA0000000991
B1203065609406N01006413EA0000000999
B1203125609381N01006317EA0000001003
B1203175609426N01006308EA0000001006
B1203225609463N01006429EA0000001007
B1203285609412N01006610EA0000001030
B1203335609330N01006651EA0000001041
B1203385609283N01006587EA0000001036
B1203445609325N01006547EA0000001036
B1203495609362N01006675EA0000001040
B1203545609318N01006834EA0000001058
B1204005609218N01006886EA0000001067
B1204055609168N01006817EA0000001061
B1204115609199N01006742EA0000001054
B1204175609251N01006702EA0000001058
B1204235609308N01006678EA0000001071
B1204285609356N01006663EA0000001088
B1204335609395N01006613EA0000001092
B1204385609375N01006505EA0000001099
B1204435609295N01006482EA0000001118
B1204485609225N01006590EA0000001106
B1204535609210N01006752EA0000001114
B1204585609250N01006859EA0000001132
B1205045609311N01006859EA0000001147
B1205095609320N01006770EA0000001157
B1205145609262N01006701EA0000001172
B1205205609168N01006774EA0000001181
B1205265609144N01006955EA0000001168
B1205315609190N01007055EA0000001185
B1205365609239N01007049EA0000001193
B1205415609255N01006961EA0000001196
B1205475609183N01006877EA0000001206
B1205525609098N01006941EA0000001204
B1205585609071N01007127EA0000001196
B1206035609120N01007207EA0000001203
B1206085609154N01007145EA0000001207
B1206165609154N01006978EA0000001218
B1206225609156N01006863EA0000001212
B1206275609161N01006765EA0000001198
B1206325609167N01006663EA0000001199
B1206435609165N01006441EA0000001211
B1206515609158N01006295EA0000001204
B1206565609152N01006200EA0000001208
B1207025609137N01006085EA0000001210
B1207095609102N01005942EA0000001210
B1207145609067N01005843EA0000001216
B1207205609018N01005733EA0000001222
B1207295608937N01005569EA0000001213
B1207375608853N01005422EA0000001197
B1207445608759N01005316EA0000001180
B1207495608683N01005249EA0000001180
B1207565608579N01005180EA0000001180
B1208025608493N01005130EA0000001176
B1208075608420N01005083EA0000001169
B1208125608353N01005016EA0000001157
B1208185608267N01004931EA0000001143
B1208255608161N01004825EA0000001118
B1208305608084N01004739EA0000001109
B1208365607991N01004630EA0000001093
B1208435607882N01004499EA0000001087
B1208525607742N01004339EA0000001082
B1208595607634N01004222EA0000001085
B1209045607560N01004136EA0000001082
B1209115607456N01004020EA0000001077
B1209175607366N01003930EA0000001070
B1209235607273N01003841EA0000001049
B1209285607190N01003762EA0000001035
B1209365607054N01003646EA0000001033
B1209415606974N01003585EA0000001041
B1209475606881N01003528EA0000001038
B1209535606796N01003446EA0000001023
B1210005606709N01003313EA0000001011
B1210095606602N01003139EA0000000999
B1210165606521N01003005EA0000000990
B1210255606411N01002840EA0000000975
B1210305606348N01002749EA0000000971
B1210405606221N01002566EA0000000951
B1210485606116N01002417EA0000000940
B1210585605983N01002242EA0000000930
B1211035605915N01002154EA0000000922
B1211085605845N01002068EA0000000915
B1211165605730N01001932EA0000000904
B1211255605590N01001804EA0000000903
B1211335605474N01001677EA0000000898
B1211395605396N01001575EA0000000892
B1211515605222N01001387EA0000000883
B1211565605148N01001319EA0000000879
B1212035605076N01001198EA0000000875
B1212085605040N01001103EA0000000879
B1212145605010N01001000EA0000000902
B1212215604983N01000883EA0000000911
B1212265604964N01000800EA0000000919
B1212345604876N01000729EA0000000927
B1212415604827N01000934EA0000000925
B1212495604917N01000972EA0000000915
B1212555604920N01000844EA0000000933
B1213005604910N01000735EA0000000945
B1213085604816N01000637EA0000000952
B1213145604741N01000805EA0000000955
B1213205604800N01000937EA0000000965
B1213315604749N01000800EA0000000991
B1213375604678N01000957EA0000000994
B1213435604740N01001070EA0000000998
B1213485604759N01000972EA0000001012
B1213535604682N01000921EA0000001014
B1213595604606N01001085EA0000001018
B1214045604647N01001219EA0000001025
B1214105604707N01001162EA0000001032
B1214215604623N01000984EA0000001062
B1214265604546N01001065EA0000001063
B1214315604528N01001223EA0000001058
B1214425604636N01001293EA0000001056
B1214495604623N01001154EA0000001071
B1214575604551N01001018EA0000001083
B1215045604491N01000893EA0000001072
B1215105604498N01000791EA0000001062
B1215205604555N01000656EA0000001050
B1215285604609N01000555EA0000001032
B1215335604650N01000494EA0000001015
B1215405604701N01000390EA0000000999
B1215455604738N01000311EA0000000987
B1215515604780N01000208EA0000000984
B1216015604840N01000045EA0000000972
B1216065604868N00959952EA0000000966
B1216115604895N00959860EA0000000966
B1216165604922N00959772EA0000000963
B1216235604964N00959653EA0000000954
B1216285604994N00959568EA0000000945
B1216345605035N00959462EA0000000944
B1216405605080N00959360EA0000000959
B1216485605146N00959229EA0000000961
B1216585605232N00959082EA0000000965
B1217045605287N00959004EA0000000966
B1217105605347N00958927EA0000000958
B1217155605393N00958858EA0000000975
B1217205605435N00958794EA0000000973
B1217265605485N00958713EA0000000963
B1217335605544N00958615EA0000000964
B1217405605609N00958531EA0000000965
B1217495605700N00958436EA0000000973
B1217575605777N00958343EA0000000981
B1218045605857N00958351EA0000000992
B1218125605847N00958586EA0000000984
B1218185605752N00958614EA0000000987
B1218255605723N00958484EA0000000993
B1218315605743N00958373EA0000000997
B1218385605782N00958256EA0000001000
B1218455605828N00958150EA0000000998
B1218565605881N00957958EA0000000994
B1219035605893N00957827EA0000001013
B1219085605900N00957737EA0000001021
B1219135605905N00957642EA0000001034
B1219185605913N00957550EA0000001051
B1219245605923N00957436EA0000001055
B1219325605905N00957266EA0000001046
B1219385605889N00957142EA0000001046
B1219455605875N00956998EA0000001037
B1219505605869N00956897EA0000001025
B1219555605872N00956796EA0000001022
B1220005605884N00956700EA0000001021
B1220065605907N00956591EA0000001029
B1220115605924N00956505EA0000001036
B1220165605944N00956419EA0000001034
B1220225605972N00956313EA0000001044
B1220275605986N00956216EA0000001041
B1220325605995N00956118EA0000001040
B1220385606002N00955999EA0000001032
B1220435606027N00955910EA0000001024
B1220485606077N00955851EA0000001012
B1220535606133N00955800EA0000001003
B1220595606207N00955746EA0000000991
B1221075606311N00955693EA0000000986
B1221135606394N00955672EA0000000979
B1221185606465N00955664EA0000000975
B1221265606573N00955643EA0000000972
B1221325606653N00955624EA0000000964
B1221405606761N00955590EA0000000950
B1221465606841N00955567EA0000000940
B1221565606980N00955518EA0000000919
B1222055607103N00955459EA0000000915
B1222115607181N00955416EA0000000902
B1222175607268N00955363EA0000000891
B1222225607342N00955329EA0000000897
B1222275607412N00955301EA0000000901
B1222325607479N00955272EA0000000887
B1222415607606N00955226EA0000000868
B1222505607742N00955180EA0000000865
B1222565607821N00955153EA0000000885
B1223015607880N00955136EA0000000886
B1223075607957N00955129EA0000000883
B1223125608027N00955140EA0000000880
B1223175608101N00955162EA0000000875
B1223225608181N00955210EA0000000871
B1223285608276N00955283EA0000000872
B1223395608447N00955435EA0000000851
B1223465608557N00955545EA0000000838
B1223515608636N00955624EA0000000830
B1223575608729N00955725EA0000000819
B1224085608896N00955897EA0000000807
B1224145608985N00955986EA0000000800
B1224195609059N00956064EA0000000793
B1224285609195N00956182EA0000000779
B1224365609321N00956267EA0000000764
B1224435609425N00956320EA0000000756
B1224485609498N00956322EA0000000753
B1224555609585N00956252EA0000000755
B1225225609512N00956355EA0000000766
B1225285609587N00956402EA0000000755
B1225345609626N00956305EA0000000762
B1225395609658N00956230EA0000000762
B1225445609719N00956227EA0000000766
B1225495609777N00956322EA0000000772
B1225545609788N00956486EA0000000772
B1225595609736N00956634EA0000000774
B1226045609654N00956700EA0000000788
B1226095609584N00956662EA0000000799
B1226145609575N00956568EA0000000794
B1226195609632N00956542EA0000000789
B1226245609692N00956640EA0000000794
B1226295609698N00956803EA0000000802
B1226345609651N00956947EA0000000806
B1226405609554N00957029EA0000000815
B1226465609478N00956969EA0000000829
B1226525609494N00956873EA0000000828
B1226575609556N00956898EA0000000832
B1227025609592N00957028EA0000000842
B1227075609557N00957176EA0000000850
B1227135609468N00957191EA0000000859
B1227185609461N00957110EA0000000852
B1227235609520N00957117EA0000000845
B1227285609553N00957261EA0000000860
B1227335609522N00957410EA0000000872
B1227385609449N00957469EA0000000875
B1227445609390N00957402EA0000000878
B1227495609422N00957344EA0000000872
B1227545609483N00957413EA0000000872
B1228005609488N00957597EA0000000889
B1228055609428N00957699EA0000000886
B1228105609356N00957683EA0000000888
B1228165609340N00957586EA0000000890
B1228215609390N00957572EA0000000880
B1228265609434N00957695EA0000000878
B1228325609401N00957883EA0000000892
B1228375609332N00957976EA0000000892
B1228425609267N00957945EA0000000895
B1228485609279N00957856EA0000000890
B1228535609341N00957899EA0000000890
B1229005609361N00958116EA0000000900
B1229075609324N00958348EA0000000907
B1229145609268N00958554EA0000000911
B1229205609199N00958719EA0000000909
B1229255609181N00958891EA0000000904
B1229315609236N00959060EA0000000913
B1229365609292N00959135EA0000000909
B1229445609396N00959167EA0000000889
B1229505609476N00959236EA0000000873
B1229555609528N00959352EA0000000865
B1230015609576N00959527EA0000000863
B1230065609603N00959683EA0000000860
B1230125609624N00959884EA0000000859
B1230215609649N01000175EA0000000874
B1230265609666N01000337EA0000000881
B1230315609654N01000498EA0000000886
B1230365609586N01000589EA0000000878
B1230415609526N01000540EA0000000875
B1230465609527N01000449EA0000000871
B1230515609577N01000397EA0000000870
B1230565609644N01000434EA0000000882
B1231015609676N01000580EA0000000888
B1231065609635N01000733EA0000000889
B1231125609546N01000763EA0000000890
B1231175609524N01000680EA0000000894
B1231225609562N01000622EA0000000895
B1231285609635N01000686EA0000000904
B1231345609653N01000875EA0000000898
B1231395609608N01001025EA0000000897
B1231465609528N01001234EA0000000883
B1231545609418N01001452EA0000000880
B1232015609308N01001605EA0000000876
B1232095609175N01001772EA0000000867
B1232145609098N01001892EA0000000869
B1232195609052N01002060EA0000000875
B1232245609063N01002233EA0000000884
B1232305609142N01002287EA0000000892
B1232355609156N01002196EA0000000893
B1232405609085N01002175EA0000000904
B1232455609033N01002306EA0000000914
B1232505609069N01002441EA0000000909
B1232555609132N01002428EA0000000909
B1233015609108N01002318EA0000000916
B1233065609030N01002347EA0000000929
B1233125608998N01002540EA0000000926
B1233175609060N01002632EA0000000924
B1233235609092N01002538EA0000000924
B1233285609050N01002462EA0000000936
B1233335608975N01002527EA0000000938
B1233385608962N01002703EA0000000933
B1233445609038N01002770EA0000000945
B1233495609053N01002682EA0000000942
B1233555608969N01002641EA0000000949
B1234005608914N01002773EA0000000951
B1234055608954N01002916EA0000000943
B1234105609017N01002883EA0000000945
B1234155609025N01002782EA0000000954
B1234205608958N01002745EA0000000948
B1234255608897N01002877EA0000000948
B1234305608932N01003029EA0000000953
B1234365609017N01003070EA0000000961
B1234415609074N01003020EA0000000958
B1234465609042N01002929EA0000000953
B1234515608961N01002995EA0000000951
B1234565608953N01003165EA0000000959
B1235015609017N01003243EA0000000969
B1235065609069N01003202EA0000000977
B1235125609045N01003094EA0000000967
B1235175608970N01003083EA0000000961
B1235245608865N01003190EA0000000959
B1235305608796N01003340EA0000000960
B1235365608754N01003517EA0000000966
B1235415608741N01003675EA0000000977
B1235465608771N01003809EA0000000984
B1235515608832N01003861EA0000000981
B1235565608872N01003806EA0000000982
B1236015608840N01003735EA0000000983
B1236065608770N01003777EA0000000985
B1236115608733N01003931EA0000000989
B1236165608755N01004086EA0000000994
B1236215608819N01004146EA0000000990
B1236265608863N01004088EA0000000979
B1236325608820N01003999EA0000000983
B1236375608750N01004076EA0000000984
B1236425608742N01004250EA0000000983
B1236485608796N01004424EA0000000982
B1236565608902N01004582EA0000000967
B1237055609029N01004746EA0000000956
B1237125609123N01004869EA0000000952
B1237175609192N01004940EA0000000943
B1237265609313N01004934EA0000000933
B1237345609416N01004899EA0000000919
B1237405609490N01004881EA0000000914
B1237495609597N01004859EA0000000895
B1237575609693N01004831EA0000000879
B1238025609752N01004818EA0000000876
B1238115609853N01004790EA0000000866
B1238185609933N01004773EA0000000850
B1238255610015N01004732EA0000000834
B1238315610088N01004695EA0000000817
B1238405610201N01004658EA0000000798
B1238455610267N01004643EA0000000795
B1238525610358N01004610EA0000000795
B1238585610432N01004588EA0000000808
B1239035610487N01004661EA0000000821
B1239085610473N01004819EA0000000831
B1239145610378N01004880EA0000000837
B1239195610343N01004793EA0000000845
B1239245610392N01004758EA0000000846
B1239315610428N01004952EA0000000863
B1239365610359N01005040EA0000000874
B1239415610302N01004978EA0000000882
B1239465610331N01004914EA0000000889
B1239515610386N01004994EA0000000890
B1239565610382N01005156EA0000000906
B1240015610314N01005245EA0000000894
B1240065610250N01005171EA0000000897
B1240115610269N01005084EA0000000913
B1240165610331N01005118EA0000000914
B1240215610341N01005274EA0000000923
B1240265610271N01005376EA0000000915
B1240325610198N01005301EA0000000923
B1240385610221N01005212EA0000000935
B1240435610257N01005144EA0000000936
B1240485610292N01005078EA0000000935
B1240555610347N01004996EA0000000924
B1241005610370N01004912EA0000000920
B1241055610347N01004808EA0000000912
B1241105610267N01004764EA0000000904
B1241155610178N01004835EA0000000905
B1241215610102N01004994EA0000000903
B1241265610050N01005133EA0000000895
B1241325609999N01005311EA0000000888
B1241395609955N01005521EA0000000889
B1241445609931N01005671EA0000000888
B1241495609910N01005827EA0000000884
B1241585609857N01006109EA0000000886
B1242045609813N01006294EA0000000893
B1242125609753N01006533EA0000000901
B1242185609719N01006715EA0000000899
B1242265609677N01006964EA0000000891
B1242335609625N01007177EA0000000883
B1242425609543N01007432EA0000000866
B1242495609472N01007625EA0000000853
B1242545609421N01007761EA0000000846
B1243015609355N01007954EA0000000830
B1243085609289N01008156EA0000000813
B1243155609245N01008374EA0000000805
B1243205609224N01008528EA0000000802
B1243315609176N01008858EA0000000799
B1243365609147N01009011EA0000000792
B1243415609122N01009168EA0000000794
B1243465609097N01009318EA0000000795
B1243545609113N01009559EA0000000786
B1244005609175N01009658EA0000000775
B1244085609241N01009559EA0000000765
B1244135609269N01009480EA0000000759
B1244185609301N01009408EA0000000753
B1244235609336N01009333EA0000000737
B1244285609379N01009214EA0000000725
B1244375609442N01009065EA0000000763
B1244435609484N01008972EA0000000755
B1244495609528N01008881EA0000000749
B1244545609565N01008805EA0000000751
B1244595609596N01008737EA0000000751
B1245105609665N01008577EA0000000728
B1245205609730N01008421EA0000000732
B1245255609757N01008339EA0000000739
B1245305609777N01008252EA0000000736
B1245375609802N01008126EA0000000750
B1245425609818N01008040EA0000000749
B1245475609834N01007951EA0000000740
B1245565609873N01007785EA0000000720
B1246035609912N01007647EA0000000715
B1246135609953N01007453EA0000000722
B1246225609994N01007278EA0000000719
B1246295610023N01007143EA0000000729
B1246355610049N01007032EA0000000726
B1246405610069N01006933EA0000000723
B1246485610089N01006762EA0000000718
B1246535610098N01006660EA0000000713
B1247025610111N01006477EA0000000702
B1247075610116N01006369EA0000000685
B1247125610127N01006247EA0000000664
B1247195610139N01006075EA0000000668
B1247255610145N01005934EA0000000669
B1247345610151N01005742EA0000000674
B1247425610156N01005581EA0000000667
B1247485610165N01005459EA0000000679
B1248015610169N01005199EA0000000690
B1248125610188N01004990EA0000000680
B1248205610207N01004849EA0000000686
B1248265610224N01004753EA0000000695
B1248345610244N01004620EA0000000701
B1248415610255N01004500EA0000000706
B1248495610284N01004375EA0000000695
B1248555610328N01004281EA0000000664
B1249025610404N01004161EA0000000636
B1249075610459N01004069EA0000000629
B1249135610524N01003969EA0000000623
B1249205610608N01003877EA0000000617
B1249295610739N01003862EA0000000602
B1249365610852N01003883EA0000000587
B1249415610934N01003899EA0000000581
B1249485611047N01003945EA0000000573
B1249565611176N01003967EA0000000563
B1250015611241N01003914EA0000000560
B1250065611272N01003803EA0000000553
B1250115611248N01003676EA0000000543
B1250185611141N01003549EA0000000528
B1250245611057N01003425EA0000000513
B1250295611019N01003289EA0000000504
B1250345611013N01003145EA0000000492
B1250405611037N01002975EA0000000476
B1250455611075N01002848EA0000000470
B1250515611138N01002721EA0000000459
B1250565611204N01002639EA0000000452
B1251015611292N01002623EA0000000440
B1251075611412N01002696EA0000000418
B1251175611580N01002963EA0000000417
B1251225611626N01003146EA0000000417
B1251285611628N01003397EA0000000410
B1251345611574N01003637EA0000000400
B1251425611496N01003960EA0000000381
B1251475611489N01004178EA0000000368
B1251525611542N01004366EA0000000347
B1251575611638N01004478EA0000000328
B1252025611744N01004532EA0000000320
B1252115611926N01004522EA0000000318
B1252165612007N01004443EA0000000315
B1252215612047N01004316EA0000000307
B1252295612023N01004082EA0000000293
B1252365611998N01003880EA0000000292
B1252415611998N01003734EA0000000286
B1252465611942N01003618EA0000000285
B1252515611835N01003625EA0000000270
B1252565611739N01003765EA0000000262
B1253015611688N01003968EA0000000268
B1253065611655N01004179EA0000000263
B1253125611629N01004431EA0000000265
B1253185611606N01004672EA0000000273
B1253235611585N01004864EA0000000269
B1253295611556N01005096EA0000000261
B1253365611464N01005309EA0000000246
B1253425611369N01005465EA0000000239
B1253495611268N01005677EA0000000243
B1253585611147N01005957EA0000000238
B1254035611062N01006053EA0000000234
B1254095610947N01006092EA0000000229
B1254155610831N01006109EA0000000225
B1254205610758N01006053EA0000000218
B1254265610740N01005901EA0000000212
B1254325610738N01005749EA0000000205
B1254385610735N01005606EA0000000180
B1254445610736N01005456EA0000000151
B1254565610743N01005138EA0000000101
B1255025610747N01004974EA0000000072
B1255105610751N01004791EA0000000071
