AOGNOGN
HFDTE240825
HFFXA050
HFPLTPILOTINCHARGE:
HFGTYGLIDERTYPE:ASK-21
HFGIDGLIDERID:OY-TRX
HFDTM100GPSDATUM:WGS-1984
HFRFWFIRMWAREVERSION:
HFRHWHARDWAREVERSION:
HFFTYFRTYPE:OGN-FLIGHTBOOK
HFGPSGENERIC
HFPRSPRESSALTSENSOR:
HFCIDCOMPETITIONID:TR
B1511545610635N01004961EA0000000081
B1512005610662N01004853EA0000000189
B1512055610674N01004775EA0000000289
B1512105610684N01004690EA0000000369
B1512165610701N01004578EA0000000448
B1512235610729N01004437EA0000000499
B1512305610757N01004304EA0000000510
B1512385610785N01004170EA0000000503
B1512445610802N01004079EA0000000489
B1512525610819N01003952EA0000000474
B1512595610831N01003834EA0000000462
B1513045610840N01003741EA0000000448
B1513105610850N01003620EA0000000437
B1513165610854N01003502EA0000000431
B1513385610941N01003203EA0000000411
B1513435610994N01003304EA0000000405
B1513485610994N01003477EA0000000391
B1513535610923N01003568EA0000000378
B1514015610875N01003460EA0000000360
B1514155610865N01003218EA0000000337
B1514205610909N01003172EA0000000332
B1514255610980N01003203EA0000000321
B1514305611056N01003270EA0000000312
B1514415611227N01003437EA0000000308
B1514465611304N01003516EA0000000317
B1514515611362N01003630EA0000000329
B1514565611316N01003755EA0000000340
B1515025611279N01003689EA0000000334
B1515075611328N01003723EA0000000343
B1515125611304N01003861EA0000000333
B1515175611253N01003829EA0000000335
B1515225611282N01003777EA0000000342
B1515285611312N01003903EA0000000340
B1515335611250N01003955EA0000000344
B1515385611252N01003896EA0000000345
B1515445611302N01003984EA0000000345
B1515495611263N01004097EA0000000351
B1515545611220N01004059EA0000000347
B1516005611268N01004050EA0000000354
B1516055611268N01004183EA0000000342
B1516105611207N01004174EA0000000350
B1516165611256N01004181EA0000000359
B1516215611226N01004305EA0000000349
B1516265611194N01004245EA0000000354
B1516325611241N01004329EA0000000350
B1516405611165N01004358EA0000000345
B1516455611215N01004359EA0000000354
B1516515611214N01004518EA0000000346
B1516565611150N01004526EA0000000351
B1517045611183N01004421EA0000000353
B1517095611233N01004493EA0000000352
B1517145611194N01004620EA0000000332
B1517205611156N01004550EA0000000325
B1517255611209N01004583EA0000000332
B1517305611199N01004729EA0000000316
B1517365611128N01004735EA0000000308
B1517415611139N01004657EA0000000311
B1517485611189N01004550EA0000000298
B1517535611233N01004474EA0000000297
B1517585611285N01004521EA0000000313
B1518035611248N01004653EA0000000292
B1518085611201N01004611EA0000000285
B1518135611251N01004600EA0000000291
B1518195611276N01004753EA0000000291
B1518245611211N01004852EA0000000271
B1518295611157N01004794EA0000000265
B1518355611156N01004681EA0000000257
B1518415611170N01004556EA0000000261
B1518515611248N01004547EA0000000275
B1518565611207N01004682EA0000000266
B1519015611170N01004626EA0000000264
B1519065611227N01004639EA0000000276
B1519125611201N01004804EA0000000266
B1519175611151N01004765EA0000000266
B1519225611199N01004752EA0000000276
B1519285611215N01004912EA0000000276
B1519335611146N01005011EA0000000262
B1519395611110N01004929EA0000000263
B1519445611165N01004943EA0000000275
B1519495611177N01005087EA0000000269
B1519545611111N01005188EA0000000257
B1520005611059N01005118EA0000000249
B1520055611109N01005097EA0000000260
B1520105611141N01005220EA0000000266
B1520215611048N01005288EA0000000236
B1520265611108N01005314EA0000000240
B1520325611147N01005477EA0000000247
B1520375611117N01005633EA0000000239
B1520425611044N01005714EA0000000229
B1520485610950N01005718EA0000000222
B1520545610859N01005685EA0000000217
B1520595610780N01005648EA0000000213
B1521045610735N01005575EA0000000215
B1521095610725N01005498EA0000000197
B1521175610735N01005384EA0000000166
B1521235610735N01005297EA0000000136
B1521285610735N01005201EA0000000110
B1521345610738N01005063EA0000000073
B1521395610744N01004946EA0000000066
B1521465610750N01004824EA0000000065
