AOGNOGN
HFDTE240825
HFFXA050
HFPLTPILOTINCHARGE:
HFGTYGLIDERTYPE:ASK-21
HFGIDGLIDERID:OY-TRX
HFDTM100GPSDATUM:WGS-1984
HFRFWFIRMWAREVERSION:
HFRHWHARDWAREVERSION:
HFFTYFRTYPE:OGN-FLIGHTBOOK
HFGPSGENERIC
HFPRSPRESSALTSENSOR:
HFCIDCOMPETITIONID:TR
B0941405610633N01004967EA0000000076
B0941455610647N01004880EA0000000153
B0941505610653N01004802EA0000000227
B0941555610674N01004720EA0000000295
B0942005610695N01004627EA0000000362
B0942055610713N01004527EA0000000419
B0942115610735N01004405EA0000000453
B0942165610760N01004301EA0000000468
B0942225610773N01004208EA0000000484
B0942275610797N01004161EA0000000477
B0942335610863N01004198EA0000000468
B0942405610946N01004300EA0000000463
B0942455610993N01004389EA0000000461
B0942525611058N01004523EA0000000449
B0942575611102N01004626EA0000000440
B0943025611147N01004733EA0000000423
B0943075611196N01004845EA0000000415
B0943135611254N01004980EA0000000410
B0943185611301N01005089EA0000000403
B0943235611347N01005198EA0000000396
B0943285611398N01005283EA0000000396
B0943335611439N01005263EA0000000395
B0943385611430N01005198EA0000000410
B0943445611353N01005188EA0000000402
B0943495611297N01005316EA0000000407
B0943545611328N01005437EA0000000386
B0944005611382N01005411EA0000000386
B0944055611380N01005329EA0000000397
B0944105611309N01005334EA0000000395
B0944165611281N01005526EA0000000390
B0944215611336N01005595EA0000000394
B0944265611379N01005553EA0000000398
B0944325611348N01005458EA0000000414
B0944375611270N01005503EA0000000409
B0944425611239N01005658EA0000000407
B0944485611291N01005776EA0000000407
B0944535611338N01005752EA0000000420
B0944585611346N01005688EA0000000438
B0945045611291N01005647EA0000000434
B0945095611225N01005731EA0000000419
B0945145611233N01005887EA0000000406
B0945205611302N01005952EA0000000417
B0945255611341N01005897EA0000000420
B0945305611312N01005829EA0000000430
B0945365611228N01005887EA0000000416
B0945415611218N01006049EA0000000408
B0945465611276N01006134EA0000000412
B0945525611342N01006102EA0000000409
B0946005611374N01005983EA0000000415
B0946055611332N01005930EA0000000399
B0946105611264N01006022EA0000000401
B0946155611272N01006164EA0000000403
B0946205611330N01006217EA0000000398
B0946255611374N01006166EA0000000390
B0946305611375N01006079EA0000000388
B0946365611347N01005985EA0000000379
B0946425611308N01005895EA0000000369
B0946495611264N01005789EA0000000361
B0946565611221N01005687EA0000000354
B0947015611185N01005613EA0000000346
B0947065611150N01005541EA0000000339
B0947125611100N01005463EA0000000341
B0947175611051N01005408EA0000000348
B0947265610968N01005298EA0000000332
B0947325610945N01005207EA0000000338
B0947375610989N01005190EA0000000333
B0947425611027N01005311EA0000000327
B0947475610989N01005459EA0000000324
B0947535610899N01005532EA0000000321
B0947585610828N01005553EA0000000326
B0948045610745N01005576EA0000000321
B0948095610708N01005521EA0000000312
B0948145610735N01005453EA0000000302
B0948225610823N01005391EA0000000314
B0948275610875N01005345EA0000000303
B0948325610915N01005264EA0000000297
B0948375610949N01005173EA0000000285
B0948425610977N01005071EA0000000281
B0948485611013N01004959EA0000000277
B0948555611055N01004840EA0000000276
B0949025611080N01004720EA0000000282
B0949075611116N01004668EA0000000275
B0949125611170N01004749EA0000000271
B0949175611169N01004910EA0000000275
B0949235611144N01005105EA0000000263
B0949295611141N01005304EA0000000251
B0949345611129N01005470EA0000000246
B0949395611072N01005600EA0000000240
B0949445610998N01005694EA0000000237
B0949495610918N01005767EA0000000219
B0949565610799N01005761EA0000000216
B0950045610737N01005619EA0000000191
B0950115610741N01005463EA0000000182
B0950185610732N01005303EA0000000126
B0950245610737N01005160EA0000000090
B0950295610741N01005035EA0000000067
B0950405610747N01004817EA0000000062
