AOGNOGN
HFDTE240825
HFFXA050
HFPLTPILOTINCHARGE:
HFGTYGLIDERTYPE:SZD-51 Junior
HFGIDGLIDERID:OY-XPA
HFDTM100GPSDATUM:WGS-1984
HFRFWFIRMWAREVERSION:
HFRHWHARDWAREVERSION:
HFFTYFRTYPE:OGN-FLIGHTBOOK
HFGPSGENERIC
HFPRSPRESSALTSENSOR:
HFCIDCOMPETITIONID:PA
B0852495610635N01004970EA0000000080
B0852505610639N01004948EA0000000091
B0852555610653N01004852EA0000000187
B0853005610667N01004773EA0000000282
B0853055610685N01004702EA0000000368
B0853105610699N01004625EA0000000432
B0853155610713N01004543EA0000000477
B0853215610743N01004432EA0000000489
B0853285610792N01004320EA0000000488
B0853335610834N01004249EA0000000474
B0853385610879N01004173EA0000000462
B0853435610929N01004107EA0000000459
B0853485610989N01004074EA0000000469
B0853555611068N01004040EA0000000474
B0854005611127N01004022EA0000000475
B0854055611168N01003969EA0000000481
B0854105611143N01003885EA0000000484
B0854155611062N01003878EA0000000488
B0854205610995N01003997EA0000000483
B0854255611008N01004169EA0000000485
B0854305611050N01004320EA0000000485
B0854405611131N01004617EA0000000476
B0854455611168N01004764EA0000000474
B0854515611222N01004927EA0000000469
B0854595611296N01005132EA0000000462
B0855045611343N01005255EA0000000456
B0855105611402N01005398EA0000000452
B0855175611477N01005541EA0000000446
B0855235611544N01005650EA0000000446
B0855285611584N01005778EA0000000438
B0855335611566N01005947EA0000000424
B0855385611483N01006041EA0000000414
B0855445611411N01005963EA0000000408
B0855515611450N01005849EA0000000395
B0855565611493N01005782EA0000000388
B0856065611566N01005624EA0000000382
B0856125611577N01005512EA0000000388
B0856175611517N01005457EA0000000387
B0856225611446N01005557EA0000000385
B0856275611459N01005708EA0000000395
B0856335611527N01005743EA0000000394
B0856385611535N01005649EA0000000387
B0856435611470N01005580EA0000000389
B0856485611388N01005645EA0000000394
B0856535611366N01005800EA0000000395
B0856585611413N01005898EA0000000399
B0857045611470N01005839EA0000000403
B0857095611446N01005744EA0000000403
B0857145611364N01005731EA0000000404
B0857205611295N01005879EA0000000406
B0857255611316N01006019EA0000000406
B0857305611380N01006056EA0000000405
B0857365611417N01005940EA0000000409
B0857415611378N01005837EA0000000418
B0857465611298N01005817EA0000000421
B0857525611216N01005948EA0000000412
B0857575611212N01006111EA0000000400
B0858025611266N01006203EA0000000398
B0858085611325N01006163EA0000000393
B0858145611348N01006038EA0000000383
B0858205611368N01005905EA0000000385
B0858265611389N01005777EA0000000383
B0858345611409N01005615EA0000000390
B0858405611412N01005485EA0000000383
B0858455611360N01005408EA0000000387
B0858505611278N01005456EA0000000376
B0858565611240N01005642EA0000000364
B0859015611283N01005765EA0000000346
B0859065611354N01005761EA0000000320
B0859135611402N01005596EA0000000318
B0859195611400N01005437EA0000000316
B0859255611374N01005280EA0000000308
B0859305611353N01005151EA0000000294
B0859365611370N01005000EA0000000287
B0859415611354N01004894EA0000000290
B0859465611278N01004865EA0000000281
B0859515611205N01004992EA0000000284
B0859565611198N01005177EA0000000300
B0900015611260N01005291EA0000000299
B0900065611332N01005272EA0000000285
B0900125611370N01005146EA0000000273
B0900185611394N01005024EA0000000264
B0900245611430N01004915EA0000000247
B0900295611433N01004812EA0000000246
B0900345611368N01004769EA0000000243
B0900395611291N01004870EA0000000224
B0900445611248N01005058EA0000000209
B0900535611191N01005416EA0000000226
B0900585611153N01005595EA0000000223
B0901045611058N01005733EA0000000221
B0901105610947N01005771EA0000000217
B0901175610820N01005754EA0000000210
B0901225610746N01005700EA0000000210
B0901275610725N01005583EA0000000188
B0901345610728N01005412EA0000000151
B0901415610727N01005242EA0000000111
B0905165610726N01004863EA0000000070
