AOGNOGN
HFDTE240825
HFFXA050
HFPLTPILOTINCHARGE:
HFGTYGLIDERTYPE:SZD-51 Junior
HFGIDGLIDERID:OY-XPA
HFDTM100GPSDATUM:WGS-1984
HFRFWFIRMWAREVERSION:
HFRHWHARDWAREVERSION:
HFFTYFRTYPE:OGN-FLIGHTBOOK
HFGPSGENERIC
HFPRSPRESSALTSENSOR:
HFCIDCOMPETITIONID:PA
B1440595610631N01004986EA0000000072
B1441045610661N01004877EA0000000152
B1441095610687N01004795EA0000000256
B1441145610701N01004717EA0000000344
B1441205610716N01004626EA0000000423
B1441255610735N01004539EA0000000470
B1441305610759N01004440EA0000000485
B1441375610797N01004282EA0000000492
B1441425610820N01004194EA0000000507
B1441485610794N01004099EA0000000516
B1441545610694N01004118EA0000000503
B1441595610637N01004273EA0000000499
B1442045610674N01004425EA0000000476
B1442095610747N01004428EA0000000477
B1442165610829N01004399EA0000000486
B1442245610873N01004296EA0000000485
B1442325610891N01004175EA0000000488
B1442375610901N01004109EA0000000484
B1442475610914N01003995EA0000000476
B1442575610918N01003888EA0000000464
B1443045610937N01003808EA0000000456
B1443095610973N01003778EA0000000452
B1443145611021N01003783EA0000000449
B1443235611116N01003826EA0000000451
B1443295611173N01003839EA0000000457
B1443345611216N01003832EA0000000464
B1443415611268N01003798EA0000000475
B1443495611329N01003759EA0000000481
B1443555611376N01003719EA0000000489
B1444005611421N01003703EA0000000493
B1444055611467N01003740EA0000000499
B1444115611507N01003872EA0000000487
B1444165611509N01004022EA0000000474
B1444215611447N01004129EA0000000451
B1444265611397N01004081EA0000000446
B1444325611430N01004001EA0000000445
B1444385611477N01003972EA0000000450
B1444465611531N01003957EA0000000442
B1444535611575N01003941EA0000000439
B1445005611612N01003891EA0000000432
B1445055611602N01003829EA0000000422
B1445105611538N01003817EA0000000420
B1445155611476N01003909EA0000000418
B1445205611465N01004053EA0000000410
B1445285611522N01004212EA0000000397
B1445335611567N01004209EA0000000388
B1445385611566N01004142EA0000000383
B1445435611512N01004107EA0000000374
B1445485611442N01004168EA0000000377
B1445535611404N01004297EA0000000370
B1445585611410N01004435EA0000000362
B1446035611452N01004505EA0000000353
B1446085611475N01004464EA0000000344
B1446135611459N01004391EA0000000336
B1446185611443N01004323EA0000000334
B1446245611433N01004254EA0000000335
B1446355611405N01004137EA0000000313
B1446425611388N01004066EA0000000302
B1446475611379N01004011EA0000000291
B1448005610915N01005666EA0000000154
B1448055610820N01005630EA0000000150
B1448105610756N01005523EA0000000149
B1448165610739N01005358EA0000000137
B1448215610743N01005230EA0000000115
B1448275610744N01005096EA0000000082
B1448555610757N01004688EA0000000066
