AOGNOGN
HFDTE240825
HFFXA050
HFPLTPILOTINCHARGE:
HFGTYGLIDERTYPE:SZD-51 Junior
HFGIDGLIDERID:OY-XPA
HFDTM100GPSDATUM:WGS-1984
HFRFWFIRMWAREVERSION:
HFRHWHARDWAREVERSION:
HFFTYFRTYPE:OGN-FLIGHTBOOK
HFGPSGENERIC
HFPRSPRESSALTSENSOR:
HFCIDCOMPETITIONID:PA
B0957065610632N01004967EA0000000081
B0957075610635N01004946EA0000000091
B0957125610646N01004855EA0000000188
B0957175610653N01004780EA0000000271
B0957225610660N01004701EA0000000335
B0957275610676N01004620EA0000000388
B0957325610697N01004528EA0000000428
B0957375610725N01004424EA0000000466
B0957445610773N01004295EA0000000482
B0957505610828N01004207EA0000000475
B0957555610887N01004172EA0000000481
B0958005610944N01004139EA0000000481
B0958065611002N01004070EA0000000482
B0958115611036N01003985EA0000000486
B0958195611043N01003830EA0000000508
B0958255611030N01003705EA0000000515
B0958325611012N01003564EA0000000531
B0958385610999N01003450EA0000000533
B0958435610983N01003355EA0000000526
B0958495610957N01003238EA0000000514
B0958565610886N01003128EA0000000514
B0959015610824N01003066EA0000000519
B0959065610760N01003019EA0000000525
B0959125610683N01003111EA0000000534
B0959175610706N01003250EA0000000527
B0959225610765N01003255EA0000000528
B0959285610765N01003153EA0000000543
B0959335610740N01003076EA0000000552
B0959385610684N01003069EA0000000558
B0959445610654N01003233EA0000000558
B0959505610720N01003294EA0000000569
B0959555610726N01003219EA0000000576
B1000005610665N01003215EA0000000577
B1000065610631N01003382EA0000000586
B1000115610679N01003459EA0000000593
B1000175610702N01003379EA0000000593
B1000225610640N01003364EA0000000598
B1000285610605N01003529EA0000000604
B1000345610671N01003588EA0000000621
B1000405610687N01003511EA0000000628
B1000455610631N01003482EA0000000636
B1000505610576N01003589EA0000000644
B1000565610613N01003725EA0000000643
B1001025610644N01003658EA0000000651
B1001075610589N01003624EA0000000660
B1001125610538N01003739EA0000000665
B1001175610575N01003853EA0000000658
B1001225610616N01003806EA0000000665
B1001275610579N01003741EA0000000675
B1001325610509N01003815EA0000000681
B1001375610515N01003966EA0000000679
B1001425610572N01003996EA0000000676
B1001475610567N01003914EA0000000682
B1001525610498N01003906EA0000000691
B1001575610443N01004027EA0000000695
B1002025610466N01004162EA0000000694
B1002085610521N01004137EA0000000694
B1002135610485N01004069EA0000000699
B1002185610414N01004138EA0000000704
B1002245610410N01004319EA0000000707
B1002295610463N01004352EA0000000708
B1002345610464N01004269EA0000000703
B1002405610390N01004202EA0000000709
B1002465610304N01004192EA0000000725
B1002535610209N01004228EA0000000730
B1002585610149N01004329EA0000000725
B1003035610153N01004475EA0000000713
B1003085610211N01004520EA0000000709
B1003135610229N01004444EA0000000711
B1003185610170N01004400EA0000000714
B1003235610108N01004507EA0000000701
B1003285610133N01004655EA0000000699
B1003335610182N01004648EA0000000703
B1003385610162N01004567EA0000000703
B1003445610077N01004581EA0000000709
B1003495610034N01004715EA0000000700
B1003545610057N01004852EA0000000696
B1004005610119N01004890EA0000000691
B1004055610135N01004814EA0000000687
B1004105610095N01004746EA0000000700
B1004165610012N01004746EA0000000690
B1004245609877N01004821EA0000000679
B1004325609733N01004923EA0000000657
B1004385609628N01005018EA0000000653
B1004435609547N01005098EA0000000651
B1004515609414N01005211EA0000000636
B1004585609296N01005301EA0000000632
B1005055609183N01005391EA0000000620
B1005145609029N01005480EA0000000610
B1005215608914N01005533EA0000000606
B1005275608818N01005609EA0000000603
B1005325608761N01005735EA0000000610
B1005375608764N01005894EA0000000615
B1005425608816N01005969EA0000000622
B1005475608851N01005929EA0000000620
B1005525608826N01005853EA0000000615
B1005575608753N01005849EA0000000618
B1006025608693N01005968EA0000000624
B1006085608713N01006151EA0000000631
B1006145608778N01006190EA0000000641
B1006205608797N01006114EA0000000637
B1006255608753N01006053EA0000000635
B1006315608661N01006068EA0000000635
B1006365608592N01006164EA0000000652
B1006415608582N01006306EA0000000663
B1006465608630N01006397EA0000000668
B1006515608674N01006387EA0000000675
B1006565608664N01006317EA0000000675
B1007015608595N01006299EA0000000675
B1007075608495N01006376EA0000000682
B1007125608417N01006454EA0000000696
B1007175608363N01006572EA0000000706
B1007225608373N01006715EA0000000700
B1007285608437N01006725EA0000000698
B1007335608416N01006648EA0000000705
B1007385608344N01006684EA0000000713
B1007445608322N01006861EA0000000711
B1007495608371N01006939EA0000000713
B1007555608426N01006898EA0000000704
B1008005608470N01006824EA0000000710
B1008095608552N01006710EA0000000716
B1008165608609N01006633EA0000000713
B1008245608672N01006521EA0000000689
B1008305608726N01006436EA0000000678
B1008365608781N01006355EA0000000669
B1008485608889N01006194EA0000000649
B1008535608940N01006128EA0000000641
B1008585608989N01006062EA0000000638
B1009055609057N01005971EA0000000627
B1009125609119N01005868EA0000000612
B1009175609163N01005788EA0000000605
B1009225609209N01005714EA0000000602
B1009315609288N01005574EA0000000584
B1009445609407N01005370EA0000000561
B1009495609452N01005298EA0000000557
B1009545609500N01005239EA0000000548
B1009595609551N01005172EA0000000536
B1010065609620N01005072EA0000000529
B1010135609690N01004988EA0000000526
B1010195609750N01004910EA0000000518
B1010255609810N01004842EA0000000514
B1010325609885N01004776EA0000000502
B1010385609950N01004723EA0000000510
B1010445610008N01004672EA0000000507
B1010505610070N01004613EA0000000499
B1010595610167N01004531EA0000000492
B1011045610201N01004462EA0000000489
B1011095610187N01004363EA0000000483
B1011145610110N01004348EA0000000476
B1011195610039N01004485EA0000000468
B1011255609989N01004696EA0000000456
B1011315609943N01004897EA0000000456
B1011365609912N01005064EA0000000449
B1011415609882N01005236EA0000000454
B1011465609865N01005404EA0000000463
B1011515609918N01005477EA0000000474
B1011565609922N01005382EA0000000474
B1012015609845N01005403EA0000000481
B1012065609844N01005570EA0000000485
B1012115609907N01005572EA0000000498
B1012165609879N01005478EA0000000511
B1012215609807N01005551EA0000000524
B1012265609825N01005710EA0000000524
B1012325609886N01005669EA0000000539
B1012375609827N01005612EA0000000548
B1012425609792N01005750EA0000000546
B1012485609867N01005779EA0000000571
B1012535609849N01005697EA0000000590
B1012585609780N01005752EA0000000601
B1013045609800N01005905EA0000000613
B1013095609842N01005857EA0000000623
B1013145609788N01005808EA0000000638
B1013205609729N01005960EA0000000655
B1013255609781N01006041EA0000000665
B1013305609785N01005960EA0000000676
B1013365609701N01006043EA0000000696
B1013415609736N01006169EA0000000701
B1013465609770N01006102EA0000000714
B1013525609691N01006107EA0000000738
B1013575609689N01006262EA0000000755
B1014025609740N01006273EA0000000770
B1014085609678N01006231EA0000000782
B1014145609647N01006400EA0000000794
B1014195609706N01006450EA0000000810
B1014245609710N01006379EA0000000820
B1014295609639N01006365EA0000000835
B1014345609566N01006436EA0000000849
B1014405609573N01006590EA0000000858
B1014455609622N01006563EA0000000865
B1014505609590N01006481EA0000000877
B1014565609510N01006561EA0000000898
B1015015609532N01006692EA0000000900
B1015065609581N01006663EA0000000915
B1015125609543N01006573EA0000000928
B1015175609465N01006639EA0000000936
B1015235609456N01006826EA0000000949
B1015285609510N01006862EA0000000956
B1015335609513N01006773EA0000000963
B1015385609437N01006776EA0000000973
B1015445609415N01006963EA0000000975
B1015495609476N01007009EA0000000986
B1015545609497N01006932EA0000001002
B1016005609421N01006887EA0000001016
B1016055609367N01007013EA0000001023
B1016105609397N01007149EA0000001022
B1016165609462N01007117EA0000001031
B1016215609434N01007016EA0000001041
B1016265609349N01007029EA0000001051
B1016325609312N01007208EA0000001060
B1016375609364N01007302EA0000001054
B1016425609412N01007247EA0000001063
B1016495609362N01007124EA0000001086
B1016545609285N01007168EA0000001086
B1016595609265N01007324EA0000001085
B1017045609323N01007425EA0000001093
B1017095609386N01007392EA0000001103
B1017145609387N01007273EA0000001096
B1017205609291N01007203EA0000001085
B1017255609203N01007304EA0000001085
B1017305609177N01007482EA0000001086
B1017365609240N01007581EA0000001100
B1017415609275N01007509EA0000001102
B1017465609247N01007400EA0000001102
B1017525609149N01007356EA0000001093
B1017575609055N01007349EA0000001084
B1018085608855N01007277EA0000001049
B1018155608731N01007205EA0000001037
B1018265608539N01007072EA0000001023
B1018335608433N01006963EA0000001014
B1018385608364N01006882EA0000001009
B1018435608299N01006800EA0000001000
B1018485608241N01006715EA0000000992
B1018565608152N01006568EA0000000974
B1019025608089N01006449EA0000000962
B1019075608038N01006353EA0000000957
B1019125607989N01006256EA0000000951
B1019175607933N01006157EA0000000937
B1019265607843N01005962EA0000000911
B1019365607748N01005741EA0000000887
B1019445607660N01005555EA0000000864
B1019515607584N01005398EA0000000848
B1019565607538N01005280EA0000000847
B1020035607482N01005117EA0000000840
B1020085607440N01005011EA0000000844
B1020145607397N01004888EA0000000833
B1020195607374N01004771EA0000000823
B1020255607343N01004629EA0000000819
B1020325607269N01004479EA0000000797
B1020375607265N01004335EA0000000785
B1020455607326N01004159EA0000000787
B1020505607368N01004072EA0000000784
B1020565607432N01003997EA0000000778
B1021025607498N01003939EA0000000772
B1021075607551N01003892EA0000000764
B1021125607606N01003842EA0000000755
B1021175607664N01003782EA0000000742
B1021225607722N01003721EA0000000738
B1021275607776N01003653EA0000000741
B1021325607807N01003571EA0000000747
B1021375607770N01003498EA0000000740
B1021425607684N01003527EA0000000724
B1021475607626N01003688EA0000000718
B1021525607652N01003866EA0000000708
B1021575607725N01003908EA0000000709
B1022025607766N01003832EA0000000698
B1022085607731N01003705EA0000000692
B1022135607648N01003695EA0000000696
B1022185607583N01003818EA0000000692
B1022255607612N01004021EA0000000674
B1022305607674N01004015EA0000000660
B1022365607707N01003901EA0000000647
B1022425607717N01003774EA0000000639
B1022475607724N01003664EA0000000629
B1022545607752N01003503EA0000000630
B1022595607790N01003398EA0000000634
B1023105607895N01003195EA0000000611
B1023175607974N01003091EA0000000591
B1023225608038N01003028EA0000000572
B1023285608128N01002966EA0000000553
B1023335608207N01002932EA0000000553
B1023395608300N01002905EA0000000549
B1023445608375N01002888EA0000000542
B1023505608465N01002870EA0000000531
B1024005608624N01002834EA0000000502
B1024065608718N01002815EA0000000480
B1024165608881N01002785EA0000000451
B1024225608975N01002772EA0000000441
B1024285609064N01002755EA0000000432
B1024375609203N01002752EA0000000425
B1024435609298N01002761EA0000000412
B1024485609381N01002780EA0000000398
B1024555609496N01002835EA0000000382
B1025045609640N01002924EA0000000375
B1025095609721N01002969EA0000000372
B1025165609834N01003030EA0000000362
B1025245609965N01003099EA0000000351
B1025315610075N01003145EA0000000344
B1025365610149N01003172EA0000000346
B1025425610235N01003195EA0000000341
B1025525610382N01003215EA0000000326
B1025575610455N01003222EA0000000319
B1026045610555N01003215EA0000000301
B1026095610627N01003192EA0000000292
B1026145610701N01003179EA0000000290
B1026195610778N01003184EA0000000296
B1026245610857N01003197EA0000000288
B1026305610961N01003234EA0000000279
B1026355611030N01003355EA0000000281
B1026405611046N01003546EA0000000277
B1026455611042N01003737EA0000000275
B1026505611030N01003912EA0000000273
B1026565611036N01004127EA0000000251
B1027015611062N01004304EA0000000238
B1027065611110N01004456EA0000000229
B1027125611168N01004639EA0000000214
B1027225611199N01005002EA0000000196
B1027285611187N01005227EA0000000187
B1027355611102N01005446EA0000000179
B1027405611025N01005587EA0000000172
B1027475610887N01005691EA0000000159
B1027525610789N01005715EA0000000156
B1027575610731N01005643EA0000000145
B1028045610739N01005483EA0000000130
B1028095610733N01005365EA0000000121
B1028145610736N01005246EA0000000101
B1028555610737N01004900EA0000000064
