AOGNOGN
HFDTE200625
HFFXA050
HFPLTPILOTINCHARGE:
HFGTYGLIDERTYPE:ASK-21
HFGIDGLIDERID:OY-XNX
HFDTM100GPSDATUM:WGS-1984
HFRFWFIRMWAREVERSION:
HFRHWHARDWAREVERSION:
HFFTYFRTYPE:OGN-FLIGHTBOOK
HFGPSGENERIC
HFPRSPRESSALTSENSOR:
HFCIDCOMPETITIONID:NX
B1534355554423N00927246EA0000000102
B1534405554440N00927130EA0000000182
B1534455554449N00927040EA0000000278
B1534505554453N00926975EA0000000275
B1534565554467N00926826EA0000000259
B1535015554436N00926734EA0000000266
B1535065554363N00926769EA0000000256
B1535135554290N00926963EA0000000250
B1535225554213N00927226EA0000000243
B1535295554160N00927439EA0000000243
B1535355554162N00927631EA0000000247
B1535425554199N00927837EA0000000247
B1535475554246N00927964EA0000000236
B1535525554317N00927994EA0000000224
B1535575554358N00927897EA0000000201
B1536035554388N00927748EA0000000167
B1536115554424N00927548EA0000000139
B1536165554439N00927434EA0000000111
B1536225554450N00927296EA0000000091
B1536295554465N00927167EA0000000088
