AOGNOGN
HFDTE300725
HFFXA050
HFPLTPILOTINCHARGE:
HFGTYGLIDERTYPE:ASK-21
HFGIDGLIDERID:OY-XKI
HFDTM100GPSDATUM:WGS-1984
HFRFWFIRMWAREVERSION:
HFRHWHARDWAREVERSION:
HFFTYFRTYPE:OGN-FLIGHTBOOK
HFGPSGENERIC
HFPRSPRESSALTSENSOR:
HFCIDCOMPETITIONID:KI
B1439195553095N01213999EA0000000016
B1439225553099N01213950EA0000000017
B1439305553120N01213763EA0000000017
B1439365553138N01213577EA0000000021
B1439435553159N01213358EA0000000051
B1439485553179N01213209EA0000000068
B1439535553212N01213051EA0000000074
B1439585553280N01212910EA0000000087
B1440035553366N01212794EA0000000104
B1440105553495N01212638EA0000000123
B1440155553579N01212511EA0000000148
B1440225553697N01212342EA0000000173
B1440295553810N01212170EA0000000196
B1440375553899N01211934EA0000000214
B1440445553940N01211716EA0000000241
B1440515553960N01211508EA0000000261
B1440565553969N01211361EA0000000278
B1441015553967N01211215EA0000000291
B1441075553961N01211033EA0000000305
B1441135553951N01210847EA0000000318
B1441315554195N01210351EA0000000359
B1441365554313N01210302EA0000000376
B1441455554534N01210257EA0000000400
B1441525554706N01210210EA0000000421
B1441575554828N01210175EA0000000435
B1442115555162N01210006EA0000000466
B1442195555352N01209905EA0000000481
B1442295555579N01209739EA0000000501
B1442345555694N01209651EA0000000521
B1442395555780N01209534EA0000000535
B1442445555817N01209384EA0000000536
B1442495555865N01209252EA0000000549
B1442555555967N01209268EA0000000569
B1443005555980N01209372EA0000000569
B1443055555939N01209388EA0000000574
B1443105555916N01209296EA0000000579
B1443175555972N01209127EA0000000589
B1443245556088N01209094EA0000000595
B1443375556057N01209135EA0000000621
B1443585556224N01209261EA0000000629
B1444035556201N01209183EA0000000642
B1444195556300N01209193EA0000000647
B1444425556387N01209118EA0000000674
B1444595556484N01209078EA0000000706
B1445195556563N01209028EA0000000715
B1445365556704N01208922EA0000000743
B1445425556668N01209009EA0000000746
B1445495556646N01208871EA0000000761
B1445545556726N01208783EA0000000765
B1446015556818N01208882EA0000000772
B1446075556775N01208950EA0000000767
B1446125556739N01208860EA0000000781
B1446285556941N01208828EA0000000781
B1446335556911N01208907EA0000000781
B1446405556872N01208788EA0000000794
B1447005557059N01208841EA0000000796
B1447075556990N01208849EA0000000801
B1447165556904N01208805EA0000000812
B1447235556839N01208730EA0000000813
B1447285556833N01208605EA0000000815
B1447425557034N01208631EA0000000826
B1447505556973N01208716EA0000000833
B1448025556858N01208655EA0000000843
B1448085556798N01208590EA0000000839
B1448135556750N01208518EA0000000835
B1448195556682N01208468EA0000000814
B1448295556543N01208468EA0000000778
B1448355556456N01208475EA0000000765
B1448415556368N01208481EA0000000750
B1448485556266N01208496EA0000000734
B1448565556145N01208527EA0000000711
B1449045556024N01208554EA0000000706
B1449095555955N01208570EA0000000710
B1449155555874N01208589EA0000000695
B1449235555758N01208617EA0000000675
B1449315555644N01208670EA0000000660
B1449375555562N01208718EA0000000653
B1449445555476N01208789EA0000000648
B1449505555404N01208849EA0000000636
B1449565555325N01208873EA0000000636
B1450045555219N01208923EA0000000652
B1450135555127N01208927EA0000000682
B1450185555087N01208910EA0000000701
B1450465555182N01209029EA0000000720
B1450515555151N01208965EA0000000729
B1451025555295N01208958EA0000000753
B1451075555283N01209046EA0000000767
B1451125555251N01209002EA0000000768
B1451175555302N01208892EA0000000781
B1451225555390N01208930EA0000000790
B1451325555353N01209060EA0000000810
B1451375555343N01208945EA0000000826
B1451465555479N01208876EA0000000847
B1451515555509N01208993EA0000000852
B1452195555246N01209052EA0000000877
B1452255555185N01209076EA0000000871
B1452325555114N01209109EA0000000882
B1453015554836N01209251EA0000000861
B1453195554661N01209400EA0000000843
B1453245554608N01209392EA0000000833
B1453345554499N01209373EA0000000823
B1453395554444N01209365EA0000000819
B1453455554380N01209366EA0000000815
B1453525554305N01209375EA0000000819
B1454015554209N01209395EA0000000809
B1454095554121N01209420EA0000000815
B1454185554049N01209450EA0000000835
B1454295553964N01209502EA0000000834
B1454435553861N01209612EA0000000854
B1454495553811N01209598EA0000000842
B1454595553699N01209517EA0000000806
B1455105553550N01209429EA0000000775
B1455215553400N01209318EA0000000755
B1455275553328N01209202EA0000000741
B1455365553214N01209044EA0000000724
B1455465553091N01208890EA0000000706
B1455535553009N01208793EA0000000698
B1456035552889N01208689EA0000000689
B1456115552794N01208603EA0000000681
B1456175552722N01208550EA0000000674
B1456285552579N01208502EA0000000668
B1456345552504N01208496EA0000000672
B1456405552427N01208504EA0000000673
B1456455552371N01208518EA0000000689
B1456525552304N01208547EA0000000697
B1457035552205N01208599EA0000000698
B1457095552152N01208629EA0000000690
B1457165552086N01208677EA0000000691
B1457255551997N01208735EA0000000680
B1457345551913N01208798EA0000000677
B1457425551844N01208867EA0000000674
B1457595551672N01209028EA0000000672
B1458065551604N01209089EA0000000670
B1458125551542N01209135EA0000000659
B1458255551401N01209145EA0000000648
B1458325551330N01209170EA0000000639
B1458375551286N01209231EA0000000631
B1458425551290N01209362EA0000000626
B1458495551405N01209473EA0000000610
B1458575551568N01209423EA0000000600
B1459065551722N01209261EA0000000575
B1459115551805N01209162EA0000000570
B1459175551917N01209108EA0000000584
B1459235552020N01209063EA0000000577
B1459295552134N01209029EA0000000573
B1459455552439N01209034EA0000000572
B1459515552552N01209020EA0000000568
B1459575552670N01209035EA0000000555
B1500025552753N01209147EA0000000538
B1500075552783N01209308EA0000000525
B1500145552810N01209526EA0000000527
B1500245552849N01209803EA0000000519
B1500355552875N01210097EA0000000511
B1500495552898N01210481EA0000000492
B1500555552905N01210649EA0000000482
B1501065552918N01210957EA0000000470
B1501125552932N01211118EA0000000465
B1501235552959N01211415EA0000000450
B1501365552983N01211763EA0000000434
B1501415552993N01211896EA0000000427
B1501475553004N01212054EA0000000419
B1502005552987N01212376EA0000000400
B1502065552967N01212518EA0000000393
B1502155552945N01212738EA0000000384
B1502205552935N01212859EA0000000380
B1502255552927N01212981EA0000000376
B1502305552933N01213109EA0000000369
B1502375553026N01213282EA0000000353
B1502425553121N01213388EA0000000345
B1502495553266N01213407EA0000000350
B1502545553324N01213292EA0000000347
B1502595553314N01213185EA0000000341
B1503045553272N01213175EA0000000337
B1503115553259N01213312EA0000000332
B1503165553310N01213430EA0000000330
B1503215553399N01213479EA0000000327
B1503265553485N01213418EA0000000322
B1503325553507N01213286EA0000000321
B1503385553467N01213283EA0000000309
B1503435553462N01213392EA0000000305
B1503495553541N01213505EA0000000308
B1503555553642N01213455EA0000000299
B1504005553673N01213335EA0000000295
B1504055553648N01213265EA0000000290
B1504135553575N01213270EA0000000275
B1504185553528N01213288EA0000000277
B1504235553485N01213312EA0000000274
B1504305553473N01213443EA0000000272
B1504355553545N01213530EA0000000268
B1504405553638N01213520EA0000000265
B1504465553706N01213402EA0000000262
B1504515553704N01213295EA0000000256
B1504565553664N01213259EA0000000247
B1505035553617N01213364EA0000000239
B1505085553656N01213482EA0000000237
B1505135553743N01213469EA0000000238
B1505195553758N01213339EA0000000222
B1505245553712N01213350EA0000000220
B1505315553677N01213481EA0000000216
B1505365553656N01213586EA0000000207
B1505435553625N01213745EA0000000198
B1505505553587N01213899EA0000000191
B1505585553554N01214088EA0000000181
B1506035553529N01214211EA0000000174
B1506105553497N01214387EA0000000168
B1506165553476N01214545EA0000000162
B1506215553439N01214651EA0000000156
B1506275553376N01214733EA0000000149
B1506355553300N01214841EA0000000141
B1506445553205N01214817EA0000000128
B1506495553153N01214785EA0000000121
B1506545553101N01214760EA0000000113
B1507015553042N01214651EA0000000098
B1507075553040N01214476EA0000000077
B1507145553052N01214259EA0000000047
B1507195553059N01214110EA0000000025
B1507255553070N01213954EA0000000017
B1507315553077N01213848EA0000000016
