AOGNOGN
HFDTE180625
HFFXA050
HFPLTPILOTINCHARGE:
HFGTYGLIDERTYPE:Duo Discus t
HFGIDGLIDERID:OY-RRX
HFDTM100GPSDATUM:WGS-1984
HFRFWFIRMWAREVERSION:
HFRHWHARDWAREVERSION:
HFFTYFRTYPE:OGN-FLIGHTBOOK
HFGPSGENERIC
HFPRSPRESSALTSENSOR:
HFCIDCOMPETITIONID:RR
B1019465515096N01204137EA0000000041
B1019515515087N01204023EA0000000114
B1019565515068N01203928EA0000000194
B1020015515053N01203829EA0000000256
B1020065515044N01203723EA0000000299
B1020155515041N01203512EA0000000328
B1020205515050N01203394EA0000000336
B1020315515037N01203182EA0000000325
B1020385514996N01203053EA0000000318
B1020435514951N01202974EA0000000310
B1020495514894N01202877EA0000000301
B1020555514864N01202766EA0000000288
B1021045514880N01202614EA0000000291
B1021095514918N01202554EA0000000277
B1021155514995N01202541EA0000000266
B1021205515016N01202473EA0000000266
B1021255514958N01202419EA0000000260
B1021305514868N01202467EA0000000254
B1021355514788N01202603EA0000000238
B1021415514727N01202823EA0000000230
B1021485514716N01203108EA0000000212
B1021535514731N01203307EA0000000224
B1021585514766N01203471EA0000000226
B1022045514831N01203634EA0000000215
B1022105514869N01203853EA0000000197
B1022165514883N01204098EA0000000183
B1022225514897N01204341EA0000000167
B1022275514942N01204515EA0000000163
B1022325515022N01204613EA0000000158
B1022395515134N01204644EA0000000149
B1022445515209N01204647EA0000000140
B1022545515224N01204444EA0000000092
B1022595515204N01204319EA0000000065
B1023075515173N01204127EA0000000039
B1023135515153N01204011EA0000000035
