AOGNOGN
HFDTE190725
HFFXA050
HFPLTPILOTINCHARGE:
HFGTYGLIDERTYPE:ASW-28 18
HFGIDGLIDERID:OY-XTT
HFDTM100GPSDATUM:WGS-1984
HFRFWFIRMWAREVERSION:
HFRHWHARDWAREVERSION:
HFFTYFRTYPE:OGN-FLIGHTBOOK
HFGPSGENERIC
HFPRSPRESSALTSENSOR:
HFCIDCOMPETITIONID:TT
B1337385600589N00900560EA0000000037
B1337425600597N00900627EA0000000037
B1337505600622N00900816EA0000000038
B1337555600639N00900967EA0000000043
B1338015600664N00901161EA0000000060
B1338065600686N00901324EA0000000078
B1338115600707N00901487EA0000000093
B1338165600708N00901649EA0000000114
B1338215600687N00901797EA0000000143
B1338265600649N00901936EA0000000154
B1338345600562N00902124EA0000000191
B1338415600480N00902266EA0000000222
B1338475600403N00902373EA0000000241
B1338525600321N00902410EA0000000255
B1338575600234N00902395EA0000000274
B1339045600118N00902294EA0000000290
B1339115600022N00902109EA0000000307
B1339175559960N00901908EA0000000321
B1339225559918N00901726EA0000000331
B1339285559872N00901508EA0000000347
B1339345559818N00901289EA0000000357
B1339435559740N00900952EA0000000392
B1339505559685N00900685EA0000000407
B1339555559642N00900495EA0000000429
B1340025559590N00900226EA0000000461
B1340085559550N00859997EA0000000479
B1340145559497N00859775EA0000000496
B1340205559438N00859561EA0000000515
B1340255559387N00859389EA0000000536
B1340325559307N00859163EA0000000571
B1340375559242N00859059EA0000000605
B1340425559173N00859039EA0000000614
B1340475559127N00859108EA0000000618
B1340525559137N00859211EA0000000626
B1340575559202N00859267EA0000000641
B1341025559282N00859228EA0000000654
B1341075559334N00859094EA0000000664
B1341125559333N00858933EA0000000679
B1341175559279N00858819EA0000000688
B1341225559206N00858801EA0000000692
B1341275559153N00858869EA0000000694
B1341325559150N00858983EA0000000691
B1341375559204N00859077EA0000000699
B1341435559304N00859072EA0000000722
B1341485559377N00858997EA0000000731
B1341535559414N00858857EA0000000730
B1341585559388N00858710EA0000000739
B1342035559316N00858676EA0000000752
B1342085559276N00858765EA0000000762
B1342135559312N00858871EA0000000777
B1342185559393N00858863EA0000000787
B1342235559449N00858740EA0000000786
B1342295559424N00858549EA0000000794
B1342355559337N00858524EA0000000814
B1342405559301N00858618EA0000000824
B1342455559330N00858728EA0000000832
B1342505559413N00858744EA0000000838
B1342555559485N00858647EA0000000837
B1343005559494N00858481EA0000000839
B1343055559434N00858374EA0000000855
B1343105559367N00858399EA0000000866
B1343155559356N00858508EA0000000875
B1343205559416N00858568EA0000000889
B1343255559492N00858510EA0000000884
B1343305559527N00858350EA0000000879
B1343355559475N00858206EA0000000889
B1343405559397N00858204EA0000000905
B1343455559380N00858312EA0000000917
B1343515559459N00858361EA0000000938
B1343565559509N00858230EA0000000941
B1344015559467N00858090EA0000000949
B1344065559401N00858113EA0000000959
B1344115559416N00858218EA0000000970
B1344165559490N00858223EA0000000981
B1344225559541N00858053EA0000000988
B1344275559491N00857920EA0000000994
B1344325559427N00857949EA0000001003
B1344375559441N00858057EA0000001008
B1344425559520N00858066EA0000001017
B1344475559563N00857923EA0000001025
B1344525559513N00857803EA0000001032
B1344575559455N00857849EA0000001035
B1345035559453N00857987EA0000001042
B1345115559472N00858176EA0000001036
B1345175559498N00858330EA0000001041
B1345225559524N00858459EA0000001052
B1345295559555N00858630EA0000001058
B1345345559578N00858744EA0000001051
B1345405559604N00858878EA0000001040
B1345465559615N00859023EA0000001039
B1345555559613N00859250EA0000001035
B1346005559601N00859371EA0000001031
B1346095559581N00859587EA0000001028
B1346145559570N00859705EA0000001026
B1346205559558N00859856EA0000001040
B1346265559549N00900009EA0000001047
B1346315559544N00900137EA0000001053
B1346365559541N00900260EA0000001054
B1346435559541N00900443EA0000001051
B1346485559543N00900573EA0000001062
B1346535559543N00900695EA0000001066
B1347015559548N00900888EA0000001062
B1347065559553N00901011EA0000001066
B1347145559564N00901199EA0000001083
B1347195559572N00901317EA0000001084
B1347255559577N00901464EA0000001071
B1347345559592N00901691EA0000001045
B1347405559618N00901836EA0000001034
B1347455559669N00901925EA0000001028
B1347515559746N00901997EA0000001015
B1347575559834N00902050EA0000001009
B1348045559938N00902099EA0000001012
B1348105600032N00902139EA0000001015
B1348185600163N00902165EA0000001044
B1348235600237N00902180EA0000001055
B1348285600303N00902230EA0000001049
B1348375600368N00902421EA0000001052
B1348445600391N00902580EA0000001045
B1348545600414N00902821EA0000001030
B1349025600417N00903006EA0000001031
B1349135600408N00903243EA0000001011
B1349185600407N00903354EA0000001002
B1349235600417N00903465EA0000000988
B1349295600450N00903592EA0000000973
B1349375600549N00903698EA0000000949
B1349445600657N00903743EA0000000941
B1349495600739N00903748EA0000000939
B1349545600822N00903728EA0000000956
B1349595600901N00903696EA0000000970
B1350045600968N00903611EA0000000970
B1350105600993N00903415EA0000000968
B1350155600939N00903291EA0000000977
B1350205600864N00903280EA0000000978
B1350255600817N00903368EA0000000989
B1350305600827N00903489EA0000000997
B1350365600911N00903556EA0000001007
B1350415600990N00903484EA0000001020
B1350475601015N00903294EA0000001024
B1350525600959N00903176EA0000001026
B1350575600884N00903190EA0000001036
B1351025600853N00903298EA0000001044
B1351085600898N00903432EA0000001051
B1351135600982N00903453EA0000001071
B1351185601050N00903355EA0000001076
B1351235601057N00903188EA0000001071
B1351285600992N00903083EA0000001073
B1351335600918N00903116EA0000001086
B1351385600895N00903237EA0000001096
B1351435600941N00903344EA0000001107
B1351485601029N00903339EA0000001120
B1351535601088N00903205EA0000001123
B1351585601075N00903035EA0000001119
B1352035601005N00902930EA0000001133
B1352085600926N00902948EA0000001147
B1352135600902N00903075EA0000001155
B1352185600956N00903178EA0000001168
B1352235601042N00903160EA0000001184
B1352285601098N00903023EA0000001191
B1352335601085N00902854EA0000001202
B1352385601015N00902773EA0000001219
B1352435600946N00902821EA0000001228
B1352485600932N00902946EA0000001236
B1352535600992N00903030EA0000001244
B1352585601076N00902990EA0000001256
B1353035601121N00902842EA0000001267
B1353105601072N00902636EA0000001283
B1353155600996N00902616EA0000001302
B1353215600947N00902725EA0000001309
B1353265600973N00902838EA0000001310
B1353315601049N00902880EA0000001315
B1353365601125N00902799EA0000001324
B1353435601177N00902575EA0000001342
B1353485601203N00902412EA0000001348
B1353535601190N00902246EA0000001349
B1353595601104N00902161EA0000001352
B1354045601054N00902239EA0000001357
B1354095601086N00902357EA0000001357
B1354145601175N00902374EA0000001369
B1354195601246N00902253EA0000001384
B1354245601247N00902082EA0000001391
B1354295601187N00901963EA0000001387
B1354345601108N00901951EA0000001392
B1354395601064N00902044EA0000001390
B1354445601086N00902170EA0000001396
B1354495601163N00902211EA0000001411
B1354545601235N00902114EA0000001424
B1354595601249N00901953EA0000001430
B1355055601185N00901813EA0000001435
B1355105601117N00901834EA0000001437
B1355155601091N00901941EA0000001435
B1355205601080N00902064EA0000001429
B1355265601066N00902229EA0000001422
B1355335601055N00902425EA0000001427
B1355445601032N00902728EA0000001422
B1355495601014N00902857EA0000001419
B1355565600985N00903031EA0000001417
B1356035600958N00903201EA0000001413
B1356095600941N00903344EA0000001411
B1356145600931N00903462EA0000001407
B1356205600918N00903609EA0000001394
B1356255600903N00903737EA0000001386
B1356315600879N00903887EA0000001383
B1356395600850N00904080EA0000001374
B1356465600824N00904251EA0000001361
B1356555600797N00904483EA0000001347
B1357015600774N00904640EA0000001336
B1357065600749N00904772EA0000001332
B1357145600708N00904972EA0000001323
B1357195600678N00905097EA0000001312
B1357275600629N00905302EA0000001306
B1357325600595N00905426EA0000001304
B1357385600553N00905569EA0000001308
B1357445600525N00905716EA0000001302
B1357495600542N00905844EA0000001295
B1357545600602N00905940EA0000001295
B1357595600687N00905973EA0000001291
B1358045600781N00905953EA0000001279
B1358105600900N00905909EA0000001264
B1358155601000N00905866EA0000001257
B1358215601118N00905812EA0000001259
B1358285601254N00905739EA0000001251
B1358345601372N00905677EA0000001242
B1358395601474N00905631EA0000001232
B1358445601577N00905579EA0000001224
B1358545601788N00905490EA0000001205
B1359035601984N00905410EA0000001193
B1359085602092N00905374EA0000001184
B1359205602353N00905273EA0000001169
B1359255602460N00905233EA0000001165
B1359315602587N00905185EA0000001165
B1359375602713N00905156EA0000001158
B1359425602819N00905139EA0000001150
B1359475602927N00905122EA0000001145
B1359525603033N00905101EA0000001141
B1359595603180N00905076EA0000001136
B1400045603285N00905061EA0000001142
B1400095603383N00905042EA0000001141
B1400185603557N00905008EA0000001142
B1400235603643N00904987EA0000001148
B1400295603750N00904958EA0000001132
B1400345603837N00904888EA0000001126
B1400395603882N00904727EA0000001115
B1400445603887N00904536EA0000001103
B1400505603894N00904300EA0000001093
B1400555603900N00904097EA0000001089
B1401015603918N00903856EA0000001088
B1401065603937N00903669EA0000001093
B1401145603964N00903371EA0000001081
B1401205603979N00903147EA0000001081
B1401275604003N00902882EA0000001082
B1401325604022N00902695EA0000001090
B1401385604048N00902489EA0000001100
B1401445604013N00902309EA0000001098
B1401495603943N00902277EA0000001096
B1401555603918N00902402EA0000001089
B1402005603982N00902482EA0000001091
B1402055604061N00902411EA0000001095
B1402125604081N00902186EA0000001091
B1402205604049N00901916EA0000001075
B1402295603975N00901625EA0000001058
B1402375603896N00901374EA0000001042
B1402425603869N00901198EA0000001036
B1402485603842N00900987EA0000001034
B1402535603813N00900818EA0000001027
B1402595603742N00900651EA0000001013
B1403055603651N00900529EA0000001001
B1403115603555N00900420EA0000000990
B1403175603460N00900319EA0000000986
B1403255603328N00900181EA0000000971
B1403305603242N00900089EA0000000955
B1403355603147N00900007EA0000000942
B1403405603050N00859931EA0000000938
B1403475602923N00859824EA0000000939
B1403555602778N00859692EA0000000924
B1404015602670N00859592EA0000000917
B1404075602565N00859492EA0000000909
B1404125602476N00859419EA0000000903
B1404175602385N00859350EA0000000896
B1404225602296N00859290EA0000000897
B1404285602191N00859218EA0000000897
B1404345602090N00859186EA0000000904
B1404395602043N00859279EA0000000899
B1404445602079N00859394EA0000000903
B1404495602161N00859345EA0000000904
B1404545602168N00859179EA0000000895
B1405005602092N00859036EA0000000889
B1405095601973N00858830EA0000000875
B1405185601841N00858636EA0000000873
B1405235601769N00858532EA0000000888
B1405295601678N00858483EA0000000884
B1405345601653N00858580EA0000000889
B1405395601704N00858662EA0000000883
B1405445601789N00858628EA0000000877
B1405495601829N00858481EA0000000882
B1405545601796N00858342EA0000000882
B1406005601717N00858228EA0000000869
B1406085601602N00858081EA0000000857
B1406155601489N00857971EA0000000840
B1406205601400N00857911EA0000000838
B1406255601317N00857857EA0000000843
B1406315601219N00857796EA0000000843
B1406365601139N00857742EA0000000842
B1406415601059N00857680EA0000000845
B1406475600970N00857604EA0000000843
B1406525600888N00857569EA0000000835
B1406575600806N00857593EA0000000839
B1407025600730N00857635EA0000000851
B1407075600676N00857701EA0000000871
B1407135600701N00857816EA0000000883
B1407185600776N00857806EA0000000882
B1407235600811N00857665EA0000000879
B1407285600767N00857541EA0000000882
B1407335600698N00857536EA0000000889
B1407385600647N00857602EA0000000899
B1407435600651N00857706EA0000000898
B1407495600739N00857737EA0000000905
B1407545600789N00857613EA0000000912
B1407595600757N00857475EA0000000908
B1408045600687N00857472EA0000000907
B1408095600681N00857580EA0000000914
B1408145600755N00857601EA0000000919
B1408205600793N00857435EA0000000927
B1408255600737N00857337EA0000000925
B1408305600682N00857386EA0000000930
B1408355600705N00857484EA0000000937
B1408405600777N00857470EA0000000942
B1408455600806N00857325EA0000000939
B1408505600751N00857222EA0000000942
B1408555600703N00857274EA0000000943
B1409005600743N00857365EA0000000948
B1409055600816N00857303EA0000000951
B1409105600816N00857148EA0000000951
B1409165600739N00857089EA0000000959
B1409215600718N00857178EA0000000953
B1409265600775N00857247EA0000000960
B1409325600848N00857132EA0000000965
B1409375600827N00856984EA0000000964
B1409425600761N00856958EA0000000964
B1409485600756N00857078EA0000000964
B1409535600829N00857084EA0000000973
B1409585600870N00856950EA0000000975
B1410045600816N00856815EA0000000976
B1410095600765N00856857EA0000000970
B1410145600788N00856959EA0000000975
B1410205600878N00856956EA0000000978
B1410255600925N00856822EA0000000973
B1410305600883N00856690EA0000000972
B1410355600824N00856721EA0000000975
B1410405600847N00856823EA0000000981
B1410465600938N00856793EA0000000987
B1410515600958N00856641EA0000000981
B1410565600899N00856546EA0000000980
B1411015600854N00856613EA0000000974
B1411065600908N00856687EA0000000982
B1411115600991N00856640EA0000000981
B1411175601037N00856466EA0000000979
B1411225601022N00856285EA0000000955
B1411275600999N00856072EA0000000940
B1411345600960N00855752EA0000000936
B1411405600925N00855498EA0000000958
B1411455600879N00855328EA0000000980
B1411505600812N00855312EA0000000994
B1411565600793N00855419EA0000000978
B1412015600850N00855482EA0000000975
B1412065600922N00855411EA0000000975
B1412115600946N00855256EA0000000977
B1412185600932N00855018EA0000000960
B1412255600918N00854751EA0000000937
B1412325600900N00854477EA0000000925
B1412375600883N00854279EA0000000914
B1412445600854N00853996EA0000000895
B1412495600834N00853793EA0000000895
B1412545600820N00853604EA0000000906
B1413005600800N00853391EA0000000893
B1413065600777N00853162EA0000000871
B1413115600760N00852965EA0000000865
B1413165600743N00852769EA0000000860
B1413225600718N00852536EA0000000862
B1413275600696N00852352EA0000000881
B1413325600679N00852200EA0000000894
B1413375600644N00852062EA0000000892
B1413425600573N00852015EA0000000892
B1413475600521N00852084EA0000000897
B1413535600546N00852206EA0000000893
B1413585600628N00852203EA0000000901
B1414045600707N00852068EA0000000910
B1414095600707N00851912EA0000000912
B1414145600639N00851832EA0000000907
B1414205600577N00851921EA0000000919
B1414255600614N00852024EA0000000926
B1414305600698N00851994EA0000000936
B1414365600731N00851816EA0000000940
B1414415600683N00851686EA0000000936
B1414465600607N00851677EA0000000943
B1414535600579N00851826EA0000000950
B1414595600665N00851874EA0000000957
B1415055600728N00851717EA0000000963
B1415105600690N00851575EA0000000967
B1415155600616N00851557EA0000000976
B1415215600584N00851680EA0000000981
B1415265600637N00851764EA0000000992
B1415315600714N00851724EA0000001003
B1415365600740N00851579EA0000001003
B1415415600691N00851460EA0000001006
B1415465600624N00851468EA0000001018
B1415515600605N00851567EA0000001023
B1415565600655N00851653EA0000001030
B1416015600738N00851633EA0000001038
B1416065600786N00851497EA0000001046
B1416125600746N00851334EA0000001048
B1416175600673N00851321EA0000001056
B1416245600646N00851453EA0000001075
B1416295600698N00851534EA0000001079
B1416345600783N00851527EA0000001083
B1416395600848N00851415EA0000001091
B1416445600851N00851255EA0000001098
B1416495600796N00851148EA0000001100
B1416545600723N00851137EA0000001109
B1417005600680N00851243EA0000001120
B1417055600717N00851346EA0000001125
B1417105600802N00851359EA0000001126
B1417165600878N00851215EA0000001134
B1417215600856N00851059EA0000001138
B1417265600780N00851022EA0000001145
B1417325600740N00851140EA0000001155
B1417375600800N00851224EA0000001161
B1417425600884N00851178EA0000001166
B1417495600918N00850964EA0000001171
B1417545600856N00850863EA0000001168
B1417595600786N00850906EA0000001181
B1418045600787N00851023EA0000001186
B1418095600865N00851075EA0000001183
B1418145600944N00850973EA0000001188
B1418195600943N00850805EA0000001191
B1418245600876N00850708EA0000001194
B1418295600801N00850730EA0000001206
B1418365600780N00850881EA0000001226
B1418415600842N00850952EA0000001233
B1418475600942N00850897EA0000001239
B1418525600987N00850750EA0000001241
B1418585600958N00850571EA0000001247
B1419045600872N00850522EA0000001250
B1419095600819N00850599EA0000001256
B1419145600829N00850720EA0000001264
B1419195600902N00850781EA0000001269
B1419265601012N00850671EA0000001280
B1419315601024N00850513EA0000001287
B1419365600973N00850402EA0000001286
B1419415600902N00850418EA0000001286
B1419475600875N00850552EA0000001297
B1419525600923N00850655EA0000001304
B1419575601009N00850667EA0000001319
B1420045601091N00850502EA0000001324
B1420095601082N00850341EA0000001326
B1420145601022N00850250EA0000001332
B1420195600952N00850270EA0000001328
B1420255600923N00850406EA0000001335
B1420315600979N00850524EA0000001351
B1420365601061N00850540EA0000001357
B1420425601156N00850436EA0000001363
B1420475601189N00850273EA0000001364
B1420525601163N00850119EA0000001371
B1420585601084N00850030EA0000001373
B1421035601018N00850060EA0000001378
B1421095600997N00850188EA0000001383
B1421145601046N00850283EA0000001389
B1421195601133N00850295EA0000001393
B1421245601212N00850197EA0000001397
B1421295601244N00850033EA0000001402
B1421345601217N00849880EA0000001403
B1421395601147N00849816EA0000001408
B1421445601086N00849871EA0000001414
B1421495601079N00849987EA0000001417
B1421545601130N00850085EA0000001421
B1421595601219N00850112EA0000001422
B1422045601315N00850063EA0000001428
B1422135601486N00849929EA0000001431
B1422195601604N00849850EA0000001429
B1422245601701N00849785EA0000001424
B1422315601836N00849681EA0000001415
B1422385601977N00849564EA0000001392
B1422435602083N00849482EA0000001386
B1422495602210N00849393EA0000001384
B1422555602335N00849298EA0000001381
B1423035602500N00849189EA0000001378
B1423085602604N00849125EA0000001375
B1423155602749N00849037EA0000001374
B1423205602849N00848971EA0000001372
B1423295603032N00848857EA0000001365
B1423375603193N00848752EA0000001364
B1423445603332N00848661EA0000001359
B1423525603491N00848558EA0000001349
B1423585603614N00848488EA0000001344
B1424085603815N00848370EA0000001338
B1424155603954N00848267EA0000001330
B1424205604055N00848193EA0000001323
B1424255604158N00848121EA0000001321
B1424305604253N00848051EA0000001320
B1424355604345N00847990EA0000001314
B1424415604454N00847932EA0000001302
B1424475604568N00847891EA0000001300
B1424525604661N00847858EA0000001300
B1424575604754N00847823EA0000001299
B1425045604876N00847763EA0000001315
B1425095604955N00847700EA0000001316
B1425145605017N00847567EA0000001303
B1425195605063N00847397EA0000001305
B1425265605119N00847168EA0000001308
B1425355605197N00846869EA0000001309
B1425405605239N00846699EA0000001316
B1425455605276N00846534EA0000001324
B1425505605284N00846362EA0000001326
B1425565605219N00846212EA0000001324
B1426015605144N00846193EA0000001325
B1426065605090N00846255EA0000001323
B1426125605075N00846378EA0000001315
B1426175605111N00846482EA0000001308
B1426225605180N00846538EA0000001313
B1426295605297N00846503EA0000001311
B1426385605436N00846365EA0000001318
B1426435605466N00846203EA0000001316
B1426485605433N00846038EA0000001312
B1426535605357N00845965EA0000001309
B1426585605290N00846013EA0000001308
B1427035605282N00846135EA0000001304
B1427085605334N00846237EA0000001304
B1427135605419N00846250EA0000001305
B1427185605503N00846168EA0000001307
B1427235605577N00846055EA0000001312
B1427285605645N00845932EA0000001323
B1427345605667N00845739EA0000001320
B1427405605593N00845605EA0000001317
B1427455605520N00845627EA0000001316
B1427515605491N00845755EA0000001308
B1427575605535N00845885EA0000001300
B1428025605613N00845930EA0000001301
B1428075605702N00845890EA0000001305
B1428125605769N00845760EA0000001315
B1428175605800N00845591EA0000001321
B1428235605812N00845389EA0000001323
B1428285605770N00845248EA0000001319
B1428335605695N00845196EA0000001318
B1428385605628N00845241EA0000001314
B1428435605610N00845355EA0000001306
B1428485605650N00845467EA0000001297
B1428535605730N00845512EA0000001306
B1429015605869N00845475EA0000001318
B1429085605968N00845320EA0000001313
B1429135605978N00845146EA0000001307
B1429185605930N00845007EA0000001299
B1429245605840N00844981EA0000001302
B1429295605795N00845073EA0000001302
B1429355605816N00845220EA0000001302
B1429415605912N00845274EA0000001309
B1429465605997N00845205EA0000001310
B1429525606050N00845014EA0000001313
B1429575606031N00844845EA0000001303
B1430025605974N00844712EA0000001298
B1430105605887N00844461EA0000001284
B1430155605852N00844273EA0000001287
B1430205605828N00844079EA0000001280
B1430265605802N00843832EA0000001262
B1430335605770N00843538EA0000001256
B1430405605736N00843243EA0000001245
B1430475605702N00842952EA0000001244
B1430575605666N00842524EA0000001229
B1431035605650N00842259EA0000001224
B1431095605633N00841999EA0000001218
B1431175605603N00841652EA0000001209
B1431245605582N00841345EA0000001198
B1431305605562N00841080EA0000001194
B1431375605535N00840778EA0000001186
B1431425605513N00840564EA0000001178
B1431495605479N00840272EA0000001181
B1431555605451N00840031EA0000001172
B1432055605400N00839629EA0000001157
B1432135605354N00839304EA0000001147
B1432185605323N00839101EA0000001144
B1432245605287N00838862EA0000001136
B1432355605218N00838424EA0000001122
B1432445605149N00838074EA0000001108
B1432505605097N00837862EA0000001113
B1432555605057N00837690EA0000001107
B1433015605012N00837469EA0000001090
B1433065604973N00837279EA0000001094
B1433115604936N00837095EA0000001104
B1433165604899N00836924EA0000001118
B1433225604853N00836730EA0000001114
B1433275604783N00836631EA0000001126
B1433325604715N00836641EA0000001136
B1433375604677N00836730EA0000001137
B1433425604698N00836840EA0000001134
B1433495604814N00836885EA0000001142
B1433545604892N00836779EA0000001158
B1433595604920N00836615EA0000001157
B1434045604887N00836459EA0000001155
B1434095604817N00836380EA0000001162
B1434145604746N00836396EA0000001162
B1434195604710N00836490EA0000001164
B1434245604734N00836603EA0000001161
B1434295604813N00836654EA0000001159
B1434355604926N00836598EA0000001179
B1434405604988N00836472EA0000001185
B1434455604970N00836317EA0000001182
B1434505604898N00836251EA0000001178
B1434565604831N00836336EA0000001180
B1435015604853N00836454EA0000001187
B1435075604953N00836482EA0000001201
B1435125605025N00836366EA0000001205
B1435195605020N00836138EA0000001205
B1435245604954N00836040EA0000001204
B1435295604881N00836053EA0000001208
B1435355604857N00836182EA0000001211
B1435405604913N00836274EA0000001212
B1435455605005N00836272EA0000001218
B1435505605097N00836209EA0000001224
B1435555605145N00836058EA0000001223
B1436015605102N00835881EA0000001215
B1436065605025N00835852EA0000001213
B1436115604976N00835936EA0000001218
B1436165604988N00836057EA0000001221
B1436225605070N00836158EA0000001236
B1436285605172N00836146EA0000001240
B1436335605237N00836018EA0000001240
B1436385605245N00835840EA0000001236
B1436435605191N00835705EA0000001234
B1436485605111N00835681EA0000001234
B1436535605061N00835765EA0000001240
B1436585605073N00835888EA0000001248
B1437035605144N00835957EA0000001254
B1437085605232N00835907EA0000001256
B1437135605282N00835756EA0000001252
B1437185605271N00835581EA0000001251
B1437235605209N00835476EA0000001247
B1437285605136N00835490EA0000001248
B1437335605103N00835595EA0000001250
B1437385605133N00835711EA0000001254
B1437435605212N00835760EA0000001260
B1437485605299N00835705EA0000001266
B1437535605360N00835570EA0000001263
B1437585605376N00835393EA0000001256
B1438045605322N00835218EA0000001250
B1438095605245N00835164EA0000001250
B1438155605158N00835196EA0000001249
B1438205605080N00835221EA0000001239
B1438255604995N00835212EA0000001230
B1438325604872N00835189EA0000001226
B1438405604733N00835151EA0000001215
B1438455604644N00835149EA0000001213
B1438505604558N00835177EA0000001209
B1438565604454N00835224EA0000001201
B1439035604335N00835260EA0000001208
B1439095604237N00835290EA0000001188
B1439145604148N00835325EA0000001177
B1439195604058N00835348EA0000001175
B1439245603966N00835367EA0000001166
B1439305603847N00835370EA0000001155
B1439355603745N00835375EA0000001148
B1439405603645N00835378EA0000001149
B1439485603488N00835378EA0000001138
B1440005603250N00835392EA0000001122
B1440135602996N00835377EA0000001120
B1440195602884N00835357EA0000001118
B1440265602754N00835337EA0000001110
B1440345602600N00835314EA0000001095
B1440445602407N00835309EA0000001084
B1440545602219N00835253EA0000001074
B1441025602068N00835208EA0000001061
B1441085601955N00835183EA0000001057
B1441185601764N00835130EA0000001042
B1441235601665N00835105EA0000001038
B1441295601549N00835088EA0000001047
B1441355601455N00835069EA0000001068
B1441445601315N00835048EA0000001045
B1441505601215N00835041EA0000001055
B1441575601113N00835021EA0000001080
B1442025601044N00835022EA0000001088
B1442075600998N00835102EA0000001097
B1442125601006N00835224EA0000001107
B1442175601068N00835303EA0000001116
B1442225601157N00835285EA0000001111
B1442275601224N00835157EA0000001116
B1442325601222N00834992EA0000001121
B1442375601161N00834897EA0000001122
B1442425601095N00834938EA0000001133
B1442495601113N00835112EA0000001139
B1442545601200N00835147EA0000001146
B1442595601276N00835048EA0000001150
B1443055601288N00834847EA0000001149
B1443115601219N00834724EA0000001152
B1443165601144N00834727EA0000001163
B1443215601094N00834813EA0000001166
B1443285601134N00834989EA0000001183
B1443345601239N00835003EA0000001187
B1443405601324N00834863EA0000001183
B1443465601336N00834655EA0000001180
B1443535601266N00834478EA0000001198
B1443595601192N00834366EA0000001207
B1444045601122N00834334EA0000001215
B1444095601065N00834394EA0000001223
B1444155601056N00834540EA0000001235
B1444205601108N00834641EA0000001244
B1444265601209N00834657EA0000001247
B1444315601288N00834572EA0000001252
B1444365601333N00834422EA0000001251
B1444415601326N00834258EA0000001261
B1444465601266N00834172EA0000001270
B1444515601205N00834211EA0000001276
B1444565601194N00834335EA0000001282
B1445015601244N00834454EA0000001288
B1445065601332N00834488EA0000001298
B1445115601418N00834414EA0000001299
B1445165601468N00834262EA0000001290
B1445215601462N00834084EA0000001284
B1445265601401N00833971EA0000001299
B1445335601299N00833922EA0000001307
B1445395601209N00833909EA0000001312
B1445445601133N00833908EA0000001322
B1445505601057N00833974EA0000001328
B1445585601079N00834153EA0000001338
B1446035601156N00834203EA0000001330
B1446085601244N00834173EA0000001325
B1446135601320N00834065EA0000001318
B1446185601361N00833906EA0000001319
B1446245601352N00833704EA0000001337
B1446295601317N00833561EA0000001351
B1446345601275N00833424EA0000001357
B1446415601208N00833230EA0000001378
B1446465601158N00833095EA0000001387
B1446535601085N00832908EA0000001400
B1447015600988N00832714EA0000001391
B1447085600906N00832528EA0000001378
B1447135600850N00832376EA0000001367
B1447195600784N00832190EA0000001364
B1447265600729N00831953EA0000001358
B1447335600731N00831683EA0000001341
B1447445600816N00831249EA0000001325
B1447495600853N00831050EA0000001318
B1447545600880N00830846EA0000001320
B1448015600910N00830576EA0000001319
B1448065600925N00830381EA0000001315
B1448145600938N00830059EA0000001299
B1448195600928N00829858EA0000001293
B1448245600869N00829705EA0000001285
B1448335600711N00829569EA0000001274
B1448405600592N00829486EA0000001262
B1448465600488N00829423EA0000001246
B1448515600402N00829385EA0000001246
B1448585600287N00829350EA0000001243
B1449045600191N00829326EA0000001229
B1449125600057N00829309EA0000001211
B1449215559899N00829288EA0000001201
B1449265559812N00829278EA0000001213
B1449325559723N00829263EA0000001245
B1449375559663N00829297EA0000001261
B1449435559647N00829417EA0000001268
B1449495559714N00829523EA0000001279
B1450045559908N00829249EA0000001297
B1450095559878N00829094EA0000001302
B1450145559806N00829014EA0000001308
B1450195559730N00829044EA0000001323
B1450305559768N00829276EA0000001344
B1450365559881N00829259EA0000001358
B1450415559948N00829112EA0000001361
B1450465559951N00828935EA0000001380
B1450535559869N00828784EA0000001391
B1450585559796N00828801EA0000001403
B1451035559767N00828905EA0000001411
B1451105559824N00829066EA0000001423
B1451185559963N00829111EA0000001445
B1451245600070N00829056EA0000001447
B1451315600152N00828865EA0000001449
B1451365600136N00828711EA0000001448
B1451415600072N00828624EA0000001447
B1451475559989N00828645EA0000001460
B1451525559957N00828738EA0000001464
B1452015600026N00828912EA0000001466
B1452095600167N00828937EA0000001460
B1452145600254N00828974EA0000001449
B1452235600373N00829147EA0000001440
B1452375600513N00829461EA0000001418
B1452425600561N00829570EA0000001419
B1452485600607N00829707EA0000001405
B1452535600638N00829835EA0000001393
B1453015600679N00830051EA0000001388
B1453085600705N00830235EA0000001377
B1453155600728N00830417EA0000001367
B1453205600735N00830543EA0000001363
B1453345600764N00830894EA0000001347
B1453395600782N00831017EA0000001343
B1453455600802N00831168EA0000001338
B1453515600821N00831325EA0000001341
B1453565600833N00831455EA0000001352
B1454015600847N00831582EA0000001358
B1454085600851N00831750EA0000001378
B1454145600836N00831883EA0000001390
B1454205600804N00832013EA0000001399
B1454295600758N00832211EA0000001393
B1454355600732N00832353EA0000001390
B1454405600712N00832470EA0000001387
B1454475600687N00832642EA0000001386
B1454535600672N00832792EA0000001388
B1454595600654N00832943EA0000001388
B1455045600633N00833068EA0000001388
B1455105600603N00833212EA0000001388
B1455165600574N00833364EA0000001387
B1455225600542N00833515EA0000001390
B1455305600514N00833722EA0000001397
B1455355600495N00833854EA0000001394
B1455455600452N00834116EA0000001398
B1455525600420N00834298EA0000001392
B1455585600390N00834459EA0000001392
B1456045600363N00834625EA0000001385
B1456105600332N00834795EA0000001378
B1456155600298N00834928EA0000001387
B1456215600254N00835073EA0000001412
B1456265600223N00835195EA0000001417
B1456335600184N00835374EA0000001403
B1456425600146N00835618EA0000001389
B1456515600135N00835886EA0000001374
B1456575600140N00836065EA0000001373
B1457145600149N00836572EA0000001351
B1457215600159N00836785EA0000001338
B1457275600170N00836969EA0000001330
B1457335600186N00837154EA0000001326
B1457385600204N00837305EA0000001324
B1457435600225N00837451EA0000001321
B1457535600278N00837739EA0000001313
B1458045600334N00838054EA0000001299
B1458105600355N00838232EA0000001294
B1458205600382N00838528EA0000001293
B1458265600399N00838697EA0000001288
B1458395600432N00839057EA0000001277
B1458455600445N00839222EA0000001279
B1458525600456N00839413EA0000001279
B1459025600478N00839690EA0000001271
B1459085600497N00839847EA0000001293
B1459145600513N00839978EA0000001298
B1459205600533N00840125EA0000001292
B1459265600549N00840281EA0000001288
B1459325600568N00840441EA0000001281
B1459385600588N00840602EA0000001266
B1459445600603N00840778EA0000001261
B1459495600610N00840921EA0000001258
B1459545600617N00841060EA0000001255
B1500035600633N00841307EA0000001245
B1500105600646N00841502EA0000001236
B1500175600669N00841691EA0000001235
B1500245600689N00841869EA0000001234
B1500315600703N00842055EA0000001220
B1500375600720N00842224EA0000001212
B1500455600743N00842460EA0000001202
B1500505600754N00842600EA0000001214
B1500575600771N00842780EA0000001226
B1501045600787N00842937EA0000001230
B1501105600750N00843041EA0000001223
B1501155600716N00843134EA0000001214
B1501235600730N00843320EA0000001204
B1501355600797N00843614EA0000001189
B1501405600826N00843740EA0000001179
B1501485600873N00843950EA0000001172
B1501545600908N00844105EA0000001167
B1502035600964N00844342EA0000001154
B1502145601021N00844630EA0000001131
B1502245601066N00844907EA0000001120
B1502295601092N00845039EA0000001115
B1502375601137N00845253EA0000001101
B1502475601190N00845532EA0000001106
B1502555601236N00845736EA0000001088
B1503025601290N00845917EA0000001111
B1503095601346N00846062EA0000001116
B1503145601423N00846097EA0000001116
B1503195601503N00846019EA0000001114
B1503255601546N00845834EA0000001110
B1503305601515N00845685EA0000001104
B1503365601429N00845604EA0000001098
B1503415601361N00845643EA0000001097
B1503475601313N00845758EA0000001111
B1503525601273N00845851EA0000001116
B1503575601203N00845847EA0000001120
B1504035601173N00845668EA0000001130
B1504085601233N00845545EA0000001125
B1504145601330N00845564EA0000001127
B1504195601353N00845670EA0000001137
B1504245601308N00845743EA0000001136
B1504295601235N00845706EA0000001138
B1504345601198N00845565EA0000001149
B1504395601226N00845411EA0000001149
B1504445601304N00845325EA0000001144
B1504505601393N00845375EA0000001152
B1504565601428N00845505EA0000001155
B1505015601409N00845606EA0000001162
B1505095601306N00845586EA0000001168
B1505165601274N00845384EA0000001173
B1505215601323N00845245EA0000001172
B1505265601405N00845205EA0000001171
B1505335601485N00845321EA0000001170
B1505395601509N00845464EA0000001171
B1505455601527N00845617EA0000001167
B1505525601544N00845806EA0000001162
B1506005601551N00846027EA0000001152
B1506065601554N00846190EA0000001148
B1506135601560N00846374EA0000001135
B1506195601563N00846538EA0000001131
B1506255601566N00846701EA0000001129
B1506385601579N00847046EA0000001115
B1506435601580N00847176EA0000001114
B1506495601581N00847336EA0000001100
B1506545601587N00847476EA0000001092
B1506595601597N00847614EA0000001089
B1507055601601N00847774EA0000001089
B1507105601599N00847915EA0000001088
B1507155601595N00848056EA0000001108
B1507215601597N00848213EA0000001119
B1507265601654N00848307EA0000001132
B1507325601756N00848282EA0000001141
B1507385601824N00848123EA0000001142
B1507435601809N00847967EA0000001143
B1507485601743N00847903EA0000001146
B1507535601687N00847963EA0000001146
B1507585601685N00848085EA0000001156
B1508035601745N00848173EA0000001157
B1508085601834N00848158EA0000001159
B1508135601901N00848033EA0000001165
B1508185601900N00847866EA0000001162
B1508235601837N00847765EA0000001161
B1508285601768N00847794EA0000001167
B1508335601750N00847909EA0000001175
B1508385601795N00848015EA0000001174
B1508435601882N00848033EA0000001177
B1508485601963N00847938EA0000001179
B1508535601997N00847773EA0000001184
B1508585601969N00847612EA0000001183
B1509035601898N00847542EA0000001186
B1509085601834N00847586EA0000001191
B1509135601825N00847705EA0000001195
B1509185601882N00847795EA0000001201
B1509245601985N00847774EA0000001202
B1509295602048N00847644EA0000001203
B1509345602049N00847472EA0000001203
B1509395601995N00847351EA0000001203
B1509445601921N00847343EA0000001203
B1509505601889N00847469EA0000001213
B1509555601941N00847562EA0000001214
B1510005602034N00847556EA0000001205
B1510065602112N00847389EA0000001208
B1510115602094N00847224EA0000001209
B1510165602025N00847140EA0000001207
B1510215601956N00847172EA0000001214
B1510285601895N00847304EA0000001224
B1510335601864N00847413EA0000001229
B1510385601873N00847538EA0000001239
B1510435601932N00847629EA0000001235
B1510485602022N00847628EA0000001230
B1510545602104N00847477EA0000001225
B1510595602106N00847303EA0000001222
B1511045602047N00847179EA0000001215
B1511095601967N00847178EA0000001212
B1511185601941N00847399EA0000001227
B1511245601951N00847556EA0000001221
B1511305601973N00847719EA0000001209
B1511365602012N00847886EA0000001195
B1511415602049N00848031EA0000001196
B1511465602084N00848160EA0000001200
B1511575602154N00848425EA0000001175
B1512035602189N00848589EA0000001168
B1512115602229N00848811EA0000001157
B1512185602248N00849005EA0000001157
B1512235602252N00849139EA0000001153
B1512285602223N00849267EA0000001149
B1512355602134N00849404EA0000001153
B1512405602070N00849479EA0000001167
B1512455602007N00849541EA0000001153
B1512515601917N00849621EA0000001126
B1512565601834N00849674EA0000001123
B1513015601750N00849713EA0000001115
B1513065601665N00849747EA0000001108
B1513115601579N00849768EA0000001102
B1513165601490N00849785EA0000001096
B1513235601375N00849799EA0000001113
B1513285601299N00849802EA0000001110
B1513335601226N00849818EA0000001120
B1513385601158N00849846EA0000001113
B1513435601109N00849930EA0000001102
B1513495601091N00850076EA0000001094
B1513555601088N00850232EA0000001082
B1514015601089N00850401EA0000001081
B1514085601105N00850585EA0000001092
B1514135601119N00850705EA0000001095
B1514185601146N00850821EA0000001094
B1514235601219N00850881EA0000001100
B1514285601310N00850832EA0000001110
B1514335601361N00850680EA0000001120
B1514385601345N00850511EA0000001126
B1514435601279N00850414EA0000001132
B1514485601210N00850448EA0000001140
B1514535601198N00850565EA0000001144
B1514585601257N00850651EA0000001155
B1515035601347N00850636EA0000001166
B1515085601412N00850506EA0000001175
B1515135601411N00850328EA0000001179
B1515185601350N00850213EA0000001188
B1515235601276N00850224EA0000001194
B1515285601245N00850333EA0000001198
B1515335601283N00850445EA0000001204
B1515385601369N00850470EA0000001212
B1515435601454N00850380EA0000001220
B1515485601491N00850206EA0000001225
B1515535601460N00850036EA0000001226
B1515585601380N00849958EA0000001231
B1516035601307N00850009EA0000001240
B1516095601297N00850163EA0000001244
B1516145601366N00850247EA0000001248
B1516195601458N00850192EA0000001260
B1516245601497N00850026EA0000001267
B1516295601463N00849868EA0000001272
B1516345601386N00849817EA0000001275
B1516395601329N00849891EA0000001275
B1516445601335N00850017EA0000001279
B1516495601402N00850087EA0000001285
B1516545601494N00850049EA0000001286
B1517005601568N00849879EA0000001296
B1517055601571N00849696EA0000001302
B1517105601523N00849547EA0000001305
B1517155601445N00849488EA0000001313
B1517205601377N00849535EA0000001315
B1517255601349N00849646EA0000001317
B1517305601373N00849765EA0000001316
B1517355601441N00849837EA0000001320
B1517405601531N00849833EA0000001323
B1517455601609N00849729EA0000001333
B1517505601642N00849562EA0000001332
B1517555601623N00849386EA0000001336
B1518005601563N00849274EA0000001348
B1518055601489N00849248EA0000001352
B1518105601429N00849310EA0000001348
B1518185601376N00849474EA0000001353
B1518245601351N00849613EA0000001344
B1518305601326N00849763EA0000001343
B1518365601304N00849901EA0000001359
B1518415601291N00850010EA0000001358
B1518465601277N00850124EA0000001370
B1518515601269N00850238EA0000001384
B1518565601306N00850336EA0000001387
B1519015601381N00850388EA0000001377
B1519065601471N00850358EA0000001365
B1519115601544N00850234EA0000001367
B1519165601561N00850062EA0000001374
B1519215601522N00849919EA0000001379
B1519265601451N00849852EA0000001387
B1519315601380N00849871EA0000001396
B1519365601332N00849956EA0000001408
B1519415601308N00850064EA0000001423
B1519465601312N00850179EA0000001419
B1519515601361N00850275EA0000001411
B1519565601445N00850299EA0000001408
B1520015601529N00850227EA0000001400
B1520065601577N00850073EA0000001388
B1520115601551N00849907EA0000001385
B1520165601475N00849849EA0000001404
B1520245601365N00849890EA0000001424
B1520295601312N00849959EA0000001416
B1520355601263N00850081EA0000001408
B1520405601228N00850190EA0000001400
B1520455601200N00850301EA0000001397
B1520505601171N00850413EA0000001395
B1520565601137N00850540EA0000001404
B1521015601108N00850645EA0000001399
B1521125601045N00850893EA0000001397
B1521175601014N00851000EA0000001406
B1521225600977N00851098EA0000001408
B1521275600935N00851194EA0000001403
B1521355600860N00851345EA0000001393
B1521405600814N00851444EA0000001387
B1521475600754N00851594EA0000001384
B1521525600718N00851704EA0000001383
B1521585600686N00851834EA0000001385
B1522045600656N00851960EA0000001392
B1522095600633N00852068EA0000001390
B1522175600593N00852252EA0000001382
B1522235600566N00852398EA0000001383
B1522285600543N00852514EA0000001376
B1522355600511N00852697EA0000001354
B1522405600483N00852832EA0000001360
B1522455600449N00852951EA0000001358
B1522525600402N00853124EA0000001346
B1522595600361N00853299EA0000001353
B1523055600325N00853445EA0000001343
B1523115600294N00853593EA0000001338
B1523175600262N00853744EA0000001328
B1523235600236N00853900EA0000001326
B1523295600213N00854059EA0000001315
B1523345600220N00854199EA0000001321
B1523405600268N00854343EA0000001329
B1523465600324N00854473EA0000001322
B1523525600379N00854609EA0000001305
B1524005600458N00854795EA0000001296
B1524065600518N00854929EA0000001297
B1524125600576N00855059EA0000001295
B1524215600666N00855251EA0000001293
B1524265600715N00855358EA0000001288
B1524325600776N00855485EA0000001285
B1524385600836N00855613EA0000001279
B1524445600897N00855746EA0000001273
B1524535600990N00855930EA0000001260
B1524585601038N00856037EA0000001252
B1525035601087N00856139EA0000001262
B1525095601143N00856255EA0000001261
B1525145601190N00856360EA0000001251
B1525195601241N00856463EA0000001250
B1525245601290N00856560EA0000001247
B1525335601387N00856743EA0000001228
B1525395601458N00856862EA0000001221
B1525485601566N00857040EA0000001204
B1525535601628N00857140EA0000001198
B1525585601690N00857237EA0000001196
B1526035601749N00857334EA0000001193
B1526115601842N00857497EA0000001185
B1526175601914N00857612EA0000001181
B1526225601974N00857706EA0000001175
B1526295602052N00857840EA0000001171
B1526365602125N00857981EA0000001157
B1526435602200N00858127EA0000001151
B1526495602262N00858256EA0000001143
B1526545602311N00858368EA0000001140
B1526595602360N00858477EA0000001135
B1527045602410N00858588EA0000001133
B1527095602464N00858693EA0000001129
B1527155602534N00858816EA0000001125
B1527225602616N00858964EA0000001116
B1527275602676N00859061EA0000001125
B1527335602746N00859167EA0000001117
B1527405602829N00859300EA0000001110
B1527485602933N00859437EA0000001100
B1527545603012N00859543EA0000001093
B1528005603089N00859656EA0000001082
B1528055603146N00859760EA0000001073
B1528105603202N00859870EA0000001064
B1528155603257N00859982EA0000001055
B1528205603315N00900093EA0000001044
B1528265603386N00900224EA0000001036
B1528315603446N00900336EA0000001028
B1528405603550N00900551EA0000001016
B1528455603606N00900677EA0000001012
B1528505603662N00900800EA0000001008
B1528555603720N00900920EA0000001005
B1529005603780N00901037EA0000001002
B1529075603869N00901197EA0000000995
B1529125603934N00901315EA0000000989
B1529195604019N00901477EA0000000995
B1529245604078N00901587EA0000000989
B1529295604138N00901702EA0000000981
B1529345604198N00901816EA0000000977
B1529395604259N00901925EA0000000971
B1529475604349N00902117EA0000000958
B1529555604432N00902323EA0000000944
B1530015604490N00902481EA0000000938
B1530085604558N00902665EA0000000922
B1530135604609N00902802EA0000000910
B1530205604676N00902982EA0000000919
B1530255604710N00903110EA0000000911
B1530305604738N00903248EA0000000904
B1530355604762N00903387EA0000000905
B1530425604786N00903562EA0000000911
B1530495604829N00903731EA0000000903
B1530555604873N00903883EA0000000908
B1531015604915N00904014EA0000000914
B1531065604960N00904119EA0000000906
B1531125605023N00904247EA0000000902
B1531175605078N00904356EA0000000900
B1531225605135N00904464EA0000000891
B1531295605220N00904620EA0000000874
B1531345605285N00904736EA0000000868
B1531405605363N00904875EA0000000872
B1531465605441N00904995EA0000000886
B1531515605527N00905009EA0000000901
B1531565605601N00904906EA0000000910
B1532015605618N00904738EA0000000921
B1532065605572N00904606EA0000000930
B1532115605495N00904578EA0000000938
B1532165605435N00904653EA0000000944
B1532215605434N00904771EA0000000955
B1532265605489N00904853EA0000000961
B1532315605572N00904832EA0000000970
B1532365605625N00904702EA0000000982
B1532415605609N00904545EA0000000990
B1532465605540N00904468EA0000001001
B1532515605473N00904513EA0000001008
B1532565605456N00904626EA0000001012
B1533015605505N00904717EA0000001020
B1533065605590N00904701EA0000001024
B1533125605650N00904538EA0000001041
B1533175605618N00904392EA0000001043
B1533225605542N00904341EA0000001056
B1533275605493N00904416EA0000001057
B1533325605526N00904530EA0000001058
B1533375605611N00904519EA0000001068
B1533425605658N00904374EA0000001078
B1533475605617N00904240EA0000001091
B1533525605544N00904248EA0000001096
B1533575605527N00904353EA0000001106
B1534025605585N00904414EA0000001111
B1534075605661N00904341EA0000001113
B1534125605680N00904181EA0000001126
B1534175605626N00904077EA0000001135
B1534225605561N00904109EA0000001138
B1534275605562N00904218EA0000001138
B1534325605634N00904260EA0000001148
B1534375605712N00904194EA0000001155
B1534435605752N00904014EA0000001167
B1534485605747N00903858EA0000001177
B1534535605687N00903755EA0000001187
B1534585605617N00903766EA0000001198
B1535045605592N00903884EA0000001201
B1535095605631N00903979EA0000001202
B1535145605699N00904024EA0000001206
B1535195605777N00903996EA0000001215
B1535245605838N00903886EA0000001222
B1535295605873N00903737EA0000001235
B1535345605869N00903578EA0000001245
B1535395605814N00903464EA0000001253
B1535445605742N00903441EA0000001264
B1535495605687N00903500EA0000001271
B1535545605672N00903604EA0000001276
B1535595605708N00903697EA0000001274
B1536045605783N00903720EA0000001277
B1536095605860N00903651EA0000001288
B1536145605919N00903537EA0000001305
B1536195605958N00903398EA0000001313
B1536245605939N00903244EA0000001317
B1536305605861N00903147EA0000001327
B1536355605798N00903185EA0000001331
B1536405605779N00903292EA0000001340
B1536455605816N00903390EA0000001352
B1536515605907N00903421EA0000001362
B1536565605985N00903346EA0000001377
B1537015606031N00903201EA0000001391
B1537065606023N00903033EA0000001395
B1537115605963N00902918EA0000001399
B1537165605885N00902898EA0000001401
B1537215605825N00902966EA0000001404
B1537265605777N00903062EA0000001411
B1537365605701N00903253EA0000001427
B1537415605668N00903354EA0000001430
B1537465605629N00903455EA0000001432
B1537515605585N00903550EA0000001444
B1537575605533N00903654EA0000001447
B1538035605481N00903771EA0000001442
B1538095605431N00903897EA0000001429
B1538155605376N00904037EA0000001410
B1538205605324N00904156EA0000001405
B1538295605232N00904372EA0000001400
B1538355605168N00904513EA0000001397
B1538435605083N00904699EA0000001396
B1538485605030N00904811EA0000001394
B1538535604977N00904922EA0000001387
B1538585604920N00905033EA0000001375
B1539035604861N00905144EA0000001362
B1539085604797N00905255EA0000001363
B1539135604742N00905357EA0000001389
B1539185604699N00905440EA0000001413
B1539235604656N00905518EA0000001413
B1539295604607N00905639EA0000001413
B1539355604560N00905768EA0000001407
B1539415604510N00905900EA0000001422
B1539465604472N00906004EA0000001422
B1539515604439N00906125EA0000001421
B1539565604408N00906251EA0000001428
B1540015604377N00906380EA0000001428
B1540065604345N00906511EA0000001433
B1540115604314N00906636EA0000001436
B1540195604250N00906834EA0000001436
B1540255604192N00906970EA0000001426
B1540315604131N00907110EA0000001428
B1540365604087N00907221EA0000001432
B1540445604033N00907389EA0000001424
B1540515603988N00907558EA0000001414
B1540565603948N00907682EA0000001421
B1541025603905N00907842EA0000001424
B1541075603869N00907972EA0000001439
B1541125603832N00908097EA0000001441
B1541175603796N00908217EA0000001457
B1541225603752N00908335EA0000001455
B1541285603695N00908481EA0000001444
B1541335603657N00908607EA0000001437
B1541395603616N00908761EA0000001433
B1541455603581N00908910EA0000001440
B1541545603529N00909131EA0000001427
B1541595603498N00909260EA0000001423
B1542045603466N00909390EA0000001423
B1542095603432N00909518EA0000001428
B1542165603388N00909684EA0000001429
B1542215603357N00909799EA0000001425
B1542265603314N00909897EA0000001420
B1542315603288N00910018EA0000001414
B1542365603316N00910149EA0000001414
B1542415603364N00910272EA0000001418
B1542465603417N00910384EA0000001417
B1542515603462N00910503EA0000001411
B1542565603459N00910631EA0000001405
B1543015603409N00910737EA0000001391
B1543065603327N00910763EA0000001391
B1543135603202N00910698EA0000001385
B1543185603121N00910602EA0000001393
B1543245603069N00910386EA0000001399
B1543305603030N00910153EA0000001411
B1543375602980N00909877EA0000001411
B1543425602941N00909681EA0000001414
B1543475602902N00909488EA0000001411
B1543525602863N00909302EA0000001413
B1543595602811N00909042EA0000001395
B1544045602767N00908851EA0000001382
B1544105602712N00908625EA0000001372
B1544165602665N00908386EA0000001362
B1544225602628N00908139EA0000001349
B1544285602590N00907886EA0000001338
B1544345602541N00907639EA0000001333
B1544395602495N00907444EA0000001331
B1544455602437N00907215EA0000001324
B1544515602382N00906976EA0000001313
B1544585602325N00906690EA0000001305
B1545055602279N00906393EA0000001291
B1545115602254N00906142EA0000001293
B1545185602210N00905868EA0000001278
B1545245602165N00905639EA0000001270
B1545295602132N00905442EA0000001258
B1545345602147N00905234EA0000001243
B1545395602213N00905053EA0000001224
B1545455602296N00904825EA0000001216
B1545515602401N00904673EA0000001225
B1545575602521N00904584EA0000001207
B1546025602628N00904529EA0000001194
B1546095602779N00904508EA0000001181
B1546145602882N00904473EA0000001177
B1546195602952N00904326EA0000001167
B1546245602948N00904117EA0000001151
B1546295602961N00903905EA0000001143
B1546355603055N00903729EA0000001137
B1546415603091N00903498EA0000001130
B1546465603048N00903303EA0000001120
B1546515603003N00903120EA0000001129
B1546565602962N00902946EA0000001119
B1547025602901N00902739EA0000001110
B1547105602816N00902459EA0000001094
B1547175602740N00902214EA0000001088
B1547225602698N00902033EA0000001087
B1547305602717N00901723EA0000001089
B1547355602742N00901532EA0000001079
B1547405602746N00901324EA0000001064
B1547455602700N00901140EA0000001053
B1547505602614N00901042EA0000001052
B1547565602513N00900942EA0000001055
B1548015602449N00900801EA0000001049
B1548085602415N00900542EA0000001053
B1548135602419N00900362EA0000001051
B1548185602423N00900183EA0000001044
B1548255602438N00859931EA0000001038
B1548305602449N00859760EA0000001037
B1548365602465N00859561EA0000001033
B1548415602485N00859402EA0000001021
B1548465602507N00859231EA0000000997
B1548535602544N00858938EA0000000942
B1548585602570N00858709EA0000000926
B1549035602590N00858486EA0000000925
B1549085602607N00858288EA0000000934
B1549135602622N00858103EA0000000919
B1549195602639N00857852EA0000000876
B1549245602653N00857617EA0000000845
B1549315602667N00857280EA0000000826
B1549385602675N00856974EA0000000834
B1549455602680N00856693EA0000000843
B1549515602684N00856471EA0000000851
B1549565602692N00856291EA0000000849
B1550045602721N00856014EA0000000848
B1550105602755N00855806EA0000000841
B1550165602794N00855598EA0000000840
B1550225602838N00855402EA0000000844
B1550275602880N00855245EA0000000842
B1550325602926N00855088EA0000000838
B1550425603032N00854782EA0000000835
B1550515603126N00854516EA0000000824
B1550565603175N00854377EA0000000817
B1551035603244N00854182EA0000000802
B1551095603298N00854001EA0000000793
B1551155603337N00853814EA0000000782
B1551225603377N00853599EA0000000770
B1551285603398N00853397EA0000000755
B1551335603369N00853246EA0000000743
B1551395603288N00853179EA0000000735
B1551455603207N00853182EA0000000723
B1551505603135N00853198EA0000000707
B1551595603018N00853281EA0000000699
B1552045602965N00853343EA0000000688
B1552095602911N00853414EA0000000675
B1552165602844N00853526EA0000000673
B1552255602797N00853709EA0000000658
B1552305602791N00853829EA0000000654
B1552415602783N00854086EA0000000644
B1552465602773N00854199EA0000000637
B1552515602759N00854307EA0000000630
B1553005602719N00854504EA0000000606
B1553055602684N00854607EA0000000595
B1553115602629N00854715EA0000000584
B1553175602571N00854812EA0000000573
B1553225602523N00854900EA0000000565
B1553275602481N00854998EA0000000560
B1553335602437N00855114EA0000000563
B1553445602341N00855304EA0000000555
B1553505602285N00855393EA0000000560
B1554015602171N00855549EA0000000542
B1554075602106N00855637EA0000000528
B1554125602047N00855719EA0000000515
B1554205601961N00855854EA0000000514
B1554255601905N00855938EA0000000505
B1554335601808N00856052EA0000000492
B1554395601726N00856132EA0000000482
B1554455601638N00856177EA0000000475
B1554505601560N00856197EA0000000466
B1554565601468N00856210EA0000000475
B1555025601386N00856206EA0000000479
B1555085601298N00856190EA0000000472
B1555135601224N00856167EA0000000480
B1555195601145N00856160EA0000000476
B1555255601070N00856184EA0000000466
B1555345600954N00856224EA0000000448
B1555395600888N00856253EA0000000434
B1555475600794N00856364EA0000000418
B1555555600710N00856499EA0000000409
B1556015600646N00856598EA0000000414
B1556075600580N00856696EA0000000412
B1556125600524N00856770EA0000000410
B1556185600475N00856880EA0000000400
B1556245600466N00857026EA0000000391
B1556305600483N00857182EA0000000370
B1556355600493N00857316EA0000000347
B1556405600503N00857449EA0000000339
B1556455600522N00857576EA0000000330
B1556505600547N00857698EA0000000309
B1556555600562N00857826EA0000000285
B1557005600572N00857959EA0000000280
B1557075600578N00858141EA0000000270
B1557125600580N00858275EA0000000248
B1557185600586N00858439EA0000000222
B1557235600588N00858578EA0000000213
B1557315600595N00858797EA0000000190
B1557405600597N00859047EA0000000172
B1557475600601N00859235EA0000000152
B1557555600605N00859448EA0000000130
B1558025600605N00859636EA0000000123
B1558105600605N00859850EA0000000108
B1558155600610N00859985EA0000000091
B1558205600609N00900120EA0000000078
B1558265600605N00900285EA0000000061
B1558315600604N00900426EA0000000044
B1558365600599N00900567EA0000000037
B1558415600596N00900696EA0000000037
B1558505600590N00900885EA0000000037
