AOGNOGN
HFDTE190725
HFFXA050
HFPLTPILOTINCHARGE:
HFGTYGLIDERTYPE:ASW-27
HFGIDGLIDERID:D-5827
HFDTM100GPSDATUM:WGS-1984
HFRFWFIRMWAREVERSION:
HFRHWHARDWAREVERSION:
HFFTYFRTYPE:OGN-FLIGHTBOOK
HFGPSGENERIC
HFPRSPRESSALTSENSOR:
HFCIDCOMPETITIONID:IT
B1100065600604N00900568EA0000000030
B1100075600606N00900585EA0000000031
B1100125600617N00900685EA0000000032
B1100175600632N00900815EA0000000034
B1100235600652N00901006EA0000000039
B1100285600669N00901174EA0000000056
B1100335600684N00901343EA0000000074
B1100405600724N00901577EA0000000098
B1100465600786N00901754EA0000000120
B1100535600884N00901919EA0000000146
B1101015601009N00902074EA0000000168
B1101075601107N00902187EA0000000184
B1101135601205N00902308EA0000000200
B1101185601286N00902411EA0000000215
B1101235601368N00902512EA0000000230
B1101295601467N00902631EA0000000250
B1101355601573N00902739EA0000000270
B1101405601658N00902839EA0000000290
B1101465601731N00903006EA0000000311
B1101525601791N00903185EA0000000327
B1102005601903N00903373EA0000000352
B1102055601995N00903433EA0000000367
B1102105602092N00903424EA0000000392
B1102155602176N00903337EA0000000411
B1102205602236N00903195EA0000000431
B1102265602272N00902983EA0000000453
B1102315602275N00902800EA0000000472
B1102375602251N00902585EA0000000488
B1102445602194N00902353EA0000000508
B1102525602112N00902125EA0000000547
B1102585602037N00901970EA0000000558
B1103035601958N00901878EA0000000572
B1103085601874N00901884EA0000000575
B1103135601831N00901987EA0000000579
B1103205601873N00902171EA0000000572
B1103295601980N00902364EA0000000571
B1103345602047N00902450EA0000000568
B1103415602143N00902578EA0000000556
B1103485602247N00902705EA0000000549
B1103535602330N00902715EA0000000555
B1103585602380N00902595EA0000000554
B1104035602361N00902451EA0000000550
B1104095602269N00902406EA0000000544
B1104145602196N00902447EA0000000540
B1104195602122N00902488EA0000000536
B1104245602048N00902525EA0000000534
B1104305601959N00902571EA0000000535
B1104355601892N00902601EA0000000540
B1104405601820N00902601EA0000000527
B1104455601771N00902488EA0000000516
B1104505601772N00902319EA0000000515
B1104555601793N00902165EA0000000524
B1105005601839N00902030EA0000000524
B1105095601934N00901812EA0000000528
B1105165602007N00901640EA0000000530
B1105235602065N00901463EA0000000514
B1105295602111N00901287EA0000000501
B1105355602159N00901105EA0000000496
B1105425602215N00900910EA0000000522
B1105485602180N00900775EA0000000505
B1105535602107N00900855EA0000000496
B1105595602121N00901044EA0000000503
B1106045602178N00901155EA0000000504
B1106095602260N00901138EA0000000507
B1106145602262N00900999EA0000000504
B1106195602182N00900978EA0000000501
B1106245602155N00901117EA0000000507
B1106295602227N00901191EA0000000515
B1106345602289N00901111EA0000000516
B1106395602261N00900980EA0000000514
B1106445602180N00900976EA0000000512
B1106505602144N00901134EA0000000515
B1106555602207N00901248EA0000000502
B1107005602294N00901237EA0000000515
B1107055602337N00901110EA0000000515
B1107105602302N00900979EA0000000514
B1107155602224N00900951EA0000000515
B1107205602169N00901055EA0000000512
B1107255602161N00901200EA0000000515
B1107305602211N00901305EA0000000503
B1107355602300N00901302EA0000000507
B1107405602375N00901245EA0000000512
B1107455602398N00901106EA0000000503
B1107525602380N00900883EA0000000494
B1107575602363N00900732EA0000000502
B1108025602332N00900594EA0000000504
B1108075602388N00900501EA0000000504
B1108135602432N00900648EA0000000494
B1108185602360N00900710EA0000000498
B1108245602280N00900606EA0000000507
B1108295602246N00900476EA0000000510
B1108345602299N00900377EA0000000500
B1108395602360N00900477EA0000000501
B1108445602322N00900618EA0000000505
B1108495602241N00900609EA0000000516
B1108545602225N00900464EA0000000513
B1109005602313N00900400EA0000000515
B1109055602375N00900500EA0000000522
B1109105602341N00900630EA0000000522
B1109155602261N00900582EA0000000529
B1109205602255N00900431EA0000000530
B1109265602341N00900359EA0000000531
B1109315602407N00900444EA0000000546
B1109365602398N00900585EA0000000537
B1109415602317N00900627EA0000000553
B1109465602255N00900535EA0000000559
B1109515602264N00900390EA0000000558
B1109565602335N00900337EA0000000557
B1110015602395N00900434EA0000000571
B1110065602380N00900563EA0000000576
B1110115602302N00900571EA0000000574
B1110185602269N00900379EA0000000571
B1110245602296N00900214EA0000000570
B1110295602374N00900190EA0000000559
B1110345602430N00900316EA0000000568
B1110395602441N00900458EA0000000568
B1110445602371N00900556EA0000000573
B1110495602296N00900524EA0000000583
B1110545602306N00900382EA0000000570
B1110595602388N00900358EA0000000579
B1111045602433N00900475EA0000000589
B1111095602403N00900607EA0000000599
B1111145602325N00900608EA0000000603
B1111205602289N00900453EA0000000595
B1111255602346N00900355EA0000000598
B1111305602418N00900415EA0000000596
B1111385602442N00900652EA0000000618
B1111445602365N00900719EA0000000625
B1111495602318N00900604EA0000000627
B1111545602369N00900495EA0000000628
B1111595602451N00900505EA0000000643
B1112045602484N00900625EA0000000649
B1112095602428N00900707EA0000000644
B1112145602360N00900637EA0000000644
B1112195602369N00900489EA0000000650
B1112255602462N00900447EA0000000669
B1112305602507N00900554EA0000000670
B1112355602463N00900662EA0000000666
B1112405602386N00900621EA0000000667
B1112455602374N00900475EA0000000669
B1112505602423N00900349EA0000000685
B1112555602503N00900340EA0000000690
B1113025602537N00900506EA0000000694
B1113075602471N00900571EA0000000696
B1113125602402N00900500EA0000000697
B1113175602393N00900351EA0000000702
B1113225602456N00900257EA0000000707
B1113275602526N00900311EA0000000719
B1113325602528N00900442EA0000000718
B1113375602457N00900506EA0000000718
B1113425602387N00900433EA0000000725
B1113485602343N00900253EA0000000710
B1113545602307N00900051EA0000000690
B1114025602299N00859747EA0000000675
B1114095602281N00859478EA0000000659
B1114155602260N00859238EA0000000648
B1114215602228N00859000EA0000000645
B1114315602155N00858613EA0000000644
B1114365602128N00858425EA0000000641
B1114415602099N00858238EA0000000643
B1114475602071N00858016EA0000000641
B1114535602042N00857796EA0000000630
B1115005602002N00857541EA0000000624
B1115055601968N00857369EA0000000622
B1115105601932N00857195EA0000000606
B1115165601882N00856983EA0000000599
B1115215601840N00856811EA0000000601
B1115265601806N00856654EA0000000621
B1115315601795N00856507EA0000000624
B1115375601843N00856348EA0000000628
B1115435601900N00856202EA0000000632
B1115495601952N00856060EA0000000629
B1115545601992N00855916EA0000000615
B1115595601999N00855750EA0000000610
B1116055601971N00855561EA0000000604
B1116105601944N00855412EA0000000600
B1116165601909N00855230EA0000000594
B1116225601873N00855052EA0000000589
B1116285601840N00854865EA0000000585
B1116345601827N00854671EA0000000582
B1116395601816N00854513EA0000000581
B1116445601776N00854378EA0000000571
B1116495601690N00854398EA0000000564
B1116555601637N00854566EA0000000564
B1117005601617N00854724EA0000000571
B1117075601579N00854914EA0000000594
B1117125601513N00854945EA0000000586
B1117175601485N00854793EA0000000580
B1117225601554N00854683EA0000000582
B1117275601643N00854743EA0000000585
B1117335601711N00854899EA0000000609
B1117385601702N00855031EA0000000602
B1117435601625N00854994EA0000000609
B1117485601639N00854834EA0000000616
B1117535601717N00854743EA0000000629
B1117585601780N00854849EA0000000626
B1118045601717N00854983EA0000000632
B1118095601646N00854904EA0000000650
B1118145601664N00854749EA0000000654
B1118205601766N00854756EA0000000668
B1118255601785N00854900EA0000000673
B1118315601706N00854975EA0000000679
B1118365601655N00854852EA0000000678
B1118435601648N00854633EA0000000698
B1118485601729N00854578EA0000000692
B1118535601778N00854703EA0000000686
B1118585601725N00854814EA0000000700
B1119045601630N00854803EA0000000708
B1119105601593N00854644EA0000000692
B1119155601663N00854532EA0000000706
B1119205601754N00854538EA0000000718
B1119255601820N00854637EA0000000707
B1119315601831N00854822EA0000000722
B1119365601829N00854959EA0000000728
B1119415601822N00855098EA0000000717
B1119475601815N00855283EA0000000685
B1119595601815N00855733EA0000000673
B1120095601822N00856093EA0000000672
B1120155601819N00856289EA0000000693
B1120205601778N00856418EA0000000688
B1120255601693N00856471EA0000000684
B1120315601585N00856480EA0000000694
B1120395601461N00856479EA0000000716
B1120445601407N00856383EA0000000708
B1120495601444N00856253EA0000000718
B1120545601523N00856253EA0000000724
B1121005601559N00856409EA0000000727
B1121055601502N00856513EA0000000731
B1121105601425N00856489EA0000000746
B1121165601393N00856329EA0000000736
B1121215601451N00856216EA0000000732
B1121265601539N00856200EA0000000745
B1121325601581N00856345EA0000000745
B1121385601515N00856458EA0000000751
B1121435601444N00856388EA0000000756
B1121495601461N00856226EA0000000767
B1121545601541N00856204EA0000000769
B1122005601571N00856371EA0000000772
B1122055601516N00856478EA0000000777
B1122105601434N00856461EA0000000785
B1122155601399N00856333EA0000000786
B1122205601437N00856200EA0000000783
B1122255601522N00856173EA0000000785
B1122305601582N00856280EA0000000791
B1122355601570N00856424EA0000000795
B1122405601497N00856487EA0000000798
B1122455601424N00856428EA0000000804
B1122525601380N00856235EA0000000811
B1122595601361N00856036EA0000000823
B1123045601302N00855962EA0000000814
B1123095601241N00856043EA0000000812
B1123145601234N00856169EA0000000818
B1123205601298N00856274EA0000000817
B1123255601369N00856331EA0000000813
B1123325601483N00856269EA0000000820
B1123375601536N00856163EA0000000831
B1123425601486N00856048EA0000000823
B1123475601419N00856119EA0000000837
B1123535601467N00856265EA0000000843
B1123585601543N00856224EA0000000846
B1124035601516N00856090EA0000000846
B1124085601435N00856108EA0000000853
B1124135601433N00856232EA0000000864
B1124185601514N00856257EA0000000864
B1124235601561N00856139EA0000000871
B1124285601519N00856008EA0000000862
B1124335601433N00856001EA0000000870
B1124385601384N00856115EA0000000874
B1124445601419N00856260EA0000000878
B1124495601504N00856278EA0000000878
B1124545601570N00856177EA0000000879
B1124595601572N00856021EA0000000881
B1125045601507N00855934EA0000000883
B1125095601432N00855963EA0000000893
B1125145601419N00856082EA0000000894
B1125195601452N00856203EA0000000884
B1125245601482N00856344EA0000000872
B1125295601469N00856513EA0000000856
B1125355601420N00856719EA0000000839
B1125405601377N00856896EA0000000834
B1125455601338N00857076EA0000000817
B1125515601284N00857291EA0000000813
B1125565601243N00857461EA0000000817
B1126025601194N00857657EA0000000810
B1126105601116N00857920EA0000000792
B1126155601063N00858086EA0000000785
B1126235600981N00858354EA0000000774
B1126335600879N00858683EA0000000767
B1126415600797N00858930EA0000000769
B1126465600746N00859079EA0000000762
B1126515600694N00859231EA0000000754
B1126575600633N00859413EA0000000747
B1127025600581N00859563EA0000000740
B1127085600519N00859746EA0000000727
B1127135600468N00859909EA0000000707
B1127185600435N00900091EA0000000706
B1127245600404N00900305EA0000000708
B1127325600337N00900562EA0000000705
B1127375600291N00900717EA0000000699
B1127455600198N00900957EA0000000677
B1127515600118N00901139EA0000000662
B1127565600048N00901290EA0000000659
B1128015559977N00901434EA0000000653
B1128065559903N00901572EA0000000651
B1128115559826N00901701EA0000000650
B1128185559716N00901872EA0000000642
B1128235559622N00901956EA0000000639
B1128295559505N00902004EA0000000661
B1128365559379N00902025EA0000000654
B1128425559268N00902054EA0000000642
B1128475559179N00902082EA0000000640
B1128525559094N00902121EA0000000632
B1128575559008N00902161EA0000000618
B1129025558914N00902201EA0000000587
B1129105558751N00902257EA0000000579
B1129165558641N00902281EA0000000594
B1129245558510N00902319EA0000000614
B1129295558506N00902448EA0000000615
B1129345558594N00902412EA0000000627
B1129395558599N00902257EA0000000631
B1129445558527N00902161EA0000000643
B1129495558470N00902234EA0000000649
B1129545558519N00902356EA0000000653
B1129595558606N00902302EA0000000667
B1130045558612N00902142EA0000000675
B1130095558545N00902069EA0000000683
B1130145558519N00902186EA0000000694
B1130205558613N00902249EA0000000701
B1130255558669N00902133EA0000000714
B1130315558614N00901998EA0000000719
B1130365558554N00902081EA0000000727
B1130415558593N00902210EA0000000735
B1130465558675N00902175EA0000000752
B1130515558681N00902028EA0000000744
B1130565558605N00901957EA0000000759
B1131015558529N00901943EA0000000771
B1131065558505N00902067EA0000000772
B1131115558580N00902142EA0000000773
B1131165558665N00902082EA0000000793
B1131215558673N00901938EA0000000793
B1131265558602N00901916EA0000000802
B1131315558597N00902060EA0000000816
B1131365558680N00902097EA0000000828
B1131435558708N00901906EA0000000824
B1131485558629N00901867EA0000000835
B1131535558589N00901982EA0000000851
B1131585558656N00902069EA0000000863
B1132035558725N00901990EA0000000869
B1132085558700N00901848EA0000000861
B1132145558607N00901787EA0000000889
B1132195558550N00901850EA0000000885
B1132245558575N00901983EA0000000893
B1132295558665N00901990EA0000000900
B1132345558718N00901864EA0000000917
B1132395558689N00901739EA0000000922
B1132445558618N00901742EA0000000930
B1132495558595N00901870EA0000000934
B1132545558664N00901951EA0000000949
B1133005558748N00901859EA0000000948
B1133055558739N00901711EA0000000960
B1133115558663N00901654EA0000000963
B1133175558622N00901811EA0000000976
B1133225558697N00901872EA0000000988
B1133275558768N00901776EA0000000991
B1133325558756N00901630EA0000000996
B1133385558664N00901562EA0000001011
B1133435558603N00901633EA0000001014
B1133485558633N00901768EA0000001011
B1133535558722N00901808EA0000001025
B1133585558793N00901709EA0000001026
B1134045558773N00901533EA0000001034
B1134095558698N00901533EA0000001046
B1134145558712N00901668EA0000001057
B1134205558818N00901641EA0000001059
B1134255558831N00901490EA0000001062
B1134315558742N00901429EA0000001068
B1134365558692N00901539EA0000001086
B1134415558748N00901652EA0000001081
B1134465558835N00901595EA0000001081
B1134515558847N00901443EA0000001090
B1134575558771N00901343EA0000001106
B1135025558699N00901386EA0000001114
B1135085558697N00901539EA0000001113
B1135135558777N00901590EA0000001119
B1135185558860N00901512EA0000001102
B1135245558954N00901338EA0000001087
B1135305559056N00901142EA0000001068
B1135355559108N00900933EA0000001069
B1135405559144N00900716EA0000001074
B1135465559140N00900467EA0000001098
B1135525559134N00900251EA0000001117
B1135585559132N00900064EA0000001155
B1136035559139N00859927EA0000001161
B1136095559153N00859755EA0000001163
B1136165559175N00859544EA0000001144
B1136225559203N00859346EA0000001134
B1136295559228N00859121EA0000001158
B1136345559226N00858982EA0000001153
B1136395559157N00858965EA0000001140
B1136445559130N00859089EA0000001146
B1136505559152N00859261EA0000001130
B1136555559179N00859420EA0000001119
B1137005559187N00859589EA0000001115
B1137075559154N00859803EA0000001131
B1137135559103N00859939EA0000001153
B1137205559062N00900085EA0000001170
B1137255559011N00900157EA0000001163
B1137305558964N00900030EA0000001156
B1137355559031N00859899EA0000001166
B1137405559116N00859957EA0000001159
B1137455559107N00900100EA0000001181
B1137515559031N00900165EA0000001184
B1137565559001N00900024EA0000001177
B1138015559084N00859937EA0000001177
B1138065559136N00900052EA0000001188
B1138115559092N00900156EA0000001190
B1138165559011N00900162EA0000001199
B1138215558944N00900083EA0000001203
B1138265558961N00859916EA0000001204
B1138315559055N00859882EA0000001201
B1138365559082N00900009EA0000001210
B1138415559021N00900069EA0000001210
B1138475558935N00900075EA0000001225
B1138525558870N00900099EA0000001219
B1138575558828N00900187EA0000001210
B1139035558816N00900347EA0000001189
B1139085558804N00900500EA0000001181
B1139145558766N00900688EA0000001170
B1139195558724N00900840EA0000001175
B1139245558663N00900940EA0000001205
B1139305558605N00901041EA0000001204
B1139365558560N00901189EA0000001169
B1139415558557N00901365EA0000001148
B1139485558593N00901627EA0000001146
B1139535558619N00901818EA0000001142
B1139585558642N00902015EA0000001168
B1140035558661N00902171EA0000001199
B1140085558685N00902331EA0000001163
B1140165558746N00902644EA0000001139
B1140215558775N00902849EA0000001138
B1140295558792N00903172EA0000001130
B1140365558794N00903452EA0000001133
B1140415558780N00903646EA0000001148
B1140485558767N00903883EA0000001180
B1140575558765N00904139EA0000001199
B1141025558772N00904298EA0000001181
B1141085558761N00904521EA0000001166
B1141165558715N00904820EA0000001165
B1141215558686N00905003EA0000001170
B1141265558665N00905189EA0000001173
B1141325558682N00905401EA0000001195
B1141375558727N00905539EA0000001208
B1141425558793N00905658EA0000001187
B1141475558869N00905798EA0000001166
B1141525558943N00905958EA0000001142
B1141575559015N00906131EA0000001138
B1142045559109N00906368EA0000001145
B1142125559173N00906675EA0000001141
B1142175559183N00906881EA0000001144
B1142225559162N00907075EA0000001170
B1142275559143N00907228EA0000001216
B1142325559128N00907362EA0000001235
B1142385559115N00907529EA0000001233
B1142435559101N00907683EA0000001223
B1142485559067N00907843EA0000001210
B1142545559009N00908038EA0000001200
B1143025558958N00908305EA0000001225
B1143085558930N00908469EA0000001249
B1143135558910N00908593EA0000001252
B1143195558914N00908769EA0000001216
B1143255558937N00908986EA0000001189
B1143305558959N00909178EA0000001173
B1143365558988N00909409EA0000001177
B1143425559009N00909633EA0000001177
B1143485559025N00909851EA0000001173
B1143535559045N00910030EA0000001158
B1144005559129N00910269EA0000001142
B1144065559207N00910471EA0000001137
B1144115559267N00910643EA0000001132
B1144165559328N00910814EA0000001126
B1144215559390N00910982EA0000001122
B1144305559498N00911283EA0000001119
B1144375559580N00911523EA0000001102
B1144425559636N00911702EA0000001094
B1144515559739N00912029EA0000001084
B1144565559797N00912204EA0000001085
B1145015559849N00912377EA0000001078
B1145085559921N00912641EA0000001046
B1145145559981N00912878EA0000001035
B1145225600028N00913209EA0000001031
B1145275600052N00913414EA0000001023
B1145335600085N00913658EA0000001012
B1145385600112N00913860EA0000001011
B1145435600143N00914060EA0000000999
B1145485600166N00914260EA0000001031
B1145535600191N00914414EA0000001068
B1145585600218N00914542EA0000001078
B1146035600264N00914677EA0000001061
B1146085600327N00914831EA0000001043
B1146145600414N00915030EA0000001038
B1146195600488N00915203EA0000001029
B1146265600591N00915453EA0000001000
B1146315600668N00915632EA0000000992
B1146375600760N00915847EA0000000970
B1146425600838N00916032EA0000000961
B1146515600970N00916384EA0000000933
B1146565601044N00916589EA0000000919
B1147025601131N00916839EA0000000903
B1147075601219N00917030EA0000000897
B1147125601310N00917194EA0000000949
B1147185601398N00917334EA0000000989
B1147255601497N00917215EA0000000990
B1147315601448N00917054EA0000000994
B1147395601318N00917052EA0000001008
B1147455601225N00917100EA0000001019
B1147515601212N00917230EA0000001020
B1147565601299N00917173EA0000001048
B1148015601278N00917036EA0000001056
B1148065601208N00917046EA0000001063
B1148115601186N00917172EA0000001068
B1148165601269N00917243EA0000001070
B1148215601351N00917132EA0000001085
B1148265601357N00916981EA0000001097
B1148315601288N00916923EA0000001101
B1148365601248N00917030EA0000001114
B1148415601320N00917118EA0000001119
B1148465601388N00917021EA0000001142
B1148515601357N00916894EA0000001142
B1148565601283N00916912EA0000001146
B1149025601281N00917082EA0000001153
B1149075601371N00917128EA0000001162
B1149125601436N00917004EA0000001162
B1149175601451N00916839EA0000001182
B1149235601390N00916714EA0000001182
B1149285601321N00916774EA0000001179
B1149335601318N00916945EA0000001170
B1149385601360N00917127EA0000001162
B1149445601423N00917346EA0000001167
B1149515601501N00917604EA0000001167
B1149585601587N00917871EA0000001160
B1150045601660N00918098EA0000001149
B1150105601750N00918321EA0000001118
B1150165601836N00918553EA0000001113
B1150215601901N00918742EA0000001111
B1150265601960N00918934EA0000001099
B1150315602018N00919133EA0000001086
B1150375602086N00919373EA0000001080
B1150435602127N00919616EA0000001079
B1150495602146N00919859EA0000001079
B1150555602158N00920093EA0000001090
B1151035602173N00920396EA0000001082
B1151095602184N00920619EA0000001109
B1151175602190N00920867EA0000001144
B1151225602273N00920881EA0000001140
B1151285602298N00920668EA0000001152
B1151335602232N00920564EA0000001162
B1151385602165N00920627EA0000001171
B1151435602182N00920756EA0000001177
B1151485602276N00920719EA0000001176
B1151535602308N00920551EA0000001191
B1151585602243N00920447EA0000001198
B1152035602174N00920515EA0000001209
B1152085602182N00920646EA0000001228
B1152135602267N00920657EA0000001228
B1152205602299N00920438EA0000001239
B1152255602225N00920351EA0000001244
B1152305602158N00920411EA0000001254
B1152355602174N00920541EA0000001268
B1152405602259N00920554EA0000001275
B1152455602305N00920406EA0000001286
B1152505602251N00920295EA0000001295
B1152555602186N00920359EA0000001304
B1153015602238N00920493EA0000001316
B1153065602322N00920428EA0000001322
B1153125602314N00920234EA0000001338
B1153175602236N00920203EA0000001337
B1153225602196N00920321EA0000001355
B1153275602244N00920428EA0000001355
B1153325602333N00920380EA0000001366
B1153385602341N00920184EA0000001378
B1153435602264N00920117EA0000001382
B1153505602191N00920245EA0000001402
B1153575602268N00920361EA0000001395
B1154035602368N00920262EA0000001405
B1154085602412N00920117EA0000001419
B1154135602361N00919993EA0000001420
B1154185602282N00920025EA0000001424
B1154275602256N00920266EA0000001449
B1154325602228N00920381EA0000001440
B1154375602188N00920497EA0000001419
B1154425602142N00920638EA0000001392
B1154475602095N00920797EA0000001381
B1154565601995N00921074EA0000001371
B1155025601916N00921245EA0000001374
B1155075601850N00921374EA0000001389
B1155135601770N00921521EA0000001375
B1155185601701N00921641EA0000001369
B1155255601609N00921804EA0000001363
B1155305601546N00921921EA0000001347
B1155355601473N00922042EA0000001337
B1155425601367N00922217EA0000001327
B1155485601278N00922367EA0000001331
B1155535601217N00922485EA0000001351
B1155595601217N00922650EA0000001338
B1156055601302N00922791EA0000001312
B1156125601412N00922974EA0000001298
B1156175601479N00923129EA0000001300
B1156245601573N00923338EA0000001308
B1156295601635N00923490EA0000001309
B1156345601693N00923641EA0000001312
B1156405601767N00923819EA0000001311
B1156465601852N00923982EA0000001313
B1156515601943N00924084EA0000001300
B1157005602113N00924276EA0000001298
B1157075602218N00924485EA0000001289
B1157145602335N00924678EA0000001278
B1157195602428N00924804EA0000001272
B1157245602520N00924930EA0000001269
B1157305602619N00925096EA0000001261
B1157365602718N00925269EA0000001244
B1157415602811N00925409EA0000001236
B1157485602935N00925613EA0000001222
B1157535603025N00925752EA0000001214
B1157595603114N00925934EA0000001206
B1158045603169N00926105EA0000001199
B1158095603264N00926209EA0000001194
B1158165603427N00926276EA0000001183
B1158225603568N00926325EA0000001175
B1158285603710N00926380EA0000001166
B1158345603856N00926437EA0000001171
B1158395603970N00926490EA0000001186
B1158455604083N00926543EA0000001222
B1158505604130N00926648EA0000001217
B1158565604076N00926766EA0000001212
B1159015604000N00926702EA0000001203
B1159075603965N00926509EA0000001215
B1159135603956N00926322EA0000001218
B1159185604027N00926217EA0000001211
B1159235604112N00926270EA0000001213
B1159295604177N00926419EA0000001208
B1159345604243N00926536EA0000001193
B1159395604315N00926654EA0000001176
B1159445604388N00926781EA0000001168
B1159495604456N00926903EA0000001169
B1159545604527N00927027EA0000001157
B1159595604596N00927152EA0000001163
B1200045604667N00927284EA0000001144
B1200105604759N00927461EA0000001132
B1200155604837N00927603EA0000001130
B1200225604947N00927794EA0000001126
B1200305605076N00928013EA0000001108
B1200355605152N00928155EA0000001106
B1200415605248N00928312EA0000001101
B1200475605346N00928468EA0000001094
B1200545605456N00928651EA0000001091
B1201005605548N00928812EA0000001083
B1201065605648N00928982EA0000001059
B1201125605755N00929154EA0000001053
B1201205605900N00929381EA0000001043
B1201275606024N00929578EA0000001043
B1201325606107N00929719EA0000001041
B1201375606189N00929856EA0000001037
B1201485606375N00930155EA0000001013
B1201555606493N00930349EA0000001005
B1202035606621N00930576EA0000000998
B1202085606704N00930709EA0000000995
B1202135606782N00930830EA0000001017
B1202185606843N00930927EA0000001029
B1202255606942N00931072EA0000000996
B1202325607054N00931238EA0000000974
B1202385607156N00931391EA0000000961
B1202475607313N00931619EA0000000946
B1202555607451N00931813EA0000000942
B1203035607589N00932011EA0000000937
B1203085607674N00932141EA0000000949
B1203135607744N00932272EA0000000978
B1203195607814N00932400EA0000001001
B1203285607928N00932559EA0000001016
B1203335607967N00932678EA0000001021
B1203385607914N00932761EA0000001016
B1203445607840N00932634EA0000001022
B1203495607879N00932482EA0000001034
B1203545607972N00932462EA0000001037
B1203595608034N00932569EA0000001046
B1204045608025N00932701EA0000001050
B1204095607950N00932723EA0000001046
B1204155607891N00932565EA0000001056
B1204225607902N00932337EA0000001072
B1204275607933N00932184EA0000001075
B1204325608025N00932153EA0000001081
B1204375608072N00932275EA0000001090
B1204445608052N00932485EA0000001079
B1204495608020N00932645EA0000001068
B1204545607984N00932802EA0000001088
B1204595607951N00932944EA0000001081
B1205045607920N00933105EA0000001070
B1205095607888N00933270EA0000001068
B1205145607855N00933431EA0000001071
B1205195607826N00933592EA0000001071
B1205255607790N00933781EA0000001072
B1205305607756N00933933EA0000001063
B1205355607723N00934099EA0000001050
B1205435607674N00934368EA0000001054
B1205485607648N00934529EA0000001048
B1205565607625N00934803EA0000001037
B1206025607616N00935008EA0000001034
B1206095607596N00935250EA0000001034
B1206155607581N00935446EA0000001058
B1206205607576N00935593EA0000001054
B1206255607568N00935748EA0000001034
B1206305607547N00935918EA0000001036
B1206355607523N00936048EA0000001087
B1206405607552N00936150EA0000001072
B1206475607660N00936028EA0000001070
B1206525607634N00935879EA0000001065
B1206575607556N00935800EA0000001064
B1207025607472N00935843EA0000001070
B1207075607395N00935906EA0000001081
B1207125607367N00936028EA0000001084
B1207205607363N00936261EA0000001051
B1207255607362N00936435EA0000001027
B1207305607347N00936612EA0000001042
B1207375607318N00936813EA0000001075
B1207425607321N00936945EA0000001092
B1207485607413N00936867EA0000001099
B1207535607364N00936737EA0000001100
B1207585607278N00936794EA0000001109
B1208035607309N00936919EA0000001127
B1208095607402N00936820EA0000001145
B1208145607348N00936720EA0000001164
B1208195607308N00936824EA0000001170
B1208245607380N00936895EA0000001173
B1208315607455N00936731EA0000001190
B1208365607389N00936661EA0000001203
B1208415607361N00936782EA0000001215
B1208465607435N00936832EA0000001232
B1208515607482N00936694EA0000001242
B1208565607437N00936582EA0000001253
B1209035607373N00936711EA0000001271
B1209085607438N00936787EA0000001272
B1209145607512N00936650EA0000001294
B1209195607475N00936517EA0000001294
B1209245607396N00936548EA0000001302
B1209325607420N00936742EA0000001314
B1209375607512N00936705EA0000001312
B1209425607561N00936554EA0000001329
B1209475607520N00936407EA0000001329
B1209525607440N00936425EA0000001338
B1209585607414N00936608EA0000001339
B1210085607425N00936947EA0000001314
B1210145607439N00937158EA0000001296
B1210225607453N00937432EA0000001293
B1210325607465N00937783EA0000001259
B1210385607476N00938001EA0000001254
B1210465607491N00938294EA0000001250
B1210525607502N00938511EA0000001250
B1210575607511N00938691EA0000001249
B1211025607519N00938862EA0000001252
B1211075607528N00939028EA0000001246
B1211135607546N00939226EA0000001237
B1211195607561N00939428EA0000001226
B1211285607588N00939729EA0000001227
B1211365607636N00939983EA0000001242
B1211425607679N00940151EA0000001253
B1211485607710N00940313EA0000001248
B1211545607728N00940495EA0000001231
B1212015607740N00940729EA0000001210
B1212065607732N00940904EA0000001200
B1212115607720N00941083EA0000001186
B1212195607691N00941367EA0000001181
B1212265607665N00941605EA0000001178
B1212315607646N00941777EA0000001172
B1212385607620N00942014EA0000001172
B1212445607598N00942206EA0000001172
B1212495607580N00942370EA0000001165
B1212585607538N00942675EA0000001147
B1213035607582N00942833EA0000001140
B1213085607691N00942898EA0000001131
B1213155607851N00942930EA0000001123
B1213215607985N00942949EA0000001121
B1213295608123N00942791EA0000001107
B1213375608144N00942442EA0000001086
B1213445608183N00942135EA0000001078
B1213545608236N00941708EA0000001067
B1214055608276N00941238EA0000001055
B1214105608289N00941023EA0000001048
B1214185608322N00940674EA0000001034
B1214285608366N00940235EA0000001030
B1214365608402N00939914EA0000001049
B1214425608423N00939694EA0000001041
B1214485608443N00939469EA0000001031
B1214535608475N00939287EA0000001027
B1214585608514N00939099EA0000001005
B1215045608580N00938861EA0000000989
B1215105608659N00938637EA0000000988
B1215155608731N00938463EA0000000984
B1215215608816N00938252EA0000000967
B1215265608870N00938053EA0000000962
B1215315608920N00937858EA0000000956
B1215365608967N00937663EA0000000953
B1215415609010N00937471EA0000000957
B1215465609054N00937293EA0000000978
B1215555609120N00936990EA0000000976
B1216005609148N00936812EA0000000967
B1216075609196N00936549EA0000000964
B1216125609245N00936373EA0000000984
B1216185609284N00936188EA0000001001
B1216235609211N00936118EA0000000990
B1216285609190N00936239EA0000001008
B1216335609257N00936319EA0000001015
B1216385609340N00936268EA0000001015
B1216435609348N00936107EA0000001015
B1216485609274N00936038EA0000001008
B1216555609195N00936183EA0000001021
B1217025609260N00936311EA0000001019
B1217085609367N00936233EA0000001025
B1217145609457N00936103EA0000001036
B1217195609514N00935977EA0000001028
B1217255609562N00935785EA0000001028
B1217315609585N00935599EA0000001043
B1217365609507N00935554EA0000001037
B1217415609480N00935690EA0000001036
B1217475609563N00935811EA0000001042
B1217525609649N00935813EA0000001049
B1217595609714N00935603EA0000001068
B1218065609688N00935410EA0000001057
B1218115609607N00935441EA0000001046
B1218175609595N00935627EA0000001054
B1218225609658N00935701EA0000001074
B1218275609735N00935595EA0000001075
B1218335609727N00935409EA0000001086
B1218385609646N00935419EA0000001076
B1218445609623N00935588EA0000001093
B1218505609697N00935689EA0000001100
B1218555609781N00935615EA0000001101
B1219015609849N00935433EA0000001114
B1219085609902N00935208EA0000001110
B1219135609942N00935026EA0000001099
B1219185609980N00934827EA0000001104
B1219235610014N00934643EA0000001144
B1219285610040N00934479EA0000001144
B1219365610088N00934165EA0000001106
B1219425610137N00933907EA0000001097
B1219505610217N00933568EA0000001092
B1219585610298N00933248EA0000001082
B1220065610397N00932951EA0000001066
B1220115610466N00932772EA0000001059
B1220185610563N00932518EA0000001048
B1220235610627N00932325EA0000001046
B1220285610681N00932124EA0000001048
B1220365610736N00931821EA0000001115
B1220415610724N00931666EA0000001110
B1220475610637N00931706EA0000001133
B1220565610734N00931856EA0000001165
B1221025610765N00931665EA0000001175
B1221075610686N00931595EA0000001182
B1221125610630N00931696EA0000001213
B1221185610699N00931819EA0000001224
B1221235610784N00931743EA0000001245
B1221295610776N00931544EA0000001242
B1221345610687N00931505EA0000001250
B1221445610687N00931729EA0000001301
B1221495610771N00931672EA0000001300
B1221545610804N00931506EA0000001311
B1221595610751N00931391EA0000001330
B1222045610688N00931445EA0000001341
B1222115610754N00931596EA0000001355
B1222175610848N00931502EA0000001368
B1222255610929N00931218EA0000001343
B1222305610982N00931012EA0000001343
B1222355611033N00930801EA0000001354
B1222415611086N00930582EA0000001405
B1222505611147N00930265EA0000001390
B1222575611233N00930004EA0000001366
B1223045611344N00929747EA0000001354
B1223115611468N00929507EA0000001350
B1223175611577N00929308EA0000001341
B1223225611665N00929147EA0000001335
B1223275611752N00928992EA0000001331
B1223325611843N00928838EA0000001335
B1223375611926N00928682EA0000001367
B1223435612012N00928520EA0000001382
B1223505612113N00928323EA0000001388
B1223575612218N00928128EA0000001406
B1224025612312N00928025EA0000001418
B1224095612470N00928007EA0000001413
B1224155612615N00928009EA0000001394
B1224205612735N00928059EA0000001377
B1224255612851N00928143EA0000001362
B1224305612967N00928236EA0000001348
B1224365613109N00928348EA0000001336
B1224415613227N00928442EA0000001330
B1224475613369N00928544EA0000001330
B1224525613485N00928621EA0000001327
B1224585613622N00928712EA0000001319
B1225055613777N00928816EA0000001312
B1225105613890N00928882EA0000001309
B1225155614007N00928926EA0000001326
B1225215614134N00928942EA0000001357
B1225275614252N00928947EA0000001339
B1225345614413N00928951EA0000001292
B1225395614541N00928969EA0000001278
B1225455614702N00929020EA0000001238
B1225505614847N00929077EA0000001210
B1225575615055N00929172EA0000001196
B1226025615201N00929244EA0000001192
B1226095615400N00929345EA0000001197
B1226145615544N00929415EA0000001194
B1226205615698N00929588EA0000001183
B1226265615835N00929788EA0000001201
B1226315615940N00929919EA0000001234
B1226375616061N00930003EA0000001266
B1226425616155N00930054EA0000001270
B1226475616246N00930102EA0000001289
B1226525616327N00930147EA0000001293
B1226575616402N00930238EA0000001270
B1227025616486N00930340EA0000001254
B1227075616592N00930402EA0000001243
B1227145616751N00930481EA0000001225
B1227195616871N00930537EA0000001207
B1227275617069N00930652EA0000001174
B1227325617200N00930707EA0000001164
B1227405617421N00930671EA0000001155
B1227455617555N00930614EA0000001152
B1227505617685N00930555EA0000001150
B1227555617811N00930491EA0000001144
B1228015617962N00930401EA0000001124
B1228075618119N00930321EA0000001105
B1228135618273N00930244EA0000001103
B1228195618426N00930168EA0000001096
B1228265618606N00930079EA0000001090
B1228325618759N00930003EA0000001093
B1228385618911N00929938EA0000001085
B1228445619068N00929881EA0000001069
B1228505619230N00929839EA0000001057
B1228555619362N00929787EA0000001051
B1229005619480N00929671EA0000001048
B1229055619590N00929541EA0000001045
B1229105619701N00929416EA0000001037
B1229165619836N00929269EA0000001027
B1229245620031N00929168EA0000001023
B1229305620178N00929158EA0000001013
B1229415620447N00929165EA0000000998
B1229465620566N00929174EA0000000991
B1229525620714N00929185EA0000000977
B1229595620889N00929192EA0000000966
B1230065621062N00929206EA0000000952
B1230115621184N00929218EA0000000978
B1230165621285N00929231EA0000001005
B1230235621422N00929250EA0000001004
B1230295621550N00929269EA0000000994
B1230365621709N00929292EA0000000975
B1230425621853N00929287EA0000000963
B1230475621972N00929276EA0000000956
B1230545622137N00929269EA0000000947
B1231005622273N00929273EA0000000939
B1231075622429N00929267EA0000000937
B1231135622562N00929241EA0000000921
B1231195622695N00929182EA0000000926
B1231245622798N00929143EA0000000960
B1231295622886N00929102EA0000000978
B1231355622970N00928986EA0000000985
B1231415623040N00928841EA0000001007
B1231475623111N00928692EA0000001011
B1231525623176N00928569EA0000001020
B1231585623248N00928418EA0000001035
B1232045623325N00928265EA0000001036
B1232105623405N00928103EA0000001044
B1232225623549N00927744EA0000001043
B1232295623638N00927538EA0000001038
B1232345623708N00927381EA0000001030
B1232395623778N00927221EA0000001051
B1232455623851N00927049EA0000001057
B1232505623906N00926892EA0000001049
B1232555623963N00926736EA0000001055
B1233025624039N00926528EA0000001070
B1233075624093N00926381EA0000001078
B1233145624166N00926183EA0000001099
B1233205624230N00926020EA0000001095
B1233265624286N00925850EA0000001097
B1233335624356N00925640EA0000001095
B1233395624419N00925449EA0000001099
B1233475624497N00925196EA0000001085
B1233525624553N00925025EA0000001070
B1233575624622N00924868EA0000001077
B1234025624702N00924745EA0000001097
B1234085624792N00924625EA0000001117
B1234155624887N00924485EA0000001133
B1234215624962N00924352EA0000001137
B1234265625026N00924244EA0000001149
B1234315625084N00924131EA0000001152
B1234375625156N00923977EA0000001144
B1234435625231N00923812EA0000001137
B1234495625308N00923640EA0000001136
B1234545625372N00923508EA0000001140
B1234595625455N00923423EA0000001126
B1235045625553N00923434EA0000001122
B1235105625659N00923510EA0000001122
B1235155625745N00923582EA0000001110
B1235215625856N00923674EA0000001097
B1235295626019N00923739EA0000001080
B1235365626170N00923790EA0000001063
B1235425626301N00923857EA0000001051
B1235525626521N00923981EA0000001040
B1235585626653N00924051EA0000001034
B1236065626827N00924148EA0000001024
B1236125626955N00924228EA0000001017
B1236205627123N00924351EA0000001007
B1236265627236N00924445EA0000001024
B1236315627324N00924519EA0000001013
B1236385627454N00924618EA0000000987
B1236455627590N00924729EA0000000973
B1236525627723N00924844EA0000000960
B1237015627892N00925006EA0000000948
B1237085628024N00925129EA0000000944
B1237135628116N00925212EA0000000936
B1237185628212N00925286EA0000000924
B1237235628309N00925354EA0000000921
B1237295628430N00925425EA0000000912
B1237375628593N00925533EA0000000898
B1237425628695N00925604EA0000000890
B1237485628815N00925696EA0000000886
B1237545628934N00925788EA0000000885
B1238015629071N00925896EA0000000877
B1238075629191N00925986EA0000000871
B1238135629312N00926073EA0000000862
B1238185629408N00926149EA0000000854
B1238255629545N00926262EA0000000836
B1238315629665N00926363EA0000000822
B1238385629804N00926483EA0000000813
B1238465629966N00926609EA0000000799
B1238515630070N00926677EA0000000788
B1238565630177N00926735EA0000000784
B1239025630301N00926803EA0000000774
B1239115630483N00926889EA0000000778
B1239165630580N00926936EA0000000781
B1239245630718N00927006EA0000000795
B1239305630818N00927053EA0000000796
B1239365630917N00927093EA0000000798
B1239455631062N00927155EA0000000798
B1239525631171N00927253EA0000000773
B1239575631233N00927383EA0000000754
B1240025631284N00927530EA0000000745
B1240085631344N00927707EA0000000731
B1240155631415N00927927EA0000000700
B1240215631480N00928133EA0000000693
B1240265631529N00928294EA0000000702
B1240345631610N00928532EA0000000700
B1240415631684N00928726EA0000000695
B1240465631739N00928869EA0000000686
B1240515631793N00929015EA0000000678
B1240575631853N00929196EA0000000668
B1241025631901N00929351EA0000000660
B1241075631947N00929506EA0000000665
B1241125631990N00929649EA0000000668
B1241175632032N00929794EA0000000665
B1241245632092N00929995EA0000000653
B1241295632137N00930136EA0000000648
B1241365632202N00930340EA0000000657
B1241505632133N00930572EA0000000652
B1241565632097N00930384EA0000000662
B1242015632160N00930284EA0000000657
B1242065632239N00930323EA0000000665
B1242125632313N00930456EA0000000680
B1242175632364N00930560EA0000000684
B1242255632451N00930764EA0000000656
B1242335632542N00930987EA0000000645
B1242395632611N00931158EA0000000621
B1242495632722N00931469EA0000000614
B1242555632785N00931651EA0000000606
B1243005632839N00931799EA0000000590
B1243065632906N00931990EA0000000571
B1243135632990N00932217EA0000000559
B1243185633056N00932366EA0000000564
B1243245633129N00932526EA0000000573
B1243315633211N00932696EA0000000592
B1243365633262N00932805EA0000000593
B1243455633352N00933006EA0000000590
B1243525633425N00933169EA0000000593
B1243575633489N00933257EA0000000602
B1244025633535N00933135EA0000000602
B1244085633448N00933084EA0000000613
B1244145633408N00933231EA0000000618
B1244195633432N00933363EA0000000618
B1244245633517N00933361EA0000000615
B1244315633570N00933167EA0000000632
B1244365633497N00933115EA0000000638
B1244415633478N00933257EA0000000641
B1244465633559N00933293EA0000000646
B1244535633589N00933103EA0000000657
B1244585633508N00933089EA0000000673
B1245035633507N00933245EA0000000678
B1245095633597N00933254EA0000000690
B1245145633597N00933095EA0000000694
B1245195633518N00933042EA0000000717
B1245245633492N00933184EA0000000718
B1245305633580N00933237EA0000000736
B1245355633590N00933085EA0000000741
B1245415633498N00933083EA0000000761
B1245485633542N00933259EA0000000769
B1245535633576N00933119EA0000000775
B1245585633498N00933053EA0000000800
B1246035633476N00933201EA0000000805
B1246095633563N00933227EA0000000825
B1246165633524N00933033EA0000000831
B1246215633442N00933101EA0000000854
B1246295633527N00933201EA0000000873
B1246345633518N00933047EA0000000874
B1246395633427N00933017EA0000000895
B1246445633402N00933153EA0000000907
B1246495633475N00933210EA0000000913
B1246565633510N00933019EA0000000919
B1247015633443N00932890EA0000000941
B1247065633369N00932918EA0000000962
B1247115633385N00933040EA0000000949
B1247165633467N00933022EA0000000951
B1247225633519N00932851EA0000000973
B1247275633457N00932743EA0000000987
B1247335633403N00932876EA0000000997
B1247395633496N00932916EA0000001014
B1247445633538N00932766EA0000001024
B1247495633484N00932651EA0000001034
B1247545633414N00932741EA0000001045
B1247595633452N00932886EA0000001053
B1248045633536N00932912EA0000001075
B1248095633583N00932792EA0000001084
B1248145633529N00932666EA0000001092
B1248195633455N00932720EA0000001112
B1248245633469N00932864EA0000001115
B1248305633565N00932870EA0000001135
B1248355633594N00932727EA0000001135
B1248405633531N00932618EA0000001145
B1248455633454N00932677EA0000001159
B1248505633463N00932815EA0000001175
B1248565633545N00932898EA0000001180
B1249025633634N00932838EA0000001184
B1249085633719N00932731EA0000001184
B1249175633849N00932554EA0000001198
B1249225633916N00932441EA0000001199
B1249295634007N00932269EA0000001209
B1249345634071N00932150EA0000001210
B1249405634154N00932020EA0000001214
B1249455634233N00931938EA0000001196
B1249505634323N00931858EA0000001183
B1249555634415N00931784EA0000001176
B1250005634511N00931701EA0000001161
B1250055634611N00931615EA0000001152
B1250115634731N00931512EA0000001148
B1250175634849N00931414EA0000001145
B1250225634945N00931329EA0000001141
B1250285635051N00931228EA0000001142
B1250335635140N00931153EA0000001126
B1250395635258N00931057EA0000001107
B1250445635363N00930975EA0000001099
B1250505635488N00930879EA0000001101
B1250565635610N00930782EA0000001094
B1251025635730N00930689EA0000001085
B1251095635871N00930573EA0000001074
B1251145635972N00930487EA0000001080
B1251205636086N00930383EA0000001077
B1251265636204N00930276EA0000001067
B1251335636346N00930157EA0000001058
B1251385636450N00930080EA0000001050
B1251445636573N00929986EA0000001026
B1251525636743N00929826EA0000001001
B1251585636875N00929720EA0000001013
B1252045636999N00929622EA0000001016
B1252105637107N00929526EA0000001037
B1252165637204N00929438EA0000001044
B1252225637304N00929385EA0000001048
B1252285637411N00929346EA0000001046
B1252335637492N00929303EA0000001059
B1252405637594N00929212EA0000001056
B1252485637710N00929094EA0000001039
B1252545637795N00928988EA0000001036
B1253025637898N00928824EA0000001029
B1253075637959N00928714EA0000001025
B1253125638031N00928630EA0000001022
B1253175638113N00928685EA0000001009
B1253225638132N00928854EA0000001013
B1253305638050N00929088EA0000001015
B1253365637966N00929229EA0000001017
B1253445637846N00929376EA0000000995
B1253495637755N00929435EA0000000980
B1253545637663N00929492EA0000000977
B1253595637578N00929551EA0000000981
B1254055637498N00929665EA0000000982
B1254105637440N00929774EA0000000971
B1254165637369N00929928EA0000000967
B1254235637282N00930098EA0000000982
B1254295637214N00930212EA0000001009
B1254345637193N00930334EA0000000999
B1254405637143N00930483EA0000000971
B1254465637021N00930541EA0000000951
B1254535636863N00930556EA0000000939
B1254585636747N00930566EA0000000929
B1255075636543N00930577EA0000000919
B1255125636430N00930586EA0000000907
B1255175636314N00930584EA0000000895
B1255255636121N00930590EA0000000873
B1255325635950N00930591EA0000000873
B1255395635789N00930595EA0000000874
B1255475635610N00930613EA0000000865
B1255525635499N00930622EA0000000863
B1255575635387N00930623EA0000000843
B1256085635125N00930609EA0000000819
B1256145634989N00930612EA0000000800
B1256225634798N00930632EA0000000778
B1256295634633N00930639EA0000000778
B1256355634501N00930583EA0000000778
B1256405634392N00930542EA0000000771
B1256455634285N00930503EA0000000759
B1256525634129N00930458EA0000000746
B1256585633995N00930418EA0000000755
B1257035633893N00930413EA0000000761
B1257135633720N00930547EA0000000757
B1257185633643N00930642EA0000000753
B1257285633497N00930841EA0000000739
B1257335633421N00930947EA0000000729
B1257405633316N00931106EA0000000735
B1257455633247N00931213EA0000000750
B1257505633187N00931314EA0000000768
B1258015633265N00931431EA0000000769
B1258075633278N00931239EA0000000778
B1258125633206N00931148EA0000000786
B1258175633137N00931203EA0000000793
B1258325633209N00931088EA0000000813
B1258375633129N00931148EA0000000821
B1258425633131N00931295EA0000000841
B1258485633220N00931250EA0000000843
B1258535633206N00931084EA0000000849
B1258585633117N00931054EA0000000860
B1259045633079N00931186EA0000000870
B1259095633158N00931235EA0000000876
B1259155633226N00931090EA0000000886
B1259205633186N00930952EA0000000890
B1259255633111N00931008EA0000000906
B1259325633168N00931154EA0000000913
B1259385633238N00931013EA0000000924
B1259435633193N00930875EA0000000933
B1259485633107N00930877EA0000000939
B1259535633079N00931014EA0000000956
B1259585633151N00931071EA0000000968
B1300035633210N00930945EA0000000967
B1300085633175N00930789EA0000000984
B1300135633088N00930793EA0000000989
B1300185633064N00930930EA0000001013
B1300235633140N00930978EA0000001016
B1300285633195N00930845EA0000001028
B1300335633161N00930690EA0000001041
B1300385633078N00930664EA0000001053
B1300435633036N00930788EA0000001069
B1300505633128N00930884EA0000001083
B1300565633190N00930713EA0000001092
B1301015633140N00930566EA0000001108
B1301065633062N00930595EA0000001128
B1301125633105N00930721EA0000001141
B1301175633176N00930640EA0000001148
B1301225633151N00930479EA0000001154
B1301285633047N00930466EA0000001180
B1301335633033N00930597EA0000001196
B1301385633109N00930638EA0000001211
B1301435633155N00930507EA0000001223
B1301485633114N00930366EA0000001235
B1301545633020N00930411EA0000001251
B1302015633058N00930574EA0000001284
B1302065633132N00930503EA0000001292
B1302115633123N00930341EA0000001300
B1302165633040N00930304EA0000001315
B1302215633005N00930436EA0000001335
B1302265633066N00930526EA0000001357
B1302325633162N00930429EA0000001368
B1302375633169N00930260EA0000001385
B1302435633085N00930108EA0000001397
B1302485632990N00930026EA0000001410
B1302535632891N00929936EA0000001420
B1303005632747N00929806EA0000001422
B1303065632610N00929698EA0000001418
B1303115632493N00929600EA0000001412
B1303175632358N00929459EA0000001419
B1303225632243N00929354EA0000001415
B1303295632079N00929200EA0000001407
B1303355631938N00929065EA0000001407
B1303405631822N00928954EA0000001405
B1303455631708N00928840EA0000001406
B1303505631596N00928732EA0000001409
B1303565631463N00928618EA0000001402
B1304015631352N00928525EA0000001395
B1304085631194N00928390EA0000001378
B1304145631054N00928270EA0000001359
B1304195630935N00928169EA0000001351
B1304255630791N00928051EA0000001343
B1304315630649N00927943EA0000001341
B1304375630507N00927833EA0000001337
B1304425630391N00927742EA0000001335
B1304475630276N00927657EA0000001336
B1304525630166N00927563EA0000001335
B1304585630038N00927433EA0000001331
B1305055629895N00927262EA0000001325
B1305105629795N00927131EA0000001312
B1305155629691N00926996EA0000001302
B1305225629546N00926815EA0000001302
B1305275629446N00926691EA0000001301
B1305325629354N00926551EA0000001296
B1305375629263N00926408EA0000001293
B1305425629177N00926259EA0000001290
B1305485629060N00926098EA0000001283
B1305535628963N00925972EA0000001315
B1305595628870N00925836EA0000001356
B1306045628792N00925774EA0000001370
B1306095628758N00925892EA0000001376
B1306145628824N00925987EA0000001367
B1306195628915N00925896EA0000001356
B1306245628898N00925692EA0000001340
B1306295628808N00925534EA0000001355
B1306345628729N00925404EA0000001384
B1306395628653N00925290EA0000001369
B1306445628562N00925168EA0000001346
B1306495628452N00925057EA0000001338
B1306555628311N00924945EA0000001333
B1307005628189N00924877EA0000001332
B1307055628068N00924829EA0000001350
B1307105627959N00924781EA0000001359
B1307155627852N00924735EA0000001357
B1307225627696N00924681EA0000001351
B1307275627581N00924651EA0000001351
B1307335627440N00924645EA0000001346
B1307385627322N00924643EA0000001339
B1307435627201N00924637EA0000001335
B1307495627054N00924641EA0000001328
B1307555626910N00924663EA0000001326
B1308015626767N00924685EA0000001313
B1308075626618N00924712EA0000001297
B1308125626492N00924731EA0000001294
B1308175626369N00924746EA0000001292
B1308225626243N00924752EA0000001290
B1308275626123N00924739EA0000001295
B1308325626006N00924719EA0000001292
B1308375625892N00924701EA0000001295
B1308435625757N00924645EA0000001284
B1308495625619N00924561EA0000001284
B1308545625508N00924493EA0000001303
B1309045625315N00924345EA0000001315
B1309105625202N00924253EA0000001305
B1309175625054N00924126EA0000001277
B1309225624946N00924005EA0000001268
B1309285624814N00923871EA0000001257
B1309335624698N00923789EA0000001248
B1309405624523N00923687EA0000001217
B1309465624370N00923601EA0000001220
B1309525624222N00923526EA0000001221
B1309575624102N00923468EA0000001225
B1310045623928N00923398EA0000001203
B1310095623796N00923360EA0000001194
B1310145623665N00923321EA0000001194
B1310195623541N00923237EA0000001182
B1310245623429N00923094EA0000001176
B1310295623331N00922923EA0000001169
B1310345623240N00922746EA0000001166
B1310435623084N00922436EA0000001148
B1310485623001N00922259EA0000001146
B1310555622891N00922037EA0000001187
B1311015622814N00921885EA0000001201
B1311075622740N00921738EA0000001229
B1311125622754N00921577EA0000001220
B1311175622846N00921599EA0000001240
B1311225622862N00921738EA0000001251
B1311275622794N00921813EA0000001263
B1311335622699N00921683EA0000001276
B1311385622715N00921510EA0000001290
B1311435622810N00921536EA0000001306
B1311485622820N00921692EA0000001323
B1311565622702N00921780EA0000001345
B1312015622668N00921610EA0000001358
B1312075622769N00921521EA0000001388
B1312125622814N00921653EA0000001405
B1312185622746N00921776EA0000001426
B1312235622654N00921728EA0000001427
B1312285622567N00921589EA0000001414
B1312335622487N00921405EA0000001393
B1312385622401N00921212EA0000001371
B1312445622287N00920984EA0000001362
B1312495622191N00920795EA0000001366
B1312545622099N00920597EA0000001357
B1313015621972N00920312EA0000001348
B1313085621849N00920038EA0000001341
B1313135621761N00919844EA0000001343
B1313185621678N00919654EA0000001346
B1313235621597N00919462EA0000001342
B1313295621504N00919222EA0000001329
B1313385621361N00918874EA0000001306
B1313435621274N00918694EA0000001304
B1313505621143N00918456EA0000001300
B1313555621038N00918306EA0000001295
B1314025620897N00918092EA0000001296
B1314085620778N00917903EA0000001286
B1314145620665N00917708EA0000001275
B1314195620568N00917548EA0000001270
B1314245620469N00917392EA0000001260
B1314305620346N00917209EA0000001245
B1314365620221N00917033EA0000001239
B1314445620057N00916799EA0000001227
B1314495619953N00916652EA0000001220
B1314555619827N00916476EA0000001214
B1315015619703N00916290EA0000001206
B1315085619561N00916081EA0000001206
B1315135619462N00915937EA0000001204
B1315185619366N00915789EA0000001196
B1315245619248N00915610EA0000001186
B1315335619069N00915337EA0000001175
B1315385618971N00915184EA0000001173
B1315435618875N00915032EA0000001165
B1315485618778N00914881EA0000001158
B1315535618681N00914732EA0000001146
B1316015618521N00914497EA0000001125
B1316075618399N00914321EA0000001114
B1316135618281N00914144EA0000001106
B1316185618185N00913990EA0000001095
B1316235618086N00913836EA0000001082
B1316315617922N00913587EA0000001065
B1316365617817N00913440EA0000001065
B1316415617712N00913304EA0000001066
B1316465617615N00913172EA0000001083
B1316515617527N00913045EA0000001088
B1316575617424N00912900EA0000001090
B1317025617340N00912786EA0000001082
B1317075617247N00912698EA0000001081
B1317135617128N00912672EA0000001099
B1317185617060N00912741EA0000001118
B1317245617133N00912851EA0000001125
B1317295617195N00912719EA0000001146
B1317355617135N00912554EA0000001152
B1317405617060N00912596EA0000001172
B1317465617093N00912747EA0000001183
B1317515617178N00912725EA0000001199
B1317565617209N00912565EA0000001208
B1318015617147N00912443EA0000001217
B1318065617071N00912464EA0000001231
B1318125617094N00912616EA0000001233
B1318185617198N00912576EA0000001254
B1318245617196N00912375EA0000001264
B1318315617096N00912360EA0000001280
B1318375617086N00912525EA0000001292
B1318445617124N00912686EA0000001308
B1318495617207N00912621EA0000001316
B1318545617220N00912456EA0000001325
B1318595617163N00912309EA0000001323
B1319055617052N00912202EA0000001331
B1319105616952N00912157EA0000001321
B1319155616846N00912104EA0000001291
B1319215616719N00911953EA0000001262
B1319305616546N00911659EA0000001256
B1319365616439N00911468EA0000001258
B1319425616337N00911290EA0000001259
B1319505616198N00911054EA0000001237
B1319555616103N00910904EA0000001217
B1320035615946N00910652EA0000001197
B1320095615835N00910447EA0000001176
B1320155615722N00910247EA0000001170
B1320215615612N00910048EA0000001170
B1320285615492N00909809EA0000001164
B1320365615365N00909531EA0000001156
B1320425615271N00909318EA0000001139
B1320475615196N00909131EA0000001136
B1320525615117N00908951EA0000001139
B1320575615040N00908796EA0000001173
B1321035614955N00908660EA0000001209
B1321105614850N00908541EA0000001185
B1321175614711N00908415EA0000001159
B1321235614579N00908331EA0000001150
B1321285614467N00908288EA0000001145
B1321355614306N00908234EA0000001123
B1321415614163N00908187EA0000001106
B1321485613994N00908138EA0000001087
B1321545613841N00908099EA0000001058
B1322015613657N00908046EA0000001044
B1322065613528N00908027EA0000001040
B1322115613402N00908011EA0000001032
B1322165613279N00908001EA0000001027
B1322215613158N00907993EA0000001022
B1322265613039N00907992EA0000001014
B1322315612923N00908009EA0000001008
B1322375612788N00908024EA0000001001
B1322425612680N00908041EA0000000989
B1322485612547N00908060EA0000000972
B1322565612366N00908071EA0000000950
B1323015612252N00908066EA0000000936
B1323075612112N00908017EA0000000929
B1323125611997N00907960EA0000000925
B1323175611886N00907900EA0000000946
B1323225611790N00907847EA0000000975
B1323275611710N00907798EA0000000984
B1323325611627N00907756EA0000000953
B1323405611463N00907677EA0000000911
B1323465611329N00907611EA0000000914
B1323515611218N00907557EA0000000919
B1323585611063N00907482EA0000000919
B1324035610950N00907431EA0000000934
B1324085610855N00907369EA0000000961
B1324135610775N00907317EA0000000982
B1324185610702N00907267EA0000000971
B1324235610614N00907213EA0000000936
B1324305610469N00907108EA0000000906
B1324365610341N00906999EA0000000890
B1324415610234N00906908EA0000000887
B1324485610086N00906794EA0000000871
B1324555609934N00906686EA0000000854
B1325005609825N00906594EA0000000845
B1325055609719N00906506EA0000000840
B1325105609619N00906403EA0000000837
B1325155609518N00906299EA0000000828
B1325215609395N00906185EA0000000818
B1325265609288N00906100EA0000000805
B1325325609161N00905993EA0000000792
B1325375609054N00905915EA0000000769
B1325425608942N00905850EA0000000747
B1325485608804N00905785EA0000000742
B1325545608682N00905729EA0000000771
B1325595608591N00905690EA0000000772
B1326045608496N00905634EA0000000776
B1326095608408N00905563EA0000000797
B1326155608315N00905491EA0000000803
B1326215608219N00905418EA0000000779
B1326275608109N00905336EA0000000782
B1326325608019N00905269EA0000000796
B1326395607901N00905168EA0000000822
B1326455607798N00905093EA0000000834
B1326535607655N00904988EA0000000835
B1326585607562N00904917EA0000000837
B1327085607366N00904773EA0000000829
B1327135607268N00904709EA0000000828
B1327195607151N00904633EA0000000834
B1327245607059N00904572EA0000000837
B1327295606967N00904512EA0000000830
B1327405606754N00904387EA0000000815
B1327465606633N00904327EA0000000811
B1327545606473N00904252EA0000000800
B1327595606376N00904197EA0000000795
B1328085606197N00904091EA0000000787
B1328155606055N00904008EA0000000776
B1328235605889N00903913EA0000000761
B1328285605782N00903853EA0000000741
B1328355605618N00903756EA0000000713
B1328405605501N00903681EA0000000701
B1328495605300N00903533EA0000000706
B1328545605197N00903445EA0000000695
B1329005605071N00903336EA0000000680
B1329075604923N00903202EA0000000663
B1329125604816N00903107EA0000000664
B1329175604719N00903015EA0000000700
B1329235604629N00902912EA0000000726
B1329285604559N00902832EA0000000736
B1329365604428N00902703EA0000000699
B1329415604330N00902616EA0000000679
B1329465604226N00902527EA0000000666
B1329535604078N00902404EA0000000656
B1329595603949N00902293EA0000000642
B1330045603840N00902196EA0000000634
B1330115603689N00902068EA0000000632
B1330185603542N00901939EA0000000623
B1330235603434N00901849EA0000000615
B1330285603326N00901753EA0000000607
B1330345603209N00901611EA0000000612
B1330395603127N00901457EA0000000600
B1330455603025N00901273EA0000000591
B1330525602889N00901108EA0000000582
B1330585602763N00900993EA0000000563
B1331045602635N00900873EA0000000555
B1331115602491N00900724EA0000000555
B1331185602350N00900569EA0000000563
B1331245602237N00900420EA0000000543
B1331295602139N00900299EA0000000529
B1331405601915N00900052EA0000000510
B1331465601799N00859901EA0000000510
B1331515601709N00859766EA0000000505
B1331595601561N00859551EA0000000488
B1332045601463N00859417EA0000000476
B1332095601365N00859278EA0000000468
B1332145601269N00859141EA0000000468
B1332205601161N00858966EA0000000462
B1332255601086N00858790EA0000000450
B1332305601011N00858613EA0000000445
B1332355600938N00858440EA0000000438
B1332415600861N00858217EA0000000428
B1332475600784N00857991EA0000000424
B1332525600721N00857810EA0000000441
B1332575600661N00857663EA0000000449
B1333025600581N00857567EA0000000438
B1333075600488N00857553EA0000000434
B1333145600368N00857628EA0000000449
B1333195600290N00857699EA0000000456
B1333255600214N00857834EA0000000455
B1333305600155N00857955EA0000000465
B1333375600079N00858105EA0000000494
B1333435600023N00858227EA0000000499
B1333485559985N00858351EA0000000504
B1333545559947N00858487EA0000000520
B1334015559905N00858641EA0000000532
B1334085559857N00858802EA0000000535
B1334145559818N00858942EA0000000545
B1334205559779N00859081EA0000000542
B1334285559730N00859275EA0000000537
B1334365559684N00859471EA0000000541
B1334465559632N00859735EA0000000540
B1334525559597N00859885EA0000000539
B1334575559561N00900004EA0000000546
B1335035559520N00900138EA0000000540
B1335085559493N00900246EA0000000524
B1335145559464N00900380EA0000000506
B1335205559436N00900516EA0000000492
B1335265559408N00900650EA0000000489
B1335335559381N00900803EA0000000479
B1335415559347N00900990EA0000000456
B1335465559318N00901110EA0000000443
B1335525559289N00901259EA0000000433
B1335575559322N00901391EA0000000420
B1336025559408N00901453EA0000000420
B1336075559505N00901432EA0000000415
B1336125559589N00901315EA0000000407
B1336175559616N00901125EA0000000397
B1336225559563N00900959EA0000000384
B1336275559469N00900930EA0000000380
B1336325559408N00901030EA0000000371
B1336375559415N00901176EA0000000371
B1336425559478N00901267EA0000000370
B1336495559605N00901239EA0000000364
B1336545559679N00901124EA0000000361
B1337005559684N00900917EA0000000358
B1337055559643N00900758EA0000000354
B1337105559586N00900642EA0000000352
B1337165559513N00900707EA0000000319
B1337215559551N00900842EA0000000308
B1337275559645N00900932EA0000000314
B1337325559714N00900998EA0000000316
B1337395559768N00901136EA0000000307
B1337445559807N00901227EA0000000299
B1337495559892N00901199EA0000000279
B1337555559944N00900996EA0000000269
B1338005559957N00900797EA0000000250
B1338075559967N00900513EA0000000251
B1338135559965N00900282EA0000000249
B1338185559993N00900098EA0000000241
B1338235600050N00859951EA0000000227
B1338285600113N00859811EA0000000213
B1338345600191N00859641EA0000000204
B1338395600258N00859504EA0000000196
B1338445600347N00859432EA0000000195
B1338495600436N00859392EA0000000187
B1338545600513N00859462EA0000000171
B1339015600545N00859650EA0000000155
B1339075600553N00859809EA0000000138
B1339165600566N00900046EA0000000110
B1339245600577N00900275EA0000000083
B1339315600583N00900477EA0000000049
B1339385600587N00900686EA0000000037
B1339465600593N00900877EA0000000037
B1339565600595N00901043EA0000000038
