AOGNOGN
HFDTE190725
HFFXA050
HFPLTPILOTINCHARGE:
HFGTYGLIDERTYPE:
HFGIDGLIDERID:
HFDTM100GPSDATUM:WGS-1984
HFRFWFIRMWAREVERSION:
HFRHWHARDWAREVERSION:
HFFTYFRTYPE:OGN-FLIGHTBOOK
HFGPSGENERIC
HFPRSPRESSALTSENSOR:
HFCIDCOMPETITIONID:
B1103455600660N00900459EA0000000050
B1103505600669N00900582EA0000000133
B1103565600679N00900722EA0000000238
B1104025600692N00900868EA0000000335
B1104075600703N00900999EA0000000403
B1104125600717N00901141EA0000000449
B1104175600728N00901278EA0000000474
B1104225600726N00901397EA0000000478
B1104285600683N00901505EA0000000469
B1104355600591N00901518EA0000000458
B1104415600506N00901475EA0000000450
B1104485600409N00901406EA0000000454
B1104535600342N00901363EA0000000446
B1104595600259N00901337EA0000000433
B1105075600142N00901318EA0000000419
B1105125600070N00901301EA0000000411
B1105175600010N00901376EA0000000410
B1105225559984N00901494EA0000000416
B1105275600000N00901613EA0000000410
B1105325600059N00901669EA0000000402
B1105375600120N00901628EA0000000391
B1105435600139N00901493EA0000000384
B1105485600108N00901385EA0000000375
B1105535600046N00901330EA0000000366
B1105585559979N00901291EA0000000365
B1106045559902N00901248EA0000000371
B1106095559842N00901300EA0000000376
B1106145559829N00901413EA0000000384
B1106195559885N00901480EA0000000391
B1106245559946N00901425EA0000000398
B1106305559942N00901294EA0000000402
B1106355559883N00901237EA0000000396
B1106405559811N00901227EA0000000404
B1106455559752N00901268EA0000000397
B1106505559757N00901383EA0000000393
B1106555559812N00901464EA0000000397
B1107005559885N00901490EA0000000400
B1107055559945N00901427EA0000000406
B1107105559934N00901315EA0000000408
B1107155559871N00901277EA0000000409
B1107205559812N00901341EA0000000415
B1107255559807N00901453EA0000000425
B1107305559862N00901524EA0000000426
B1107355559933N00901503EA0000000432
B1107405559967N00901402EA0000000427
B1107475559907N00901281EA0000000421
B1107535559824N00901245EA0000000427
B1107585559760N00901248EA0000000429
B1108035559730N00901341EA0000000421
B1108095559776N00901457EA0000000420
B1108145559832N00901524EA0000000427
B1108215559924N00901495EA0000000433
B1108265559931N00901388EA0000000427
B1108315559872N00901339EA0000000427
B1108365559817N00901407EA0000000435
B1108415559820N00901519EA0000000442
B1108465559886N00901559EA0000000440
B1108515559936N00901479EA0000000444
B1108565559920N00901373EA0000000438
B1109015559857N00901354EA0000000436
B1109065559821N00901451EA0000000445
B1109115559845N00901562EA0000000449
B1109165559911N00901602EA0000000446
B1109215559967N00901540EA0000000445
B1109265559962N00901430EA0000000435
B1109335559882N00901344EA0000000426
B1109405559782N00901327EA0000000425
B1109455559723N00901375EA0000000424
B1109505559729N00901484EA0000000419
B1109555559789N00901544EA0000000409
B1110025559893N00901540EA0000000414
B1110085559980N00901516EA0000000409
B1110155600076N00901474EA0000000402
B1110215600156N00901524EA0000000388
B1110315600297N00901583EA0000000384
B1110365600367N00901559EA0000000381
B1110415600419N00901476EA0000000374
B1110465600417N00901344EA0000000368
B1110525600352N00901238EA0000000365
B1110575600282N00901229EA0000000357
B1111025600231N00901309EA0000000346
B1111095600203N00901468EA0000000338
B1111145600221N00901579EA0000000332
B1111195600278N00901638EA0000000328
B1111245600345N00901614EA0000000327
B1111295600386N00901515EA0000000325
B1111345600388N00901384EA0000000322
B1111405600332N00901259EA0000000317
B1111455600266N00901278EA0000000307
B1111515600243N00901414EA0000000299
B1111565600286N00901503EA0000000291
B1112045600384N00901431EA0000000289
B1112095600417N00901323EA0000000288
B1112145600395N00901208EA0000000284
B1112195600334N00901152EA0000000278
B1112245600272N00901202EA0000000269
B1112295600260N00901319EA0000000260
B1112345600319N00901366EA0000000254
B1112405600356N00901244EA0000000238
B1112465600358N00901076EA0000000226
B1112535600343N00900870EA0000000211
B1113005600320N00900668EA0000000204
B1113085600283N00900437EA0000000190
B1113135600286N00900291EA0000000184
B1113185600309N00900153EA0000000173
B1113245600345N00859996EA0000000167
B1113305600405N00859877EA0000000157
B1113355600473N00859825EA0000000151
B1113405600540N00859865EA0000000137
B1113465600566N00900015EA0000000111
B1113515600571N00900144EA0000000087
B1113565600574N00900275EA0000000068
B1114015600579N00900407EA0000000050
B1114065600584N00900536EA0000000039
