AOGNOGN
HFDTE170825
HFFXA050
HFPLTPILOTINCHARGE:
HFGTYGLIDERTYPE:DG-808 B
HFGIDGLIDERID:D-KKDH
HFDTM100GPSDATUM:WGS-1984
HFRFWFIRMWAREVERSION:
HFRHWHARDWAREVERSION:
HFFTYFRTYPE:OGN-FLIGHTBOOK
HFGPSGENERIC
HFPRSPRESSALTSENSOR:
HFCIDCOMPETITIONID:DH
B0820115527160N01138355EA0000000034
B0820145527162N01138408EA0000000033
B0820215527162N01138571EA0000000045
B0820295527155N01138763EA0000000079
B0820355527146N01138901EA0000000107
B0820405527129N01139008EA0000000134
B0820515527081N01139244EA0000000172
B0821005527041N01139443EA0000000205
B0821125527002N01139726EA0000000241
B0821175526983N01139845EA0000000266
B0821225526965N01139965EA0000000289
B0821295526943N01140136EA0000000312
B0821355526915N01140289EA0000000336
B0821435526853N01140479EA0000000364
B0821515526778N01140657EA0000000399
B0821565526730N01140769EA0000000416
B0822035526661N01140924EA0000000433
B0822115526586N01141105EA0000000461
B0822165526540N01141216EA0000000482
B0822215526490N01141316EA0000000509
B0822275526430N01141433EA0000000530
B0822325526378N01141538EA0000000544
B0822425526280N01141749EA0000000574
B0822495526216N01141898EA0000000615
B0822545526164N01142001EA0000000629
B0823005526096N01142128EA0000000649
B0823065526033N01142257EA0000000671
B0823115525982N01142364EA0000000689
B0823185525911N01142518EA0000000708
B0823235525860N01142638EA0000000718
B0823345525750N01142912EA0000000756
B0823405525691N01143068EA0000000778
B0823455525641N01143196EA0000000797
B0823525525560N01143371EA0000000821
B0823585525486N01143522EA0000000834
B0824035525427N01143644EA0000000841
B0824105525348N01143803EA0000000840
B0824165525281N01143933EA0000000839
B0824215525227N01144042EA0000000835
B0824275525166N01144178EA0000000830
B0824345525102N01144337EA0000000826
B0824405525042N01144466EA0000000818
B0824485524957N01144634EA0000000803
B0824535524902N01144740EA0000000794
B0825025524802N01144929EA0000000785
B0825105524715N01145091EA0000000788
B0825185524644N01145276EA0000000797
B0825295524541N01145552EA0000000842
B0825405524437N01145825EA0000000886
B0825465524381N01145983EA0000000899
B0825535524315N01146176EA0000000924
B0826025524228N01146412EA0000000964
B0826085524177N01146574EA0000000980
B0826135524134N01146713EA0000000994
B0826185524091N01146852EA0000001006
B0826265524027N01147076EA0000001028
B0826315523987N01147216EA0000001048
B0826395523922N01147426EA0000001073
B0826485523844N01147670EA0000001102
B0826535523803N01147813EA0000001119
B0826585523760N01147960EA0000001138
B0827055523694N01148163EA0000001167
B0827115523630N01148334EA0000001189
B0827235523508N01148682EA0000001228
B0827285523459N01148824EA0000001231
B0827345523403N01148986EA0000001223
B0827425523327N01149198EA0000001202
B0827555523187N01149580EA0000001166
B0828035523080N01149823EA0000001149
B0828095522995N01150009EA0000001137
B0828155522898N01150186EA0000001126
B0828225522781N01150396EA0000001111
B0828295522661N01150623EA0000001096
B0828365522541N01150866EA0000001085
B0828425522438N01151075EA0000001081
B0828485522331N01151281EA0000001076
B0828555522205N01151521EA0000001070
B0829055522014N01151854EA0000001061
B0829105521917N01152019EA0000001057
B0829155521819N01152186EA0000001045
B0829235521653N01152455EA0000001028
B0829315521488N01152734EA0000001011
B0829375521363N01152957EA0000000995
B0829425521261N01153150EA0000000986
B0829495521118N01153413EA0000000971
B0829555520991N01153629EA0000000958
B0830055520768N01153979EA0000000934
B0830115520634N01154187EA0000000929
B0830185520475N01154423EA0000000924
B0830245520342N01154620EA0000000922
B0830315520190N01154844EA0000000914
B0830375520060N01155030EA0000000904
B0830525519737N01155503EA0000000874
B0831015519546N01155783EA0000000864
B0831085519405N01156002EA0000000865
B0831145519291N01156190EA0000000865
B0831215519164N01156412EA0000000857
B0831285519042N01156645EA0000000842
B0831355518919N01156884EA0000000828
B0831415518807N01157086EA0000000814
B0831495518650N01157354EA0000000799
B0831545518553N01157522EA0000000794
B0831595518457N01157693EA0000000784
B0832055518344N01157897EA0000000775
B0832125518209N01158128EA0000000762
B0832215518028N01158416EA0000000745
B0832285517886N01158641EA0000000733
B0832355517741N01158874EA0000000710
B0832435517571N01159152EA0000000682
B0832495517442N01159362EA0000000670
B0832565517288N01159598EA0000000663
B0833015517177N01159764EA0000000666
B0833075517041N01159953EA0000000656
B0833135516903N01200140EA0000000639
B0833185516784N01200294EA0000000624
B0833255516609N01200519EA0000000574
B0833345516362N01200827EA0000000515
B0833405516187N01201012EA0000000498
B0833465516005N01201180EA0000000472
B0833525515813N01201341EA0000000426
B0833575515643N01201460EA0000000384
B0834025515468N01201569EA0000000358
B0834085515255N01201682EA0000000343
B0834145515045N01201774EA0000000338
B0834205514842N01201859EA0000000334
B0834255514679N01201933EA0000000329
B0834325514461N01202082EA0000000315
B0834425514193N01202410EA0000000288
