AOGNOGN
HFDTE240825
HFFXA050
HFPLTPILOTINCHARGE:
HFGTYGLIDERTYPE:ASK-21
HFGIDGLIDERID:OY-XKO
HFDTM100GPSDATUM:WGS-1984
HFRFWFIRMWAREVERSION:
HFRHWHARDWAREVERSION:
HFFTYFRTYPE:OGN-FLIGHTBOOK
HFGPSGENERIC
HFPRSPRESSALTSENSOR:
HFCIDCOMPETITIONID:R2
B1522185515086N01204133EA0000000081
B1522215515087N01204081EA0000000139
B1522265515082N01203996EA0000000222
B1522335515078N01203867EA0000000317
B1522385515087N01203771EA0000000372
B1522435515102N01203668EA0000000420
B1522485515116N01203574EA0000000452
B1522545515123N01203481EA0000000451
B1523005515118N01203378EA0000000451
B1523055515104N01203284EA0000000448
B1523105515090N01203182EA0000000447
B1523175515072N01203037EA0000000441
B1523265515054N01202854EA0000000436
B1523315515031N01202762EA0000000438
B1523365514957N01202761EA0000000431
B1523425514863N01202873EA0000000417
B1523485514765N01202997EA0000000409
B1523535514682N01203077EA0000000408
B1523585514618N01203025EA0000000402
B1524035514629N01202922EA0000000395
B1524085514691N01202872EA0000000383
B1524135514766N01202921EA0000000383
B1524205514858N01202975EA0000000379
B1524255514896N01202892EA0000000362
B1524305514878N01202782EA0000000355
B1524355514812N01202723EA0000000349
B1524415514710N01202770EA0000000339
B1524465514684N01202935EA0000000324
B1524515514751N01203023EA0000000309
B1524585514845N01202956EA0000000291
B1525045514906N01202860EA0000000291
B1525105514923N01202738EA0000000289
B1525155514886N01202648EA0000000287
B1525205514815N01202609EA0000000282
B1525255514731N01202616EA0000000277
B1525315514639N01202721EA0000000267
B1525365514612N01202887EA0000000257
B1525415514629N01203053EA0000000252
B1525485514678N01203275EA0000000236
B1525545514725N01203465EA0000000232
B1526015514780N01203689EA0000000219
B1526095514840N01203941EA0000000212
B1526175514890N01204204EA0000000208
B1526245514929N01204437EA0000000207
B1526315514980N01204656EA0000000199
B1526375515063N01204775EA0000000184
B1526445515169N01204810EA0000000170
B1526565515191N01204564EA0000000127
B1527035515190N01204424EA0000000099
B1527125515179N01204243EA0000000064
B1527195515152N01204100EA0000000038
B1527265515131N01203991EA0000000034
