AOGNOGN
HFDTE240825
HFFXA050
HFPLTPILOTINCHARGE:
HFGTYGLIDERTYPE:ASK-21
HFGIDGLIDERID:OY-XKO
HFDTM100GPSDATUM:WGS-1984
HFRFWFIRMWAREVERSION:
HFRHWHARDWAREVERSION:
HFFTYFRTYPE:OGN-FLIGHTBOOK
HFGPSGENERIC
HFPRSPRESSALTSENSOR:
HFCIDCOMPETITIONID:R2
B1057415514470N01204350EA0000000477
B1057555514448N01204680EA0000000499
B1057565514434N01204684EA0000000500
B1058445514415N01205059EA0000000551
B1059135514356N01205288EA0000000597
B1059355514364N01205443EA0000000622
B1059585514385N01205636EA0000000626
B1100545514378N01206070EA0000000634
B1101275514418N01206158EA0000000597
B1103025514166N01205433EA0000000580
B1103355514089N01205695EA0000000619
B1103545514132N01205728EA0000000631
B1104035514072N01206000EA0000000636
B1104325514038N01206207EA0000000653
B1105045513986N01206400EA0000000685
B1105165513974N01206275EA0000000697
B1105285513966N01206568EA0000000697
B1105515513961N01206794EA0000000713
B1106105513939N01206935EA0000000735
B1106235513930N01206844EA0000000757
B1106285513998N01206896EA0000000741
B1107005514379N01206875EA0000000695
B1108295514885N01206633EA0000000626
B1108345514875N01206806EA0000000624
B1110045514983N01205764EA0000000516
B1217125515640N01202279EA0000000399
B1217415515533N01202567EA0000000421
B1219085515379N01203152EA0000000480
B1219275515462N01203228EA0000000489
B1219445515274N01203284EA0000000515
B1221095515107N01203921EA0000000629
B1221355515127N01204085EA0000000668
B1221405515050N01204185EA0000000675
B1222465514941N01204688EA0000000744
B1223145515025N01204810EA0000000760
B1223265514910N01204641EA0000000753
B1223445514721N01204408EA0000000729
B1223555514608N01204269EA0000000724
B1225195513839N01203341EA0000000691
B1225475513796N01203494EA0000000713
B1226475513697N01203934EA0000000719
B1227215513709N01204154EA0000000698
B1227525513876N01205152EA0000000702
B1227595513911N01205377EA0000000701
B1228055513942N01205567EA0000000691
B1228135513986N01205833EA0000000682
B1234555515197N01204725EA0000000367
B1236445515031N01205520EA0000000425
B1237155514970N01205697EA0000000442
B1237405514932N01205874EA0000000481
B1238065514900N01206073EA0000000510
B1238315514871N01206277EA0000000530
B1238565514827N01206379EA0000000530
B1241215515052N01205119EA0000000505
B1241455514981N01205308EA0000000512
B1242205514962N01205591EA0000000526
B1317555514538N01203139EA0000000366
B1318015514521N01203071EA0000000358
B1318065514451N01203102EA0000000352
B1318115514424N01203242EA0000000358
B1318165514462N01203347EA0000000368
B1318225514510N01203331EA0000000366
B1318275514480N01203274EA0000000364
B1318325514411N01203307EA0000000358
B1318375514366N01203431EA0000000363
B1318425514370N01203567EA0000000370
B1318475514415N01203632EA0000000366
B1318545514440N01203571EA0000000371
B1319005514375N01203540EA0000000368
B1319055514313N01203624EA0000000373
B1319105514289N01203760EA0000000380
B1319155514303N01203890EA0000000388
B1319205514350N01203946EA0000000387
B1319265514366N01203887EA0000000396
B1319315514305N01203878EA0000000393
B1319365514250N01203987EA0000000407
B1319415514247N01204126EA0000000403
B1319485514327N01204197EA0000000399
B1319545514352N01204117EA0000000406
B1319595514306N01204069EA0000000402
B1320075514200N01204177EA0000000416
B1320135514192N01204342EA0000000426
B1320215514268N01204416EA0000000428
B1320265514271N01204353EA0000000425
B1320315514216N01204321EA0000000420
B1320365514149N01204392EA0000000431
B1320415514107N01204514EA0000000435
B1321255514119N01204894EA0000000458
B1321315514149N01204816EA0000000454
B1321375514123N01204728EA0000000447
B1321425514051N01204738EA0000000436
B1321475513993N01204844EA0000000428
B1321535514000N01205008EA0000000434
B1322025514107N01205113EA0000000438
B1322075514136N01205056EA0000000445
B1322125514097N01205001EA0000000440
B1322175514028N01205050EA0000000427
B1322235514022N01205209EA0000000408
B1322285514083N01205282EA0000000415
B1322445514166N01205215EA0000000413
B1323225514211N01205121EA0000000430
B1323315514128N01205304EA0000000437
B1323465514181N01205284EA0000000443
B1324265514317N01205408EA0000000466
B1324345514252N01205599EA0000000454
B1325205514233N01204896EA0000000407
B1325255514229N01204819EA0000000400
B1325365514208N01204635EA0000000393
B1325425514203N01204530EA0000000382
B1325475514204N01204445EA0000000376
B1325535514211N01204348EA0000000369
B1325585514222N01204272EA0000000363
B1326195514278N01203983EA0000000336
B1326275514300N01203885EA0000000323
B1326375514356N01203803EA0000000310
B1326425514386N01203758EA0000000304
B1327045514513N01203568EA0000000274
B1327135514596N01203531EA0000000258
B1327185514648N01203572EA0000000253
B1327235514684N01203680EA0000000250
B1327295514701N01203853EA0000000248
B1327345514712N01204003EA0000000245
B1327435514711N01204276EA0000000232
B1327535514700N01204619EA0000000207
B1328055514824N01204938EA0000000187
B1328335515090N01204899EA0000000153
B1328455515091N01204648EA0000000100
B1328565515085N01204455EA0000000057
B1339275515096N01204106EA0000000068
B1339375515094N01203936EA0000000218
B1339435515095N01203827EA0000000301
B1339485515112N01203733EA0000000351
B1339535515122N01203628EA0000000396
B1340005515127N01203482EA0000000423
B1340075515140N01203352EA0000000407
B1340155515149N01203193EA0000000404
B1340205515142N01203101EA0000000401
B1340255515094N01203042EA0000000406
B1340315515011N01203065EA0000000402
B1340365514936N01203100EA0000000394
B1340455514798N01203172EA0000000381
B1340505514726N01203241EA0000000378
B1340555514677N01203366EA0000000373
B1341015514643N01203543EA0000000362
B1341075514610N01203732EA0000000351
B1341155514572N01203988EA0000000343
B1341385514404N01204593EA0000000334
B1341455514351N01204487EA0000000346
B1341515514331N01204380EA0000000346
B1342125514307N01204005EA0000000336
B1342275514326N01203752EA0000000332
B1342325514332N01203661EA0000000330
B1342375514343N01203580EA0000000335
B1342445514359N01203469EA0000000329
B1342535514377N01203323EA0000000329
B1343025514400N01203174EA0000000318
B1343075514411N01203088EA0000000310
B1343125514424N01203009EA0000000306
B1343215514442N01202879EA0000000297
B1343285514445N01202768EA0000000282
B1343335514424N01202693EA0000000283
B1343385514361N01202680EA0000000274
B1343435514305N01202779EA0000000276
B1343485514303N01202926EA0000000267
B1343555514310N01203158EA0000000254
B1344015514328N01203352EA0000000242
B1344075514372N01203524EA0000000233
B1344135514424N01203685EA0000000226
B1344185514468N01203823EA0000000223
B1344255514528N01204004EA0000000215
B1344305514571N01204136EA0000000207
B1344405514653N01204403EA0000000204
B1344455514690N01204535EA0000000201
B1344505514730N01204673EA0000000198
B1344595514795N01204918EA0000000188
B1345405515150N01204836EA0000000118
B1345525515116N01204553EA0000000069
B1345575515101N01204444EA0000000051
B1355425515095N01204119EA0000000067
B1355475515099N01204037EA0000000141
B1355525515111N01203958EA0000000213
B1355575515117N01203873EA0000000270
B1356045515129N01203743EA0000000342
B1356095515135N01203642EA0000000384
B1356155515137N01203518EA0000000425
B1356205515148N01203443EA0000000434
B1356265515162N01203344EA0000000429
B1356345515176N01203206EA0000000418
B1356425515187N01203057EA0000000402
B1356565515213N01202804EA0000000373
B1357025515215N01202687EA0000000363
B1357085515202N01202572EA0000000366
B1357135515155N01202511EA0000000367
B1357245514982N01202499EA0000000347
B1357315514863N01202504EA0000000330
B1357365514779N01202569EA0000000318
B1357415514764N01202737EA0000000322
B1357465514820N01202824EA0000000316
B1357555514870N01202732EA0000000295
B1358005514824N01202670EA0000000284
B1358055514770N01202611EA0000000266
B1358105514791N01202544EA0000000258
B1358165514863N01202595EA0000000245
B1358215514899N01202741EA0000000232
B1358275514877N01202961EA0000000215
B1358375514840N01203344EA0000000192
B1358425514841N01203536EA0000000184
B1358495514844N01203806EA0000000173
B1358585514841N01204162EA0000000168
B1359125514927N01204557EA0000000176
B1359185515009N01204664EA0000000162
B1359255515118N01204707EA0000000148
B1359315515195N01204668EA0000000143
B1401305515131N01203937EA0000000037
