AOGNOGN
HFDTE180625
HFFXA050
HFPLTPILOTINCHARGE:
HFGTYGLIDERTYPE:ASK-21
HFGIDGLIDERID:OY-XVC
HFDTM100GPSDATUM:WGS-1984
HFRFWFIRMWAREVERSION:
HFRHWHARDWAREVERSION:
HFFTYFRTYPE:OGN-FLIGHTBOOK
HFGPSGENERIC
HFPRSPRESSALTSENSOR:
HFCIDCOMPETITIONID:VC
B1540405553100N01213893EA0000000017
B1540405553100N01213893EA0000000017
B1540465553113N01213758EA0000000019
B1540515553124N01213632EA0000000033
B1540575553139N01213485EA0000000053
B1541035553149N01213334EA0000000070
B1541105553128N01213163EA0000000094
B1541175553084N01212997EA0000000115
B1541235553038N01212864EA0000000136
B1541315552961N01212724EA0000000170
B1541375552903N01212629EA0000000187
B1541435552842N01212541EA0000000201
B1541485552787N01212470EA0000000210
B1541555552709N01212360EA0000000219
B1542005552665N01212271EA0000000230
B1542055552640N01212171EA0000000248
B1542135552625N01212004EA0000000267
B1542195552625N01211879EA0000000282
B1542275552629N01211708EA0000000307
B1542355552643N01211544EA0000000325
B1542425552649N01211407EA0000000343
B1542525552656N01211208EA0000000366
B1542595552659N01211075EA0000000386
B1543055552656N01210963EA0000000401
B1543195552630N01210701EA0000000434
B1543255552610N01210592EA0000000452
B1543415552515N01210328EA0000000493
B1543515552432N01210174EA0000000515
B1543585552372N01210062EA0000000534
B1544325552001N01209684EA0000000617
B1544405551870N01209681EA0000000632
B1544455551784N01209699EA0000000645
B1545015551505N01209953EA0000000673
B1545075551417N01210132EA0000000692
B1545145551339N01210389EA0000000708
B1545215551278N01210664EA0000000728
B1545285551217N01210940EA0000000747
B1545345551166N01211184EA0000000760
B1545395551126N01211385EA0000000776
B1545445551086N01211586EA0000000788
B1545495551042N01211783EA0000000802
B1545545550998N01211981EA0000000812
B1546055550918N01212422EA0000000819
B1546115550904N01212670EA0000000803
B1546175550861N01212911EA0000000800
B1546245550790N01213155EA0000000795
B1546305550706N01213325EA0000000783
B1546395550587N01213574EA0000000783
B1546475550500N01213808EA0000000782
B1546565550409N01214084EA0000000785
B1547025550399N01214283EA0000000789
B1547095550472N01214316EA0000000796
B1547145550444N01214247EA0000000795
B1547195550374N01214324EA0000000805
B1547265550402N01214526EA0000000800
B1547315550444N01214475EA0000000799
B1547375550391N01214419EA0000000816
B1547425550320N01214505EA0000000803
B1547495550320N01214737EA0000000815
B1547565550388N01214754EA0000000804
B1548015550360N01214683EA0000000814
B1548075550280N01214741EA0000000814
B1548145550260N01214970EA0000000806
B1548225550347N01215043EA0000000811
B1548285550367N01214983EA0000000811
B1548335550317N01214959EA0000000814
B1548415550212N01215136EA0000000795
B1548465550177N01215314EA0000000786
B1548515550202N01215497EA0000000779
B1548595550286N01215668EA0000000795
B1549045550312N01215615EA0000000793
B1549125550215N01215647EA0000000806
B1549185550214N01215838EA0000000795
B1549245550270N01215847EA0000000803
B1549295550228N01215797EA0000000797
B1549345550147N01215879EA0000000800
B1549425550129N01216135EA0000000788
B1549475550190N01216205EA0000000778
B1549535550267N01216170EA0000000759
B1550035550386N01216027EA0000000784
B1550115550469N01215919EA0000000786
B1550165550516N01215854EA0000000782
B1550235550579N01215762EA0000000766
B1550315550653N01215638EA0000000743
B1550365550705N01215561EA0000000727
B1550415550770N01215488EA0000000712
B1550465550836N01215414EA0000000708
B1551005551012N01215236EA0000000695
B1551065551072N01215142EA0000000694
B1551115551100N01215044EA0000000706
B1551165551133N01214952EA0000000712
B1551235551235N01214963EA0000000732
B1551285551291N01215088EA0000000743
B1551335551294N01215260EA0000000744
B1551385551243N01215392EA0000000734
B1551445551167N01215411EA0000000730
B1551505551122N01215334EA0000000719
B1551565551118N01215221EA0000000718
B1552015551132N01215130EA0000000726
B1552075551156N01215023EA0000000725
B1552155551223N01214906EA0000000721
B1552215551281N01214842EA0000000716
B1552275551338N01214771EA0000000702
B1552355551395N01214652EA0000000690
B1552405551437N01214574EA0000000678
B1552465551523N01214522EA0000000670
B1552545551650N01214511EA0000000695
B1553005551700N01214669EA0000000695
B1553095551613N01214893EA0000000693
B1553145551565N01214855EA0000000687
B1553195551565N01214769EA0000000695
B1553285551656N01214776EA0000000701
B1553345551684N01214970EA0000000691
B1553405551621N01215137EA0000000681
B1553465551538N01215130EA0000000676
B1553515551509N01215036EA0000000674
B1553565551523N01214952EA0000000695
B1554055551612N01214946EA0000000689
B1554105551669N01215075EA0000000680
B1554175551680N01215332EA0000000660
B1554225551629N01215492EA0000000647
B1554295551520N01215570EA0000000644
B1554345551453N01215551EA0000000644
B1554395551411N01215492EA0000000651
B1554455551381N01215407EA0000000655
B1554545551459N01215396EA0000000656
B1554595551492N01215555EA0000000651
B1555055551441N01215729EA0000000644
B1555105551377N01215740EA0000000657
B1555175551344N01215657EA0000000662
B1555255551318N01215551EA0000000664
B1555315551296N01215472EA0000000653
B1555365551302N01215406EA0000000643
B1555425551323N01215303EA0000000610
B1555485551351N01215179EA0000000600
B1555545551380N01215047EA0000000589
B1555595551405N01214932EA0000000596
B1556065551434N01214808EA0000000598
B1556115551458N01214723EA0000000580
B1556165551483N01214633EA0000000569
B1556215551510N01214542EA0000000564
B1556265551537N01214455EA0000000552
B1556325551571N01214341EA0000000529
B1556415551621N01214152EA0000000502
B1556505551676N01213952EA0000000512
B1556565551706N01213837EA0000000517
B1557025551737N01213735EA0000000506
B1557085551775N01213625EA0000000490
B1557155551813N01213490EA0000000480
B1557205551840N01213390EA0000000489
B1557265551866N01213293EA0000000501
B1557315551831N01213236EA0000000507
B1557365551763N01213286EA0000000513
B1557435551743N01213507EA0000000507
B1557535551848N01213563EA0000000498
B1557585551894N01213511EA0000000496
B1558055551951N01213427EA0000000500
B1558115551991N01213343EA0000000499
B1558165551980N01213269EA0000000502
B1558215551918N01213266EA0000000498
B1558315551875N01213537EA0000000507
B1558425551996N01213654EA0000000500
B1558515551932N01213599EA0000000496
B1558585551866N01213774EA0000000503
B1559055551880N01214002EA0000000496
B1559105551937N01214109EA0000000505
B1559155552000N01214152EA0000000505
B1559225552050N01214096EA0000000487
B1559275552005N01214068EA0000000483
B1559325551945N01214176EA0000000472
B1559395551968N01214390EA0000000463
B1559445552031N01214445EA0000000449
B1559515552093N01214395EA0000000422
B1559565552133N01214323EA0000000400
B1600015552176N01214255EA0000000396
B1600065552215N01214188EA0000000385
B1600135552268N01214079EA0000000358
B1600215552322N01213936EA0000000347
B1600305552390N01213787EA0000000347
B1600365552433N01213687EA0000000345
B1600435552486N01213575EA0000000344
B1600525552549N01213430EA0000000339
B1601045552634N01213223EA0000000323
B1601105552688N01213116EA0000000324
B1601165552747N01213022EA0000000325
B1601215552788N01212943EA0000000333
B1601265552837N01212899EA0000000349
B1601325552904N01213007EA0000000352
B1601385552882N01213191EA0000000344
B1601435552816N01213231EA0000000328
B1601495552799N01213170EA0000000333
B1601555552818N01213101EA0000000330
B1602015552853N01213034EA0000000328
B1602065552914N01213027EA0000000331
B1602125552935N01212957EA0000000340
B1602175552878N01212989EA0000000339
B1602225552861N01213138EA0000000337
B1602295552943N01213204EA0000000338
B1602365552998N01213133EA0000000338
B1602435553049N01213054EA0000000341
B1602505553102N01212967EA0000000339
B1602555553131N01212902EA0000000342
B1603025553206N01212868EA0000000338
B1603075553265N01212876EA0000000335
B1603125553320N01212973EA0000000329
B1603195553285N01213174EA0000000310
B1603265553199N01213185EA0000000297
B1603325553146N01213141EA0000000286
B1603375553092N01213122EA0000000285
B1603445552994N01213257EA0000000276
B1603535552862N01213505EA0000000262
B1603595552794N01213715EA0000000249
B1604045552741N01213905EA0000000240
B1604105552699N01214137EA0000000239
B1604165552718N01214365EA0000000227
B1604215552765N01214539EA0000000214
B1604275552846N01214707EA0000000205
B1604325552934N01214787EA0000000207
B1604375552993N01214742EA0000000208
B1604445552998N01214604EA0000000163
B1604515553005N01214475EA0000000129
B1604565553018N01214383EA0000000103
B1605015553035N01214295EA0000000078
B1605075553051N01214187EA0000000048
B1605145553058N01214058EA0000000020
B1605225553072N01213944EA0000000017
