AOGNOGN
HFDTE010725
HFFXA050
HFPLTPILOTINCHARGE:
HFGTYGLIDERTYPE:ASK-21
HFGIDGLIDERID:OY-XPL
HFDTM100GPSDATUM:WGS-1984
HFRFWFIRMWAREVERSION:
HFRHWHARDWAREVERSION:
HFFTYFRTYPE:OGN-FLIGHTBOOK
HFGPSGENERIC
HFPRSPRESSALTSENSOR:
HFCIDCOMPETITIONID:PL
B0951395527184N01139014EA0000000036
B0951405527183N01138990EA0000000040
B0951475527178N01138821EA0000000155
B0951525527167N01138707EA0000000231
B0951575527157N01138583EA0000000298
B0952045527136N01138385EA0000000355
B0952095527123N01138261EA0000000357
B0952145527136N01138131EA0000000356
B0952215527228N01138024EA0000000351
B0952265527304N01138054EA0000000347
B0952315527348N01138155EA0000000338
B0952385527369N01138334EA0000000319
B0952435527388N01138459EA0000000318
B0952495527464N01138534EA0000000326
B0952555527534N01138451EA0000000325
B0953005527525N01138336EA0000000318
B0953055527470N01138304EA0000000310
B0953135527405N01138432EA0000000307
B0953205527387N01138584EA0000000307
B0953255527337N01138638EA0000000303
B0953305527295N01138567EA0000000301
B0953355527319N01138459EA0000000298
B0953405527391N01138435EA0000000288
B0953465527441N01138562EA0000000279
B0953515527485N01138673EA0000000279
B0953565527558N01138645EA0000000286
B0954025527554N01138510EA0000000288
B0954075527500N01138534EA0000000294
B0954125527519N01138645EA0000000293
B0954195527601N01138579EA0000000297
B0954245527565N01138496EA0000000300
B0954295527524N01138569EA0000000302
B0954365527606N01138639EA0000000294
B0954415527616N01138519EA0000000302
B0954465527559N01138518EA0000000308
B0954535527585N01138670EA0000000311
B0954585527655N01138645EA0000000316
B0955035527656N01138529EA0000000319
B0955105527586N01138556EA0000000321
B0955155527615N01138665EA0000000320
B0955205527684N01138637EA0000000324
B0955275527650N01138529EA0000000318
B0955325527623N01138619EA0000000319
B0955385527700N01138676EA0000000315
B0955445527709N01138555EA0000000310
B0955495527654N01138589EA0000000307
B0955575527611N01138764EA0000000303
B0956025527562N01138816EA0000000299
B0956075527508N01138786EA0000000290
B0956125527484N01138680EA0000000282
B0956195527495N01138516EA0000000281
B0956275527514N01138328EA0000000273
B0956325527501N01138211EA0000000264
B0956375527446N01138159EA0000000258
B0956425527390N01138205EA0000000255
B0956475527374N01138320EA0000000249
B0956525527424N01138412EA0000000248
B0956575527495N01138367EA0000000244
B0957025527494N01138248EA0000000242
B0957095527411N01138212EA0000000237
B0957145527373N01138306EA0000000233
B0957195527402N01138415EA0000000235
B0957265527494N01138367EA0000000226
B0957315527496N01138239EA0000000211
B0957365527447N01138143EA0000000208
B0957435527372N01138191EA0000000211
B0957495527381N01138353EA0000000204
B0957555527393N01138509EA0000000198
B0958015527400N01138674EA0000000190
B0958075527409N01138838EA0000000186
B0958135527416N01138996EA0000000182
B0958205527408N01139183EA0000000174
B0958275527396N01139371EA0000000163
B0958345527367N01139552EA0000000150
B0958395527303N01139625EA0000000149
B0958485527181N01139707EA0000000140
B0958535527118N01139678EA0000000145
B0959005527103N01139504EA0000000121
B0959085527116N01139270EA0000000086
B0959145527119N01139115EA0000000065
B0959225527125N01138928EA0000000036
