AOGNOGN
HFDTE010725
HFFXA050
HFPLTPILOTINCHARGE:
HFGTYGLIDERTYPE:ASK-21
HFGIDGLIDERID:OY-XPL
HFDTM100GPSDATUM:WGS-1984
HFRFWFIRMWAREVERSION:
HFRHWHARDWAREVERSION:
HFFTYFRTYPE:OGN-FLIGHTBOOK
HFGPSGENERIC
HFPRSPRESSALTSENSOR:
HFCIDCOMPETITIONID:PL
B0839435527180N01139006EA0000000036
B0839445527180N01138982EA0000000041
B0839525527179N01138797EA0000000165
B0840015527177N01138579EA0000000285
B0840065527158N01138443EA0000000340
B0840115527147N01138315EA0000000371
B0840175527154N01138166EA0000000352
B0840225527222N01138088EA0000000350
B0840315527363N01138084EA0000000346
B0840365527436N01138116EA0000000339
B0840415527490N01138210EA0000000335
B0840485527501N01138380EA0000000330
B0840535527466N01138476EA0000000329
B0840585527409N01138493EA0000000328
B0841035527372N01138407EA0000000322
B0841085527397N01138296EA0000000316
B0841135527471N01138263EA0000000306
B0841185527540N01138334EA0000000297
B0841255527650N01138351EA0000000294
B0841305527671N01138237EA0000000285
B0841355527626N01138162EA0000000276
B0841425527546N01138155EA0000000279
B0841475527494N01138151EA0000000272
B0841555527410N01138132EA0000000258
B0842005527363N01138082EA0000000254
B0842055527357N01137981EA0000000253
B0842105527411N01137915EA0000000252
B0842165527487N01137980EA0000000238
B0842215527490N01138100EA0000000226
B0842285527416N01138164EA0000000220
B0842335527359N01138201EA0000000209
B0842385527326N01138308EA0000000202
B0842445527346N01138475EA0000000198
B0842495527369N01138611EA0000000200
B0842565527385N01138796EA0000000210
B0843185527383N01139350EA0000000188
B0843235527377N01139483EA0000000181
B0843295527371N01139649EA0000000172
B0843345527331N01139760EA0000000166
B0843405527247N01139800EA0000000168
B0843455527177N01139816EA0000000164
B0843505527124N01139744EA0000000158
B0843585527124N01139520EA0000000141
B0844055527125N01139346EA0000000109
B0844145527119N01139124EA0000000064
B0844205527120N01138974EA0000000036
B0844255527122N01138862EA0000000033
