AOGNOGN
HFDTE010725
HFFXA050
HFPLTPILOTINCHARGE:
HFGTYGLIDERTYPE:ASK-21
HFGIDGLIDERID:OY-XPL
HFDTM100GPSDATUM:WGS-1984
HFRFWFIRMWAREVERSION:
HFRHWHARDWAREVERSION:
HFFTYFRTYPE:OGN-FLIGHTBOOK
HFGPSGENERIC
HFPRSPRESSALTSENSOR:
HFCIDCOMPETITIONID:PL
B0818065527179N01138965EA0000000048
B0818155527176N01138752EA0000000207
B0818215527177N01138609EA0000000285
B0818265527179N01138485EA0000000338
B0818315527181N01138357EA0000000365
B0818375527190N01138221EA0000000355
B0818425527212N01138102EA0000000347
B0818485527286N01138017EA0000000344
B0818535527363N01138044EA0000000341
B0818585527408N01138152EA0000000336
B0819055527432N01138332EA0000000325
B0819105527495N01138425EA0000000316
B0819155527574N01138400EA0000000310
B0819225527594N01138239EA0000000294
B0819275527546N01138166EA0000000288
B0819355527452N01138153EA0000000288
B0819405527397N01138139EA0000000288
B0819455527361N01138060EA0000000291
B0819505527387N01137954EA0000000289
B0819565527477N01137944EA0000000281
B0820015527514N01138055EA0000000277
B0820065527476N01138147EA0000000265
B0820135527409N01138056EA0000000270
B0820185527456N01137969EA0000000278
B0820235527528N01138009EA0000000266
B0820315527511N01138188EA0000000263
B0820365527452N01138183EA0000000267
B0820415527421N01138094EA0000000268
B0820475527470N01137987EA0000000271
B0820525527542N01138015EA0000000264
B0820575527567N01138141EA0000000258
B0821045527495N01138226EA0000000257
B0821115527409N01138209EA0000000248
B0821165527352N01138255EA0000000239
B0821215527324N01138361EA0000000231
B0821265527346N01138484EA0000000223
B0821325527438N01138531EA0000000220
B0821385527495N01138409EA0000000208
B0821435527481N01138288EA0000000200
B0821485527426N01138246EA0000000190
B0821555527378N01138378EA0000000173
B0822025527388N01138560EA0000000172
B0822095527381N01138729EA0000000172
B0822165527366N01138890EA0000000162
B0822225527359N01139039EA0000000155
B0822295527359N01139220EA0000000160
B0822375527355N01139421EA0000000157
B0822465527278N01139588EA0000000141
B0822515527223N01139654EA0000000137
B0822565527159N01139650EA0000000127
B0823025527132N01139506EA0000000113
B0823125527132N01139235EA0000000075
B0823235527130N01138976EA0000000034
B0823295527127N01138871EA0000000034
