AOGNOGN
HFDTE010725
HFFXA050
HFPLTPILOTINCHARGE:
HFGTYGLIDERTYPE:Duo Discus
HFGIDGLIDERID:OY-RMX
HFDTM100GPSDATUM:WGS-1984
HFRFWFIRMWAREVERSION:
HFRHWHARDWAREVERSION:
HFFTYFRTYPE:OGN-FLIGHTBOOK
HFGPSGENERIC
HFPRSPRESSALTSENSOR:
HFCIDCOMPETITIONID:MX
B1048525527168N01138976EA0000000034
B1048545527165N01138913EA0000000053
B1048595527149N01138757EA0000000145
B1049045527128N01138611EA0000000240
B1049095527111N01138461EA0000000290
B1049155527081N01138286EA0000000319
B1049225527046N01138112EA0000000315
B1049275527029N01137970EA0000000312
B1049325527047N01137822EA0000000319
B1049375527099N01137704EA0000000317
B1049435527199N01137661EA0000000313
B1049495527286N01137738EA0000000307
B1049545527336N01137846EA0000000310
B1050005527383N01137978EA0000000316
B1050085527425N01138161EA0000000328
B1050135527409N01138263EA0000000324
B1050185527356N01138285EA0000000317
B1050235527316N01138208EA0000000310
B1050285527320N01138085EA0000000305
B1050345527384N01137966EA0000000303
B1050395527463N01137948EA0000000304
B1050445527540N01137997EA0000000305
B1050525527624N01138144EA0000000315
B1050575527645N01138260EA0000000321
B1051025527644N01138377EA0000000327
B1051085527590N01138429EA0000000325
B1051135527545N01138363EA0000000316
B1051185527550N01138248EA0000000309
B1051255527637N01138146EA0000000306
B1051345527766N01138210EA0000000314
B1051425527832N01138366EA0000000322
B1051475527830N01138477EA0000000319
B1051525527785N01138537EA0000000316
B1051595527721N01138480EA0000000312
B1052045527719N01138363EA0000000300
B1052095527773N01138266EA0000000299
B1052165527882N01138258EA0000000318
B1052215527944N01138327EA0000000316
B1052265527942N01138445EA0000000316
B1052325527881N01138462EA0000000313
B1052375527863N01138351EA0000000312
B1052425527909N01138244EA0000000315
B1052495528016N01138182EA0000000327
B1052545528084N01138116EA0000000327
B1052595528110N01137996EA0000000325
B1053065528078N01137849EA0000000314
B1053115528025N01137807EA0000000302
B1053165527967N01137818EA0000000294
B1053245527890N01137918EA0000000286
B1053315527842N01138042EA0000000293
B1053405527785N01138202EA0000000286
B1053495527752N01138392EA0000000273
B1053545527750N01138508EA0000000270
B1053595527754N01138625EA0000000273
B1054055527760N01138768EA0000000278
B1054105527758N01138887EA0000000279
B1054155527774N01139008EA0000000271
B1054205527845N01139073EA0000000279
B1054255527915N01139022EA0000000270
B1054315527931N01138882EA0000000263
B1054395527868N01138751EA0000000254
B1054455527806N01138708EA0000000259
B1054515527740N01138672EA0000000244
B1054585527661N01138701EA0000000234
B1055055527604N01138814EA0000000224
B1055125527564N01138956EA0000000231
B1055175527540N01139058EA0000000224
B1055245527510N01139215EA0000000218
B1055295527498N01139336EA0000000210
B1055365527492N01139519EA0000000199
B1055455527474N01139755EA0000000190
B1055505527451N01139877EA0000000194
B1055585527404N01140061EA0000000200
B1056035527356N01140142EA0000000191
B1056095527281N01140185EA0000000188
B1056155527204N01140206EA0000000177
B1056205527144N01140152EA0000000170
B1056275527114N01139978EA0000000165
B1056405527119N01139636EA0000000109
B1056475527126N01139437EA0000000077
B1056525527131N01139294EA0000000057
B1057045527128N01138961EA0000000032
B1057105527127N01138827EA0000000030
