AOGNOGN
HFDTE170825
HFFXA050
HFPLTPILOTINCHARGE:
HFGTYGLIDERTYPE:LS-8a
HFGIDGLIDERID:OY-EXC
HFDTM100GPSDATUM:WGS-1984
HFRFWFIRMWAREVERSION:
HFRHWHARDWAREVERSION:
HFFTYFRTYPE:OGN-FLIGHTBOOK
HFGPSGENERIC
HFPRSPRESSALTSENSOR:
HFCIDCOMPETITIONID:EC
B1017485610632N01004975EA0000000078
B1017535610656N01004862EA0000000135
B1017585610676N01004750EA0000000199
B1018035610698N01004619EA0000000273
B1018095610726N01004447EA0000000348
B1018155610762N01004268EA0000000379
B1018225610823N01004102EA0000000388
B1018275610879N01004081EA0000000396
B1018335610911N01004176EA0000000397
B1018395610870N01004275EA0000000397
B1018455610782N01004237EA0000000387
B1018515610743N01004080EA0000000385
B1018565610739N01003941EA0000000382
B1019015610778N01003847EA0000000387
B1019065610835N01003857EA0000000392
B1019125610857N01003963EA0000000401
B1019175610791N01003981EA0000000402
B1019225610752N01003866EA0000000407
B1019275610777N01003754EA0000000411
B1019325610824N01003788EA0000000415
B1019375610776N01003854EA0000000419
B1019425610718N01003763EA0000000422
B1019475610737N01003641EA0000000433
B1019535610763N01003718EA0000000451
B1019585610696N01003723EA0000000459
B1020045610668N01003573EA0000000468
B1020095610717N01003553EA0000000473
B1020145610713N01003661EA0000000481
B1020195610644N01003665EA0000000491
B1020245610626N01003545EA0000000500
B1020315610679N01003572EA0000000508
B1020365610625N01003634EA0000000522
B1020415610573N01003546EA0000000530
B1020465610601N01003459EA0000000535
B1020515610630N01003524EA0000000541
B1020565610572N01003585EA0000000553
B1021035610534N01003439EA0000000560
B1021085610589N01003419EA0000000560
B1021145610610N01003533EA0000000566
B1021195610537N01003554EA0000000568
B1021255610509N01003398EA0000000584
B1021305610557N01003377EA0000000590
B1021355610544N01003471EA0000000595
B1021405610471N01003465EA0000000603
B1021455610444N01003347EA0000000612
B1021505610489N01003313EA0000000611
B1021555610494N01003407EA0000000617
B1022005610425N01003435EA0000000629
B1022065610376N01003312EA0000000635
B1022115610412N01003231EA0000000633
B1022185610489N01003263EA0000000633
B1022245610554N01003300EA0000000637
B1022295610608N01003333EA0000000640
B1022345610652N01003391EA0000000650
B1022395610633N01003489EA0000000650
B1022445610559N01003486EA0000000648
B1022495610512N01003370EA0000000661
B1022545610519N01003247EA0000000671
B1022595610573N01003226EA0000000676
B1023045610587N01003325EA0000000684
B1023105610508N01003377EA0000000694
B1023155610463N01003275EA0000000707
B1023205610501N01003189EA0000000714
B1023265610549N01003260EA0000000723
B1023315610502N01003341EA0000000728
B1023365610425N01003304EA0000000739
B1023425610421N01003166EA0000000751
B1023475610475N01003153EA0000000758
B1023525610489N01003253EA0000000769
B1023585610415N01003307EA0000000771
B1024035610352N01003222EA0000000776
B1024085610347N01003094EA0000000783
B1024145610409N01003058EA0000000792
B1024205610412N01003182EA0000000799
B1024255610342N01003216EA0000000806
B1024305610295N01003119EA0000000814
B1024355610320N01003013EA0000000816
B1024405610377N01003017EA0000000816
B1024465610389N01003144EA0000000830
B1024515610326N01003191EA0000000836
B1024565610261N01003120EA0000000839
B1025025610257N01002975EA0000000846
B1025075610310N01002934EA0000000845
B1025125610352N01003016EA0000000847
B1025185610318N01003131EA0000000860
B1025235610248N01003092EA0000000855
B1025285610223N01002965EA0000000865
B1025345610270N01002872EA0000000867
B1025395610309N01002938EA0000000871
B1025445610278N01003032EA0000000876
B1025505610193N01003018EA0000000876
B1025555610158N01002905EA0000000885
B1026005610183N01002797EA0000000891
B1026065610247N01002799EA0000000887
B1026115610250N01002900EA0000000898
B1026175610179N01002951EA0000000901
B1026225610131N01002860EA0000000905
B1026275610157N01002763EA0000000905
B1026335610225N01002750EA0000000907
B1026385610287N01002757EA0000000909
B1026445610350N01002823EA0000000891
B1026495610394N01002909EA0000000878
B1026545610441N01003002EA0000000864
B1026595610492N01003096EA0000000857
B1027065610567N01003210EA0000000859
B1027145610642N01003352EA0000000859
B1027245610740N01003535EA0000000845
B1027315610823N01003663EA0000000836
B1027365610888N01003743EA0000000833
B1027425610981N01003762EA0000000829
B1027525611142N01003690EA0000000821
B1027585611224N01003590EA0000000836
B1028035611253N01003462EA0000000859
B1028085611223N01003341EA0000000864
B1028145611137N01003294EA0000000857
B1028195611074N01003363EA0000000865
B1028245611057N01003474EA0000000862
B1028305611113N01003544EA0000000862
B1028435611278N01003550EA0000000894
B1028485611336N01003506EA0000000896
B1028545611323N01003361EA0000000890
B1028595611254N01003338EA0000000892
B1029045611189N01003395EA0000000894
B1029095611152N01003506EA0000000897
B1029145611131N01003628EA0000000911
B1029195611168N01003708EA0000000920
B1029245611209N01003649EA0000000913
B1029295611178N01003534EA0000000914
B1029345611098N01003508EA0000000931
B1029405611060N01003627EA0000000942
B1029455611111N01003649EA0000000953
B1029505611107N01003539EA0000000959
B1029555611037N01003538EA0000000978
B1030015611033N01003664EA0000000986
B1030065611078N01003639EA0000000987
B1030115611047N01003531EA0000000990
B1030165610971N01003545EA0000001003
B1030225610977N01003667EA0000001006
B1030275611021N01003619EA0000001010
B1030325610980N01003520EA0000001022
B1030385610911N01003597EA0000001027
B1030435610948N01003669EA0000001028
B1030485610978N01003586EA0000001033
B1030545610907N01003502EA0000001043
B1030595610861N01003591EA0000001043
B1031045610904N01003646EA0000001044
B1031105610918N01003527EA0000001051
B1031155610847N01003480EA0000001060
B1031205610814N01003579EA0000001061
B1031265610871N01003609EA0000001065
B1031315610879N01003497EA0000001072
B1031365610817N01003415EA0000001082
B1031425610741N01003479EA0000001081
B1031475610772N01003562EA0000001076
B1031545610861N01003587EA0000001074
B1032015610955N01003616EA0000001068
B1032065611027N01003634EA0000001069
B1032115611100N01003654EA0000001076
B1032185611200N01003707EA0000001079
B1032255611296N01003783EA0000001069
B1032315611379N01003847EA0000001061
B1032365611448N01003891EA0000001063
B1032425611530N01003932EA0000001065
B1032495611627N01003965EA0000001060
B1032545611698N01003938EA0000001057
B1033045611836N01003805EA0000001047
B1033115611925N01003665EA0000001043
B1033185612014N01003508EA0000001034
B1033235612080N01003395EA0000001027
B1033315612188N01003220EA0000001021
B1033375612267N01003086EA0000001013
B1033425612332N01002972EA0000001010
B1033505612437N01002785EA0000001003
B1033555612502N01002668EA0000001001
B1034005612565N01002551EA0000000996
B1034105612692N01002326EA0000000985
B1034185612791N01002150EA0000000989
B1034235612852N01002043EA0000000996
B1034285612915N01001945EA0000000993
B1034345612989N01001821EA0000000984
B1034415613077N01001673EA0000000971
B1034465613135N01001557EA0000000962
B1034515613189N01001433EA0000000954
B1035025613293N01001130EA0000000941
B1035105613365N01000894EA0000000940
B1035155613411N01000746EA0000000932
B1035225613469N01000523EA0000000923
B1035305613533N01000262EA0000000923
B1035385613597N01000003EA0000000919
B1035445613642N00959808EA0000000913
B1035495613674N00959645EA0000000911
B1035545613703N00959477EA0000000900
B1035595613733N00959309EA0000000896
B1036055613768N00959111EA0000000885
B1036105613795N00958946EA0000000880
B1036155613827N00958787EA0000000871
B1036225613874N00958557EA0000000866
B1036325613950N00958236EA0000000854
B1036385613995N00958039EA0000000843
B1036465614056N00957773EA0000000833
B1036535614089N00957533EA0000000840
B1036585614114N00957358EA0000000829
B1037055614146N00957103EA0000000812
B1037145614196N00956779EA0000000805
B1037205614226N00956569EA0000000808
B1037265614253N00956362EA0000000813
B1037345614294N00956110EA0000000825
B1037395614329N00955967EA0000000824
B1037455614386N00955813EA0000000815
B1037505614436N00955681EA0000000804
B1037575614504N00955480EA0000000791
B1038035614562N00955312EA0000000787
B1038115614635N00955083EA0000000774
B1038175614686N00954904EA0000000762
B1038225614715N00954749EA0000000755
B1038275614736N00954587EA0000000738
B1038345614771N00954353EA0000000725
B1038435614804N00954047EA0000000718
B1038505614831N00953808EA0000000710
B1038595614873N00953499EA0000000703
B1039055614906N00953302EA0000000699
B1039105614931N00953145EA0000000693
B1039165614959N00952950EA0000000698
B1039215614987N00952807EA0000000717
B1039275615057N00952772EA0000000718
B1039325615077N00952871EA0000000710
B1039385615013N00952971EA0000000701
B1039445614923N00953014EA0000000703
B1039515614812N00952995EA0000000711
B1039565614749N00952910EA0000000714
B1040015614741N00952774EA0000000717
B1040065614792N00952702EA0000000717
B1040115614843N00952746EA0000000716
B1040185614872N00952893EA0000000709
B1040245614898N00953026EA0000000719
B1040305614962N00953063EA0000000720
B1040355614989N00952966EA0000000714
B1040405614945N00952857EA0000000706
B1040465614858N00952792EA0000000702
B1040515614778N00952780EA0000000700
B1040585614667N00952715EA0000000698
B1041065614536N00952696EA0000000693
B1041115614454N00952710EA0000000686
B1041185614335N00952746EA0000000672
B1041295614155N00952875EA0000000651
B1041355614058N00952952EA0000000637
B1041425613951N00953057EA0000000629
B1041505613841N00953171EA0000000647
B1041565613760N00953259EA0000000652
B1042025613680N00953356EA0000000644
B1042125613543N00953546EA0000000618
B1042185613464N00953668EA0000000615
B1042265613367N00953828EA0000000615
B1042325613304N00953939EA0000000612
B1042385613234N00954066EA0000000601
B1042445613139N00954117EA0000000597
B1042525613008N00954186EA0000000585
B1042575612937N00954268EA0000000581
B1043025612874N00954365EA0000000572
B1043085612813N00954512EA0000000556
B1043175612740N00954769EA0000000524
B1043265612675N00955043EA0000000501
B1043325612630N00955222EA0000000493
B1043385612588N00955399EA0000000479
B1043485612516N00955696EA0000000452
B1043535612479N00955844EA0000000446
B1044015612431N00956097EA0000000426
B1044095612396N00956354EA0000000426
B1044145612402N00956499EA0000000428
B1044195612407N00956638EA0000000426
B1044275612404N00956869EA0000000410
B1044345612389N00957081EA0000000396
B1044425612361N00957322EA0000000386
B1044475612342N00957470EA0000000383
B1044535612327N00957646EA0000000382
B1045025612306N00957911EA0000000376
B1045085612291N00958087EA0000000371
B1045135612276N00958235EA0000000363
B1045185612252N00958380EA0000000356
B1045255612220N00958581EA0000000345
B1045325612189N00958780EA0000000340
B1045375612161N00958921EA0000000332
B1045445612120N00959116EA0000000317
B1045515612078N00959314EA0000000297
B1045585612042N00959512EA0000000282
B1046045612011N00959680EA0000000289
B1046095611996N00959807EA0000000310
B1046145612041N00959844EA0000000328
B1046195612051N00959738EA0000000339
B1046245611993N00959687EA0000000343
B1046295611943N00959756EA0000000344
B1046345611958N00959842EA0000000355
B1046395612002N00959830EA0000000356
B1046445612013N00959724EA0000000364
B1046495611961N00959651EA0000000376
B1046545611903N00959689EA0000000379
B1046595611896N00959781EA0000000382
B1047045611939N00959809EA0000000377
B1047105611971N00959699EA0000000391
B1047155611930N00959607EA0000000400
B1047205611874N00959644EA0000000407
B1047265611888N00959747EA0000000410
B1047315611933N00959711EA0000000418
B1047365611920N00959599EA0000000427
B1047425611844N00959593EA0000000437
B1047475611831N00959685EA0000000439
B1047525611873N00959714EA0000000446
B1047585611901N00959603EA0000000455
B1048035611855N00959517EA0000000463
B1048085611796N00959546EA0000000472
B1048145611798N00959654EA0000000476
B1048195611846N00959650EA0000000484
B1048245611858N00959547EA0000000492
B1048305611796N00959457EA0000000504
B1048355611742N00959511EA0000000507
B1048405611755N00959608EA0000000507
B1048465611815N00959584EA0000000527
B1048515611810N00959474EA0000000531
B1048565611746N00959440EA0000000538
B1049025611701N00959543EA0000000542
B1049075611735N00959616EA0000000550
B1049125611782N00959583EA0000000564
B1049185611788N00959455EA0000000573
B1049235611734N00959395EA0000000584
B1049285611675N00959436EA0000000588
B1049345611662N00959553EA0000000589
B1049395611703N00959615EA0000000600
B1049445611745N00959562EA0000000607
B1049505611720N00959435EA0000000617
B1049555611657N00959435EA0000000621
B1050005611628N00959526EA0000000624
B1050065611668N00959613EA0000000635
B1050115611711N00959575EA0000000640
B1050165611722N00959474EA0000000644
B1050225611663N00959387EA0000000650
B1050275611603N00959435EA0000000656
B1050325611601N00959541EA0000000661
B1050385611658N00959570EA0000000673
B1050445611678N00959463EA0000000675
B1050495611634N00959382EA0000000683
B1050545611569N00959395EA0000000690
B1050595611538N00959489EA0000000687
B1051045611558N00959586EA0000000695
B1051105611613N00959604EA0000000697
B1051155611639N00959523EA0000000694
B1051205611614N00959415EA0000000697
B1051265611551N00959315EA0000000705
B1051315611487N00959356EA0000000711
B1051365611481N00959462EA0000000716
B1051425611535N00959499EA0000000726
B1051475611559N00959413EA0000000731
B1051525611515N00959323EA0000000740
B1051585611447N00959375EA0000000750
B1052035611441N00959476EA0000000748
B1052085611480N00959544EA0000000754
B1052145611535N00959496EA0000000748
B1052195611538N00959387EA0000000754
B1052245611489N00959299EA0000000763
B1052305611407N00959319EA0000000771
B1052355611373N00959419EA0000000778
B1052405611386N00959524EA0000000781
B1052475611457N00959561EA0000000782
B1052525611499N00959491EA0000000771
B1052575611498N00959374EA0000000773
B1053025611449N00959286EA0000000775
B1053075611378N00959281EA0000000786
B1053125611330N00959367EA0000000789
B1053185611340N00959494EA0000000794
B1053235611391N00959526EA0000000794
B1053285611436N00959458EA0000000789
B1053345611420N00959333EA0000000791
B1053395611354N00959282EA0000000788
B1053455611271N00959332EA0000000800
B1053505611241N00959436EA0000000798
B1053555611271N00959524EA0000000800
B1054015611342N00959544EA0000000792
B1054065611387N00959626EA0000000788
B1054115611384N00959753EA0000000778
B1054225611342N01000059EA0000000747
B1054275611330N01000206EA0000000740
B1054365611309N01000483EA0000000712
B1054415611294N01000641EA0000000704
B1054465611277N01000793EA0000000699
B1054525611256N01000972EA0000000685
B1054595611232N01001179EA0000000666
B1055055611213N01001355EA0000000656
B1055125611185N01001558EA0000000661
B1055175611156N01001688EA0000000660
B1055225611123N01001824EA0000000646
B1055305611085N01002062EA0000000626
B1055355611073N01002218EA0000000617
B1055425611077N01002430EA0000000609
B1055515611076N01002698EA0000000597
B1056015611074N01002991EA0000000585
B1056075611077N01003159EA0000000578
B1056125611074N01003297EA0000000574
B1056185611050N01003451EA0000000570
B1056235611022N01003574EA0000000568
B1056345610924N01003808EA0000000564
B1056415610831N01003909EA0000000573
B1056465610755N01003903EA0000000576
B1056515610712N01003800EA0000000579
B1056565610724N01003692EA0000000582
B1057025610786N01003673EA0000000590
B1057075610805N01003762EA0000000587
B1057125610763N01003858EA0000000582
B1057195610657N01003848EA0000000588
B1057245610607N01003753EA0000000591
B1057295610617N01003642EA0000000592
B1057375610701N01003628EA0000000598
B1057435610768N01003664EA0000000592
B1057485610826N01003705EA0000000589
B1057565610924N01003773EA0000000578
B1058045611029N01003815EA0000000573
B1058095611097N01003841EA0000000563
B1058145611167N01003860EA0000000560
B1058225611276N01003900EA0000000553
B1058295611350N01004001EA0000000565
B1058365611425N01004084EA0000000579
B1058425611486N01004148EA0000000589
B1058495611554N01004223EA0000000601
B1058545611570N01004311EA0000000596
B1058595611514N01004369EA0000000593
B1059045611457N01004286EA0000000597
B1059105611436N01004126EA0000000608
B1059155611476N01004042EA0000000609
B1059205611515N01004102EA0000000610
B1059265611463N01004197EA0000000611
B1059315611392N01004153EA0000000618
B1059365611351N01004046EA0000000624
B1059425611377N01003919EA0000000626
B1059515611478N01003825EA0000000618
B1059585611567N01003786EA0000000625
B1100035611629N01003766EA0000000631
B1100085611690N01003796EA0000000626
B1100175611806N01003835EA0000000622
B1100225611869N01003795EA0000000619
B1100305611946N01003652EA0000000604
B1100365612005N01003535EA0000000589
B1100415612060N01003439EA0000000575
B1100465612124N01003370EA0000000569
B1100515612192N01003364EA0000000562
B1100565612228N01003455EA0000000561
B1101045612180N01003630EA0000000548
B1101105612122N01003760EA0000000534
B1101165612062N01003894EA0000000523
B1101215612009N01004001EA0000000529
B1101265611959N01004106EA0000000547
B1101315611931N01004218EA0000000557
B1101365611938N01004329EA0000000554
B1101415611975N01004405EA0000000549
B1101465612029N01004409EA0000000536
B1101515612049N01004306EA0000000526
B1101575611992N01004167EA0000000512
B1102025611924N01004069EA0000000509
B1102075611844N01004032EA0000000519
B1102125611786N01004096EA0000000519
B1102175611806N01004181EA0000000515
B1102225611851N01004153EA0000000521
B1102275611867N01004047EA0000000516
B1102325611840N01003928EA0000000516
B1102385611769N01003835EA0000000512
B1102435611696N01003809EA0000000504
B1102515611572N01003825EA0000000492
B1103005611427N01003879EA0000000475
B1103085611310N01003985EA0000000471
B1103155611211N01004082EA0000000472
B1103205611126N01004097EA0000000471
B1103285610990N01004035EA0000000472
B1103355610873N01003967EA0000000463
B1103405610787N01003930EA0000000454
B1103485610651N01003881EA0000000454
B1103535610577N01003813EA0000000448
B1103595610509N01003694EA0000000443
B1104055610442N01003572EA0000000436
B1104145610326N01003415EA0000000434
B1104195610271N01003313EA0000000446
B1104245610254N01003189EA0000000450
B1104305610304N01003127EA0000000442
B1104355610331N01003215EA0000000433
B1104415610316N01003349EA0000000442
B1104465610286N01003446EA0000000451
B1104515610228N01003501EA0000000448
B1104575610142N01003458EA0000000444
B1105025610077N01003387EA0000000436
B1105075610045N01003260EA0000000432
B1105165610058N01003018EA0000000431
B1105215610093N01002915EA0000000425
B1105265610145N01002855EA0000000434
B1105345610228N01002763EA0000000439
B1105395610288N01002745EA0000000437
B1105445610342N01002785EA0000000446
B1105505610351N01002901EA0000000445
B1105565610276N01002943EA0000000446
B1106015610220N01002869EA0000000451
B1106065610215N01002757EA0000000449
B1106115610264N01002728EA0000000451
B1106175610287N01002836EA0000000454
B1106225610238N01002906EA0000000461
B1106275610177N01002860EA0000000455
B1106325610164N01002741EA0000000464
B1106385610213N01002681EA0000000464
B1106435610244N01002751EA0000000467
B1106485610211N01002839EA0000000468
B1106545610131N01002812EA0000000465
B1106595610099N01002697EA0000000474
B1107045610124N01002604EA0000000468
B1107105610184N01002607EA0000000470
B1107185610211N01002762EA0000000475
B1107235610185N01002862EA0000000476
B1107285610118N01002856EA0000000485
B1107335610095N01002739EA0000000488
B1107385610138N01002672EA0000000489
B1107435610175N01002739EA0000000497
B1107485610144N01002830EA0000000497
B1107535610076N01002815EA0000000503
B1107585610049N01002701EA0000000505
B1108035610085N01002613EA0000000506
B1108085610137N01002643EA0000000513
B1108145610137N01002755EA0000000514
B1108195610072N01002787EA0000000520
B1108245610019N01002709EA0000000525
B1108305610034N01002579EA0000000523
B1108355610086N01002585EA0000000528
B1108405610091N01002682EA0000000527
B1108465610028N01002764EA0000000532
B1108515609964N01002817EA0000000540
B1108565609899N01002857EA0000000555
B1109025609831N01002784EA0000000563
B1109075609851N01002687EA0000000569
B1109125609901N01002710EA0000000569
B1109185609892N01002832EA0000000579
B1109235609830N01002864EA0000000584
B1109285609773N01002790EA0000000588
B1109345609780N01002657EA0000000600
B1109395609830N01002631EA0000000602
B1109445609854N01002719EA0000000607
B1109505609804N01002815EA0000000619
B1109555609736N01002802EA0000000626
B1110005609699N01002701EA0000000631
B1110065609740N01002612EA0000000640
B1110125609767N01002714EA0000000639
B1110175609714N01002782EA0000000655
B1110225609651N01002744EA0000000658
B1110275609630N01002624EA0000000664
B1110335609682N01002578EA0000000673
B1110385609712N01002660EA0000000673
B1110435609685N01002761EA0000000684
B1110485609621N01002796EA0000000691
B1110545609567N01002688EA0000000701
B1110595609600N01002608EA0000000702
B1111045609647N01002657EA0000000708
B1111105609622N01002775EA0000000715
B1111155609554N01002763EA0000000722
B1111205609530N01002654EA0000000731
B1111265609582N01002591EA0000000732
B1111315609618N01002669EA0000000735
B1111365609590N01002767EA0000000741
B1111425609507N01002768EA0000000743
B1111475609466N01002669EA0000000754
B1111525609481N01002566EA0000000760
B1111585609540N01002570EA0000000759
B1112035609540N01002676EA0000000762
B1112085609476N01002719EA0000000769
B1112145609408N01002629EA0000000780
B1112195609416N01002524EA0000000789
B1112245609468N01002521EA0000000786
B1112305609473N01002645EA0000000786
B1112355609406N01002695EA0000000790
B1112405609337N01002648EA0000000801
B1112465609317N01002521EA0000000808
B1112515609367N01002509EA0000000810
B1112565609368N01002612EA0000000816
B1113025609289N01002638EA0000000829
B1113075609259N01002538EA0000000835
B1113125609297N01002473EA0000000836
B1113185609337N01002560EA0000000844
B1113235609290N01002638EA0000000850
B1113285609233N01002578EA0000000864
B1113345609261N01002475EA0000000865
B1113395609307N01002526EA0000000869
B1113445609286N01002628EA0000000871
B1113505609205N01002627EA0000000884
B1113555609192N01002526EA0000000891
B1114005609241N01002507EA0000000888
B1114065609240N01002629EA0000000892
B1114115609173N01002668EA0000000900
B1114165609120N01002599EA0000000906
B1114225609157N01002522EA0000000909
B1114275609181N01002606EA0000000915
B1114335609112N01002677EA0000000925
B1114385609060N01002603EA0000000934
B1114435609084N01002520EA0000000933
B1114485609123N01002575EA0000000940
B1114545609082N01002692EA0000000947
B1114595609013N01002682EA0000000953
B1115045608994N01002582EA0000000957
B1115105609049N01002561EA0000000959
B1115155609061N01002668EA0000000964
B1115205609040N01002790EA0000000972
B1115265609002N01002929EA0000000971
B1115325608960N01003076EA0000000956
B1115405608945N01003290EA0000000941
B1115515608930N01003596EA0000000928
B1115565608922N01003742EA0000000920
B1116015608919N01003890EA0000000916
B1116085608921N01004099EA0000000909
B1116195608923N01004430EA0000000902
B1116265608929N01004644EA0000000896
B1116335608937N01004857EA0000000895
B1116385608951N01004996EA0000000899
B1116475608984N01005238EA0000000894
B1116555609003N01005465EA0000000884
B1117025609015N01005667EA0000000878
B1117075609020N01005810EA0000000871
B1117125609026N01005951EA0000000858
B1117225609039N01006235EA0000000837
B1117295609056N01006431EA0000000823
B1117365609075N01006628EA0000000816
B1117415609093N01006769EA0000000813
B1117465609112N01006914EA0000000802
B1117515609130N01007062EA0000000796
B1117565609140N01007210EA0000000785
B1118025609146N01007387EA0000000775
B1118105609156N01007618EA0000000757
B1118165609161N01007792EA0000000746
B1118225609167N01007965EA0000000742
B1118295609180N01008161EA0000000729
B1118345609198N01008296EA0000000721
B1118395609214N01008436EA0000000711
B1118465609226N01008638EA0000000703
B1118545609269N01008844EA0000000693
B1118595609329N01008898EA0000000689
B1119065609419N01008862EA0000000678
B1119145609531N01008810EA0000000662
B1119245609645N01008645EA0000000657
B1119305609691N01008518EA0000000649
B1119375609733N01008353EA0000000641
B1119425609756N01008231EA0000000633
B1119545609808N01007935EA0000000609
B1120005609834N01007784EA0000000604
B1120055609857N01007655EA0000000595
B1120105609881N01007529EA0000000596
B1120185609907N01007322EA0000000606
B1120235609887N01007195EA0000000613
B1120285609820N01007144EA0000000624
B1120335609776N01007215EA0000000633
B1120385609799N01007296EA0000000635
B1120435609852N01007280EA0000000646
B1120485609864N01007168EA0000000648
B1120535609814N01007077EA0000000656
B1120585609750N01007103EA0000000665
B1121035609738N01007196EA0000000669
B1121085609784N01007219EA0000000668
B1121135609802N01007113EA0000000678
B1121185609745N01007043EA0000000678
B1121235609684N01007092EA0000000684
B1121285609677N01007191EA0000000689
B1121345609731N01007235EA0000000697
B1121395609766N01007154EA0000000702
B1121445609733N01007046EA0000000705
B1121505609654N01007046EA0000000709
B1121555609614N01007128EA0000000711
B1122005609615N01007221EA0000000726
B1122065609674N01007240EA0000000728
B1122135609691N01007095EA0000000736
B1122185609622N01007072EA0000000731
B1122235609605N01007171EA0000000743
B1122285609656N01007183EA0000000750
B1122335609674N01007079EA0000000758
B1122385609626N01006996EA0000000755
B1122435609559N01007016EA0000000761
B1122485609526N01007108EA0000000770
B1122545609558N01007193EA0000000773
B1122595609604N01007135EA0000000782
B1123045609585N01007021EA0000000787
B1123105609505N01007003EA0000000793
B1123165609483N01007119EA0000000797
B1123225609537N01007160EA0000000806
B1123275609561N01007063EA0000000812
B1123325609510N01006989EA0000000812
B1123375609458N01007054EA0000000818
B1123425609473N01007137EA0000000821
B1123475609527N01007112EA0000000818
B1123525609536N01006999EA0000000827
B1123585609466N01006929EA0000000825
B1124035609412N01006990EA0000000827
B1124085609415N01007088EA0000000832
B1124145609473N01007126EA0000000831
B1124195609531N01007144EA0000000828
B1124245609592N01007166EA0000000817
B1124305609670N01007181EA0000000811
B1124385609766N01007173EA0000000808
B1124475609877N01007161EA0000000806
B1124545609956N01007137EA0000000806
B1125035610054N01007083EA0000000795
B1125085610110N01007050EA0000000799
B1125185610225N01007040EA0000000807
B1125255610304N01007030EA0000000815
B1125315610370N01007031EA0000000816
B1125375610433N01007042EA0000000807
B1125465610531N01007047EA0000000800
B1125515610586N01007049EA0000000790
B1125565610641N01007057EA0000000786
B1126025610707N01007069EA0000000780
B1126085610773N01007080EA0000000774
B1126135610828N01007095EA0000000772
B1126195610895N01007112EA0000000765
B1126295611011N01007144EA0000000754
B1126355611076N01007178EA0000000746
B1126415611138N01007221EA0000000736
B1126465611189N01007255EA0000000725
B1126525611251N01007295EA0000000713
B1126585611315N01007337EA0000000697
B1127075611420N01007403EA0000000691
B1127125611468N01007461EA0000000686
B1127185611483N01007588EA0000000677
B1127245611443N01007723EA0000000671
B1127295611394N01007825EA0000000663
B1127385611299N01008005EA0000000668
B1127435611235N01008073EA0000000674
B1127485611182N01007993EA0000000662
B1127535611206N01007889EA0000000656
B1128005611284N01007853EA0000000660
B1128055611335N01007839EA0000000660
B1128105611380N01007884EA0000000655
B1128185611430N01008014EA0000000665
B1128265611476N01008137EA0000000661
B1128315611504N01008217EA0000000665
B1128365611531N01008300EA0000000664
B1128415611572N01008361EA0000000658
B1128465611620N01008358EA0000000656
B1128515611648N01008283EA0000000654
B1128565611639N01008176EA0000000649
B1129035611624N01008006EA0000000635
B1129105611635N01007830EA0000000639
B1129165611650N01007683EA0000000648
B1129225611668N01007548EA0000000661
B1129295611686N01007385EA0000000666
B1129365611710N01007226EA0000000661
B1129425611728N01007089EA0000000653
B1129485611747N01006946EA0000000648
B1129565611766N01006747EA0000000649
B1130035611784N01006566EA0000000636
B1130085611783N01006439EA0000000633
B1130135611752N01006325EA0000000630
B1130185611686N01006259EA0000000628
B1130265611561N01006278EA0000000617
B1130325611466N01006313EA0000000620
B1130385611374N01006330EA0000000621
B1130455611265N01006341EA0000000603
B1130545611119N01006343EA0000000592
B1131005611025N01006332EA0000000584
B1131075610918N01006312EA0000000575
B1131145610812N01006288EA0000000582
B1131205610725N01006264EA0000000600
B1131265610644N01006264EA0000000606
B1131315610600N01006344EA0000000623
B1131365610623N01006431EA0000000628
B1131425610677N01006376EA0000000641
B1131475610649N01006276EA0000000653
B1131525610583N01006290EA0000000657
B1131585610550N01006411EA0000000672
B1132035610521N01006508EA0000000668
B1132085610453N01006494EA0000000667
B1132145610435N01006363EA0000000679
B1132195610471N01006282EA0000000688
B1132245610527N01006267EA0000000700
B1132305610555N01006371EA0000000714
B1132355610504N01006428EA0000000720
B1132405610445N01006379EA0000000717
B1132465610433N01006250EA0000000725
B1132535610495N01006177EA0000000737
B1132585610540N01006224EA0000000739
B1133035610523N01006329EA0000000751
B1133085610462N01006351EA0000000760
B1133135610421N01006268EA0000000759
B1133185610434N01006167EA0000000770
B1133235610482N01006147EA0000000771
B1133285610517N01006226EA0000000781
B1133345610476N01006332EA0000000792
B1133395610413N01006302EA0000000795
B1133445610402N01006198EA0000000801
B1133505610460N01006156EA0000000808
B1133555610486N01006247EA0000000817
B1134005610442N01006326EA0000000822
B1134065610374N01006264EA0000000822
B1134115610392N01006164EA0000000826
B1134165610448N01006155EA0000000833
B1134235610474N01006282EA0000000840
B1134285610421N01006345EA0000000841
B1134335610366N01006289EA0000000830
B1134385610362N01006175EA0000000836
B1134435610396N01006092EA0000000844
B1134485610450N01006072EA0000000851
B1134565610510N01006193EA0000000851
B1135015610546N01006277EA0000000847
B1135085610621N01006333EA0000000828
B1135135610680N01006313EA0000000815
B1135195610746N01006234EA0000000797
B1135275610831N01006111EA0000000785
B1135345610908N01005993EA0000000780
B1135405610968N01005882EA0000000778
B1135465611019N01005750EA0000000779
B1135535611077N01005597EA0000000770
B1135595611125N01005459EA0000000761
B1136055611170N01005314EA0000000752
B1136125611231N01005155EA0000000745
B1136195611295N01005002EA0000000739
B1136245611335N01004892EA0000000739
B1136305611374N01004753EA0000000740
B1136355611406N01004643EA0000000737
B1136415611450N01004521EA0000000730
B1136505611526N01004330EA0000000717
B1136595611633N01004198EA0000000709
B1137085611749N01004071EA0000000692
B1137155611846N01003992EA0000000675
B1137215611927N01003922EA0000000676
B1137285612017N01003829EA0000000682
B1137355612109N01003749EA0000000676
B1137415612189N01003694EA0000000671
B1137475612273N01003652EA0000000667
B1137525612341N01003618EA0000000664
B1138015612463N01003543EA0000000654
B1138065612529N01003482EA0000000653
B1138115612591N01003396EA0000000655
B1138165612648N01003293EA0000000653
B1138235612730N01003149EA0000000653
B1138295612795N01003010EA0000000656
B1138365612847N01002822EA0000000650
B1138445612864N01002579EA0000000636
B1138495612852N01002424EA0000000634
B1138545612828N01002276EA0000000630
B1139005612780N01002109EA0000000619
B1139055612729N01001978EA0000000612
B1139105612676N01001844EA0000000604
B1139155612630N01001703EA0000000591
B1139215612596N01001526EA0000000580
B1139265612590N01001376EA0000000574
B1139375612609N01001065EA0000000562
B1139435612638N01000915EA0000000554
B1139495612685N01000779EA0000000536
B1139555612758N01000706EA0000000527
B1140035612856N01000590EA0000000511
B1140105612926N01000454EA0000000512
B1140165612978N01000326EA0000000510
B1140235613033N01000183EA0000000523
B1140325613113N01000015EA0000000528
B1140375613170N00959979EA0000000519
B1140425613204N01000050EA0000000508
B1140475613171N01000140EA0000000498
B1140525613104N01000170EA0000000485
B1140585613011N01000170EA0000000477
B1141075612877N01000189EA0000000486
B1141165612750N01000217EA0000000483
B1141225612666N01000246EA0000000494
B1141275612604N01000250EA0000000500
B1141325612578N01000149EA0000000498
B1141375612622N01000076EA0000000499
B1141435612679N01000149EA0000000505
B1141485612684N01000252EA0000000506
B1141535612644N01000333EA0000000507
B1141595612564N01000330EA0000000510
B1142045612505N01000281EA0000000515
B1142095612482N01000179EA0000000505
B1142145612528N01000102EA0000000502
B1142205612589N01000159EA0000000513
B1142255612608N01000254EA0000000516
B1142305612559N01000326EA0000000512
B1142355612506N01000266EA0000000515
B1142405612520N01000166EA0000000512
B1142455612579N01000148EA0000000519
B1142505612636N01000175EA0000000524
B1142555612665N01000268EA0000000513
B1143035612623N01000458EA0000000490
B1143115612560N01000648EA0000000475
B1143175612504N01000779EA0000000465
B1143225612447N01000876EA0000000454
B1143285612370N01000989EA0000000436
B1143395612232N01001216EA0000000410
B1143475612133N01001390EA0000000401
B1143535612056N01001513EA0000000388
B1143595611988N01001644EA0000000400
B1144045611973N01001750EA0000000404
B1144095612012N01001806EA0000000389
B1144145612049N01001737EA0000000377
B1144195612021N01001627EA0000000364
B1144265611919N01001554EA0000000363
B1144335611808N01001511EA0000000377
B1144385611787N01001403EA0000000374
B1144435611833N01001362EA0000000364
B1144495611870N01001455EA0000000370
B1144545611867N01001555EA0000000382
B1144595611817N01001622EA0000000380
B1145045611749N01001571EA0000000383
B1145105611749N01001441EA0000000389
B1145155611799N01001432EA0000000390
B1145215611817N01001530EA0000000401
B1145265611774N01001616EA0000000400
B1145345611657N01001609EA0000000412
B1145405611630N01001487EA0000000417
B1145455611676N01001450EA0000000410
B1145515611693N01001560EA0000000412
B1145575611653N01001689EA0000000421
B1146025611602N01001777EA0000000428
B1146075611531N01001768EA0000000430
B1146135611496N01001642EA0000000423
B1146185611533N01001574EA0000000426
B1146235611576N01001625EA0000000434
B1146285611577N01001728EA0000000442
B1146335611515N01001777EA0000000437
B1146385611457N01001701EA0000000435
B1146435611452N01001584EA0000000435
B1146485611484N01001502EA0000000436
B1146545611530N01001565EA0000000451
B1146595611502N01001664EA0000000460
B1147045611431N01001670EA0000000457
B1147115611375N01001522EA0000000460
B1147165611394N01001420EA0000000468
B1147215611443N01001423EA0000000479
B1147265611423N01001520EA0000000488
B1147315611353N01001499EA0000000497
B1147365611350N01001393EA0000000506
B1147425611400N01001425EA0000000522
B1147475611354N01001500EA0000000525
B1147525611301N01001422EA0000000532
B1147585611345N01001345EA0000000544
B1148035611354N01001435EA0000000553
B1148085611286N01001467EA0000000560
B1148145611238N01001349EA0000000574
B1148195611276N01001271EA0000000579
B1148245611316N01001331EA0000000589
B1148305611263N01001431EA0000000601
B1148355611194N01001383EA0000000611
B1148405611196N01001271EA0000000621
B1148465611255N01001279EA0000000633
B1148515611236N01001378EA0000000642
B1148565611166N01001365EA0000000655
B1149025611157N01001238EA0000000666
B1149075611210N01001227EA0000000672
B1149125611212N01001327EA0000000685
B1149185611134N01001355EA0000000700
B1149235611097N01001259EA0000000713
B1149285611128N01001170EA0000000706
B1149345611188N01001224EA0000000719
B1149395611164N01001319EA0000000735
B1149445611099N01001293EA0000000740
B1149505611117N01001177EA0000000754
B1149555611159N01001230EA0000000766
B1150005611124N01001314EA0000000773
B1150065611046N01001261EA0000000781
B1150115611045N01001153EA0000000791
B1150165611099N01001135EA0000000786
B1150225611121N01001253EA0000000806
B1150275611066N01001309EA0000000806
B1150325610998N01001263EA0000000818
B1150385610989N01001132EA0000000824
B1150435611041N01001085EA0000000826
B1150485611094N01001127EA0000000835
B1150545611100N01001244EA0000000840
B1150595611045N01001297EA0000000831
B1151045610978N01001258EA0000000840
B1151105610941N01001142EA0000000849
B1151155610989N01001086EA0000000849
B1151215611016N01001186EA0000000865
B1151265610958N01001231EA0000000871
B1151315610916N01001137EA0000000880
B1151365610959N01001076EA0000000878
B1151425610986N01001184EA0000000892
B1151475610926N01001229EA0000000898
B1151525610887N01001135EA0000000907
B1151585610943N01001084EA0000000904
B1152035610952N01001187EA0000000907
B1152085610886N01001200EA0000000916
B1152145610862N01001071EA0000000924
B1152195610912N01001042EA0000000924
B1152245610930N01001136EA0000000928
B1152305610865N01001212EA0000000934
B1152355610799N01001172EA0000000943
B1152405610758N01001078EA0000000939
B1152465610716N01000939EA0000000924
B1152535610662N01000759EA0000000914
B1153005610615N01000570EA0000000914
B1153075610565N01000390EA0000000914
B1153165610520N01000157EA0000000904
B1153215610506N01000029EA0000000905
B1153275610490N00959881EA0000000898
B1153345610460N00959690EA0000000884
B1153415610415N00959492EA0000000877
B1153515610348N00959202EA0000000865
B1153595610303N00958957EA0000000858
B1154045610276N00958808EA0000000851
B1154115610232N00958598EA0000000847
B1154165610194N00958453EA0000000840
B1154275610118N00958130EA0000000839
B1154325610084N00957990EA0000000831
B1154385610034N00957820EA0000000826
B1154435609993N00957681EA0000000823
B1154485609954N00957537EA0000000811
B1154545609907N00957354EA0000000801
B1155005609852N00957176EA0000000807
B1155055609804N00957043EA0000000813
B1155105609750N00956935EA0000000815
B1155155609673N00956917EA0000000807
B1155235609538N00956998EA0000000783
B1155295609425N00957032EA0000000771
B1155345609327N00957024EA0000000763
B1155405609210N00956978EA0000000764
B1155465609102N00956923EA0000000767
B1155515609022N00956873EA0000000767
B1155565608947N00956808EA0000000756
B1156015608876N00956723EA0000000753
B1156065608828N00956608EA0000000752
B1156175608765N00956308EA0000000742
B1156245608746N00956109EA0000000738
B1156305608750N00955941EA0000000734
B1156365608792N00955808EA0000000734
B1156445608889N00955775EA0000000723
B1156515608983N00955785EA0000000722
B1156575609068N00955796EA0000000713
B1157035609142N00955863EA0000000709
B1157085609197N00955938EA0000000707
B1157165609275N00956078EA0000000708
B1157225609329N00956199EA0000000700
B1157275609363N00956323EA0000000693
B1157345609392N00956524EA0000000681
B1157405609420N00956701EA0000000670
B1157535609460N00957090EA0000000661
B1158025609488N00957354EA0000000659
B1158095609507N00957555EA0000000665
B1158155609524N00957723EA0000000664
B1158205609537N00957861EA0000000648
B1158275609550N00958067EA0000000632
B1158345609558N00958280EA0000000624
B1158415609566N00958489EA0000000613
B1158495609577N00958728EA0000000601
B1158565609586N00958932EA0000000594
B1159015609595N00959077EA0000000585
B1159065609608N00959224EA0000000576
B1159155609631N00959489EA0000000565
B1159225609649N00959696EA0000000564
B1159345609690N01000054EA0000000539
B1159425609727N01000269EA0000000528
B1159475609749N01000391EA0000000539
B1159525609781N01000479EA0000000560
B1159585609833N01000468EA0000000563
B1200035609843N01000351EA0000000552
B1200085609784N01000268EA0000000566
B1200145609705N01000297EA0000000574
B1200205609684N01000417EA0000000577
B1200285609710N01000581EA0000000585
B1200345609746N01000694EA0000000588
B1200405609791N01000816EA0000000579
B1200465609834N01000957EA0000000570
B1200515609869N01001082EA0000000569
B1200565609907N01001212EA0000000557
B1201055609985N01001453EA0000000545
B1201105610032N01001582EA0000000541
B1201165610086N01001726EA0000000535
B1201225610136N01001858EA0000000534
B1201285610182N01001991EA0000000514
B1201345610234N01002150EA0000000490
B1201405610286N01002299EA0000000489
B1201455610325N01002422EA0000000480
B1201505610363N01002551EA0000000471
B1201585610428N01002758EA0000000466
B1202035610467N01002882EA0000000475
B1202105610515N01003019EA0000000510
B1202155610550N01003089EA0000000528
B1202205610601N01003107EA0000000530
B1202265610630N01002988EA0000000529
B1202315610573N01002922EA0000000529
B1202365610520N01002986EA0000000531
B1202415610509N01003100EA0000000545
B1202465610553N01003139EA0000000554
B1202525610575N01003020EA0000000560
B1202575610529N01002943EA0000000555
B1203025610462N01002974EA0000000571
B1203085610439N01003085EA0000000579
B1203135610474N01003149EA0000000583
B1203185610524N01003117EA0000000590
B1203245610545N01002987EA0000000600
B1203295610501N01002903EA0000000603
B1203345610433N01002921EA0000000611
B1203395610414N01003016EA0000000622
B1203445610460N01003056EA0000000627
B1203495610496N01002955EA0000000631
B1203545610457N01002859EA0000000647
B1203595610398N01002894EA0000000656
B1204045610389N01002994EA0000000663
B1204095610437N01003040EA0000000672
B1204145610489N01002980EA0000000683
B1204195610483N01002864EA0000000692
B1204245610426N01002816EA0000000697
B1204305610362N01002880EA0000000710
B1204355610362N01002982EA0000000718
B1204405610407N01003032EA0000000714
B1204465610462N01002947EA0000000713
B1204515610448N01002830EA0000000721
B1204565610385N01002800EA0000000726
B1205025610329N01002885EA0000000743
B1205075610337N01002985EA0000000753
B1205125610390N01002987EA0000000751
B1205185610405N01002859EA0000000741
B1205235610355N01002768EA0000000750
B1205285610285N01002752EA0000000763
B1205345610222N01002829EA0000000777
B1205395610229N01002922EA0000000773
B1205445610284N01002909EA0000000781
B1205505610292N01002775EA0000000796
B1205555610236N01002716EA0000000799
B1206015610191N01002813EA0000000809
B1206075610249N01002848EA0000000818
B1206125610270N01002747EA0000000833
B1206175610227N01002660EA0000000838
B1206225610160N01002674EA0000000845
B1206275610133N01002779EA0000000850
B1206325610166N01002866EA0000000856
B1206385610237N01002858EA0000000867
B1206435610267N01002763EA0000000878
B1206485610250N01002651EA0000000880
B1206545610172N01002613EA0000000895
B1206595610126N01002695EA0000000904
B1207045610132N01002799EA0000000909
B1207105610199N01002831EA0000000919
B1207155610237N01002747EA0000000925
B1207205610215N01002637EA0000000928
B1207265610140N01002628EA0000000931
B1207315610118N01002739EA0000000932
B1207365610125N01002876EA0000000930
B1207535610116N01003437EA0000000898
B1208025610094N01003715EA0000000900
B1208085610084N01003895EA0000000898
B1208205610083N01004252EA0000000890
B1208305610099N01004535EA0000000889
B1208355610114N01004674EA0000000883
B1208405610135N01004815EA0000000880
B1208495610195N01005046EA0000000884
B1208575610277N01005202EA0000000887
B1209025610327N01005312EA0000000878
B1209095610393N01005486EA0000000871
B1209185610481N01005706EA0000000866
B1209235610528N01005825EA0000000869
B1209345610630N01006081EA0000000872
B1209405610683N01006217EA0000000866
B1209475610747N01006377EA0000000862
B1209535610803N01006514EA0000000868
B1209585610850N01006615EA0000000874
B1210035610902N01006713EA0000000873
B1210085610954N01006800EA0000000879
B1210135611006N01006877EA0000000871
B1210185611055N01006974EA0000000863
B1210255611097N01007148EA0000000861
B1210315611098N01007314EA0000000854
B1210365611076N01007461EA0000000841
B1210425611051N01007633EA0000000828
B1210475611021N01007778EA0000000818
B1210545610971N01007980EA0000000809
B1210595610943N01008125EA0000000808
B1211065610896N01008332EA0000000807
B1211125610856N01008512EA0000000800
B1211195610810N01008729EA0000000793
B1211275610736N01008965EA0000000785
B1211335610638N01009085EA0000000774
B1211435610441N01009120EA0000000768
B1211485610347N01009068EA0000000761
B1211535610262N01008974EA0000000752
B1211585610190N01008855EA0000000752
B1212035610105N01008803EA0000000752
B1212105609999N01008880EA0000000745
B1212155609941N01008984EA0000000731
B1212205609902N01009109EA0000000725
B1212265609864N01009278EA0000000718
B1212325609829N01009457EA0000000717
B1212405609788N01009685EA0000000731
B1212485609747N01009902EA0000000743
B1212555609726N01010086EA0000000758
B1213025609693N01010269EA0000000756
B1213075609630N01010365EA0000000756
B1213125609547N01010377EA0000000756
B1213185609494N01010252EA0000000755
B1213235609496N01010117EA0000000746
B1213285609511N01009979EA0000000748
B1213345609560N01009854EA0000000746
B1213395609622N01009841EA0000000745
B1213465609675N01009975EA0000000743
B1213555609731N01010188EA0000000757
B1214005609783N01010272EA0000000750
B1214065609849N01010381EA0000000734
B1214155609909N01010621EA0000000723
B1214225609931N01010821EA0000000713
B1214275609966N01010949EA0000000705
B1214325610030N01010987EA0000000703
B1214395610102N01010865EA0000000678
B1214455610152N01010705EA0000000665
B1214515610201N01010536EA0000000657
B1214585610261N01010334EA0000000645
B1215055610315N01010132EA0000000639
B1215105610350N01009987EA0000000649
B1215165610394N01009836EA0000000675
B1215215610444N01009823EA0000000696
B1215265610460N01009915EA0000000688
B1215315610410N01009991EA0000000686
B1215385610311N01009962EA0000000691
B1215435610261N01009878EA0000000692
B1215485610266N01009766EA0000000693
B1215535610311N01009711EA0000000693
B1215585610355N01009763EA0000000696
B1216035610345N01009872EA0000000705
B1216085610282N01009912EA0000000718
B1216145610242N01009797EA0000000715
B1216195610279N01009707EA0000000717
B1216245610328N01009625EA0000000710
B1216325610403N01009465EA0000000687
B1216385610453N01009312EA0000000669
B1216465610517N01009089EA0000000655
B1216525610557N01008918EA0000000646
B1216595610591N01008709EA0000000623
B1217045610614N01008550EA0000000605
B1217105610639N01008365EA0000000613
B1217155610660N01008225EA0000000615
B1217235610698N01007995EA0000000612
B1217285610719N01007839EA0000000609
B1217345610736N01007648EA0000000614
B1217405610758N01007465EA0000000613
B1217455610781N01007325EA0000000606
B1217525610816N01007125EA0000000592
B1218045610871N01006756EA0000000565
B1218155610920N01006395EA0000000543
B1218205610943N01006230EA0000000535
B1218275610968N01005994EA0000000531
B1218345610972N01005766EA0000000518
B1218395610985N01005605EA0000000510
B1218465611028N01005394EA0000000506
B1218545611085N01005166EA0000000506
B1218595611128N01005036EA0000000500
B1219105611236N01004767EA0000000490
B1219175611317N01004601EA0000000477
B1219275611377N01004325EA0000000476
B1219335611365N01004144EA0000000473
B1219385611316N01004020EA0000000471
B1219465611189N01003918EA0000000456
B1219525611086N01003868EA0000000445
B1220015610924N01003787EA0000000431
B1220065610841N01003710EA0000000432
B1220115610767N01003628EA0000000454
B1220165610754N01003521EA0000000478
B1220215610801N01003480EA0000000477
B1220265610843N01003539EA0000000481
B1220325610833N01003670EA0000000490
B1220375610776N01003725EA0000000502
B1220425610731N01003651EA0000000506
B1220475610755N01003554EA0000000510
B1220525610809N01003561EA0000000513
B1220575610827N01003659EA0000000515
B1221025610787N01003752EA0000000511
B1221075610719N01003766EA0000000525
B1221125610674N01003694EA0000000534
B1221185610701N01003586EA0000000527
B1221235610755N01003604EA0000000539
B1221285610763N01003707EA0000000544
B1221345610693N01003772EA0000000554
B1221395610643N01003704EA0000000560
B1221445610655N01003601EA0000000565
B1221505610717N01003616EA0000000564
B1221555610718N01003728EA0000000573
B1222015610646N01003756EA0000000583
B1222065610620N01003664EA0000000589
B1222115610657N01003593EA0000000589
B1222165610709N01003637EA0000000599
B1222225610695N01003761EA0000000597
B1222275610629N01003773EA0000000602
B1222325610597N01003678EA0000000615
B1222385610642N01003597EA0000000624
B1222435610690N01003655EA0000000625
B1222485610683N01003764EA0000000623
B1222545610609N01003793EA0000000619
B1222595610556N01003708EA0000000630
B1223045610545N01003596EA0000000642
B1223105610605N01003559EA0000000627
B1223155610639N01003665EA0000000635
B1223205610596N01003758EA0000000631
B1223265610509N01003739EA0000000639
B1223325610427N01003675EA0000000646
B1223375610389N01003570EA0000000631
B1223435610404N01003418EA0000000597
B1223485610456N01003330EA0000000576
B1223535610524N01003343EA0000000551
B1223595610544N01003496EA0000000540
B1224045610494N01003604EA0000000533
B1224095610416N01003589EA0000000528
B1224145610394N01003468EA0000000520
B1224195610446N01003414EA0000000527
B1224255610473N01003524EA0000000529
B1224305610419N01003596EA0000000536
B1224355610359N01003540EA0000000537
B1224405610353N01003423EA0000000547
B1224465610409N01003366EA0000000541
B1224515610441N01003455EA0000000548
B1224565610398N01003542EA0000000554
B1225025610321N01003486EA0000000557
B1225075610326N01003372EA0000000563
B1225125610380N01003361EA0000000561
B1225185610394N01003487EA0000000565
B1225245610320N01003532EA0000000572
B1225295610272N01003449EA0000000576
B1225345610282N01003340EA0000000576
B1225395610339N01003319EA0000000567
B1225455610411N01003403EA0000000566
B1225505610477N01003470EA0000000559
B1225555610552N01003539EA0000000539
B1226025610659N01003664EA0000000514
B1226075610735N01003772EA0000000510
B1226145610840N01003899EA0000000499
B1226235610988N01004103EA0000000460
B1226285611051N01004263EA0000000454
B1226355611089N01004545EA0000000422
B1226425611078N01004862EA0000000401
B1226475611126N01005040EA0000000434
B1226525611223N01005035EA0000000453
B1226575611254N01004917EA0000000495
B1227025611190N01004885EA0000000504
B1227075611174N01004989EA0000000513
B1227125611219N01005026EA0000000516
B1227175611241N01004934EA0000000525
B1227225611195N01004855EA0000000534
B1227275611135N01004889EA0000000534
B1227335611084N01005008EA0000000539
B1227385611080N01005121EA0000000540
B1227445611117N01005234EA0000000546
B1227495611162N01005231EA0000000543
B1227545611174N01005136EA0000000534
B1227595611137N01005035EA0000000543
B1228045611065N01005013EA0000000553
B1228095611018N01005096EA0000000565
B1228145611027N01005197EA0000000557
B1228195611077N01005237EA0000000559
B1228245611135N01005234EA0000000522
B1228305611248N01005265EA0000000459
B1228365611393N01005313EA0000000447
B1228415611513N01005347EA0000000446
B1228465611610N01005310EA0000000482
B1228515611632N01005172EA0000000499
B1228565611564N01005054EA0000000489
B1229025611475N01004879EA0000000463
B1229125611458N01004509EA0000000493
B1229185611490N01004350EA0000000494
B1229235611547N01004295EA0000000488
B1229285611608N01004328EA0000000478
B1229345611643N01004456EA0000000469
B1229405611620N01004618EA0000000463
B1229475611554N01004791EA0000000463
B1229535611474N01004916EA0000000461
B1229595611390N01005046EA0000000458
B1230065611304N01005215EA0000000457
B1230115611241N01005328EA0000000450
B1230175611145N01005368EA0000000450
B1230225611076N01005303EA0000000454
B1230275611034N01005198EA0000000460
B1230325611051N01005099EA0000000458
B1230385611123N01005113EA0000000440
B1230445611210N01005194EA0000000412
B1230495611295N01005269EA0000000407
B1230545611387N01005254EA0000000406
B1230595611455N01005135EA0000000418
B1231045611513N01005011EA0000000426
B1231105611601N01005016EA0000000434
B1231155611640N01005124EA0000000430
B1231205611629N01005267EA0000000426
B1231265611566N01005410EA0000000424
B1231325611469N01005473EA0000000421
B1231375611405N01005403EA0000000423
B1231425611421N01005298EA0000000428
B1231475611470N01005312EA0000000421
B1231525611469N01005453EA0000000391
B1231595611407N01005711EA0000000359
B1232045611362N01005902EA0000000360
B1232095611316N01006064EA0000000375
B1232145611339N01006178EA0000000382
B1232195611393N01006146EA0000000365
B1232245611408N01006022EA0000000349
B1232305611414N01005833EA0000000318
B1232365611423N01005617EA0000000298
B1232435611427N01005351EA0000000292
B1232505611434N01005080EA0000000285
B1232585611438N01004769EA0000000284
B1233035611409N01004603EA0000000304
B1233085611325N01004588EA0000000328
B1233135611284N01004686EA0000000334
B1233195611295N01004814EA0000000322
B1233245611277N01004939EA0000000316
B1233305611233N01005103EA0000000303
B1233365611193N01005278EA0000000299
B1233435611151N01005494EA0000000286
B1233485611136N01005657EA0000000280
B1233535611133N01005819EA0000000277
B1234015611111N01006069EA0000000272
B1234065611054N01006188EA0000000265
B1234155610896N01006240EA0000000240
B1234225610771N01006205EA0000000230
B1234275610729N01006084EA0000000222
B1234365610728N01005808EA0000000189
B1234435610732N01005570EA0000000168
B1234515610742N01005307EA0000000131
B1234565610747N01005146EA0000000107
B1235035610755N01004927EA0000000077
B1235115610761N01004726EA0000000074
B1235165610768N01004658EA0000000074
