AOGNOGN
HFDTE170825
HFFXA050
HFPLTPILOTINCHARGE:
HFGTYGLIDERTYPE:ASK-21
HFGIDGLIDERID:OY-TRX
HFDTM100GPSDATUM:WGS-1984
HFRFWFIRMWAREVERSION:
HFRHWHARDWAREVERSION:
HFFTYFRTYPE:OGN-FLIGHTBOOK
HFGPSGENERIC
HFPRSPRESSALTSENSOR:
HFCIDCOMPETITIONID:TR
B0936105610623N01005012EA0000000072
B0936145610645N01004920EA0000000089
B0936155610650N01004893EA0000000102
B0936205610671N01004772EA0000000192
B0936255610685N01004646EA0000000285
B0936305610716N01004535EA0000000369
B0936355610741N01004407EA0000000417
B0936405610781N01004298EA0000000442
B0936475610842N01004176EA0000000431
B0936525610892N01004097EA0000000424
B0936575610948N01004030EA0000000427
B0937025610999N01003946EA0000000428
B0937085611058N01003854EA0000000440
B0937135611096N01003756EA0000000432
B0937185611045N01003667EA0000000429
B0937235611013N01003760EA0000000428
B0937315611100N01003826EA0000000420
B0937375611166N01003838EA0000000417
B0937445611247N01003828EA0000000403
B0937505611324N01003834EA0000000394
B0937555611385N01003831EA0000000389
B0938015611458N01003815EA0000000380
B0938065611516N01003798EA0000000376
B0938135611600N01003771EA0000000357
B0938185611666N01003737EA0000000336
B0938235611715N01003790EA0000000337
B0938285611718N01003899EA0000000334
B0938385611694N01004116EA0000000330
B0938445611677N01004242EA0000000323
B0938505611651N01004371EA0000000312
B0938565611615N01004510EA0000000299
B0939055611552N01004707EA0000000279
B0939105611494N01004802EA0000000260
B0939175611417N01004953EA0000000245
B0939225611365N01005065EA0000000232
B0939295611257N01005181EA0000000218
B0939345611174N01005256EA0000000212
B0939425611046N01005392EA0000000206
B0939475610973N01005491EA0000000209
B0939525610903N01005598EA0000000203
B0939585610797N01005668EA0000000205
B0940035610714N01005611EA0000000216
B0940085610697N01005470EA0000000212
B0940145610709N01005291EA0000000164
B0940225610732N01005031EA0000000104
B0940285610742N01004844EA0000000077
B0940345610749N01004680EA0000000066
B0940395610756N01004580EA0000000064
