AOGNOGN
HFDTE180625
HFFXA050
HFPLTPILOTINCHARGE:
HFGTYGLIDERTYPE:ASK-21
HFGIDGLIDERID:OY-XVC
HFDTM100GPSDATUM:WGS-1984
HFRFWFIRMWAREVERSION:
HFRHWHARDWAREVERSION:
HFFTYFRTYPE:OGN-FLIGHTBOOK
HFGPSGENERIC
HFPRSPRESSALTSENSOR:
HFCIDCOMPETITIONID:VC
B1014325553125N01213947EA0000000018
B1014365553127N01213875EA0000000017
B1014425553134N01213736EA0000000020
B1014475553140N01213616EA0000000042
B1014535553148N01213482EA0000000066
B1015005553139N01213349EA0000000103
B1015075553084N01213241EA0000000125
B1015125553016N01213186EA0000000139
B1015185552908N01213159EA0000000156
B1015265552745N01213237EA0000000192
B1015335552606N01213304EA0000000217
B1015415552444N01213388EA0000000238
B1015465552342N01213429EA0000000250
B1015535552194N01213482EA0000000270
B1015585552092N01213498EA0000000293
B1016035551997N01213479EA0000000321
B1016095551902N01213417EA0000000363
B1016145551842N01213352EA0000000388
B1016195551817N01213262EA0000000406
B1016275551818N01213110EA0000000435
B1016345551828N01212986EA0000000452
B1016405551836N01212884EA0000000469
B1016455551845N01212793EA0000000479
B1016535551862N01212649EA0000000501
B1016585551877N01212563EA0000000515
B1017055551897N01212439EA0000000529
B1017105551914N01212349EA0000000542
B1017155551933N01212256EA0000000559
B1017235551957N01212115EA0000000595
B1017285551972N01212025EA0000000621
B1017345551985N01211917EA0000000649
B1017405551942N01211833EA0000000648
B1017555551821N01212214EA0000000625
B1018015551903N01212327EA0000000618
B1018085552005N01212391EA0000000628
B1018185551965N01212319EA0000000608
B1018245551900N01212510EA0000000615
B1018345552009N01212737EA0000000617
B1018395552004N01212671EA0000000598
B1018475551904N01212587EA0000000587
B1018565551869N01212447EA0000000589
B1019015551857N01212376EA0000000586
B1019085551857N01212254EA0000000583
B1019135551860N01212177EA0000000597
B1019205551875N01212069EA0000000599
B1019345551902N01211911EA0000000592
B1019395551891N01211827EA0000000581
B1019445551884N01211747EA0000000572
B1019495551899N01211672EA0000000556
B1019545551918N01211580EA0000000538
B1020005551920N01211452EA0000000533
B1020085551889N01211284EA0000000526
B1020145551859N01211161EA0000000525
B1020235551828N01210989EA0000000543
B1020285551813N01210923EA0000000562
B1020395551844N01210800EA0000000578
B1020485551903N01211040EA0000000592
B1020555551803N01211147EA0000000599
B1021015551779N01211059EA0000000608
B1021125551890N01211227EA0000000633
B1021175551840N01211389EA0000000635
B1021235551754N01211389EA0000000649
B1021295551769N01211309EA0000000661
B1021345551829N01211364EA0000000675
B1021405551844N01211566EA0000000679
B1021465551761N01211706EA0000000681
B1021515551702N01211670EA0000000690
B1022005551771N01211646EA0000000704
B1022055551791N01211811EA0000000710
B1022195551659N01211830EA0000000718
B1022305551684N01211689EA0000000724
B1022365551704N01211599EA0000000723
B1022425551730N01211511EA0000000734
B1022475551748N01211442EA0000000738
B1022535551765N01211360EA0000000746
B1022585551777N01211297EA0000000757
B1023045551792N01211232EA0000000767
B1023105551811N01211164EA0000000770
B1023205551844N01211040EA0000000781
B1023325551883N01210900EA0000000797
B1023375551898N01210844EA0000000813
B1023445551918N01210777EA0000000837
B1023495551935N01210726EA0000000847
B1024015551975N01210595EA0000000862
B1024115551965N01210454EA0000000835
B1024185551937N01210321EA0000000828
B1024245551943N01210230EA0000000821
B1024295551954N01210143EA0000000805
B1024395551989N01209965EA0000000785
B1024455552028N01209874EA0000000775
B1024525552073N01209761EA0000000751
B1025035552136N01209555EA0000000733
B1025135552181N01209367EA0000000749
B1025205552203N01209279EA0000000773
B1025265552220N01209201EA0000000781
B1025385552237N01209047EA0000000791
B1025435552239N01208989EA0000000801
B1025545552238N01208855EA0000000809
B1026015552242N01208775EA0000000814
B1026095552257N01208653EA0000000815
B1026145552267N01208582EA0000000821
B1026195552275N01208505EA0000000824
B1026315552286N01208340EA0000000849
B1027015552335N01208100EA0000000836
B1027095552365N01208018EA0000000824
B1027255552421N01207831EA0000000829
B1027325552443N01207754EA0000000845
B1027375552457N01207706EA0000000851
B1027425552473N01207658EA0000000846
B1027475552492N01207600EA0000000846
B1027545552519N01207518EA0000000861
B1028085552560N01207358EA0000000863
B1028135552575N01207309EA0000000866
B1028185552587N01207257EA0000000858
B1028245552596N01207180EA0000000849
B1028305552601N01207089EA0000000847
B1028405552605N01206953EA0000000881
B1028495552612N01206849EA0000000885
B1029105552641N01206606EA0000000908
B1029185552665N01206526EA0000000921
B1029255552683N01206453EA0000000926
B1029325552693N01206376EA0000000925
B1029455552694N01206217EA0000000900
B1029535552674N01206082EA0000000883
B1030035552667N01205919EA0000000881
B1030275552662N01205485EA0000000831
B1030345552750N01205489EA0000000821
B1030395552800N01205656EA0000000818
B1030575552794N01206405EA0000000822
B1031065552776N01206754EA0000000814
B1031395552604N01208029EA0000000810
B1031465552558N01208264EA0000000842
B1031515552519N01208429EA0000000844
B1031565552475N01208594EA0000000852
B1032015552431N01208762EA0000000853
B1032145552309N01209213EA0000000866
B1032195552267N01209376EA0000000876
B1032275552204N01209639EA0000000880
B1032345552152N01209878EA0000000878
B1032405552107N01210090EA0000000891
B1032525552027N01210500EA0000000900
B1032575551996N01210672EA0000000896
B1033045551944N01210928EA0000000874
B1033095551905N01211129EA0000000884
B1033165551835N01211363EA0000000895
B1033215551782N01211521EA0000000902
B1033275551722N01211713EA0000000898
B1033415551630N01211720EA0000000871
B1033565551621N01211639EA0000000848
B1034125551625N01212038EA0000000820
B1034175551648N01211968EA0000000811
B1034225551673N01211910EA0000000811
B1034305551746N01212080EA0000000826
B1034405551625N01212272EA0000000821
B1034465551623N01212197EA0000000812
B1034525551685N01212170EA0000000813
B1034575551733N01212145EA0000000822
B1035045551780N01212074EA0000000817
B1035105551796N01211987EA0000000816
B1035195551828N01211858EA0000000817
B1035275551863N01211774EA0000000852
B1035365551909N01211688EA0000000861
B1035485551977N01211565EA0000000851
B1035535552010N01211518EA0000000853
B1036015552063N01211450EA0000000852
B1036105552129N01211384EA0000000861
B1036165552171N01211349EA0000000865
B1036275552146N01211257EA0000000854
B1036335552056N01211381EA0000000842
B1036385552037N01211579EA0000000833
B1036445552099N01211747EA0000000832
B1036505552135N01211696EA0000000816
B1036555552098N01211616EA0000000815
B1037015552138N01211561EA0000000814
B1037065552212N01211646EA0000000820
B1037115552247N01211827EA0000000825
B1037185552176N01212046EA0000000840
B1037235552099N01212057EA0000000837
B1037285552082N01211987EA0000000832
B1037355552170N01212029EA0000000840
B1037405552207N01212196EA0000000849
B1037455552171N01212364EA0000000857
B1037525552064N01212440EA0000000854
B1037575552025N01212391EA0000000852
B1038025552025N01212329EA0000000849
B1038095552056N01212259EA0000000849
B1038145552103N01212236EA0000000847
B1038205552159N01212192EA0000000836
B1038385551979N01212043EA0000000834
B1038475551869N01211975EA0000000825
B1038525551815N01211929EA0000000817
B1038575551771N01211868EA0000000803
B1039045551799N01211785EA0000000788
B1039095551859N01211784EA0000000787
B1039175551926N01212021EA0000000786
B1039225551933N01212219EA0000000802
B1039295552020N01212326EA0000000814
B1039345552011N01212252EA0000000813
B1039425551922N01212444EA0000000828
B1039485551985N01212586EA0000000841
B1039545551995N01212518EA0000000844
B1039595551916N01212581EA0000000855
B1040045551907N01212758EA0000000860
B1040115551976N01212776EA0000000870
B1040165551910N01212760EA0000000875
B1040225551854N01212968EA0000000885
B1040305551806N01213281EA0000000900
B1040365551780N01213498EA0000000915
B1040445551760N01213779EA0000000906
B1040495551754N01213963EA0000000902
B1040545551732N01214146EA0000000898
B1040595551661N01214247EA0000000898
B1041055551616N01214191EA0000000882
B1041115551680N01214180EA0000000869
B1041215551797N01214212EA0000000882
B1041295551714N01214216EA0000000896
B1041355551718N01214420EA0000000901
B1041415551775N01214436EA0000000912
B1041495551677N01214470EA0000000922
B1041545551674N01214649EA0000000931
B1042015551746N01214682EA0000000942
B1042115551633N01214748EA0000000965
B1042165551651N01214915EA0000000970
B1042235551717N01214918EA0000000982
B1042285551679N01214866EA0000000988
B1042355551584N01215021EA0000000998
B1042405551611N01215181EA0000001006
B1042465551666N01215173EA0000001013
B1042575551541N01215271EA0000001030
B1043025551575N01215426EA0000001034
B1043075551623N01215410EA0000001041
B1043175551503N01215460EA0000001057
B1043235551523N01215661EA0000001063
B1043315551564N01215614EA0000001075
B1043395551447N01215708EA0000001082
B1043525551515N01215878EA0000001100
B1043585551432N01215842EA0000001104
B1044055551305N01215908EA0000001121
B1044125551208N01215874EA0000001127
B1044175551144N01215841EA0000001124
B1044235551081N01215774EA0000001121
B1044325551049N01215635EA0000001117
B1044395551058N01215536EA0000001093
B1044455551097N01215484EA0000001095
B1044505551130N01215452EA0000001091
B1045055551219N01215341EA0000001094
B1045145551289N01215257EA0000001077
B1045195551348N01215238EA0000001073
B1045245551406N01215214EA0000001062
B1045335551512N01215140EA0000001044
B1045405551591N01215061EA0000001037
B1045475551633N01214928EA0000001040
B1045525551646N01214840EA0000001072
B1046005551663N01214758EA0000001087
B1046055551670N01214709EA0000001079
B1046135551675N01214599EA0000001057
B1046185551672N01214517EA0000001035
B1046245551612N01214426EA0000001023
B1046315551508N01214365EA0000001015
B1046385551469N01214259EA0000001006
B1046445551499N01214177EA0000001002
B1046565551554N01214001EA0000001013
B1047035551582N01213892EA0000001009
B1047085551598N01213814EA0000001002
B1047135551627N01213748EA0000000991
B1047205551711N01213734EA0000000978
B1047255551775N01213734EA0000000965
B1047325551855N01213699EA0000000954
B1047375551871N01213621EA0000000943
B1047425551873N01213533EA0000000939
B1047485551878N01213434EA0000000934
B1047535551903N01213372EA0000000931
B1048045552036N01213386EA0000000917
B1048105552111N01213393EA0000000905
B1048165552187N01213402EA0000000888
B1048255552308N01213440EA0000000892
B1048315552379N01213478EA0000000903
B1048365552436N01213514EA0000000906
B1048425552506N01213549EA0000000910
B1048475552536N01213520EA0000000914
B1048535552458N01213501EA0000000916
B1048585552406N01213658EA0000000910
B1049055552467N01213788EA0000000904
B1049105552451N01213727EA0000000906
B1049165552353N01213793EA0000000902
B1049215552340N01213979EA0000000894
B1049275552400N01214039EA0000000896
B1049355552363N01213958EA0000000893
B1049405552288N01214088EA0000000890
B1049455552309N01214253EA0000000885
B1049505552344N01214237EA0000000889
B1049565552329N01214164EA0000000886
B1050015552305N01214101EA0000000878
B1050065552278N01214045EA0000000877
B1050115552252N01213993EA0000000871
B1050205552214N01213888EA0000000852
B1050275552186N01213803EA0000000841
B1050325552127N01213768EA0000000825
B1050395552017N01213759EA0000000809
B1050495551855N01213744EA0000000782
B1050545551771N01213738EA0000000775
B1050595551693N01213715EA0000000770
B1051045551633N01213661EA0000000766
B1051095551579N01213600EA0000000759
B1051185551475N01213487EA0000000741
B1051265551431N01213350EA0000000728
B1051325551411N01213241EA0000000720
B1051375551399N01213148EA0000000726
B1051435551392N01213051EA0000000741
B1051545551394N01212905EA0000000752
B1052015551399N01212832EA0000000760
B1052065551404N01212785EA0000000754
B1052125551413N01212711EA0000000736
B1052185551411N01212617EA0000000736
B1052235551405N01212539EA0000000748
B1052435551441N01212356EA0000000733
B1052575551522N01212285EA0000000731
B1053025551549N01212254EA0000000727
B1053125551582N01212166EA0000000733
B1053185551596N01212117EA0000000722
B1053255551608N01212033EA0000000702
B1053305551614N01211956EA0000000691
B1053355551619N01211876EA0000000688
B1053435551562N01211777EA0000000684
B1053515551524N01211663EA0000000673
B1054055551600N01211535EA0000000688
B1054105551622N01211502EA0000000676
B1054165551669N01211482EA0000000663
B1054215551731N01211589EA0000000667
B1054335551837N01211975EA0000000674
B1054385551788N01212135EA0000000681
B1054435551721N01212131EA0000000690
B1054595551701N01212346EA0000000698
B1055125551728N01212493EA0000000700
B1055175551655N01212516EA0000000712
B1055295551720N01212635EA0000000716
B1055355551638N01212736EA0000000718
B1055405551626N01212674EA0000000714
B1055465551688N01212793EA0000000718
B1055515551631N01212934EA0000000721
B1055595551570N01212857EA0000000719
B1056045551600N01212807EA0000000728
B1056105551660N01212887EA0000000726
B1056155551633N01213063EA0000000719
B1056205551560N01213093EA0000000730
B1056265551527N01213028EA0000000725
B1056315551570N01213029EA0000000723
B1056375551644N01213153EA0000000706
B1056485551757N01213191EA0000000675
B1056545551782N01213098EA0000000676
B1057005551831N01213034EA0000000671
B1057055551875N01212975EA0000000669
B1057105551918N01212921EA0000000690
B1057165551961N01212876EA0000000693
B1057245552020N01212812EA0000000700
B1057305552062N01212762EA0000000699
B1057395552115N01212693EA0000000685
B1057515552177N01212593EA0000000640
B1057565552210N01212536EA0000000622
B1058045552277N01212447EA0000000610
B1058095552324N01212397EA0000000607
B1058145552362N01212345EA0000000623
B1058195552391N01212312EA0000000629
B1058245552442N01212329EA0000000636
B1058315552453N01212536EA0000000653
B1058365552379N01212607EA0000000653
B1058425552353N01212546EA0000000662
B1058475552403N01212560EA0000000664
B1058535552419N01212735EA0000000680
B1058585552349N01212835EA0000000672
B1059045552302N01212778EA0000000688
B1059095552350N01212782EA0000000690
B1059165552351N01212995EA0000000701
B1059215552273N01213040EA0000000703
B1059265552251N01212975EA0000000713
B1059325552298N01212968EA0000000719
B1059395552316N01213173EA0000000729
B1059465552223N01213333EA0000000723
B1059525552184N01213269EA0000000732
B1059595552246N01213242EA0000000734
B1100045552304N01213266EA0000000743
B1100135552291N01213527EA0000000775
B1100215552240N01213478EA0000000790
B1100295552300N01213620EA0000000815
B1100345552241N01213746EA0000000823
B1100395552189N01213718EA0000000828
B1100475552251N01213735EA0000000845
B1100535552247N01213921EA0000000865
B1100585552175N01213993EA0000000875
B1101035552134N01213949EA0000000885
B1101105552185N01213957EA0000000892
B1101165552218N01214149EA0000000910
B1101215552169N01214297EA0000000929
B1101265552090N01214314EA0000000936
B1101315552026N01214287EA0000000943
B1101365552022N01214233EA0000000955
B1101445552091N01214262EA0000000963
B1101505552144N01214426EA0000000966
B1101555552149N01214602EA0000000985
B1102005552083N01214712EA0000000996
B1102075552004N01214652EA0000001009
B1102135552049N01214633EA0000001027
B1102195552092N01214808EA0000001029
B1102245552048N01214973EA0000001038
B1102315551939N01214997EA0000001050
B1102405551973N01214929EA0000001057
B1102465552024N01215091EA0000001071
B1102515551989N01215261EA0000001080
B1102575551895N01215332EA0000001091
B1103025551849N01215284EA0000001095
B1103125551923N01215284EA0000001109
B1103185551956N01215469EA0000001111
B1103245551913N01215675EA0000001123
B1103305551823N01215755EA0000001140
B1103355551763N01215725EA0000001143
B1103435551806N01215691EA0000001149
B1103485551852N01215816EA0000001144
B1103535551833N01215996EA0000001152
B1103595551743N01216069EA0000001150
B1104055551689N01215989EA0000001144
B1104225551441N01215834EA0000001135
B1104275551405N01215769EA0000001127
B1104325551430N01215711EA0000001113
B1104375551462N01215651EA0000001100
B1104465551522N01215533EA0000001095
B1104535551561N01215456EA0000001127
B1105035551601N01215368EA0000001131
B1105085551618N01215317EA0000001131
B1105135551633N01215269EA0000001135
B1105205551653N01215194EA0000001125
B1105255551669N01215128EA0000001126
B1105375551676N01214965EA0000001140
B1105435551667N01214890EA0000001137
B1105515551658N01214797EA0000001129
B1105575551649N01214735EA0000001127
B1106145551642N01214511EA0000001076
B1106195551640N01214433EA0000001067
B1106265551635N01214329EA0000001076
B1106325551638N01214263EA0000001076
B1106375551643N01214207EA0000001062
B1106425551649N01214141EA0000001060
B1106475551663N01214082EA0000001069
B1106555551693N01214001EA0000001071
B1107045551728N01213903EA0000001062
B1107125551748N01213815EA0000001051
B1107175551726N01213752EA0000001044
B1107235551659N01213704EA0000001045
B1107295551598N01213655EA0000001038
B1107365551532N01213593EA0000001030
B1107435551469N01213537EA0000001025
B1107495551420N01213480EA0000001017
B1107555551376N01213415EA0000001007
B1108025551294N01213365EA0000000988
B1108115551151N01213362EA0000000962
B1108165551107N01213298EA0000000956
B1108235551138N01213215EA0000000945
B1108315551224N01213194EA0000000940
B1108425551335N01213176EA0000000919
B1108475551384N01213165EA0000000907
B1108525551431N01213152EA0000000899
B1108585551487N01213125EA0000000901
B1109065551557N01213074EA0000000901
B1109185551651N01212988EA0000000885
B1109345551770N01212877EA0000000855
B1109425551819N01212818EA0000000844
B1109485551854N01212777EA0000000839
B1109535551880N01212738EA0000000834
B1110005551910N01212677EA0000000824
B1110075551939N01212612EA0000000808
B1110155551984N01212530EA0000000813
B1110225552031N01212465EA0000000819
B1110285552069N01212409EA0000000843
B1110345552113N01212375EA0000000842
B1110395552169N01212483EA0000000832
B1110445552147N01212654EA0000000837
B1110495552076N01212708EA0000000827
B1110565552074N01212625EA0000000823
B1111035552151N01212778EA0000000823
B1111085552125N01212960EA0000000822
B1111155552015N01213064EA0000000814
B1111205551962N01213016EA0000000822
B1111275551968N01212924EA0000000822
B1111365551994N01212821EA0000000824
B1111445552021N01212728EA0000000832
B1111525552041N01212620EA0000000843
B1111585552050N01212533EA0000000857
B1112045552054N01212438EA0000000876
B1112105552059N01212367EA0000000882
B1112155552058N01212308EA0000000881
B1112215552053N01212237EA0000000871
B1112265552048N01212181EA0000000867
B1112345552041N01212099EA0000000866
B1112415552040N01212035EA0000000861
B1112465552044N01211994EA0000000856
B1112555552047N01211908EA0000000846
B1113015552046N01211843EA0000000835
B1113065552074N01211803EA0000000844
B1113135552152N01211896EA0000000852
B1113185552177N01212072EA0000000861
B1113235552136N01212243EA0000000875
B1113295552045N01212285EA0000000869
B1113345552027N01212221EA0000000877
B1113405552083N01212218EA0000000888
B1113475552155N01212240EA0000000890
B1113525552203N01212237EA0000000891
B1113575552246N01212230EA0000000889
B1114075552331N01212215EA0000000878
B1114155552402N01212210EA0000000867
B1114215552424N01212167EA0000000867
B1114275552420N01212124EA0000000882
B1114365552412N01212050EA0000000888
B1114415552411N01212016EA0000000881
B1114495552416N01211963EA0000000872
B1114565552427N01211922EA0000000864
B1115015552434N01211894EA0000000855
B1115065552454N01211867EA0000000845
B1115115552504N01211916EA0000000842
B1115165552531N01212074EA0000000833
B1115225552499N01212283EA0000000835
B1115275552461N01212449EA0000000840
B1115325552407N01212595EA0000000838
B1115385552337N01212619EA0000000824
B1115455552338N01212570EA0000000816
B1115535552357N01212519EA0000000801
B1115585552362N01212493EA0000000799
B1116095552361N01212424EA0000000785
B1116185552361N01212362EA0000000778
B1116245552364N01212334EA0000000770
B1116295552369N01212310EA0000000756
B1116355552380N01212275EA0000000739
B1116425552391N01212224EA0000000725
B1116485552410N01212185EA0000000721
B1116545552428N01212141EA0000000703
B1117015552456N01212081EA0000000683
B1117105552489N01212021EA0000000670
B1117165552512N01211985EA0000000649
B1117215552541N01211957EA0000000633
B1117265552592N01211981EA0000000625
B1117315552644N01212092EA0000000608
B1117365552672N01212270EA0000000589
B1117435552630N01212534EA0000000569
B1117485552549N01212605EA0000000560
B1117545552518N01212550EA0000000549
B1118005552547N01212498EA0000000553
B1118065552562N01212444EA0000000554
B1118115552574N01212389EA0000000547
B1118195552620N01212330EA0000000526
B1118245552678N01212418EA0000000511
B1118295552693N01212612EA0000000488
B1118345552660N01212826EA0000000471
B1118435552597N01213207EA0000000433
B1118485552554N01213422EA0000000397
B1118545552498N01213691EA0000000372
B1118595552458N01213916EA0000000359
B1119045552432N01214148EA0000000345
B1119095552466N01214356EA0000000337
B1119155552551N01214518EA0000000325
B1119205552629N01214603EA0000000294
B1119255552710N01214643EA0000000267
B1119315552801N01214660EA0000000228
B1119385552890N01214614EA0000000188
B1119435552949N01214557EA0000000171
B1119505552993N01214413EA0000000142
B1119595553027N01214208EA0000000090
B1120045553048N01214091EA0000000055
B1120095553066N01213963EA0000000026
B1120165553078N01213807EA0000000016
B1120215553083N01213732EA0000000016
