AOGNOGN
HFDTE180625
HFFXA050
HFPLTPILOTINCHARGE:
HFGTYGLIDERTYPE:H36 Dimona
HFGIDGLIDERID:OY-NFX
HFDTM100GPSDATUM:WGS-1984
HFRFWFIRMWAREVERSION:
HFRHWHARDWAREVERSION:
HFFTYFRTYPE:OGN-FLIGHTBOOK
HFGPSGENERIC
HFPRSPRESSALTSENSOR:
HFCIDCOMPETITIONID:FX
B1350335553087N01213986EA0000000019
B1350365553088N01213940EA0000000020
B1350435553098N01213794EA0000000021
B1350485553109N01213666EA0000000036
B1350535553122N01213557EA0000000065
B1350595553136N01213434EA0000000080
B1351055553154N01213308EA0000000099
B1351125553220N01213187EA0000000117
B1351185553312N01213132EA0000000136
B1351255553434N01213117EA0000000164
B1351305553519N01213102EA0000000175
B1351355553599N01213083EA0000000200
B1351405553676N01213048EA0000000215
B1351475553785N01212987EA0000000236
B1351525553863N01212932EA0000000252
B1351585553945N01212866EA0000000281
B1352035554012N01212808EA0000000301
B1352095554087N01212739EA0000000334
B1352195554205N01212633EA0000000350
B1352245554265N01212566EA0000000359
B1352295554324N01212501EA0000000376
B1352345554378N01212439EA0000000392
B1352415554453N01212351EA0000000398
B1352485554527N01212273EA0000000417
B1352565554609N01212183EA0000000428
B1353035554680N01212095EA0000000432
B1353115554765N01211983EA0000000443
B1353165554825N01211908EA0000000449
B1353215554887N01211839EA0000000457
B1353315555006N01211707EA0000000461
B1353385555096N01211617EA0000000465
B1353455555190N01211542EA0000000486
B1353505555254N01211481EA0000000495
B1353565555330N01211408EA0000000514
B1354035555413N01211329EA0000000514
B1354105555445N01211207EA0000000512
B1354155555393N01211135EA0000000500
B1354205555295N01211151EA0000000496
B1354275555168N01211309EA0000000513
B1354345555039N01211465EA0000000525
B1354445554858N01211608EA0000000537
B1354525554719N01211717EA0000000508
B1354585554610N01211793EA0000000497
B1355045554504N01211877EA0000000472
B1355105554397N01212002EA0000000448
B1355185554257N01212190EA0000000423
B1355275554090N01212339EA0000000411
B1355325553994N01212324EA0000000399
B1355385553943N01212177EA0000000383
B1355445553970N01212020EA0000000357
B1355495554054N01211951EA0000000343
B1355545554149N01211994EA0000000353
B1355595554212N01212137EA0000000360
B1356045554210N01212323EA0000000364
B1356095554148N01212473EA0000000354
B1356165554014N01212592EA0000000340
B1356215553916N01212643EA0000000333
B1356265553823N01212706EA0000000326
B1356335553747N01212928EA0000000331
B1356405553703N01213193EA0000000325
B1356455553679N01213390EA0000000319
B1356525553644N01213676EA0000000294
B1357005553607N01214017EA0000000286
B1357065553583N01214266EA0000000274
B1357115553568N01214478EA0000000264
B1357175553518N01214716EA0000000268
B1357245553429N01214950EA0000000267
B1357295553355N01215087EA0000000253
B1357345553266N01215173EA0000000239
B1357425553113N01215213EA0000000221
B1357475553032N01215175EA0000000205
B1357525552990N01215073EA0000000187
B1357595552995N01214897EA0000000163
B1358095553016N01214659EA0000000133
B1358145553029N01214537EA0000000107
B1358205553046N01214382EA0000000077
B1358255553060N01214246EA0000000053
B1358315553077N01214076EA0000000028
B1358375553090N01213921EA0000000020
B1358425553099N01213817EA0000000021
B1358475553106N01213734EA0000000018
