AOGNOGN
HFDTE220625
HFFXA050
HFPLTPILOTINCHARGE:
HFGTYGLIDERTYPE:Duo Discus xlt
HFGIDGLIDERID:OY-MXF
HFDTM100GPSDATUM:WGS-1984
HFRFWFIRMWAREVERSION:
HFRHWHARDWAREVERSION:
HFFTYFRTYPE:OGN-FLIGHTBOOK
HFGPSGENERIC
HFPRSPRESSALTSENSOR:
HFCIDCOMPETITIONID:MF
B1008065527157N01138276EA0000000033
B1008205527159N01138630EA0000000218
B1008285527147N01138872EA0000000299
B1008335527144N01139011EA0000000305
B1008385527146N01139143EA0000000292
B1008445527163N01139316EA0000000276
B1008495527198N01139452EA0000000285
B1008545527158N01139549EA0000000278
B1009015527065N01139502EA0000000258
B1009065527050N01139347EA0000000257
B1009115527091N01139193EA0000000253
B1009185527203N01139026EA0000000226
B1009235527283N01138902EA0000000205
B1009305527367N01138670EA0000000201
B1009355527419N01138508EA0000000200
B1009405527456N01138337EA0000000189
B1009475527487N01138084EA0000000183
B1009525527476N01137910EA0000000169
B1009595527421N01137681EA0000000167
B1010055527370N01137488EA0000000162
B1010125527295N01137283EA0000000161
B1010175527213N01137232EA0000000164
B1010225527146N01137321EA0000000164
B1010285527138N01137516EA0000000144
B1010375527150N01137802EA0000000095
B1010435527148N01137984EA0000000075
B1010535527148N01138289EA0000000030
B1011005527150N01138469EA0000000028
B1011075527148N01138586EA0000000027
