AOGNOGN
HFDTE220625
HFFXA050
HFPLTPILOTINCHARGE:
HFGTYGLIDERTYPE:LS-4
HFGIDGLIDERID:OY-MXS
HFDTM100GPSDATUM:WGS-1984
HFRFWFIRMWAREVERSION:
HFRHWHARDWAREVERSION:
HFFTYFRTYPE:OGN-FLIGHTBOOK
HFGPSGENERIC
HFPRSPRESSALTSENSOR:
HFCIDCOMPETITIONID:M1
B1248445527165N01138248EA0000000037
B1248455527165N01138271EA0000000040
B1248505527158N01138390EA0000000118
B1248555527152N01138499EA0000000208
B1249005527146N01138614EA0000000280
B1249065527146N01138768EA0000000347
B1249125527148N01138940EA0000000372
B1249185527165N01139084EA0000000395
B1249245527190N01139213EA0000000385
B1249305527226N01139342EA0000000378
B1249395527292N01139535EA0000000360
B1249445527365N01139583EA0000000350
B1249495527436N01139512EA0000000346
B1249575527511N01139318EA0000000332
B1250025527556N01139194EA0000000330
B1250115527602N01138961EA0000000322
B1250165527606N01138834EA0000000319
B1250235527570N01138691EA0000000311
B1250285527531N01138611EA0000000305
B1250335527481N01138593EA0000000298
B1250405527450N01138706EA0000000293
B1250465527441N01138820EA0000000292
B1250525527496N01138914EA0000000284
B1250575527574N01138863EA0000000269
B1251025527608N01138725EA0000000268
B1251075527631N01138584EA0000000264
B1251145527661N01138394EA0000000261
B1251215527693N01138208EA0000000251
B1251315527717N01137941EA0000000232
B1251385527718N01137746EA0000000226
B1251435527691N01137638EA0000000219
B1251485527648N01137643EA0000000203
B1251555527667N01137787EA0000000187
B1252015527686N01137911EA0000000188
B1252065527681N01138010EA0000000177
B1252115527628N01138034EA0000000168
B1252175527557N01137947EA0000000161
B1252235527477N01137893EA0000000148
B1252285527405N01137850EA0000000138
B1252355527304N01137789EA0000000131
B1252405527229N01137750EA0000000127
B1252455527179N01137802EA0000000132
B1252515527163N01137919EA0000000104
B1252565527151N01138023EA0000000086
B1253015527141N01138128EA0000000070
B1253065527139N01138239EA0000000044
B1253135527137N01138381EA0000000035
