AOGNOGN
HFDTE220625
HFFXA050
HFPLTPILOTINCHARGE:
HFGTYGLIDERTYPE:ASK-21
HFGIDGLIDERID:OY-XPL
HFDTM100GPSDATUM:WGS-1984
HFRFWFIRMWAREVERSION:
HFRHWHARDWAREVERSION:
HFFTYFRTYPE:OGN-FLIGHTBOOK
HFGPSGENERIC
HFPRSPRESSALTSENSOR:
HFCIDCOMPETITIONID:PL
B1152365527153N01138263EA0000000037
B1152375527153N01138287EA0000000043
B1152455527152N01138460EA0000000148
B1152505527139N01138562EA0000000211
B1152555527123N01138672EA0000000280
B1153015527110N01138809EA0000000334
B1153075527092N01138954EA0000000355
B1153135527069N01139059EA0000000355
B1153185527046N01139161EA0000000350
B1153235527020N01139253EA0000000353
B1153285526973N01139248EA0000000348
B1153355526953N01139088EA0000000334
B1153425526945N01138893EA0000000333
B1153475526980N01138775EA0000000339
B1153525527049N01138729EA0000000336
B1153575527113N01138781EA0000000325
B1154035527154N01138911EA0000000319
B1154095527137N01139019EA0000000321
B1154145527088N01139035EA0000000314
B1154195527054N01138948EA0000000310
B1154265527100N01138777EA0000000301
B1154325527193N01138740EA0000000302
B1154375527253N01138807EA0000000294
B1154435527260N01138923EA0000000289
B1154485527218N01138959EA0000000279
B1154555527193N01138821EA0000000270
B1155005527252N01138721EA0000000264
B1155055527333N01138733EA0000000259
B1155105527373N01138825EA0000000256
B1155175527327N01138874EA0000000251
B1155225527307N01138779EA0000000248
B1155275527344N01138664EA0000000237
B1155345527452N01138639EA0000000229
B1155405527484N01138752EA0000000222
B1155455527445N01138797EA0000000214
B1155515527401N01138695EA0000000216
B1155565527395N01138575EA0000000213
B1156025527380N01138418EA0000000198
B1156085527362N01138242EA0000000181
B1156135527370N01138089EA0000000176
B1156185527377N01137935EA0000000175
B1156255527375N01137736EA0000000180
B1156325527327N01137609EA0000000171
B1156375527274N01137560EA0000000155
B1156435527207N01137515EA0000000137
B1156485527159N01137560EA0000000137
B1156535527139N01137659EA0000000129
B1156595527141N01137805EA0000000117
B1157075527150N01137991EA0000000086
B1157125527148N01138107EA0000000066
B1157215527144N01138311EA0000000036
B1157285527149N01138450EA0000000035
