AOGNOGN
HFDTE220625
HFFXA050
HFPLTPILOTINCHARGE:
HFGTYGLIDERTYPE:ASK-21
HFGIDGLIDERID:OY-XPL
HFDTM100GPSDATUM:WGS-1984
HFRFWFIRMWAREVERSION:
HFRHWHARDWAREVERSION:
HFFTYFRTYPE:OGN-FLIGHTBOOK
HFGPSGENERIC
HFPRSPRESSALTSENSOR:
HFCIDCOMPETITIONID:PL
B0920485527157N01138275EA0000000038
B0920535527153N01138396EA0000000113
B0920595527154N01138531EA0000000203
B0921055527152N01138671EA0000000284
B0921105527144N01138796EA0000000338
B0921165527132N01138938EA0000000379
B0921215527125N01139038EA0000000383
B0921275527115N01139167EA0000000379
B0921325527110N01139277EA0000000376
B0921395527102N01139432EA0000000372
B0921445527111N01139540EA0000000372
B0921495527171N01139607EA0000000359
B0921545527253N01139598EA0000000355
B0921595527321N01139526EA0000000345
B0922065527416N01139404EA0000000325
B0922135527506N01139284EA0000000321
B0922185527569N01139199EA0000000313
B0922235527629N01139111EA0000000310
B0922285527650N01138999EA0000000307
B0922335527616N01138925EA0000000307
B0922405527550N01138946EA0000000293
B0922475527482N01139002EA0000000293
B0922525527442N01139052EA0000000292
B0922575527437N01139139EA0000000292
B0923025527482N01139210EA0000000288
B0923075527558N01139206EA0000000274
B0923145527654N01139101EA0000000269
B0923195527728N01139099EA0000000259
B0923245527779N01139179EA0000000252
B0923315527757N01139303EA0000000241
B0923365527713N01139346EA0000000235
B0923415527666N01139305EA0000000233
B0923495527611N01139146EA0000000211
B0923565527559N01139005EA0000000209
B0924025527526N01138875EA0000000205
B0924095527521N01138703EA0000000197
B0924165527515N01138530EA0000000195
B0924235527509N01138343EA0000000184
B0924285527499N01138203EA0000000176
B0924355527493N01138009EA0000000180
B0924415527492N01137854EA0000000178
B0924465527461N01137749EA0000000163
B0924535527402N01137615EA0000000152
B0924585527342N01137583EA0000000140
B0925045527265N01137571EA0000000136
B0925095527205N01137578EA0000000137
B0925145527165N01137657EA0000000137
B0925205527157N01137807EA0000000123
B0925255527156N01137937EA0000000092
B0925325527147N01138125EA0000000057
B0925375527142N01138253EA0000000038
B0925475527137N01138464EA0000000032
