AOGNOGN
HFDTE220625
HFFXA050
HFPLTPILOTINCHARGE:
HFGTYGLIDERTYPE:ASK-21
HFGIDGLIDERID:OY-XPL
HFDTM100GPSDATUM:WGS-1984
HFRFWFIRMWAREVERSION:
HFRHWHARDWAREVERSION:
HFFTYFRTYPE:OGN-FLIGHTBOOK
HFGPSGENERIC
HFPRSPRESSALTSENSOR:
HFCIDCOMPETITIONID:PL
B1233355527157N01138238EA0000000036
B1233365527157N01138261EA0000000040
B1233435527152N01138406EA0000000158
B1233495527153N01138515EA0000000245
B1233555527157N01138637EA0000000313
B1234005527158N01138755EA0000000353
B1234065527163N01138914EA0000000384
B1234135527156N01139081EA0000000387
B1234205527151N01139253EA0000000376
B1234295527153N01139475EA0000000365
B1234345527164N01139601EA0000000358
B1234395527218N01139704EA0000000354
B1234455527322N01139706EA0000000353
B1234515527419N01139625EA0000000346
B1234565527448N01139496EA0000000343
B1235015527418N01139395EA0000000338
B1235085527350N01139423EA0000000334
B1235135527347N01139521EA0000000335
B1235185527391N01139614EA0000000329
B1235255527503N01139638EA0000000325
B1235305527572N01139555EA0000000319
B1235365527595N01139393EA0000000313
B1235425527549N01139289EA0000000310
B1235475527500N01139304EA0000000307
B1235525527478N01139389EA0000000304
B1235595527526N01139524EA0000000300
B1236055527621N01139549EA0000000295
B1236105527693N01139470EA0000000294
B1236165527718N01139311EA0000000290
B1236215527682N01139212EA0000000284
B1236265527624N01139196EA0000000279
B1236335527583N01139302EA0000000277
B1236385527572N01139404EA0000000271
B1236435527557N01139499EA0000000268
B1236495527503N01139528EA0000000268
B1236545527461N01139450EA0000000254
B1236595527457N01139314EA0000000253
B1237065527528N01139153EA0000000248
B1237115527609N01139117EA0000000244
B1237165527673N01139180EA0000000236
B1237235527675N01139309EA0000000230
B1237285527626N01139333EA0000000227
B1237345527569N01139262EA0000000220
B1237425527489N01139105EA0000000205
B1237535527413N01138852EA0000000204
B1238015527400N01138629EA0000000185
B1238095527385N01138410EA0000000182
B1238165527391N01138222EA0000000180
B1238235527393N01138021EA0000000175
B1238285527387N01137874EA0000000165
B1238335527370N01137723EA0000000153
B1238385527327N01137606EA0000000152
B1238485527197N01137538EA0000000137
B1238535527143N01137568EA0000000136
B1238595527137N01137687EA0000000129
B1239055527152N01137823EA0000000105
B1239105527162N01137936EA0000000086
B1239155527165N01138046EA0000000075
B1239225527154N01138201EA0000000049
B1239315527149N01138397EA0000000036
