AOGNOGN
HFDTE220625
HFFXA050
HFPLTPILOTINCHARGE:
HFGTYGLIDERTYPE:Duo Discus
HFGIDGLIDERID:OY-RMX
HFDTM100GPSDATUM:WGS-1984
HFRFWFIRMWAREVERSION:
HFRHWHARDWAREVERSION:
HFFTYFRTYPE:OGN-FLIGHTBOOK
HFGPSGENERIC
HFPRSPRESSALTSENSOR:
HFCIDCOMPETITIONID:MX
B1005015527164N01138242EA0000000035
B1005045527163N01138315EA0000000050
B1005105527157N01138459EA0000000151
B1005165527156N01138603EA0000000232
B1005215527153N01138735EA0000000291
B1005265527146N01138884EA0000000328
B1005315527137N01139012EA0000000356
B1005385527128N01139149EA0000000351
B1005435527121N01139255EA0000000343
B1005495527113N01139385EA0000000340
B1005555527111N01139518EA0000000345
B1006005527146N01139625EA0000000340
B1006055527231N01139627EA0000000338
B1006125527302N01139468EA0000000342
B1006175527340N01139373EA0000000344
B1006245527398N01139222EA0000000338
B1006295527442N01139132EA0000000336
B1006345527521N01139102EA0000000311
B1006395527567N01139204EA0000000306
B1006465527508N01139281EA0000000304
B1006515527468N01139208EA0000000293
B1006565527467N01139071EA0000000294
B1007025527483N01138928EA0000000292
B1007085527444N01138798EA0000000280
B1007135527413N01138697EA0000000285
B1007195527439N01138546EA0000000271
B1007245527516N01138492EA0000000278
B1007295527579N01138563EA0000000263
B1007365527553N01138704EA0000000259
B1007425527482N01138656EA0000000251
B1007475527431N01138661EA0000000247
B1007535527450N01138801EA0000000243
B1008015527572N01138866EA0000000246
B1008105527718N01138884EA0000000232
B1008155527800N01138918EA0000000234
B1008205527836N01139017EA0000000218
B1008275527767N01139085EA0000000215
B1008325527721N01138994EA0000000211
B1008385527702N01138829EA0000000216
B1008445527694N01138671EA0000000212
B1008525527681N01138463EA0000000204
B1009015527665N01138217EA0000000201
B1009085527649N01138025EA0000000193
B1009145527641N01137852EA0000000183
B1009195527633N01137700EA0000000174
B1009255527602N01137524EA0000000169
B1009355527481N01137330EA0000000165
B1009425527385N01137226EA0000000169
B1009495527277N01137201EA0000000162
B1009545527203N01137242EA0000000161
B1010005527171N01137392EA0000000150
B1010065527162N01137561EA0000000128
B1010125527155N01137726EA0000000104
B1010175527153N01137871EA0000000088
B1010225527149N01138013EA0000000074
B1010295527144N01138201EA0000000049
B1010365527135N01138387EA0000000034
B1012265527123N01138630EA0000000035
