AOGNOGN
HFDTE220625
HFFXA050
HFPLTPILOTINCHARGE:
HFGTYGLIDERTYPE:Duo Discus
HFGIDGLIDERID:OY-RMX
HFDTM100GPSDATUM:WGS-1984
HFRFWFIRMWAREVERSION:
HFRHWHARDWAREVERSION:
HFFTYFRTYPE:OGN-FLIGHTBOOK
HFGPSGENERIC
HFPRSPRESSALTSENSOR:
HFCIDCOMPETITIONID:MX
B1149565527433N01139135EA0000000389
B1150025527482N01138975EA0000000391
B1150045527496N01138920EA0000000393
B1150095527532N01138785EA0000000396
B1150145527597N01138688EA0000000396
B1150195527685N01138665EA0000000393
B1150245527762N01138727EA0000000387
B1150295527811N01138837EA0000000384
B1150345527811N01138959EA0000000376
B1150465527731N01139203EA0000000370
B1150545527662N01139323EA0000000374
B1151025527582N01139423EA0000000366
B1151095527507N01139489EA0000000359
B1151195527397N01139548EA0000000352
B1151245527363N01139623EA0000000348
B1151295527383N01139726EA0000000348
B1151365527480N01139797EA0000000339
B1151445527608N01139724EA0000000333
B1151495527663N01139610EA0000000322
B1151545527677N01139474EA0000000317
B1152005527642N01139344EA0000000307
B1152055527597N01139267EA0000000300
B1152115527532N01139198EA0000000299
B1152165527479N01139148EA0000000300
B1152245527391N01139098EA0000000296
B1152295527347N01139144EA0000000298
B1152345527348N01139245EA0000000295
B1152395527396N01139336EA0000000292
B1152445527471N01139372EA0000000289
B1152495527555N01139347EA0000000283
B1152545527628N01139261EA0000000280
B1153015527673N01139075EA0000000276
B1153075527646N01138929EA0000000274
B1153145527578N01138825EA0000000274
B1153195527522N01138775EA0000000271
B1153255527456N01138795EA0000000263
B1153305527416N01138861EA0000000258
B1153355527417N01138964EA0000000261
B1153405527470N01139045EA0000000258
B1153455527518N01139134EA0000000259
B1153525527479N01139227EA0000000252
B1153575527432N01139167EA0000000249
B1154025527428N01139040EA0000000241
B1154095527485N01138863EA0000000231
B1154145527534N01138735EA0000000222
B1154205527557N01138557EA0000000219
B1154265527562N01138374EA0000000215
B1154365527573N01138066EA0000000215
B1154455527584N01137793EA0000000209
B1154505527579N01137647EA0000000204
B1154575527522N01137504EA0000000206
B1155045527448N01137401EA0000000207
B1155135527342N01137325EA0000000193
B1155195527270N01137273EA0000000191
B1155245527208N01137259EA0000000181
B1155295527159N01137327EA0000000178
B1155345527153N01137459EA0000000172
B1155425527149N01137673EA0000000142
B1155585527146N01138085EA0000000071
B1156055527145N01138270EA0000000041
B1157015527131N01138530EA0000000041
