AOGNOGN
HFDTE080825
HFFXA050
HFPLTPILOTINCHARGE:
HFGTYGLIDERTYPE:ASW-20
HFGIDGLIDERID:OY-XLN
HFDTM100GPSDATUM:WGS-1984
HFRFWFIRMWAREVERSION:
HFRHWHARDWAREVERSION:
HFFTYFRTYPE:OGN-FLIGHTBOOK
HFGPSGENERIC
HFPRSPRESSALTSENSOR:
HFCIDCOMPETITIONID:LN
B1137215600702N00901325EA0000000042
B1137215600702N00901325EA0000000042
B1137265600695N00901212EA0000000043
B1137325600681N00901049EA0000000050
B1137375600667N00900914EA0000000069
B1137425600652N00900781EA0000000085
B1137475600638N00900641EA0000000100
B1137545600660N00900463EA0000000133
B1137595600707N00900355EA0000000147
B1138055600791N00900258EA0000000166
B1138105600874N00900216EA0000000185
B1138195601032N00900211EA0000000211
B1138255601142N00900222EA0000000224
B1138305601233N00900235EA0000000244
B1138375601359N00900247EA0000000264
B1138425601444N00900223EA0000000278
B1138485601529N00900155EA0000000300
B1138555601613N00900042EA0000000318
B1139005601664N00859952EA0000000331
B1139055601719N00859856EA0000000337
B1139105601777N00859754EA0000000348
B1139155601833N00859650EA0000000368
B1139205601875N00859532EA0000000393
B1139285601923N00859333EA0000000430
B1139335601939N00859207EA0000000452
B1139405601953N00859028EA0000000474
B1139495601958N00858792EA0000000502
B1139565601956N00858616EA0000000522
B1140015601949N00858492EA0000000532
B1140085601931N00858322EA0000000551
B1140155601909N00858157EA0000000570
B1140205601889N00858048EA0000000577
B1140255601866N00857944EA0000000569
B1140315601836N00857808EA0000000555
B1140365601797N00857686EA0000000546
B1140425601732N00857555EA0000000560
B1140485601656N00857445EA0000000575
B1140545601562N00857435EA0000000590
B1140595601537N00857608EA0000000587
B1141045601609N00857713EA0000000587
B1141105601700N00857680EA0000000600
B1141155601704N00857574EA0000000604
B1141205601629N00857623EA0000000609
B1141255601653N00857802EA0000000614
B1141335601755N00857775EA0000000629
B1141385601735N00857675EA0000000634
B1141435601662N00857677EA0000000635
B1141485601615N00857830EA0000000637
B1141535601657N00857995EA0000000644
B1142005601761N00857996EA0000000648
B1142065601781N00857878EA0000000653
B1142115601726N00857823EA0000000650
B1142165601651N00857880EA0000000651
B1142215601621N00858045EA0000000649
B1142265601664N00858218EA0000000652
B1142325601753N00858319EA0000000659
B1142395601821N00858218EA0000000660
B1142455601770N00858123EA0000000656
B1142505601693N00858177EA0000000663
B1142565601649N00858374EA0000000664
B1143015601682N00858539EA0000000667
B1143065601758N00858536EA0000000668
B1143115601753N00858426EA0000000673
B1143165601677N00858472EA0000000680
B1143215601685N00858644EA0000000688
B1143265601763N00858677EA0000000684
B1143315601776N00858570EA0000000687
B1143365601699N00858592EA0000000690
B1143415601697N00858774EA0000000697
B1143475601795N00858814EA0000000706
B1143525601814N00858704EA0000000711
B1143575601739N00858709EA0000000712
B1144025601722N00858889EA0000000717
B1144085601809N00859024EA0000000734
B1144135601859N00858951EA0000000738
B1144185601817N00858875EA0000000739
B1144235601746N00858955EA0000000741
B1144295601772N00859147EA0000000754
B1144345601845N00859143EA0000000756
B1144395601818N00859049EA0000000756
B1144455601746N00859185EA0000000761
B1144515601829N00859311EA0000000774
B1144565601848N00859215EA0000000779
B1145015601772N00859245EA0000000777
B1145065601785N00859422EA0000000785
B1145115601863N00859406EA0000000796
B1145165601816N00859340EA0000000801
B1145215601780N00859498EA0000000805
B1145265601855N00859591EA0000000822
B1145315601869N00859491EA0000000828
B1145365601800N00859557EA0000000833
B1145415601842N00859706EA0000000848
B1145465601902N00859654EA0000000856
B1145525601830N00859662EA0000000851
B1145585601883N00859818EA0000000865
B1146035601914N00859732EA0000000865
B1146085601848N00859778EA0000000864
B1146145601900N00859951EA0000000877
B1146195601970N00859935EA0000000879
B1146245601931N00859871EA0000000873
B1146315601826N00859861EA0000000875
B1146375601741N00859849EA0000000873
B1146465601607N00859847EA0000000856
B1146565601447N00859866EA0000000853
B1147025601355N00859862EA0000000846
B1147085601282N00859772EA0000000842
B1147145601225N00859656EA0000000855
B1147195601194N00859558EA0000000874
B1147245601132N00859556EA0000000873
B1147295601123N00859715EA0000000869
B1147345601200N00859793EA0000000868
B1147395601279N00859790EA0000000883
B1147445601308N00859704EA0000000878
B1147495601238N00859693EA0000000874
B1147565601232N00859924EA0000000880
B1148025601317N00900009EA0000000889
B1148085601346N00859909EA0000000885
B1148135601282N00859877EA0000000883
B1148185601232N00900005EA0000000881
B1148235601275N00900143EA0000000883
B1148295601361N00900116EA0000000883
B1148345601436N00900074EA0000000875
B1148395601525N00900132EA0000000878
B1148455601611N00900286EA0000000885
B1148515601676N00900466EA0000000882
B1148585601732N00900702EA0000000875
B1149065601804N00900982EA0000000863
B1149125601868N00901184EA0000000877
B1149175601942N00901257EA0000000879
B1149225601958N00901155EA0000000873
B1149275601882N00901156EA0000000881
B1149325601826N00901286EA0000000895
B1149375601819N00901461EA0000000890
B1149425601887N00901573EA0000000887
B1149495601960N00901482EA0000000894
B1149545601919N00901401EA0000000895
B1149595601847N00901462EA0000000897
B1150045601856N00901635EA0000000895
B1150125601959N00901609EA0000000892
B1150175601923N00901523EA0000000900
B1150225601851N00901565EA0000000903
B1150285601840N00901771EA0000000897
B1150345601934N00901828EA0000000895
B1150395601957N00901728EA0000000899
B1150445601901N00901674EA0000000905
B1150495601841N00901779EA0000000900
B1150545601857N00901951EA0000000899
B1150595601937N00901993EA0000000892
B1151055601959N00901867EA0000000892
B1151105601897N00901822EA0000000903
B1151155601842N00901940EA0000000907
B1151205601874N00902102EA0000000901
B1151255601957N00902119EA0000000899
B1151305601985N00902016EA0000000902
B1151355601933N00901950EA0000000908
B1151405601864N00902040EA0000000910
B1151455601868N00902222EA0000000909
B1151505601942N00902321EA0000000909
B1151565602012N00902245EA0000000902
B1152015601980N00902147EA0000000902
B1152065601906N00902131EA0000000914
B1152115601841N00902222EA0000000916
B1152165601852N00902396EA0000000910
B1152255601986N00902465EA0000000909
B1152305602009N00902353EA0000000902
B1152355601962N00902268EA0000000912
B1152405601889N00902328EA0000000916
B1152465601885N00902522EA0000000915
B1152515601963N00902561EA0000000912
B1152575601969N00902429EA0000000915
B1153025601904N00902416EA0000000916
B1153075601914N00902573EA0000000907
B1153135601993N00902529EA0000000913
B1153185601965N00902452EA0000000914
B1153235601915N00902571EA0000000907
B1153285601978N00902683EA0000000901
B1153335602009N00902592EA0000000900
B1153385601946N00902567EA0000000905
B1153435601920N00902723EA0000000905
B1153485601993N00902817EA0000000891
B1153535602070N00902792EA0000000900
B1153585602072N00902689EA0000000891
B1154035602014N00902609EA0000000878
B1154095601934N00902521EA0000000865
B1154145601862N00902449EA0000000856
B1154195601779N00902391EA0000000844
B1154245601689N00902348EA0000000841
B1154305601583N00902306EA0000000847
B1154355601490N00902314EA0000000845
B1154405601406N00902416EA0000000853
B1154455601375N00902590EA0000000860
B1154505601434N00902721EA0000000863
B1154555601498N00902673EA0000000861
B1155005601474N00902570EA0000000878
B1155055601398N00902585EA0000000889
B1155105601364N00902740EA0000000887
B1155165601441N00902864EA0000000886
B1155225601530N00902823EA0000000898
B1155275601556N00902731EA0000000906
B1155325601492N00902695EA0000000903
B1155375601431N00902827EA0000000907
B1155425601458N00902997EA0000000918
B1155475601535N00903019EA0000000925
B1155525601547N00902921EA0000000936
B1155575601480N00902897EA0000000945
B1156025601414N00903000EA0000000947
B1156085601385N00903213EA0000000945
B1156155601400N00903483EA0000000944
B1156225601433N00903751EA0000000947
B1156285601471N00903975EA0000000942
B1156335601518N00904154EA0000000939
B1156435601632N00904492EA0000000936
B1156495601716N00904668EA0000000941
B1156555601824N00904751EA0000000943
B1157015601915N00904685EA0000000937
B1157065601940N00904559EA0000000930
B1157125601955N00904388EA0000000922
B1157195601969N00904180EA0000000913
B1157265601926N00903985EA0000000898
B1157315601865N00903867EA0000000899
B1157365601780N00903804EA0000000898
B1157415601682N00903839EA0000000913
B1157465601606N00903963EA0000000929
B1157525601597N00904181EA0000000945
B1157575601665N00904311EA0000000954
B1158035601767N00904307EA0000000964
B1158085601796N00904203EA0000000971
B1158135601748N00904122EA0000000972
B1158185601666N00904147EA0000000983
B1158235601605N00904276EA0000000992
B1158285601591N00904464EA0000000997
B1158345601587N00904703EA0000000991
B1158395601596N00904906EA0000000988
B1158445601629N00905097EA0000000984
B1158495601682N00905274EA0000000981
B1158545601747N00905433EA0000000989
B1159025601869N00905647EA0000000996
B1159075601943N00905779EA0000000995
B1159125602008N00905932EA0000000982
B1159175602062N00906115EA0000000967
B1159225602112N00906311EA0000000957
B1159275602160N00906515EA0000000948
B1159325602207N00906726EA0000000934
B1159415602292N00907122EA0000000910
B1159465602336N00907347EA0000000897
B1159515602381N00907573EA0000000893
B1159575602432N00907840EA0000000882
B1200025602468N00908064EA0000000877
B1200085602508N00908323EA0000000895
B1200135602524N00908526EA0000000908
B1200185602539N00908723EA0000000920
B1200235602559N00908922EA0000000927
B1200285602578N00909122EA0000000931
B1200335602601N00909332EA0000000917
B1200385602641N00909551EA0000000910
B1200445602680N00909818EA0000000913
B1200495602697N00910043EA0000000910
B1200545602691N00910270EA0000000904
B1201015602654N00910577EA0000000903
B1201065602648N00910796EA0000000901
B1201115602685N00911004EA0000000898
B1201165602743N00911197EA0000000889
B1201235602820N00911479EA0000000867
B1201325602927N00911846EA0000000857
B1201375602979N00912040EA0000000870
B1201435603033N00912260EA0000000881
B1201485603068N00912438EA0000000884
B1201535603097N00912617EA0000000897
B1202015603132N00912882EA0000000906
B1202085603156N00913142EA0000000883
B1202155603176N00913432EA0000000855
B1202205603189N00913655EA0000000841
B1202265603206N00913933EA0000000822
B1202345603234N00914310EA0000000809
B1202405603259N00914591EA0000000799
B1202455603279N00914829EA0000000791
B1202505603300N00915069EA0000000774
B1202565603328N00915359EA0000000761
B1203035603362N00915699EA0000000752
B1203085603386N00915937EA0000000751
B1203135603412N00916165EA0000000749
B1203205603461N00916473EA0000000741
B1203255603501N00916683EA0000000745
B1203335603573N00917001EA0000000734
B1203395603642N00917246EA0000000715
B1203445603703N00917454EA0000000704
B1203505603779N00917708EA0000000693
B1203555603842N00917923EA0000000682
B1204045603955N00918312EA0000000665
B1204095604017N00918526EA0000000655
B1204145604081N00918731EA0000000645
B1204195604149N00918917EA0000000650
B1204255604229N00919112EA0000000672
B1204305604295N00919261EA0000000668
B1204365604379N00919446EA0000000679
B1204415604445N00919603EA0000000690
B1204475604509N00919792EA0000000706
B1204555604574N00920067EA0000000697
B1205005604609N00920263EA0000000685
B1205065604630N00920511EA0000000670
B1205135604626N00920818EA0000000644
B1205195604612N00921091EA0000000635
B1205245604597N00921319EA0000000627
B1205315604573N00921643EA0000000616
B1205375604560N00921919EA0000000610
B1205485604573N00922416EA0000000592
B1205535604593N00922637EA0000000588
B1205595604623N00922886EA0000000586
B1206045604650N00923085EA0000000581
B1206105604686N00923327EA0000000571
B1206165604726N00923574EA0000000560
B1206225604766N00923826EA0000000545
B1206345604889N00924343EA0000000499
B1206405604977N00924582EA0000000477
B1206465605068N00924818EA0000000459
B1206525605155N00925041EA0000000480
B1206585605238N00925197EA0000000512
B1207035605289N00925156EA0000000517
B1207085605231N00925132EA0000000519
B1207135605221N00925296EA0000000520
B1207195605314N00925375EA0000000527
B1207245605391N00925462EA0000000526
B1207335605507N00925720EA0000000536
B1207385605561N00925898EA0000000516
B1207445605612N00926149EA0000000504
B1207495605649N00926362EA0000000508
B1207575605706N00926693EA0000000508
B1208055605775N00927016EA0000000506
B1208125605817N00927299EA0000000515
B1208225605872N00927660EA0000000525
B1208315605924N00927975EA0000000512
B1208375606025N00928020EA0000000491
B1208425606082N00927928EA0000000482
B1208485606126N00927798EA0000000478
B1209045606094N00927482EA0000000472
B1209255605756N00927712EA0000000461
B1209315605660N00927819EA0000000470
B1209435605505N00927997EA0000000490
B1209525605572N00927919EA0000000490
B1210015605604N00928185EA0000000498
B1210075605531N00928244EA0000000500
B1210125605538N00928153EA0000000498
B1210225605651N00928349EA0000000501
B1210315605543N00928380EA0000000509
B1210395605626N00928339EA0000000507
B1210445605664N00928490EA0000000510
B1210505605597N00928606EA0000000513
B1210565605583N00928515EA0000000511
B1211015605664N00928524EA0000000518
B1211075605741N00928662EA0000000522
B1211135605686N00928779EA0000000513
B1211185605683N00928686EA0000000517
B1211245605748N00928606EA0000000524
B1211295605809N00928720EA0000000521
B1211345605758N00928825EA0000000516
B1211395605707N00928762EA0000000520
B1211445605760N00928707EA0000000525
B1211495605817N00928828EA0000000533
B1211545605776N00928958EA0000000521
B1212005605738N00928881EA0000000526
B1212055605815N00928874EA0000000528
B1212105605855N00929022EA0000000535
B1212155605796N00929104EA0000000527
B1212205605788N00929008EA0000000533
B1212255605856N00928974EA0000000538
B1212305605895N00929127EA0000000534
B1212355605833N00929225EA0000000531
B1212405605802N00929135EA0000000533
B1212455605863N00929093EA0000000532
B1212505605897N00929261EA0000000527
B1212565605815N00929325EA0000000523
B1213015605848N00929241EA0000000530
B1213065605914N00929360EA0000000533
B1213125605862N00929538EA0000000528
B1213185605763N00929643EA0000000523
B1213245605661N00929739EA0000000535
B1213295605593N00929738EA0000000549
B1213355605659N00929700EA0000000547
B1213405605684N00929872EA0000000546
B1213455605624N00929977EA0000000547
B1213505605619N00929889EA0000000551
B1213555605697N00929951EA0000000549
B1214005605682N00930123EA0000000561
B1214055605622N00930120EA0000000557
B1214105605675N00930065EA0000000561
B1214155605725N00930210EA0000000572
B1214205605671N00930309EA0000000569
B1214255605659N00930224EA0000000567
B1214305605741N00930240EA0000000571
B1214355605786N00930396EA0000000578
B1214405605728N00930481EA0000000576
B1214455605727N00930398EA0000000578
B1214505605809N00930418EA0000000585
B1214565605838N00930603EA0000000582
B1215015605778N00930596EA0000000577
B1215065605822N00930514EA0000000585
B1215115605901N00930532EA0000000589
B1215165605929N00930695EA0000000582
B1215225605860N00930835EA0000000574
B1215285605768N00930931EA0000000568
B1215335605702N00931061EA0000000570
B1215385605666N00931240EA0000000568
B1215485605690N00931631EA0000000565
B1215535605723N00931812EA0000000565
B1215585605758N00931997EA0000000556
B1216045605797N00932224EA0000000551
B1216105605831N00932459EA0000000548
B1216185605866N00932772EA0000000539
B1216255605891N00933053EA0000000536
B1216435605922N00933783EA0000000506
B1216525605914N00934149EA0000000505
B1216595605892N00934423EA0000000501
B1217045605877N00934615EA0000000494
B1217115605858N00934887EA0000000483
B1217205605833N00935249EA0000000467
B1217275605815N00935529EA0000000470
B1217365605803N00935885EA0000000463
B1217435605796N00936165EA0000000460
B1217505605783N00936447EA0000000461
B1218015605766N00936870EA0000000470
B1218125605760N00937275EA0000000499
B1218175605702N00937373EA0000000504
B1218225605687N00937297EA0000000509
B1218275605761N00937336EA0000000513
B1218325605775N00937494EA0000000535
B1218375605712N00937534EA0000000532
B1218435605753N00937463EA0000000533
B1218485605818N00937570EA0000000555
B1218535605781N00937698EA0000000558
B1218585605718N00937659EA0000000559
B1219035605758N00937585EA0000000566
B1219085605823N00937699EA0000000584
B1219135605813N00937865EA0000000608
B1219185605747N00937945EA0000000608
B1219235605698N00937900EA0000000609
B1219305605779N00937842EA0000000613
B1219375605856N00938007EA0000000635
B1219445605771N00938138EA0000000641
B1219495605725N00938087EA0000000649
B1219565605807N00938045EA0000000655
B1220015605871N00938141EA0000000671
B1220065605837N00938275EA0000000674
B1220125605797N00938205EA0000000683
B1220175605869N00938219EA0000000693
B1220225605870N00938375EA0000000701
B1220275605805N00938386EA0000000707
B1220325605809N00938297EA0000000721
B1220375605881N00938289EA0000000736
B1220425605905N00938218EA0000000733
B1220485605824N00938227EA0000000735
B1220535605774N00938355EA0000000744
B1220595605812N00938538EA0000000752
B1221045605879N00938547EA0000000759
B1221095605839N00938493EA0000000757
B1221145605822N00938651EA0000000764
B1221195605888N00938650EA0000000772
B1221245605833N00938622EA0000000771
B1221295605851N00938784EA0000000781
B1221345605914N00938748EA0000000795
B1221395605855N00938734EA0000000797
B1221445605876N00938885EA0000000810
B1221505605910N00938809EA0000000820
B1221555605852N00938899EA0000000824
B1222005605909N00939012EA0000000839
B1222055605931N00938930EA0000000847
B1222105605868N00938989EA0000000853
B1222155605912N00939126EA0000000865
B1222205605939N00939053EA0000000871
B1222255605876N00939113EA0000000875
B1222315605938N00939286EA0000000882
B1222365606018N00939404EA0000000886
B1222425606089N00939611EA0000000884
B1222475606129N00939806EA0000000883
B1222565606179N00940185EA0000000880
B1223035606224N00940478EA0000000878
B1223085606250N00940689EA0000000876
B1223155606285N00940993EA0000000863
B1223215606311N00941255EA0000000862
B1223265606325N00941473EA0000000861
B1223325606337N00941733EA0000000853
B1223385606362N00942005EA0000000828
B1223465606399N00942393EA0000000803
B1223515606423N00942634EA0000000801
B1223585606458N00942968EA0000000798
B1224065606495N00943322EA0000000801
B1224115606519N00943539EA0000000799
B1224165606543N00943746EA0000000813
B1224215606562N00943931EA0000000829
B1224265606578N00944099EA0000000839
B1224325606648N00944245EA0000000838
B1224405606772N00944381EA0000000838
B1224485606909N00944518EA0000000831
B1224545607017N00944639EA0000000822
B1224595607113N00944747EA0000000799
B1225045607214N00944863EA0000000788
B1225105607334N00945005EA0000000783
B1225175607472N00945168EA0000000782
B1225225607571N00945285EA0000000782
B1225275607671N00945397EA0000000782
B1225365607845N00945585EA0000000779
B1225415607943N00945688EA0000000776
B1225505608121N00945876EA0000000773
B1225575608259N00946016EA0000000780
B1226025608348N00946108EA0000000792
B1226085608442N00946213EA0000000799
B1226145608530N00946305EA0000000796
B1226195608609N00946375EA0000000783
B1226245608687N00946474EA0000000777
B1226315608776N00946670EA0000000769
B1226375608832N00946884EA0000000754
B1226435608866N00947127EA0000000748
B1226485608888N00947327EA0000000750
B1226535608907N00947526EA0000000743
B1226585608922N00947732EA0000000734
B1227085608927N00948151EA0000000720
B1227165608907N00948488EA0000000711
B1227225608888N00948740EA0000000707
B1227285608866N00948984EA0000000714
B1227345608849N00949215EA0000000718
B1227395608839N00949411EA0000000710
B1227445608838N00949613EA0000000703
B1227525608843N00949935EA0000000712
B1227575608845N00950126EA0000000714
B1228035608852N00950361EA0000000719
B1228125608856N00950693EA0000000726
B1228185608855N00950922EA0000000711
B1228245608857N00951169EA0000000684
B1228355608852N00951670EA0000000691
B1228405608846N00951874EA0000000714
B1228455608846N00952061EA0000000714
B1228505608863N00952241EA0000000735
B1228555608917N00952341EA0000000754
B1229005608931N00952259EA0000000761
B1229055608876N00952339EA0000000765
B1229105608931N00952450EA0000000784
B1229155608958N00952382EA0000000796
B1229205608899N00952430EA0000000800
B1229255608931N00952572EA0000000818
B1229305608991N00952562EA0000000828
B1229355608948N00952518EA0000000828
B1229405608922N00952669EA0000000844
B1229465608972N00952853EA0000000864
B1229535609065N00952998EA0000000878
B1229595609161N00953076EA0000000870
B1230065609288N00953158EA0000000871
B1230125609398N00953230EA0000000861
B1230225609604N00953374EA0000000830
B1230285609736N00953467EA0000000815
B1230345609873N00953558EA0000000793
B1230425610061N00953682EA0000000780
B1230475610176N00953761EA0000000777
B1230525610288N00953832EA0000000772
B1231015610484N00953943EA0000000761
B1231095610659N00954064EA0000000747
B1231165610811N00954200EA0000000737
B1231215610916N00954323EA0000000730
B1231285611055N00954515EA0000000723
B1231345611165N00954682EA0000000739
B1231395611246N00954819EA0000000739
B1231445611330N00954964EA0000000720
B1231505611438N00955142EA0000000700
B1231555611530N00955296EA0000000694
B1232015611634N00955476EA0000000710
B1232085611740N00955677EA0000000722
B1232135611814N00955814EA0000000723
B1232185611890N00955943EA0000000722
B1232235611969N00956062EA0000000724
B1232295612067N00956180EA0000000722
B1232345612154N00956267EA0000000715
B1232395612245N00956348EA0000000712
B1232445612334N00956432EA0000000710
B1232495612426N00956516EA0000000694
B1232555612542N00956618EA0000000681
B1233025612680N00956749EA0000000668
B1233075612781N00956851EA0000000666
B1233145612924N00956993EA0000000674
B1233205613037N00957114EA0000000673
B1233255613129N00957221EA0000000652
B1233315613244N00957363EA0000000635
B1233365613337N00957495EA0000000627
B1233415613427N00957631EA0000000628
B1233475613530N00957794EA0000000618
B1233545613652N00957998EA0000000602
B1234005613756N00958179EA0000000613
B1234065613849N00958354EA0000000639
B1234125613921N00958515EA0000000658
B1234175613984N00958631EA0000000657
B1234245614080N00958783EA0000000653
B1234305614156N00958929EA0000000653
B1234385614220N00959183EA0000000644
B1234435614244N00959363EA0000000634
B1234485614253N00959554EA0000000630
B1234565614252N00959866EA0000000623
B1235035614238N01000129EA0000000622
B1235085614221N01000314EA0000000618
B1235145614204N01000538EA0000000611
B1235195614208N01000730EA0000000613
B1235255614232N01000952EA0000000621
B1235315614233N01001167EA0000000630
B1235365614165N01001214EA0000000632
B1235415614167N01001126EA0000000641
B1235465614235N01001184EA0000000643
B1235515614223N01001351EA0000000645
B1235565614157N01001424EA0000000648
B1236015614124N01001354EA0000000659
B1236075614187N01001309EA0000000667
B1236125614233N01001431EA0000000665
B1236175614185N01001544EA0000000666
B1236225614141N01001491EA0000000676
B1236275614174N01001416EA0000000671
B1236335614247N01001509EA0000000674
B1236385614204N01001641EA0000000671
B1236435614150N01001596EA0000000682
B1236485614187N01001526EA0000000686
B1236535614240N01001635EA0000000685
B1236585614192N01001750EA0000000687
B1237045614145N01001678EA0000000696
B1237125614153N01001524EA0000000691
B1237185614193N01001411EA0000000689
B1237235614245N01001328EA0000000692
B1237325614337N01001182EA0000000691
B1237385614401N01001083EA0000000682
B1237445614468N01000978EA0000000672
B1237525614558N01000843EA0000000680
B1237575614632N01000808EA0000000679
B1238055614774N01000839EA0000000663
B1238115614889N01000873EA0000000653
B1238175615007N01000901EA0000000646
B1238325615303N01000953EA0000000625
B1238405615459N01000960EA0000000617
B1238455615554N01000960EA0000000611
B1238565615764N01000965EA0000000603
B1239035615898N01000980EA0000000591
B1239125616075N01000999EA0000000574
B1239205616231N01001007EA0000000567
B1239295616402N01001014EA0000000555
B1239355616517N01001017EA0000000545
B1239415616633N01001022EA0000000534
B1239585616972N01001005EA0000000492
B1240065617132N01000995EA0000000482
B1240265617494N01000900EA0000000490
B1240325617526N01000808EA0000000491
B1240395617434N01000879EA0000000491
B1240455617460N01001062EA0000000496
B1240525617553N01001043EA0000000489
B1240585617623N01000964EA0000000484
B1241055617711N01000865EA0000000477
B1241125617807N01000774EA0000000470
B1241205617929N01000686EA0000000472
B1241255618003N01000631EA0000000486
B1241305617989N01000544EA0000000495
B1241365617944N01000689EA0000000501
B1241415618011N01000716EA0000000502
B1241465617984N01000641EA0000000507
B1241525617958N01000810EA0000000507
B1241575618023N01000815EA0000000509
B1242025617971N01000774EA0000000515
B1242075617960N01000931EA0000000510
B1242125618033N01000929EA0000000520
B1242175618021N01000851EA0000000517
B1242225617967N01000969EA0000000511
B1242275618030N01001079EA0000000516
B1242325618034N01000997EA0000000513
B1242375617971N01001100EA0000000509
B1242425618025N01001231EA0000000521
B1242485618110N01001235EA0000000523
B1242585618235N01001132EA0000000502
B1243075618371N01001037EA0000000483
B1244045619338N01000949EA0000000432
B1244195619599N01000934EA0000000458
B1244245619612N01000845EA0000000468
B1244295619543N01000894EA0000000467
B1244355619595N01001019EA0000000462
B1244415619612N01000900EA0000000470
B1244495619568N01001053EA0000000460
B1244555619639N01000998EA0000000471
B1245005619617N01000919EA0000000471
B1245055619556N01001036EA0000000458
B1245175619710N01001125EA0000000465
B1245225619700N01001043EA0000000454
B1245275619633N01001129EA0000000453
B1245505619925N01001435EA0000000450
B1245555619977N01001398EA0000000455
B1246105619948N01001583EA0000000451
B1246315620252N01001662EA0000000428
B1246385620369N01001774EA0000000435
B1246435620438N01001808EA0000000445
B1246485620424N01001724EA0000000431
B1246555620343N01001884EA0000000431
B1247095620485N01002292EA0000000431
B1247185620601N01002498EA0000000431
B1247265620707N01002727EA0000000407
B1247315620767N01002898EA0000000396
B1247445620922N01003336EA0000000377
B1247495620973N01003520EA0000000363
B1247555621029N01003759EA0000000361
B1248015621076N01003982EA0000000376
B1248075621129N01004179EA0000000390
B1248145621175N01004132EA0000000388
B1248205621103N01004257EA0000000391
B1248265621170N01004385EA0000000398
B1248355621104N01004383EA0000000398
B1248405621143N01004535EA0000000402
B1248455621195N01004496EA0000000399
B1248525621109N01004566EA0000000390
B1248575621155N01004721EA0000000398
B1249045621234N01004684EA0000000397
B1249125621145N01004728EA0000000390
B1249175621185N01004884EA0000000399
B1249235621231N01004819EA0000000403
B1249285621156N01004854EA0000000399
B1249335621183N01005018EA0000000400
B1249385621244N01004982EA0000000410
B1249445621168N01004993EA0000000405
B1249495621194N01005154EA0000000402
B1249545621260N01005126EA0000000410
B1250005621183N01005147EA0000000405
B1250055621218N01005303EA0000000419
B1250105621260N01005253EA0000000420
B1250185621178N01005376EA0000000420
B1250245621252N01005480EA0000000430
B1250295621228N01005411EA0000000423
B1250345621183N01005558EA0000000421
B1250405621254N01005644EA0000000426
B1250495621166N01005734EA0000000422
B1250545621211N01005861EA0000000434
B1251025621157N01005844EA0000000427
B1251075621181N01006001EA0000000433
B1251125621215N01005945EA0000000434
B1251215621142N01006084EA0000000435
B1251275621201N01006063EA0000000435
B1251325621128N01006091EA0000000444
B1251375621165N01006238EA0000000451
B1251425621179N01006162EA0000000454
B1251475621110N01006246EA0000000462
B1251535621173N01006346EA0000000464
B1252015621104N01006340EA0000000477
B1252065621138N01006484EA0000000481
B1252115621164N01006426EA0000000483
B1252165621095N01006482EA0000000485
B1252215621139N01006603EA0000000486
B1252265621144N01006523EA0000000494
B1252335621092N01006686EA0000000506
B1252395621144N01006667EA0000000517
B1252445621076N01006686EA0000000522
B1252495621105N01006830EA0000000519
B1252545621137N01006772EA0000000530
B1252595621069N01006811EA0000000532
B1253055621118N01006969EA0000000540
B1253105621157N01006918EA0000000548
B1253165621076N01006971EA0000000541
B1253215621093N01007138EA0000000558
B1253265621143N01007112EA0000000555
B1253325621066N01007130EA0000000553
B1253385621111N01007297EA0000000559
B1253445621123N01007215EA0000000564
B1253495621060N01007318EA0000000559
B1253545621112N01007458EA0000000564
B1254005621151N01007390EA0000000574
B1254055621079N01007432EA0000000575
B1254115621122N01007599EA0000000578
B1254165621150N01007524EA0000000582
B1254215621075N01007574EA0000000587
B1254265621110N01007725EA0000000586
B1254315621166N01007681EA0000000604
B1254375621090N01007691EA0000000609
B1254435621124N01007856EA0000000611
B1254485621176N01007816EA0000000622
B1254545621105N01007815EA0000000617
B1254595621113N01007985EA0000000633
B1255045621164N01007969EA0000000643
B1255095621112N01007932EA0000000647
B1255145621079N01008083EA0000000652
B1255195621142N01008129EA0000000659
B1255245621117N01008053EA0000000661
B1255295621062N01008182EA0000000666
B1255345621121N01008269EA0000000676
B1255395621111N01008190EA0000000679
B1255455621053N01008336EA0000000688
B1255505621111N01008414EA0000000698
B1255575621070N01008350EA0000000698
B1256025621047N01008507EA0000000707
B1256095621115N01008513EA0000000714
B1256145621052N01008507EA0000000713
B1256195621049N01008675EA0000000712
B1256245621109N01008685EA0000000732
B1256295621069N01008645EA0000000721
B1256355621054N01008828EA0000000725
B1256405621110N01008840EA0000000731
B1256455621057N01008809EA0000000729
B1256505621037N01008967EA0000000740
B1256555621093N01008982EA0000000735
B1257005621046N01008925EA0000000739
B1257055621009N01009067EA0000000744
B1257105621069N01009125EA0000000743
B1257155621054N01009052EA0000000746
B1257215620988N01009181EA0000000743
B1257265621035N01009322EA0000000746
B1257385621212N01009505EA0000000753
B1258045621653N01009991EA0000000699
B1258095621737N01010150EA0000000698
B1258155621831N01010339EA0000000690
B1258385622171N01011166EA0000000649
B1258435622237N01011354EA0000000648
B1259215622845N01012071EA0000000647
B1259585623433N01011849EA0000000557
B1300245623828N01011362EA0000000509
B1300405624050N01011077EA0000000494
B1300595624282N01010798EA0000000484
B1302135625143N01009698EA0000000464
B1302215625235N01009590EA0000000480
B1302275625318N01009668EA0000000490
B1302355625375N01009621EA0000000493
B1302465625324N01009826EA0000000502
B1302595625284N01009832EA0000000507
B1303045625319N01009963EA0000000503
B1303145625338N01009808EA0000000512
B1303235625275N01009928EA0000000515
B1303285625322N01009900EA0000000523
B1303335625259N01009922EA0000000528
B1303415625318N01009994EA0000000540
B1303495625258N01010105EA0000000554
B1303545625314N01010105EA0000000560
B1304055625286N01010245EA0000000576
B1304105625296N01010167EA0000000582
B1304185625270N01010347EA0000000597
B1304295625239N01010360EA0000000616
B1304345625296N01010439EA0000000624
B1304405625260N01010369EA0000000633
B1304505625301N01010507EA0000000646
B1304565625232N01010516EA0000000658
B1305015625265N01010657EA0000000663
B1305065625297N01010588EA0000000671
B1305135625226N01010682EA0000000685
B1305185625279N01010777EA0000000691
B1305295625228N01010802EA0000000702
B1305365625299N01010857EA0000000700
B1305435625227N01010880EA0000000713
B1305485625257N01011019EA0000000713
B1305545625290N01010949EA0000000723
B1306005625224N01011007EA0000000726
B1306055625267N01011141EA0000000729
B1306105625299N01011077EA0000000729
B1306165625227N01011119EA0000000737
B1306215625262N01011263EA0000000740
B1306265625309N01011215EA0000000748
B1307055624787N01010682EA0000000665
B1307245624490N01010348EA0000000657
B1307325624382N01010229EA0000000636
B1307435624224N01010080EA0000000634
B1308265623917N01008978EA0000000566
B1308555623713N01008237EA0000000586
B1309005623649N01008270EA0000000595
B1309065623703N01008405EA0000000605
B1309155623670N01008379EA0000000616
B1309205623714N01008512EA0000000623
B1309265623741N01008431EA0000000631
B1309325623698N01008576EA0000000633
B1309375623770N01008632EA0000000648
B1309425623750N01008569EA0000000648
B1309485623742N01008744EA0000000650
B1309555623824N01008733EA0000000652
B1310015623760N01008771EA0000000656
B1310065623814N01008901EA0000000657
B1310115623876N01008872EA0000000665
B1310185623831N01008769EA0000000648
B1310355623628N01008688EA0000000682
B1310405623679N01008817EA0000000673
B1310455623740N01008763EA0000000686
B1310545623682N01008731EA0000000698
B1311005623733N01008893EA0000000711
B1311055623753N01008822EA0000000708
B1311105623703N01008935EA0000000720
B1311165623778N01008978EA0000000738
B1311215623722N01008980EA0000000737
B1311265623752N01009141EA0000000763
B1311325623779N01009078EA0000000767
B1311375623728N01009190EA0000000771
B1311425623799N01009286EA0000000789
B1311475623808N01009206EA0000000792
B1311555623757N01009409EA0000000806
B1312005623828N01009489EA0000000817
B1312065623808N01009423EA0000000811
B1312135623832N01009618EA0000000832
B1312215623816N01009560EA0000000837
B1312265623831N01009716EA0000000848
B1312325623871N01009651EA0000000850
B1312375623807N01009736EA0000000857
B1312445623883N01009851EA0000000867
B1312505623840N01009797EA0000000873
B1312565623846N01009987EA0000000887
B1313025623896N01009931EA0000000890
B1313075623844N01009872EA0000000899
B1313165623703N01009845EA0000000896
B1313355623349N01009785EA0000000803
B1313445623155N01009683EA0000000777
B1313575622950N01009390EA0000000767
B1314045622867N01009215EA0000000758
B1314455622421N01008124EA0000000724
B1314525622342N01007960EA0000000728
B1314575622282N01007859EA0000000729
B1315035622201N01007748EA0000000714
B1315105622093N01007620EA0000000703
B1315225621908N01007406EA0000000694
B1315295621802N01007288EA0000000697
B1315345621729N01007212EA0000000701
B1315395621656N01007141EA0000000705
B1315495621510N01007012EA0000000714
B1315545621441N01006950EA0000000720
B1316005621361N01006884EA0000000712
B1316065621278N01006808EA0000000707
B1316115621206N01006744EA0000000705
B1316195621083N01006641EA0000000687
B1316255620982N01006564EA0000000666
B1316325620855N01006479EA0000000642
B1316375620759N01006428EA0000000640
B1316455620619N01006347EA0000000682
B1316505620546N01006336EA0000000705
B1316555620530N01006488EA0000000714
B1317015620600N01006471EA0000000716
B1317075620539N01006437EA0000000731
B1317135620565N01006611EA0000000743
B1317205620569N01006518EA0000000754
B1317255620522N01006645EA0000000760
B1317305620592N01006715EA0000000772
B1317355620559N01006657EA0000000773
B1317405620541N01006812EA0000000781
B1317455620603N01006800EA0000000791
B1317505620542N01006797EA0000000792
B1317565620577N01006966EA0000000812
B1318035620563N01006896EA0000000819
B1318085620544N01007055EA0000000832
B1318135620607N01007060EA0000000839
B1318195620541N01007071EA0000000846
B1318245620569N01007226EA0000000860
B1318295620613N01007178EA0000000863
B1318375620541N01007279EA0000000872
B1318435620614N01007315EA0000000878
B1318485620567N01007268EA0000000888
B1318545620473N01007306EA0000000914
B1318595620423N01007251EA0000000922
B1319055620496N01007231EA0000000919
B1319105620496N01007398EA0000000924
B1319155620423N01007465EA0000000939
B1319225620340N01007374EA0000000942
B1319275620267N01007347EA0000000918
B1319325620182N01007326EA0000000904
B1319385620073N01007304EA0000000899
B1319455619935N01007287EA0000000889
B1319525619791N01007269EA0000000878
B1320005619624N01007257EA0000000876
B1320075619486N01007245EA0000000884
B1320135619372N01007237EA0000000871
B1320195619250N01007226EA0000000864
B1320265619105N01007224EA0000000865
B1320315619005N01007232EA0000000873
B1320375618889N01007244EA0000000876
B1320425618794N01007251EA0000000881
B1320525618616N01007248EA0000000864
B1320595618507N01007177EA0000000844
B1321065618433N01007040EA0000000838
B1321115618397N01006934EA0000000835
B1321185618344N01006791EA0000000822
B1321245618275N01006672EA0000000804
B1321335618158N01006508EA0000000795
B1321395618081N01006401EA0000000780
B1321455618002N01006289EA0000000765
B1321525617911N01006155EA0000000757
B1322015617801N01005979EA0000000761
B1322115617678N01005788EA0000000741
B1322185617586N01005657EA0000000726
B1322245617509N01005552EA0000000724
B1322315617424N01005431EA0000000706
B1322375617347N01005324EA0000000689
B1322485617201N01005118EA0000000670
B1322535617136N01005028EA0000000671
B1323005617047N01004909EA0000000668
B1323105616922N01004744EA0000000654
B1323155616858N01004661EA0000000643
B1323215616783N01004561EA0000000635
B1323285616700N01004445EA0000000626
B1323355616618N01004328EA0000000614
B1323415616546N01004233EA0000000606
B1323495616443N01004106EA0000000586
B1323575616337N01003978EA0000000565
B1324025616266N01003897EA0000000547
B1324115616136N01003745EA0000000535
B1324165616064N01003658EA0000000524
B1324355615811N01003321EA0000000481
B1324405615744N01003226EA0000000460
B1324455615672N01003133EA0000000449
B1324555615527N01002958EA0000000429
B1325045615394N01002811EA0000000407
B1325135615264N01002656EA0000000386
B1325205615153N01002554EA0000000366
B1325255615069N01002486EA0000000352
B1325325614952N01002396EA0000000344
B1325425614797N01002260EA0000000347
B1325495614694N01002176EA0000000345
B1325575614581N01002093EA0000000355
B1326025614525N01002040EA0000000356
B1326125614446N01001874EA0000000340
B1326245614387N01001652EA0000000366
B1326295614331N01001674EA0000000372
B1326345614355N01001817EA0000000371
B1326405614407N01001753EA0000000377
B1326455614349N01001762EA0000000381
B1326505614373N01001909EA0000000388
B1326565614431N01001834EA0000000395
B1327015614387N01001803EA0000000406
B1327065614394N01001947EA0000000410
B1327125614445N01001882EA0000000419
B1327175614391N01001946EA0000000422
B1327225614449N01002040EA0000000435
B1327285614431N01001975EA0000000444
B1327335614422N01002120EA0000000452
B1327385614489N01002105EA0000000458
B1327445614432N01002106EA0000000472
B1327495614467N01002236EA0000000481
B1327545614509N01002178EA0000000492
B1328005614450N01002240EA0000000498
B1328055614504N01002348EA0000000509
B1328105614531N01002280EA0000000515
B1328165614478N01002379EA0000000515
B1328215614542N01002468EA0000000525
B1328265614541N01002396EA0000000534
B1328325614515N01002548EA0000000542
B1328375614583N01002542EA0000000549
B1328425614534N01002530EA0000000558
B1328485614575N01002682EA0000000566
B1328535614585N01002602EA0000000567
B1328585614540N01002719EA0000000574
B1329045614627N01002782EA0000000585
B1329095614616N01002719EA0000000590
B1329145614582N01002842EA0000000590
B1329215614660N01002990EA0000000602
B1329265614679N01002918EA0000000602
B1329315614621N01002995EA0000000595
B1329365614644N01003158EA0000000614
B1329415614708N01003141EA0000000613
B1329465614658N01003138EA0000000621
B1329525614699N01003298EA0000000623
B1329575614733N01003232EA0000000620
B1330025614673N01003295EA0000000618
B1330085614709N01003485EA0000000633
B1330135614766N01003445EA0000000634
B1330185614712N01003446EA0000000630
B1330245614696N01003627EA0000000644
B1330295614770N01003661EA0000000650
B1330365614782N01003553EA0000000655
B1330425614748N01003471EA0000000635
B1330475614713N01003384EA0000000607
B1330525614673N01003277EA0000000584
B1330595614629N01003097EA0000000565
B1331045614604N01002949EA0000000554
B1331095614580N01002794EA0000000561
B1331145614559N01002658EA0000000590
B1331195614580N01002565EA0000000618
B1331245614654N01002646EA0000000620
B1331295614617N01002811EA0000000620
B1331345614558N01002781EA0000000628
B1331395614611N01002716EA0000000637
B1331445614660N01002868EA0000000639
B1331505614581N01002937EA0000000647
B1331555614576N01002847EA0000000650
B1332005614656N01002912EA0000000661
B1332055614619N01003071EA0000000665
B1332105614592N01003001EA0000000680
B1332165614680N01003071EA0000000694
B1332215614640N01003224EA0000000692
B1332265614594N01003164EA0000000703
B1332315614664N01003136EA0000000713
B1332365614699N01003310EA0000000719
B1332415614630N01003372EA0000000724
B1332465614649N01003283EA0000000730
B1332515614729N01003382EA0000000740
B1332565614694N01003548EA0000000744
B1333015614638N01003511EA0000000754
B1333065614684N01003444EA0000000760
B1333115614745N01003582EA0000000765
B1333165614689N01003707EA0000000766
B1333215614660N01003636EA0000000776
B1333265614736N01003651EA0000000787
B1333315614736N01003825EA0000000789
B1333365614675N01003821EA0000000793
B1333415614723N01003759EA0000000799
B1333465614782N01003900EA0000000806
B1333525614715N01004026EA0000000813
B1333575614704N01003944EA0000000819
B1334025614782N01003965EA0000000824
B1334085614775N01004167EA0000000823
B1334135614721N01004137EA0000000833
B1334185614778N01004098EA0000000831
B1334245614816N01004299EA0000000834
B1334295614746N01004374EA0000000840
B1334355614720N01004280EA0000000856
B1334405614787N01004272EA0000000857
B1334455614819N01004437EA0000000856
B1334515614740N01004547EA0000000861
B1334585614671N01004487EA0000000877
B1335035614643N01004401EA0000000883
B1335105614607N01004277EA0000000897
B1335175614560N01004165EA0000000899
B1335225614516N01004096EA0000000900
B1335285614455N01004035EA0000000898
B1335355614352N01004004EA0000000865
B1335415614238N01003987EA0000000830
B1335475614116N01003968EA0000000819
B1335575613908N01003950EA0000000799
B1336045613760N01003938EA0000000779
B1336135613566N01003912EA0000000760
B1336185613460N01003905EA0000000753
B1336325613170N01003932EA0000000726
B1336405613003N01003949EA0000000709
B1336485612839N01003961EA0000000717
B1336535612742N01003972EA0000000726
B1337025612579N01003996EA0000000719
B1337075612490N01004008EA0000000706
B1337145612358N01004029EA0000000681
B1337205612235N01004064EA0000000671
B1337295612046N01004135EA0000000677
B1337345611947N01004186EA0000000676
B1337415611807N01004280EA0000000663
B1337475611687N01004377EA0000000654
B1337525611587N01004468EA0000000641
B1338005611422N01004614EA0000000620
B1338115611194N01004815EA0000000609
B1338195611039N01004979EA0000000607
B1338265610911N01005138EA0000000609
B1338345610781N01005333EA0000000625
B1338405610692N01005473EA0000000624
B1338465610591N01005584EA0000000619
B1338525610495N01005670EA0000000630
B1338585610409N01005744EA0000000644
B1339045610325N01005791EA0000000646
B1339105610259N01005757EA0000000635
B1339165610212N01005673EA0000000622
B1339245610168N01005514EA0000000611
B1339305610141N01005379EA0000000618
B1339395610102N01005193EA0000000636
B1339445610042N01005180EA0000000643
B1339495610019N01005338EA0000000644
B1339545610085N01005394EA0000000630
B1340005610121N01005290EA0000000640
B1340055610105N01005202EA0000000649
B1340105610046N01005183EA0000000646
B1340165610053N01005368EA0000000643
B1340215610124N01005354EA0000000647
B1340265610160N01005271EA0000000658
B1340325610131N01005156EA0000000663
B1340395610078N01005037EA0000000682
B1340445610108N01004972EA0000000675
B1340495610160N01005089EA0000000665
B1340555610104N01005269EA0000000680
B1341005610032N01005323EA0000000682
B1341055610020N01005239EA0000000683
B1341105610087N01005273EA0000000678
B1341165610102N01005480EA0000000698
B1341215610043N01005576EA0000000692
B1341265610018N01005498EA0000000701
B1341315610081N01005520EA0000000709
B1341365610075N01005676EA0000000712
B1341415610009N01005690EA0000000717
B1341465610025N01005612EA0000000722
B1341525610090N01005728EA0000000726
B1341575610036N01005842EA0000000730
B1342025609994N01005784EA0000000740
B1342085610060N01005766EA0000000734
B1342135610071N01005924EA0000000741
B1342185610004N01005970EA0000000748
B1342245610012N01005875EA0000000753
B1342295610072N01005971EA0000000757
B1342345610034N01006108EA0000000760
B1342405609999N01006029EA0000000766
B1342455610068N01006059EA0000000767
B1342505610060N01006222EA0000000782
B1342565609998N01006207EA0000000791
B1343015610049N01006163EA0000000793
B1343065610075N01006313EA0000000792
B1343125609999N01006354EA0000000801
B1343175610025N01006281EA0000000803
B1343225610085N01006382EA0000000811
B1343285610047N01006530EA0000000812
B1343345610012N01006452EA0000000813
B1343395610080N01006470EA0000000811
B1343445610120N01006622EA0000000825
B1343495610164N01006768EA0000000831
B1343565610224N01006972EA0000000846
B1344015610287N01007005EA0000000845
B1344065610273N01006927EA0000000836
B1344125610185N01006998EA0000000841
B1344195610109N01007173EA0000000856
B1344245610050N01007277EA0000000860
B1344295610019N01007206EA0000000860
B1344345610092N01007192EA0000000869
B1344395610103N01007364EA0000000876
B1344445610034N01007382EA0000000889
B1344495610078N01007307EA0000000889
B1344555610128N01007487EA0000000904
B1345005610056N01007550EA0000000913
B1345055610064N01007458EA0000000923
B1345105610140N01007520EA0000000931
B1345155610120N01007682EA0000000936
B1345205610053N01007689EA0000000950
B1345255610068N01007600EA0000000946
B1345305610142N01007664EA0000000953
B1345365610106N01007841EA0000000954
B1345415610064N01007780EA0000000967
B1345465610128N01007760EA0000000978
B1345525610146N01007946EA0000000975
B1345575610082N01007983EA0000000987
B1346025610092N01007902EA0000000991
B1346085610169N01008005EA0000000991
B1346135610125N01008150EA0000000998
B1346185610070N01008129EA0000001004
B1346245610131N01008074EA0000001009
B1346295610173N01008227EA0000001001
B1346345610109N01008331EA0000001009
B1346415610039N01008251EA0000001025
B1346465610001N01008167EA0000001020
B1346525609952N01008043EA0000001018
B1346595609891N01007886EA0000001019
B1347045609844N01007769EA0000001008
B1347105609788N01007617EA0000000998
B1347175609725N01007431EA0000000993
B1347235609672N01007270EA0000000983
B1347305609609N01007071EA0000000964
B1347355609566N01006921EA0000000950
B1347425609506N01006711EA0000000942
B1347505609442N01006479EA0000000943
B1347555609402N01006344EA0000000941
B1348005609362N01006212EA0000000942
B1348075609313N01006024EA0000000939
B1348165609260N01005776EA0000000938
B1348225609233N01005612EA0000000942
B1348285609214N01005457EA0000000957
B1348355609196N01005283EA0000000950
B1348405609182N01005144EA0000000945
B1348485609160N01004933EA0000000965
B1348535609146N01004816EA0000000964
B1349015609123N01004613EA0000000954
B1349075609107N01004449EA0000000952
B1349165609091N01004201EA0000000953
B1349215609080N01004054EA0000000949
B1349265609071N01003910EA0000000956
B1349315609065N01003775EA0000000971
B1349365609061N01003660EA0000001002
B1349425609055N01003545EA0000001019
B1349475609090N01003469EA0000001025
B1349525609167N01003544EA0000001034
B1349575609154N01003717EA0000001043
B1350025609086N01003737EA0000001054
B1350085609111N01003643EA0000001059
B1350135609184N01003736EA0000001072
B1350185609155N01003894EA0000001075
B1350255609069N01003850EA0000001090
B1350325609036N01003708EA0000001108
B1350375609019N01003606EA0000001132
B1350435609008N01003487EA0000001139
B1350495608999N01003355EA0000001128
B1350565608988N01003166EA0000001137
B1351045608972N01002951EA0000001144
B1351095608964N01002819EA0000001147
B1351155608952N01002661EA0000001143
B1351215608936N01002492EA0000001129
B1351285608915N01002283EA0000001123
B1351365608895N01002049EA0000001132
B1351425608878N01001876EA0000001133
B1351475608860N01001736EA0000001133
B1351535608832N01001575EA0000001125
B1351585608796N01001444EA0000001119
B1352055608721N01001262EA0000001092
B1352135608615N01001037EA0000001074
B1352215608501N01000810EA0000001062
B1352285608397N01000616EA0000001049
B1352345608308N01000449EA0000001041
B1352445608169N01000182EA0000001033
B1352495608101N01000054EA0000001037
B1352545608038N00959930EA0000001049
B1353005607967N00959800EA0000001060
B1353055607912N00959702EA0000001073
B1353115607842N00959596EA0000001076
B1353205607749N00959435EA0000001079
B1353265607694N00959323EA0000001074
B1353325607639N00959197EA0000001055
B1353375607594N00959075EA0000001038
B1353465607517N00958836EA0000001031
B1353525607457N00958697EA0000001030
B1353595607390N00958531EA0000001019
B1354145607247N00958155EA0000001005
B1354205607195N00958003EA0000000997
B1354275607134N00957820EA0000000975
B1354335607081N00957653EA0000000968
B1354405607014N00957453EA0000000953
B1354485606931N00957212EA0000000929
B1354575606832N00956929EA0000000911
B1355055606738N00956686EA0000000901
B1355105606684N00956538EA0000000897
B1355185606606N00956308EA0000000891
B1355245606552N00956134EA0000000884
B1355335606475N00955872EA0000000889
B1355395606425N00955698EA0000000879
B1355505606335N00955376EA0000000856
B1355585606264N00955142EA0000000840
B1356055606201N00954934EA0000000829
B1356165606110N00954586EA0000000802
B1356235606047N00954370EA0000000816
B1356285606002N00954234EA0000000825
B1356345605952N00954091EA0000000831
B1356425605890N00953925EA0000000823
B1356505605828N00953753EA0000000812
B1356575605772N00953602EA0000000823
B1357065605705N00953413EA0000000803
B1357135605651N00953247EA0000000784
B1357205605598N00953061EA0000000758
B1357295605536N00952806EA0000000740
B1357365605496N00952603EA0000000725
B1357475605443N00952277EA0000000702
B1357535605417N00952096EA0000000693
B1358015605386N00951850EA0000000682
B1358065605365N00951695EA0000000673
B1358115605344N00951536EA0000000656
B1358165605323N00951372EA0000000644
B1358225605299N00951175EA0000000637
B1358305605276N00950917EA0000000632
B1358405605251N00950615EA0000000620
B1358465605240N00950435EA0000000610
B1358535605226N00950223EA0000000593
B1358585605198N00950079EA0000000585
B1359045605156N00949930EA0000000603
B1359095605131N00949821EA0000000604
B1359165605110N00949666EA0000000598
B1359225605071N00949544EA0000000589
B1359485604773N00949068EA0000000553
B1400015604618N00948822EA0000000559
B1400095604525N00948680EA0000000555
B1400165604444N00948550EA0000000550
B1400285604315N00948306EA0000000537
B1400365604225N00948133EA0000000534
B1400435604149N00947992EA0000000534
B1400525604081N00947780EA0000000518
B1400575604055N00947651EA0000000512
B1401045604019N00947470EA0000000507
B1401105603991N00947307EA0000000500
B1401165603965N00947149EA0000000509
B1401215603944N00947029EA0000000516
B1401285603916N00946868EA0000000524
B1401335603887N00946773EA0000000536
B1401385603831N00946844EA0000000534
B1401465603917N00946903EA0000000540
B1401525603893N00946820EA0000000533
B1401575603861N00946957EA0000000533
B1402035603949N00947032EA0000000543
B1402085603966N00946960EA0000000541
B1402135603929N00946875EA0000000531
B1402185603899N00946773EA0000000521
B1402275603859N00946553EA0000000504
B1402375603818N00946286EA0000000493
B1402425603799N00946152EA0000000483
B1402475603778N00946011EA0000000470
B1402525603754N00945861EA0000000472
B1402575603728N00945721EA0000000488
B1403025603723N00945605EA0000000502
B1403075603713N00945505EA0000000499
B1403145603675N00945368EA0000000482
B1403215603631N00945212EA0000000469
B1403315603583N00944962EA0000000458
B1403395603555N00944760EA0000000466
B1403445603541N00944644EA0000000470
B1403525603520N00944460EA0000000460
B1404035603470N00944204EA0000000446
B1404165603403N00943878EA0000000430
B1404225603377N00943723EA0000000422
B1404275603357N00943592EA0000000414
B1404345603335N00943402EA0000000397
B1404425603318N00943169EA0000000377
B1404515603302N00942903EA0000000364
B1405015603288N00942608EA0000000351
B1405115603291N00942327EA0000000345
B1405225603295N00942060EA0000000355
B1405325603290N00941845EA0000000360
B1405375603282N00941746EA0000000365
B1405425603225N00941690EA0000000363
B1405475603160N00941782EA0000000359
B1405525603181N00941938EA0000000347
B1405585603266N00942039EA0000000336
B1406055603372N00942115EA0000000336
B1406155603521N00942181EA0000000327
B1406245603629N00942127EA0000000320
B1406435603669N00941844EA0000000290
B1406485603592N00941853EA0000000285
B1406535603526N00941983EA0000000276
B1406595603501N00942209EA0000000266
B1407045603525N00942392EA0000000259
B1407095603595N00942488EA0000000255
B1407295603905N00942506EA0000000231
B1407345603980N00942519EA0000000230
B1407395604058N00942561EA0000000214
B1407445604123N00942701EA0000000200
B1407555604176N00943091EA0000000192
B1408025604106N00943312EA0000000186
