AOGNOGN
HFDTE080825
HFFXA050
HFPLTPILOTINCHARGE:
HFGTYGLIDERTYPE:ASH-31 MI
HFGIDGLIDERID:D-KRJR
HFDTM100GPSDATUM:WGS-1984
HFRFWFIRMWAREVERSION:
HFRHWHARDWAREVERSION:
HFFTYFRTYPE:OGN-FLIGHTBOOK
HFGPSGENERIC
HFPRSPRESSALTSENSOR:
HFCIDCOMPETITIONID:JR
B1153485600688N00901417EA0000000043
B1153535600683N00901334EA0000000043
B1153535600683N00901334EA0000000043
B1153585600676N00901232EA0000000053
B1154035600664N00901129EA0000000069
B1154095600646N00901007EA0000000081
B1154145600630N00900908EA0000000098
B1154205600614N00900792EA0000000113
B1154275600593N00900665EA0000000127
B1154335600572N00900558EA0000000133
B1154385600553N00900461EA0000000140
B1154445600529N00900342EA0000000155
B1154515600498N00900205EA0000000184
B1154565600474N00900122EA0000000206
B1155025600445N00900021EA0000000225
B1155085600419N00859915EA0000000243
B1155135600396N00859827EA0000000254
B1155195600366N00859722EA0000000267
B1155285600330N00859562EA0000000287
B1155405600292N00859336EA0000000306
B1155455600283N00859238EA0000000321
B1155515600275N00859118EA0000000339
B1155565600267N00859022EA0000000351
B1156015600257N00858926EA0000000360
B1156085600220N00858809EA0000000377
B1156135600182N00858729EA0000000390
B1156195600138N00858643EA0000000423
B1156245600101N00858563EA0000000444
B1156295600074N00858469EA0000000469
B1156345600056N00858371EA0000000494
B1156415600039N00858235EA0000000522
B1156475600028N00858120EA0000000552
B1156555600026N00857959EA0000000539
B1157015600032N00857833EA0000000541
B1157095600044N00857694EA0000000524
B1157175600056N00857555EA0000000513
B1157245600065N00857438EA0000000505
B1157305600076N00857333EA0000000497
B1157355600081N00857239EA0000000488
B1157405600078N00857142EA0000000482
B1157465600059N00857032EA0000000480
B1157515600034N00856944EA0000000479
B1157575559996N00856845EA0000000487
B1158035559954N00856744EA0000000491
B1158105559905N00856620EA0000000507
B1158155559866N00856541EA0000000508
B1158215559784N00856524EA0000000511
B1158275559714N00856647EA0000000517
B1158325559717N00856810EA0000000519
B1158375559776N00856934EA0000000517
B1158445559883N00856960EA0000000520
B1158505559947N00856892EA0000000534
B1158555559961N00856806EA0000000549
B1159015559908N00856736EA0000000564
B1159065559840N00856786EA0000000569
B1159115559799N00856928EA0000000569
B1159165559814N00857090EA0000000576
B1159215559878N00857190EA0000000574
B1159265559950N00857175EA0000000572
B1159345559969N00857024EA0000000597
B1159395559946N00856937EA0000000614
B1159445559880N00856926EA0000000627
B1159505559829N00857089EA0000000627
B1159555559861N00857239EA0000000637
B1200005559933N00857297EA0000000635
B1200065600006N00857243EA0000000652
B1200125600015N00857124EA0000000657
B1200195559954N00857007EA0000000670
B1200255559889N00856934EA0000000683
B1200325559789N00856960EA0000000682
B1200385559747N00857131EA0000000672
B1200435559786N00857275EA0000000671
B1200485559855N00857322EA0000000671
B1200545559933N00857298EA0000000685
B1201015600003N00857217EA0000000697
B1201085600029N00857082EA0000000703
B1201135600025N00856979EA0000000706
B1201185600003N00856886EA0000000714
B1201255559966N00856765EA0000000717
B1201335559928N00856614EA0000000713
B1201385559887N00856527EA0000000712
B1201435559832N00856467EA0000000715
B1201495559770N00856392EA0000000727
B1201545559729N00856311EA0000000718
B1202015559696N00856171EA0000000722
B1202085559663N00856038EA0000000729
B1202135559635N00855948EA0000000735
B1202185559604N00855865EA0000000749
B1202245559567N00855770EA0000000762
B1202305559515N00855691EA0000000763
B1202355559441N00855734EA0000000758
B1202405559406N00855872EA0000000752
B1202455559425N00856023EA0000000742
B1202505559482N00856144EA0000000733
B1202555559562N00856208EA0000000739
B1203005559640N00856219EA0000000751
B1203075559731N00856156EA0000000763
B1203125559782N00856086EA0000000767
B1203185559829N00855981EA0000000767
B1203245559859N00855862EA0000000774
B1203295559880N00855765EA0000000786
B1203345559887N00855673EA0000000794
B1203395559884N00855579EA0000000790
B1203445559869N00855480EA0000000787
B1203495559844N00855387EA0000000787
B1203555559808N00855285EA0000000795
B1204015559740N00855219EA0000000790
B1204075559653N00855202EA0000000802
B1204135559565N00855244EA0000000809
B1204185559503N00855365EA0000000816
B1204235559479N00855530EA0000000828
B1204285559503N00855699EA0000000819
B1204355559591N00855870EA0000000830
B1204405559669N00855917EA0000000833
B1204465559755N00855880EA0000000842
B1204525559803N00855772EA0000000854
B1204575559805N00855659EA0000000854
B1205025559770N00855559EA0000000859
B1205075559708N00855506EA0000000872
B1205125559630N00855518EA0000000876
B1205175559565N00855629EA0000000883
B1205225559550N00855804EA0000000883
B1205275559593N00855971EA0000000897
B1205325559671N00856022EA0000000915
B1205375559721N00855940EA0000000923
B1205435559688N00855811EA0000000941
B1205495559596N00855823EA0000000955
B1205545559542N00855960EA0000000947
B1206005559549N00856188EA0000000952
B1206055559607N00856327EA0000000968
B1206115559699N00856364EA0000000977
B1206165559754N00856289EA0000000985
B1206215559761N00856170EA0000000990
B1206265559715N00856081EA0000001006
B1206315559641N00856074EA0000001017
B1206365559569N00856169EA0000001010
B1206415559533N00856336EA0000001014
B1206465559550N00856513EA0000001022
B1206515559611N00856636EA0000001030
B1206575559708N00856682EA0000001035
B1207045559823N00856689EA0000001045
B1207115559951N00856684EA0000001047
B1207165600042N00856679EA0000001055
B1207245600190N00856671EA0000001045
B1207325600345N00856661EA0000001032
B1207395600486N00856653EA0000001028
B1207455600607N00856626EA0000001014
B1207505600708N00856595EA0000001008
B1207575600849N00856548EA0000001005
B1208045600981N00856500EA0000000998
B1208095601075N00856465EA0000000990
B1208165601203N00856403EA0000000976
B1208235601329N00856325EA0000000960
B1208295601434N00856251EA0000000955
B1208365601553N00856158EA0000000943
B1208435601670N00856063EA0000000932
B1208485601754N00855995EA0000000920
B1208535601838N00855921EA0000000910
B1209025601991N00855785EA0000000900
B1209075602077N00855710EA0000000895
B1209135602184N00855619EA0000000883
B1209225602353N00855493EA0000000860
B1209285602467N00855403EA0000000850
B1209365602614N00855278EA0000000859
B1209425602717N00855181EA0000000874
B1209485602817N00855082EA0000000878
B1209555602941N00854963EA0000000871
B1210015603052N00854862EA0000000864
B1210095603203N00854735EA0000000860
B1210145603292N00854656EA0000000850
B1210195603379N00854572EA0000000845
B1210315603584N00854387EA0000000846
B1210375603680N00854293EA0000000845
B1210425603761N00854219EA0000000842
B1210495603884N00854119EA0000000835
B1210545603967N00854043EA0000000831
B1210595604053N00853968EA0000000823
B1211065604169N00853851EA0000000813
B1211115604253N00853766EA0000000805
B1211195604396N00853645EA0000000803
B1211255604503N00853567EA0000000820
B1211305604587N00853501EA0000000831
B1211355604664N00853438EA0000000858
B1211435604778N00853365EA0000000870
B1211495604865N00853315EA0000000884
B1211545604935N00853274EA0000000894
B1212015605019N00853196EA0000000901
B1212075605072N00853109EA0000000902
B1212165605137N00852956EA0000000898
B1212235605180N00852827EA0000000897
B1212295605213N00852709EA0000000894
B1212365605256N00852568EA0000000886
B1212435605284N00852405EA0000000861
B1212545605321N00852131EA0000000849
B1213015605344N00851954EA0000000834
B1213075605357N00851793EA0000000827
B1213125605370N00851666EA0000000834
B1213195605390N00851502EA0000000828
B1213275605422N00851309EA0000000812
B1213335605450N00851155EA0000000798
B1213405605473N00850986EA0000000808
B1213455605472N00850879EA0000000794
B1213555605470N00850610EA0000000770
B1214055605470N00850331EA0000000756
B1214115605459N00850162EA0000000746
B1214195605452N00849936EA0000000740
B1214245605454N00849801EA0000000737
B1214315605463N00849616EA0000000727
B1214365605465N00849487EA0000000726
B1214415605467N00849364EA0000000723
B1214485605473N00849207EA0000000720
B1214535605479N00849099EA0000000699
B1214585605493N00848973EA0000000680
B1215035605515N00848850EA0000000684
B1215105605544N00848704EA0000000679
B1215185605564N00848502EA0000000650
B1215245605514N00848375EA0000000647
B1215295605426N00848387EA0000000649
B1215345605342N00848465EA0000000640
B1215405605237N00848574EA0000000631
B1215455605152N00848675EA0000000635
B1215505605076N00848784EA0000000642
B1215575604977N00848952EA0000000636
B1216025604901N00849058EA0000000661
B1216085604839N00849200EA0000000673
B1216135604876N00849344EA0000000681
B1216185604939N00849327EA0000000697
B1216235604926N00849221EA0000000702
B1216295604837N00849213EA0000000722
B1216355604768N00849365EA0000000725
B1216415604786N00849575EA0000000732
B1216465604859N00849685EA0000000744
B1216515604940N00849686EA0000000754
B1216565604990N00849587EA0000000758
B1217025604966N00849454EA0000000784
B1217085604883N00849466EA0000000804
B1217145604844N00849635EA0000000812
B1217205604896N00849797EA0000000838
B1217265604980N00849825EA0000000849
B1217315605025N00849753EA0000000861
B1217365605012N00849662EA0000000870
B1217435604926N00849647EA0000000880
B1217485604870N00849747EA0000000888
B1217535604860N00849905EA0000000895
B1217595604920N00850065EA0000000910
B1218055605012N00850082EA0000000926
B1218105605051N00850001EA0000000936
B1218155605032N00849909EA0000000937
B1218235604929N00849907EA0000000944
B1218285604878N00850029EA0000000957
B1218345604883N00850212EA0000000974
B1218405604954N00850350EA0000000986
B1218465605036N00850343EA0000000999
B1218515605064N00850253EA0000001002
B1218565605047N00850162EA0000001002
B1219025604994N00850083EA0000001012
B1219075604933N00850086EA0000001017
B1219125604864N00850141EA0000001023
B1219185604781N00850198EA0000001042
B1219245604697N00850277EA0000001042
B1219325604582N00850425EA0000001048
B1219385604507N00850564EA0000001044
B1219475604414N00850831EA0000001036
B1219565604436N00851140EA0000001028
B1220015604504N00851256EA0000001034
B1220065604572N00851365EA0000001040
B1220145604668N00851574EA0000001046
B1220215604717N00851805EA0000001072
B1220275604719N00852014EA0000001090
B1220325604677N00852156EA0000001103
B1220385604593N00852222EA0000001111
B1220435604543N00852170EA0000001111
B1220495604555N00852057EA0000001107
B1220545604626N00852050EA0000001109
B1220595604693N00852160EA0000001123
B1221045604733N00852311EA0000001134
B1221105604756N00852508EA0000001151
B1221165604744N00852705EA0000001154
B1221245604687N00852960EA0000001151
B1221315604644N00853198EA0000001150
B1221365604643N00853380EA0000001150
B1221435604670N00853629EA0000001148
B1221485604689N00853810EA0000001143
B1221535604663N00853979EA0000001142
B1221595604571N00854034EA0000001144
B1222055604500N00853951EA0000001151
B1222105604449N00853863EA0000001156
B1222175604391N00853731EA0000001158
B1222245604370N00853583EA0000001147
B1222295604385N00853475EA0000001144
B1222345604453N00853426EA0000001136
B1222395604544N00853456EA0000001134
B1222475604653N00853658EA0000001158
B1222525604657N00853846EA0000001166
B1222585604647N00854063EA0000001179
B1223045604659N00854261EA0000001181
B1223105604677N00854459EA0000001183
B1223165604699N00854653EA0000001185
B1223225604710N00854858EA0000001173
B1223275604664N00855004EA0000001167
B1223325604588N00855039EA0000001169
B1223375604524N00854995EA0000001173
B1223445604451N00854902EA0000001170
B1223495604416N00854806EA0000001171
B1223565604417N00854646EA0000001166
B1224025604460N00854524EA0000001162
B1224075604526N00854468EA0000001158
B1224125604611N00854499EA0000001155
B1224195604710N00854659EA0000001151
B1224245604755N00854816EA0000001148
B1224315604810N00855050EA0000001145
B1224395604873N00855310EA0000001139
B1224445604912N00855476EA0000001144
B1224495604942N00855647EA0000001133
B1224545604917N00855826EA0000001121
B1225005604839N00855996EA0000001121
B1225075604738N00856158EA0000001123
B1225135604647N00856281EA0000001122
B1225185604565N00856371EA0000001129
B1225245604466N00856462EA0000001122
B1225295604381N00856530EA0000001116
B1225375604256N00856683EA0000001116
B1225425604183N00856802EA0000001113
B1225505604059N00856929EA0000001117
B1225575603936N00856958EA0000001082
B1226025603834N00856920EA0000001070
B1226095603680N00856840EA0000001070
B1226145603569N00856775EA0000001058
B1226205603442N00856690EA0000001054
B1226255603338N00856618EA0000001038
B1226345603149N00856478EA0000001017
B1226425602992N00856348EA0000001012
B1226485602879N00856256EA0000001018
B1226535602790N00856212EA0000001047
B1226585602705N00856223EA0000001062
B1227035602634N00856307EA0000001070
B1227095602595N00856491EA0000001073
B1227145602614N00856659EA0000001076
B1227205602678N00856816EA0000001082
B1227255602752N00856893EA0000001075
B1227305602829N00856877EA0000001075
B1227355602876N00856792EA0000001076
B1227405602883N00856686EA0000001085
B1227455602831N00856634EA0000001074
B1227505602749N00856650EA0000001068
B1227575602635N00856702EA0000001069
B1228035602536N00856741EA0000001061
B1228085602449N00856785EA0000001059
B1228135602365N00856847EA0000001057
B1228215602233N00856956EA0000001050
B1228265602157N00857047EA0000001051
B1228335602053N00857180EA0000001062
B1228385601988N00857292EA0000001080
B1228445602027N00857469EA0000001074
B1228495602094N00857460EA0000001068
B1228545602107N00857368EA0000001072
B1229005602058N00857270EA0000001079
B1229065601969N00857244EA0000001078
B1229115601891N00857319EA0000001081
B1229165601834N00857468EA0000001080
B1229225601824N00857684EA0000001088
B1229275601865N00857835EA0000001079
B1229335601944N00857979EA0000001063
B1229385602019N00858064EA0000001052
B1229435602103N00858095EA0000001030
B1229495602220N00858106EA0000001008
B1229545602321N00858110EA0000001000
B1230015602462N00858126EA0000000985
B1230065602565N00858142EA0000000981
B1230125602681N00858164EA0000000992
B1230185602789N00858187EA0000000992
B1230235602880N00858208EA0000000991
B1230295602981N00858192EA0000000993
B1230355603057N00858122EA0000000999
B1230405603082N00858031EA0000000994
B1230455603069N00857932EA0000000980
B1230525603018N00857802EA0000000962
B1230575602977N00857708EA0000000948
B1231025602927N00857616EA0000000936
B1231085602864N00857502EA0000000920
B1231135602811N00857409EA0000000913
B1231185602760N00857319EA0000000914
B1231235602752N00857211EA0000000913
B1231285602797N00857128EA0000000906
B1231345602892N00857099EA0000000898
B1231415603013N00857095EA0000000902
B1231485603128N00857066EA0000000900
B1231545603223N00857025EA0000000907
B1231595603294N00856986EA0000000900
B1232065603408N00856952EA0000000876
B1232115603498N00856933EA0000000864
B1232175603612N00856902EA0000000853
B1232225603705N00856866EA0000000854
B1232285603812N00856819EA0000000847
B1232335603900N00856779EA0000000842
B1232395604007N00856727EA0000000839
B1232445604092N00856681EA0000000839
B1232505604196N00856632EA0000000855
B1232555604278N00856603EA0000000882
B1233005604346N00856555EA0000000893
B1233055604324N00856471EA0000000897
B1233105604256N00856552EA0000000894
B1233155604270N00856725EA0000000902
B1233215604366N00856850EA0000000911
B1233265604450N00856868EA0000000924
B1233315604494N00856787EA0000000930
B1233365604464N00856711EA0000000929
B1233435604368N00856791EA0000000936
B1233485604341N00856948EA0000000937
B1233535604356N00857129EA0000000942
B1233585604405N00857273EA0000000959
B1234035604477N00857342EA0000000958
B1234085604544N00857310EA0000000963
B1234145604551N00857187EA0000000962
B1234195604486N00857157EA0000000974
B1234245604428N00857258EA0000000981
B1234305604443N00857470EA0000000980
B1234355604517N00857573EA0000000991
B1234405604584N00857551EA0000001009
B1234475604577N00857426EA0000001004
B1234535604494N00857440EA0000001013
B1234585604450N00857580EA0000001016
B1235035604468N00857751EA0000001019
B1235085604533N00857860EA0000001023
B1235135604605N00857867EA0000001024
B1235185604648N00857802EA0000001020
B1235265604654N00857628EA0000000997
B1235315604651N00857504EA0000000996
B1235365604647N00857384EA0000000994
B1235435604641N00857219EA0000000980
B1235485604635N00857100EA0000000978
B1235545604631N00856952EA0000000972
B1236005604628N00856804EA0000000973
B1236065604621N00856660EA0000000971
B1236115604613N00856537EA0000000965
B1236175604602N00856392EA0000000953
B1236235604584N00856248EA0000000944
B1236285604561N00856138EA0000000943
B1236345604531N00856002EA0000000941
B1236415604501N00855841EA0000000961
B1236465604481N00855733EA0000000984
B1236515604416N00855692EA0000000983
B1236565604355N00855817EA0000000999
B1237025604410N00855973EA0000000998
B1237105604469N00855865EA0000001025
B1237155604413N00855822EA0000001041
B1237205604347N00855906EA0000001042
B1237265604347N00856109EA0000001049
B1237315604413N00856169EA0000001055
B1237365604456N00856089EA0000001056
B1237425604413N00855990EA0000001087
B1237475604343N00856037EA0000001095
B1237535604314N00856232EA0000001094
B1237585604365N00856364EA0000001107
B1238035604440N00856409EA0000001116
B1238085604499N00856351EA0000001122
B1238135604488N00856248EA0000001144
B1238185604418N00856262EA0000001164
B1238235604387N00856425EA0000001179
B1238285604411N00856597EA0000001191
B1238335604476N00856712EA0000001199
B1238385604542N00856834EA0000001199
B1238435604570N00857004EA0000001205
B1238485604575N00857178EA0000001206
B1238555604571N00857432EA0000001188
B1239025604557N00857707EA0000001181
B1239075604535N00857909EA0000001185
B1239125604514N00858095EA0000001214
B1239175604495N00858270EA0000001217
B1239225604474N00858460EA0000001206
B1239285604435N00858696EA0000001201
B1239335604403N00858891EA0000001204
B1239385604371N00859079EA0000001209
B1239435604338N00859276EA0000001192
B1239485604312N00859488EA0000001209
B1239545604298N00859736EA0000001226
B1240005604301N00859973EA0000001250
B1240055604304N00900166EA0000001246
B1240115604306N00900418EA0000001228
B1240185604305N00900745EA0000001218
B1240275604304N00901147EA0000001240
B1240355604295N00901512EA0000001235
B1240405604280N00901743EA0000001232
B1240475604249N00902073EA0000001216
B1240525604227N00902311EA0000001204
B1240575604214N00902556EA0000001197
B1241035604207N00902845EA0000001208
B1241095604205N00903099EA0000001245
B1241145604205N00903282EA0000001259
B1241195604216N00903458EA0000001261
B1241255604218N00903681EA0000001261
B1241315604218N00903902EA0000001270
B1241365604200N00904082EA0000001265
B1241425604148N00904298EA0000001251
B1241475604097N00904489EA0000001242
B1241525604045N00904680EA0000001233
B1241585603980N00904915EA0000001220
B1242035603926N00905105EA0000001239
B1242095603856N00905301EA0000001250
B1242145603800N00905456EA0000001264
B1242195603754N00905609EA0000001271
B1242255603703N00905813EA0000001267
B1242335603645N00906108EA0000001271
B1242385603618N00906301EA0000001269
B1242435603595N00906500EA0000001259
B1242515603554N00906846EA0000001236
B1242565603528N00907072EA0000001226
B1243015603501N00907301EA0000001222
B1243085603464N00907609EA0000001222
B1243135603436N00907826EA0000001231
B1243185603413N00908025EA0000001251
B1243235603393N00908201EA0000001260
B1243285603372N00908378EA0000001250
B1243345603341N00908619EA0000001228
B1243395603313N00908827EA0000001220
B1243445603281N00909055EA0000001209
B1243515603232N00909371EA0000001202
B1243575603188N00909645EA0000001184
B1244035603136N00909924EA0000001174
B1244105603077N00910244EA0000001176
B1244155603048N00910476EA0000001187
B1244215603021N00910705EA0000001238
B1244265603001N00910874EA0000001239
B1244315602981N00911055EA0000001226
B1244365602972N00911266EA0000001204
B1244425602964N00911548EA0000001176
B1244485602953N00911849EA0000001159
B1244545602939N00912160EA0000001145
B1244595602922N00912420EA0000001136
B1245045602905N00912682EA0000001124
B1245095602887N00912948EA0000001116
B1245155602876N00913236EA0000001155
B1245215602901N00913480EA0000001150
B1245285602974N00913765EA0000001122
B1245345603048N00914020EA0000001111
B1245405603124N00914274EA0000001113
B1245455603184N00914475EA0000001118
B1245505603242N00914674EA0000001107
B1245555603297N00914878EA0000001115
B1246005603348N00915058EA0000001139
B1246055603400N00915226EA0000001135
B1246105603453N00915413EA0000001113
B1246165603497N00915676EA0000001095
B1246215603558N00915880EA0000001093
B1246265603633N00916066EA0000001112
B1246315603701N00916235EA0000001129
B1246395603815N00916514EA0000001110
B1246445603892N00916706EA0000001094
B1246495603968N00916906EA0000001097
B1246555604057N00917146EA0000001104
B1247005604120N00917324EA0000001122
B1247055604175N00917498EA0000001114
B1247105604227N00917690EA0000001111
B1247165604281N00917920EA0000001134
B1247225604324N00918135EA0000001146
B1247285604367N00918355EA0000001145
B1247345604410N00918585EA0000001164
B1247395604441N00918767EA0000001169
B1247445604473N00918952EA0000001168
B1247505604509N00919185EA0000001164
B1247555604538N00919393EA0000001160
B1248015604578N00919643EA0000001154
B1248075604618N00919906EA0000001126
B1248125604651N00920141EA0000001113
B1248185604729N00920383EA0000001129
B1248235604790N00920549EA0000001161
B1248285604842N00920708EA0000001149
B1248355604908N00920988EA0000001115
B1248415604959N00921260EA0000001108
B1248465604995N00921488EA0000001112
B1248525605029N00921765EA0000001112
B1248575605055N00921987EA0000001136
B1249025605084N00922161EA0000001170
B1249085605125N00922353EA0000001172
B1249155605175N00922569EA0000001198
B1249205605210N00922727EA0000001196
B1249255605245N00922897EA0000001198
B1249305605279N00923070EA0000001204
B1249365605318N00923281EA0000001200
B1249425605350N00923526EA0000001177
B1249495605379N00923847EA0000001157
B1249545605395N00924091EA0000001140
B1249595605412N00924346EA0000001125
B1250045605433N00924594EA0000001164
B1250095605453N00924792EA0000001188
B1250155605476N00925034EA0000001178
B1250215605502N00925301EA0000001173
B1250265605523N00925522EA0000001165
B1250325605547N00925792EA0000001148
B1250395605570N00926117EA0000001146
B1250445605583N00926327EA0000001191
B1250515605600N00926568EA0000001206
B1250565605619N00926749EA0000001217
B1251025605644N00926968EA0000001232
B1251075605668N00927147EA0000001247
B1251125605698N00927318EA0000001259
B1251185605734N00927533EA0000001265
B1251235605762N00927728EA0000001261
B1251285605786N00927936EA0000001257
B1251335605812N00928155EA0000001239
B1251385605836N00928405EA0000001215
B1251445605864N00928737EA0000001192
B1251495605892N00929024EA0000001176
B1251555605933N00929376EA0000001164
B1252015605978N00929730EA0000001159
B1252075606007N00930078EA0000001174
B1252125606016N00930344EA0000001200
B1252195606013N00930691EA0000001206
B1252255606002N00930981EA0000001193
B1252315605982N00931283EA0000001169
B1252365605961N00931541EA0000001160
B1252415605941N00931803EA0000001146
B1252465605920N00932071EA0000001137
B1252515605900N00932339EA0000001132
B1252565605881N00932605EA0000001128
B1253015605864N00932868EA0000001129
B1253065605846N00933124EA0000001126
B1253115605830N00933382EA0000001113
B1253165605810N00933644EA0000001106
B1253225605789N00933959EA0000001101
B1253275605770N00934219EA0000001093
B1253335605745N00934533EA0000001082
B1253415605709N00934952EA0000001076
B1253485605680N00935311EA0000001068
B1253535605661N00935567EA0000001055
B1254005605630N00935928EA0000001043
B1254055605606N00936180EA0000001043
B1254115605578N00936479EA0000001044
B1254175605554N00936764EA0000001059
B1254235605519N00937005EA0000001076
B1254285605485N00937202EA0000001075
B1254335605475N00937401EA0000001089
B1254385605512N00937568EA0000001109
B1254445605603N00937592EA0000001115
B1254495605629N00937485EA0000001119
B1254545605582N00937422EA0000001134
B1254595605514N00937470EA0000001139
B1255045605464N00937602EA0000001142
B1255115605466N00937842EA0000001151
B1255175605501N00938042EA0000001165
B1255245605547N00938269EA0000001181
B1255295605583N00938426EA0000001188
B1255355605636N00938634EA0000001157
B1255405605691N00938839EA0000001140
B1255475605768N00939139EA0000001134
B1255525605826N00939352EA0000001139
B1255585605897N00939588EA0000001146
B1256035605958N00939787EA0000001131
B1256085606023N00939992EA0000001134
B1256135606080N00940176EA0000001169
B1256185606128N00940339EA0000001177
B1256245606188N00940542EA0000001155
B1256295606248N00940731EA0000001137
B1256365606327N00941023EA0000001121
B1256425606383N00941286EA0000001110
B1256485606436N00941551EA0000001113
B1256555606499N00941864EA0000001098
B1257015606557N00942137EA0000001084
B1257065606606N00942363EA0000001078
B1257125606666N00942626EA0000001079
B1257175606718N00942839EA0000001076
B1257225606771N00943061EA0000001063
B1257295606843N00943378EA0000001062
B1257345606902N00943592EA0000001057
B1257395606966N00943799EA0000001048
B1257445607025N00944016EA0000001041
B1257505607088N00944275EA0000001048
B1257555607134N00944465EA0000001059
B1258035607198N00944776EA0000001047
B1258095607244N00945001EA0000001062
B1258145607283N00945174EA0000001067
B1258195607328N00945348EA0000001069
B1258245607371N00945515EA0000001073
B1258295607414N00945686EA0000001055
B1258365607542N00945851EA0000001023
B1258415607649N00945945EA0000001006
B1258495607828N00946097EA0000000990
B1258585608032N00946279EA0000000974
B1259035608143N00946390EA0000000971
B1259085608249N00946499EA0000000973
B1259135608350N00946609EA0000000974
B1259215608504N00946768EA0000000968
B1259305608677N00946928EA0000000956
B1259355608777N00947009EA0000000951
B1259405608879N00947093EA0000000951
B1259475609017N00947221EA0000000957
B1259535609134N00947295EA0000000973
B1259585609225N00947364EA0000000981
B1300045609333N00947463EA0000000977
B1300095609412N00947601EA0000000964
B1300145609463N00947790EA0000000958
B1300255609404N00948199EA0000000945
B1300305609348N00948361EA0000000948
B1300365609279N00948562EA0000000931
B1300415609225N00948749EA0000000924
B1300475609166N00948997EA0000000914
B1300525609127N00949183EA0000000939
B1300575609101N00949365EA0000000933
B1301025609109N00949575EA0000000913
B1301075609141N00949797EA0000000897
B1301135609184N00950066EA0000000892
B1301195609226N00950334EA0000000885
B1301255609270N00950600EA0000000876
B1301315609316N00950869EA0000000859
B1301405609382N00951271EA0000000858
B1301455609418N00951492EA0000000848
B1301525609466N00951803EA0000000842
B1301575609497N00952015EA0000000855
B1302025609523N00952204EA0000000859
B1302085609552N00952437EA0000000849
B1302155609592N00952711EA0000000848
B1302205609620N00952908EA0000000837
B1302265609619N00953173EA0000000825
B1302315609599N00953390EA0000000835
B1302365609577N00953601EA0000000818
B1302415609548N00953817EA0000000813
B1302475609507N00954070EA0000000811
B1302535609452N00954312EA0000000807
B1302585609401N00954508EA0000000802
B1303045609345N00954756EA0000000790
B1303105609297N00955017EA0000000787
B1303165609245N00955262EA0000000807
B1303225609187N00955480EA0000000809
B1303275609146N00955670EA0000000820
B1303325609106N00955845EA0000000831
B1303375609072N00956023EA0000000830
B1303445609076N00956293EA0000000844
B1303505609108N00956510EA0000000855
B1303555609150N00956674EA0000000859
B1304005609225N00956770EA0000000860
B1304055609304N00956759EA0000000858
B1304105609350N00956673EA0000000859
B1304155609342N00956573EA0000000855
B1304205609285N00956522EA0000000842
B1304265609189N00956573EA0000000836
B1304335609074N00956634EA0000000840
B1304395608975N00956679EA0000000847
B1304465608857N00956746EA0000000855
B1304515608809N00956907EA0000000851
B1304565608869N00957066EA0000000857
B1305015608946N00957035EA0000000862
B1305065608936N00956922EA0000000859
B1305115608859N00956886EA0000000868
B1305165608777N00956929EA0000000880
B1305215608712N00957057EA0000000881
B1305265608684N00957240EA0000000877
B1305315608706N00957426EA0000000873
B1305365608774N00957556EA0000000860
B1305415608861N00957641EA0000000841
B1305475608979N00957732EA0000000855
B1305525609072N00957809EA0000000872
B1305575609161N00957853EA0000000870
B1306025609179N00957754EA0000000871
B1306085609094N00957781EA0000000879
B1306135609035N00957921EA0000000883
B1306195609011N00958148EA0000000891
B1306245609073N00958293EA0000000908
B1306315609169N00958253EA0000000900
B1306365609146N00958157EA0000000905
B1306415609073N00958169EA0000000908
B1306465609010N00958296EA0000000909
B1306525608986N00958518EA0000000919
B1306575608985N00958701EA0000000939
B1307025609035N00958843EA0000000933
B1307075609122N00958875EA0000000919
B1307135609243N00958893EA0000000880
B1307225609448N00958924EA0000000866
B1307315609654N00958946EA0000000856
B1307365609765N00958959EA0000000849
B1307425609898N00958974EA0000000835
B1307495610055N00958994EA0000000822
B1308015610319N00959016EA0000000816
B1308125610542N00958984EA0000000814
B1308185610657N00958940EA0000000811
B1308275610828N00958848EA0000000792
B1308325610929N00958805EA0000000779
B1308425611144N00958744EA0000000759
B1308495611298N00958719EA0000000752
B1308565611454N00958702EA0000000738
B1309015611567N00958691EA0000000726
B1309105611767N00958671EA0000000722
B1309165611896N00958655EA0000000718
B1309215612002N00958638EA0000000719
B1309295612175N00958612EA0000000701
B1309365612331N00958590EA0000000688
B1309445612511N00958555EA0000000666
B1309555612765N00958486EA0000000639
B1310055612996N00958419EA0000000630
B1310105613111N00958383EA0000000635
B1310165613235N00958362EA0000000675
B1310215613328N00958353EA0000000678
B1310265613418N00958355EA0000000695
B1310315613483N00958300EA0000000674
B1310365613442N00958223EA0000000688
B1310415613382N00958319EA0000000689
B1310475613352N00958537EA0000000695
B1310525613344N00958719EA0000000710
B1310575613402N00958872EA0000000701
B1311025613486N00958903EA0000000720
B1311075613516N00958839EA0000000730
B1311125613470N00958795EA0000000726
B1311175613405N00958890EA0000000730
B1311225613412N00959067EA0000000736
B1311285613503N00959186EA0000000739
B1311335613567N00959164EA0000000757
B1311395613552N00959087EA0000000755
B1311445613483N00959133EA0000000769
B1311495613465N00959296EA0000000768
B1311545613529N00959432EA0000000769
B1312005613611N00959429EA0000000783
B1312055613610N00959355EA0000000781
B1312105613545N00959365EA0000000794
B1312165613511N00959544EA0000000799
B1312215613574N00959677EA0000000799
B1312265613648N00959663EA0000000798
B1312325613647N00959572EA0000000814
B1312375613586N00959598EA0000000815
B1312435613553N00959800EA0000000819
B1312485613615N00959936EA0000000831
B1312535613686N00959941EA0000000826
B1312585613740N00959877EA0000000819
B1313065613864N00959798EA0000000826
B1313125613958N00959734EA0000000808
B1313205614070N00959568EA0000000787
B1313255614140N00959447EA0000000765
B1313305614206N00959316EA0000000768
B1313365614270N00959176EA0000000784
B1313435614349N00959019EA0000000773
B1313485614407N00958910EA0000000784
B1313535614465N00958808EA0000000779
B1314045614628N00958613EA0000000761
B1314145614812N00958514EA0000000741
B1314205614929N00958454EA0000000725
B1314275615072N00958382EA0000000707
B1314325615179N00958332EA0000000696
B1314425615387N00958225EA0000000685
B1314525615588N00958121EA0000000666
B1315015615760N00958038EA0000000689
B1315065615839N00958011EA0000000702
B1315135615943N00957962EA0000000703
B1315185616015N00957908EA0000000703
B1315235616086N00957849EA0000000689
B1315285616163N00957782EA0000000675
B1315335616243N00957710EA0000000673
B1315395616334N00957616EA0000000665
B1315455616421N00957505EA0000000648
B1315525616532N00957363EA0000000629
B1316015616676N00957177EA0000000615
B1316105616810N00956974EA0000000606
B1316165616896N00956839EA0000000602
B1316235616994N00956693EA0000000594
B1316325617118N00956509EA0000000574
B1316395617213N00956370EA0000000562
B1316455617292N00956258EA0000000567
B1316535617387N00956115EA0000000561
B1317045617504N00955909EA0000000551
B1317105617563N00955790EA0000000547
B1317165617610N00955668EA0000000554
B1317235617659N00955530EA0000000565
B1317295617696N00955404EA0000000581
B1317385617610N00955328EA0000000590
B1317445617584N00955533EA0000000614
B1317495617645N00955660EA0000000626
B1317545617716N00955661EA0000000637
B1318015617717N00955557EA0000000639
B1318065617648N00955581EA0000000651
B1318125617606N00955759EA0000000661
B1318185617666N00955928EA0000000674
B1318245617743N00955915EA0000000688
B1318315617719N00955818EA0000000693
B1318365617652N00955854EA0000000700
B1318415617606N00955999EA0000000706
B1318465617630N00956167EA0000000724
B1318515617702N00956231EA0000000732
B1318565617755N00956179EA0000000737
B1319045617704N00956092EA0000000750
B1319115617618N00956238EA0000000756
B1319245617698N00956589EA0000000780
B1319295617757N00956549EA0000000804
B1319355617736N00956468EA0000000806
B1319405617664N00956509EA0000000816
B1319455617630N00956664EA0000000836
B1319505617672N00956819EA0000000835
B1319555617752N00956864EA0000000849
B1320035617777N00956748EA0000000871
B1320085617712N00956747EA0000000875
B1320135617661N00956888EA0000000887
B1320185617681N00957061EA0000000897
B1320235617754N00957158EA0000000907
B1320285617814N00957131EA0000000930
B1320335617808N00957045EA0000000933
B1320385617743N00957037EA0000000945
B1320445617701N00957219EA0000000956
B1320495617755N00957367EA0000000963
B1320545617828N00957366EA0000000981
B1320595617820N00957276EA0000000990
B1321045617746N00957310EA0000000996
B1321095617719N00957483EA0000001012
B1321145617775N00957630EA0000001024
B1321215617850N00957584EA0000001045
B1321265617804N00957524EA0000001051
B1321315617735N00957613EA0000001060
B1321365617738N00957799EA0000001068
B1321415617801N00957918EA0000001089
B1321475617870N00957895EA0000001100
B1321525617860N00957806EA0000001106
B1321575617793N00957797EA0000001113
B1322025617736N00957930EA0000001119
B1322095617781N00958158EA0000001124
B1322145617863N00958166EA0000001138
B1322195617868N00958080EA0000001159
B1322245617800N00958076EA0000001164
B1322295617747N00958209EA0000001180
B1322345617766N00958373EA0000001189
B1322405617853N00958469EA0000001193
B1322455617905N00958436EA0000001208
B1322505617896N00958349EA0000001201
B1322555617828N00958340EA0000001220
B1323025617770N00958535EA0000001219
B1323085617829N00958723EA0000001231
B1323135617905N00958765EA0000001246
B1323185617965N00958742EA0000001257
B1323245617990N00958634EA0000001256
B1323305618048N00958540EA0000001247
B1323355618142N00958543EA0000001241
B1323405618243N00958609EA0000001243
B1323475618378N00958686EA0000001249
B1323555618548N00958768EA0000001227
B1324015618687N00958830EA0000001222
B1324075618833N00958900EA0000001213
B1324125618951N00958960EA0000001227
B1324175619062N00959022EA0000001227
B1324255619244N00959127EA0000001218
B1324325619407N00959220EA0000001212
B1324375619524N00959290EA0000001225
B1324435619634N00959403EA0000001255
B1324495619742N00959509EA0000001244
B1324565619882N00959635EA0000001233
B1325025620003N00959725EA0000001229
B1325075620120N00959778EA0000001193
B1325125620255N00959810EA0000001159
B1325175620398N00959829EA0000001150
B1325225620537N00959848EA0000001156
B1325275620664N00959865EA0000001166
B1325325620792N00959880EA0000001145
B1325395620973N00959904EA0000001133
B1325445621099N00959918EA0000001119
B1325495621231N00959934EA0000001102
B1325575621447N00959961EA0000001094
B1326035621607N00959987EA0000001091
B1326085621739N01000011EA0000001082
B1326145621896N01000039EA0000001072
B1326195622024N01000067EA0000001073
B1326245622146N01000092EA0000001077
B1326325622340N01000123EA0000001062
B1326385622483N01000157EA0000001073
B1326455622632N01000213EA0000001099
B1326505622730N01000253EA0000001101
B1326575622872N01000313EA0000001082
B1327025622976N01000359EA0000001081
B1327085623089N01000424EA0000001095
B1327195623291N01000531EA0000001087
B1327285623454N01000598EA0000001091
B1327365623590N01000582EA0000001096
B1327415623670N01000539EA0000001086
B1327485623781N01000459EA0000001073
B1327545623887N01000378EA0000001058
B1328005623993N01000284EA0000001053
B1328065624100N01000189EA0000001043
B1328145624240N01000050EA0000001032
B1328205624346N00959938EA0000001016
B1328265624456N00959816EA0000001004
B1328345624610N00959653EA0000000986
B1328395624709N00959556EA0000000983
B1328465624850N00959423EA0000000962
B1328515624959N00959335EA0000000964
B1328565625047N00959261EA0000001020
B1329015625124N00959202EA0000001022
B1329065625205N00959141EA0000001015
B1329115625291N00959081EA0000000999
B1329165625388N00959024EA0000000990
B1329225625513N00958979EA0000000997
B1329295625657N00958965EA0000001005
B1329365625800N00958963EA0000001000
B1329435625957N00958943EA0000000975
B1329535626195N00958899EA0000000952
B1329585626320N00958879EA0000000937
B1330045626469N00958848EA0000000941
B1330095626584N00958831EA0000000950
B1330145626698N00958817EA0000000936
B1330205626836N00958795EA0000000928
B1330275626994N00958778EA0000000928
B1330335627124N00958755EA0000000928
B1330435627344N00958739EA0000000908
B1330495627481N00958741EA0000000900
B1330565627634N00958751EA0000000923
B1331025627742N00958771EA0000000930
B1331075627838N00958800EA0000000908
B1331125627942N00958848EA0000000903
B1331185628069N00958912EA0000000879
B1331265628248N00959012EA0000000881
B1331315628344N00959074EA0000000924
B1331385628451N00959136EA0000000948
B1331455628569N00959210EA0000000944
B1331525628696N00959288EA0000000953
B1331595628816N00959379EA0000000958
B1332065628941N00959455EA0000000956
B1332145629096N00959517EA0000000937
B1332195629199N00959557EA0000000927
B1332255629323N00959597EA0000000917
B1332325629467N00959644EA0000000911
B1332425629679N00959728EA0000000909
B1332475629781N00959764EA0000000923
B1332535629890N00959853EA0000000917
B1332595630005N00959957EA0000000902
B1333045630108N01000027EA0000000889
B1333095630213N01000084EA0000000884
B1333155630336N01000145EA0000000879
B1333225630475N01000210EA0000000904
B1333285630581N01000263EA0000000903
B1333375630747N01000365EA0000000913
B1333445630868N01000502EA0000000912
B1333525631014N01000639EA0000000915
B1333575631103N01000707EA0000000923
B1334025631191N01000765EA0000000926
B1334105631324N01000868EA0000000939
B1334165631421N01000924EA0000000931
B1334245631544N01000886EA0000000913
B1334345631682N01000748EA0000000890
B1334395631751N01000663EA0000000881
B1334485631877N01000506EA0000000877
B1334535631952N01000427EA0000000869
B1335075632198N01000248EA0000000854
B1335125632287N01000195EA0000000846
B1335185632402N01000150EA0000000836
B1335255632537N01000097EA0000000831
B1335315632648N01000051EA0000000836
B1335365632737N01000018EA0000000840
B1335415632821N00959976EA0000000839
B1335485632937N00959912EA0000000843
B1335555633048N00959848EA0000000831
B1336025633178N00959821EA0000000817
B1336095633316N00959815EA0000000818
B1336165633441N00959797EA0000000811
B1336215633532N00959792EA0000000794
B1336265633627N00959784EA0000000784
B1336315633726N00959761EA0000000768
B1336365633810N00959737EA0000000824
B1336425633897N00959714EA0000000829
B1336475633971N00959679EA0000000834
B1336525634037N00959639EA0000000836
B1336595634129N00959554EA0000000815
B1337045634199N00959477EA0000000818
B1337125634306N00959352EA0000000821
B1337175634374N00959275EA0000000815
B1337225634459N00959239EA0000000807
B1337285634577N00959290EA0000000798
B1337385634773N00959497EA0000000793
B1337435634868N00959598EA0000000795
B1337535635054N00959826EA0000000781
B1337585635146N00959949EA0000000781
B1338115635369N01000294EA0000000777
B1338165635445N01000438EA0000000792
B1338215635518N01000549EA0000000812
B1338275635593N01000528EA0000000820
B1338335635582N01000412EA0000000820
B1338395635499N01000442EA0000000831
B1338445635473N01000608EA0000000824
B1338495635519N01000743EA0000000838
B1338545635581N01000783EA0000000844
B1338595635627N01000738EA0000000835
B1339045635615N01000645EA0000000839
B1339095635554N01000616EA0000000844
B1339145635487N01000647EA0000000834
B1339205635411N01000779EA0000000816
B1339265635388N01000988EA0000000828
B1339325635422N01001174EA0000000832
B1339375635491N01001209EA0000000830
B1339425635512N01001123EA0000000836
B1339485635443N01001083EA0000000841
B1339535635381N01001198EA0000000844
B1339585635382N01001362EA0000000848
B1340035635440N01001459EA0000000846
B1340115635556N01001479EA0000000834
B1340165635634N01001536EA0000000835
B1340255635769N01001640EA0000000828
B1340315635867N01001716EA0000000818
B1340365635951N01001791EA0000000810
B1340415636038N01001878EA0000000806
B1340475636142N01001975EA0000000798
B1340545636267N01002083EA0000000787
B1341005636375N01002158EA0000000783
B1341065636482N01002190EA0000000768
B1341125636587N01002188EA0000000759
B1341175636669N01002157EA0000000755
B1341235636767N01002106EA0000000756
B1341285636847N01002056EA0000000752
B1341345636945N01001995EA0000000748
B1341425637070N01001922EA0000000735
B1341485637146N01001825EA0000000717
B1341535637201N01001728EA0000000709
B1342005637266N01001594EA0000000706
B1342055637309N01001500EA0000000696
B1342115637365N01001382EA0000000679
B1342165637414N01001281EA0000000667
B1342235637485N01001146EA0000000662
B1342335637583N01000954EA0000000643
B1342395637642N01000830EA0000000631
B1342465637708N01000681EA0000000626
B1342525637755N01000559EA0000000625
B1342595637803N01000411EA0000000611
B1343045637840N01000304EA0000000614
B1343105637883N01000176EA0000000610
B1343165637926N01000053EA0000000603
B1343215637958N00959946EA0000000591
B1343325638031N00959690EA0000000568
B1343375638076N00959580EA0000000564
B1343435638135N00959454EA0000000556
B1343485638192N00959355EA0000000548
B1343555638280N00959235EA0000000547
B1344035638382N00959113EA0000000536
B1344105638474N00959004EA0000000526
B1344165638553N00958907EA0000000518
B1344245638657N00958776EA0000000511
B1344295638720N00958696EA0000000504
B1344405638873N00958538EA0000000481
B1344455638948N00958477EA0000000483
B1344515639041N00958408EA0000000469
B1344565639122N00958351EA0000000464
B1345025639217N00958280EA0000000465
B1345085639298N00958221EA0000000493
B1345165639393N00958150EA0000000511
B1345235639379N00958028EA0000000515
B1345285639303N00958104EA0000000528
B1345335639311N00958270EA0000000542
B1345385639375N00958317EA0000000547
B1345445639385N00958220EA0000000558
B1345495639311N00958224EA0000000560
B1345555639278N00958406EA0000000583
B1346035639369N00958508EA0000000590
B1346085639387N00958431EA0000000594
B1346145639307N00958397EA0000000595
B1346195639258N00958536EA0000000616
B1346245639294N00958671EA0000000613
B1346295639357N00958666EA0000000622
B1346345639354N00958574EA0000000624
B1346395639282N00958557EA0000000632
B1346445639231N00958688EA0000000648
B1346515639284N00958862EA0000000652
B1346565639340N00958835EA0000000655
B1347015639325N00958745EA0000000658
B1347065639252N00958748EA0000000670
B1347115639203N00958875EA0000000684
B1347165639219N00959027EA0000000686
B1347225639293N00959085EA0000000691
B1347285639343N00959018EA0000000690
B1347375639411N00958880EA0000000685
B1347445639451N00958747EA0000000676
B1347505639482N00958616EA0000000671
B1347585639521N00958442EA0000000681
B1348095639556N00958212EA0000000683
B1348145639565N00958097EA0000000671
B1348205639575N00957956EA0000000667
B1348285639596N00957763EA0000000649
B1348335639611N00957629EA0000000648
B1348405639628N00957457EA0000000662
B1348465639644N00957317EA0000000666
B1348525639668N00957176EA0000000670
B1349015639725N00956987EA0000000673
B1349095639780N00956824EA0000000664
B1349155639827N00956707EA0000000661
B1349225639870N00956563EA0000000660
B1349295639937N00956445EA0000000641
B1349375640061N00956380EA0000000631
B1349445640156N00956321EA0000000637
B1349495640208N00956252EA0000000636
B1349555640272N00956164EA0000000613
B1350015640371N00956130EA0000000605
B1350105640535N00956158EA0000000595
B1350185640683N00956210EA0000000591
B1350235640773N00956240EA0000000583
B1350295640878N00956273EA0000000575
B1350385641035N00956335EA0000000566
B1350435641119N00956373EA0000000564
B1350485641202N00956413EA0000000557
B1350535641286N00956444EA0000000546
B1350595641390N00956480EA0000000535
B1351065641511N00956530EA0000000541
B1351125641605N00956568EA0000000542
B1351205641726N00956629EA0000000550
B1351255641800N00956668EA0000000552
B1351315641888N00956697EA0000000547
B1351365641962N00956733EA0000000546
B1351415642033N00956787EA0000000553
B1351485642135N00956846EA0000000555
B1351545642213N00956816EA0000000555
B1352005642239N00956716EA0000000555
B1352055642188N00956651EA0000000547
B1352115642087N00956727EA0000000539
B1352165642048N00956909EA0000000532
B1352245642052N00957221EA0000000545
B1352355642052N00957619EA0000000535
B1352465642031N00958028EA0000000517
B1352525642012N00958253EA0000000506
B1352595641980N00958519EA0000000492
B1353055641959N00958752EA0000000481
B1353125641942N00959020EA0000000472
B1353215641931N00959367EA0000000469
B1353285641938N00959617EA0000000478
B1353345641947N00959832EA0000000467
B1353415641970N01000092EA0000000464
B1353465642018N01000229EA0000000464
B1353515642085N01000300EA0000000458
B1354005642197N01000286EA0000000456
B1354085642280N01000215EA0000000451
B1354135642314N01000142EA0000000446
B1354205642318N01000003EA0000000432
B1354255642301N00959891EA0000000422
B1354345642255N00959687EA0000000407
B1354415642218N00959525EA0000000403
B1354505642165N00959314EA0000000392
B1354555642124N00959201EA0000000389
B1355015642057N00959081EA0000000380
B1355065641992N00958986EA0000000376
B1355185641843N00958777EA0000000364
B1355235641784N00958691EA0000000356
B1355295641716N00958579EA0000000353
B1355365641649N00958442EA0000000364
B1355445641608N00958283EA0000000371
B1355505641577N00958176EA0000000371
B1355555641518N00958121EA0000000371
B1356005641440N00958139EA0000000367
B1356055641366N00958239EA0000000358
B1356125641317N00958479EA0000000358
B1356185641292N00958687EA0000000374
B1356255641339N00958877EA0000000366
B1356315641402N00958832EA0000000360
B1356365641381N00958732EA0000000356
B1356415641303N00958715EA0000000363
B1356475641204N00958802EA0000000371
B1356525641141N00958943EA0000000368
B1356575641160N00959115EA0000000373
B1357025641228N00959156EA0000000376
B1357105641219N00959029EA0000000388
B1357155641141N00959063EA0000000388
B1357205641102N00959225EA0000000389
B1357265641151N00959393EA0000000392
B1357315641218N00959405EA0000000394
B1357365641239N00959323EA0000000399
B1357415641200N00959248EA0000000399
B1357465641117N00959279EA0000000398
B1357515641077N00959431EA0000000411
B1357565641119N00959568EA0000000409
B1358015641185N00959571EA0000000412
B1358065641199N00959478EA0000000418
B1358115641144N00959420EA0000000420
B1358165641067N00959499EA0000000422
B1358215641060N00959669EA0000000431
B1358265641121N00959755EA0000000437
B1358325641162N00959673EA0000000443
B1358385641086N00959623EA0000000442
B1358435641028N00959768EA0000000447
B1358485641067N00959919EA0000000456
B1359015641095N00959776EA0000000468
B1359065641012N00959827EA0000000472
B1359115640983N00959998EA0000000480
B1359175641049N01000119EA0000000491
B1359225641082N01000044EA0000000490
B1359275641020N00959984EA0000000500
B1359345640939N01000166EA0000000504
B1359395640977N01000319EA0000000513
B1359445641046N01000328EA0000000516
B1359495641049N01000229EA0000000525
B1359575640930N01000264EA0000000532
B1400045640928N01000501EA0000000540
B1400115641019N01000559EA0000000553
B1400165641035N01000475EA0000000561
B1400215640976N01000428EA0000000558
B1400275640890N01000553EA0000000561
B1400325640898N01000725EA0000000565
B1400375640970N01000785EA0000000568
B1400425641000N01000704EA0000000577
B1400485640931N01000639EA0000000582
B1400535640856N01000735EA0000000577
B1400595640854N01000946EA0000000595
B1401065640946N01001019EA0000000594
B1401155640923N01000888EA0000000598
B1401215640829N01000995EA0000000604
B1401265640827N01001176EA0000000612
B1401375640962N01001237EA0000000635
B1401445640946N01001126EA0000000632
B1401495640877N01001101EA0000000638
B1401555640800N01001223EA0000000634
B1402025640823N01001458EA0000000646
B1402085640897N01001499EA0000000656
B1402135640918N01001420EA0000000658
B1402185640864N01001363EA0000000660
B1402265640775N01001541EA0000000659
B1402385640891N01001674EA0000000677
B1402435640878N01001590EA0000000677
B1402495640803N01001563EA0000000682
B1402555640728N01001695EA0000000681
B1403015640746N01001888EA0000000693
B1403065640812N01001937EA0000000694
B1403115640840N01001872EA0000000706
B1403195640769N01001778EA0000000704
B1403265640664N01001843EA0000000708
B1403335640551N01001931EA0000000706
B1403395640440N01001993EA0000000690
B1403465640296N01002051EA0000000690
B1403525640175N01002104EA0000000700
B1404005640014N01002173EA0000000675
B1404085639840N01002257EA0000000663
B1404155639681N01002328EA0000000656
B1404225639525N01002403EA0000000658
B1404285639399N01002491EA0000000658
B1404335639293N01002565EA0000000655
B1404415639129N01002679EA0000000655
B1404475639006N01002766EA0000000650
B1404525638900N01002831EA0000000641
B1404575638792N01002887EA0000000631
B1405025638680N01002931EA0000000622
B1405085638539N01002964EA0000000608
B1405145638405N01002984EA0000000636
B1405195638304N01003005EA0000000633
B1405245638201N01003031EA0000000624
B1405295638097N01003059EA0000000622
B1405355637974N01003093EA0000000609
B1405415637843N01003127EA0000000597
B1405485637693N01003172EA0000000599
B1405555637550N01003222EA0000000599
B1406015637434N01003280EA0000000598
B1406075637315N01003344EA0000000587
B1406145637186N01003405EA0000000624
B1406195637150N01003330EA0000000628
B1406265637239N01003361EA0000000650
B1406345637172N01003554EA0000000667
B1406395637141N01003468EA0000000665
B1406445637204N01003445EA0000000685
B1406505637241N01003622EA0000000698
B1406565637165N01003746EA0000000713
B1407015637120N01003682EA0000000710
B1407075637178N01003622EA0000000734
B1407125637229N01003739EA0000000735
B1407175637199N01003909EA0000000741
B1407225637125N01003927EA0000000755
B1407305637163N01003824EA0000000763
B1407365637220N01003985EA0000000779
B1407425637152N01004149EA0000000778
B1407485637082N01004094EA0000000797
B1407535637123N01004020EA0000000799
B1408005637203N01004180EA0000000813
B1408055637161N01004336EA0000000816
B1408145637064N01004276EA0000000822
B1408195637112N01004211EA0000000835
B1408245637183N01004237EA0000000850
B1408295637243N01004357EA0000000854
B1408355637221N01004566EA0000000847
B1408405637143N01004622EA0000000844
B1408455637090N01004547EA0000000850
B1408515637113N01004437EA0000000870
B1408565637155N01004376EA0000000889
B1409015637214N01004339EA0000000879
B1409065637290N01004408EA0000000892
B1409125637317N01004596EA0000000898
B1409175637269N01004738EA0000000888
B1409235637177N01004781EA0000000881
B1409285637110N01004737EA0000000895
B1409335637077N01004658EA0000000903
B1409385637119N01004588EA0000000897
B1409445637204N01004650EA0000000912
B1409515637231N01004883EA0000000910
B1409565637165N01005009EA0000000917
B1410015637097N01004980EA0000000924
B1410075637114N01004868EA0000000932
B1410135637204N01004933EA0000000929
B1410185637225N01005117EA0000000937
B1410245637166N01005298EA0000000947
B1410305637078N01005296EA0000000945
B1410355637069N01005192EA0000000953
B1410415637141N01005155EA0000000956
B1410475637221N01005292EA0000000958
B1410525637221N01005479EA0000000964
B1410585637160N01005640EA0000000967
B1411035637083N01005646EA0000000962
B1411085637028N01005589EA0000000973
B1411155636959N01005517EA0000000981
B1411215636889N01005462EA0000000983
B1411295636796N01005393EA0000000989
B1411345636730N01005352EA0000000989
B1411435636589N01005322EA0000000997
B1411495636493N01005300EA0000000987
B1412005636277N01005323EA0000000958
B1412075636123N01005400EA0000000947
B1412175635897N01005518EA0000000946
B1412225635784N01005590EA0000000938
B1412285635649N01005676EA0000000924
B1412335635535N01005744EA0000000920
B1412395635396N01005821EA0000000910
B1412475635203N01005927EA0000000896
B1412555635013N01006046EA0000000887
B1413035634828N01006185EA0000000881
B1413085634710N01006260EA0000000874
B1413145634568N01006348EA0000000870
B1413205634428N01006430EA0000000866
B1413265634289N01006515EA0000000857
B1413325634154N01006619EA0000000854
B1413375634044N01006714EA0000000852
B1413455633874N01006887EA0000000847
B1413505633773N01007002EA0000000846
B1413585633611N01007183EA0000000836
B1414045633488N01007323EA0000000829
B1414105633366N01007455EA0000000832
B1414165633251N01007576EA0000000831
B1414225633135N01007700EA0000000813
B1414275633034N01007814EA0000000803
B1414325632931N01007925EA0000000795
B1414375632829N01008032EA0000000790
B1414425632732N01008152EA0000000787
B1414495632600N01008330EA0000000768
B1414555632474N01008464EA0000000761
B1415015632351N01008563EA0000000781
B1415075632250N01008541EA0000000795
B1415125632191N01008476EA0000000807
B1415175632143N01008419EA0000000807
B1415225632109N01008339EA0000000802
B1415315632118N01008175EA0000000804
B1415375632184N01008144EA0000000783
B1415425632234N01008280EA0000000771
B1415485632179N01008466EA0000000768
B1415535632097N01008513EA0000000769
B1415595632010N01008500EA0000000769
B1416055631927N01008463EA0000000752
B1416145631814N01008363EA0000000728
B1416235631699N01008202EA0000000702
B1416315631597N01008043EA0000000693
B1416375631526N01007926EA0000000696
B1416425631466N01007836EA0000000694
B1416475631390N01007780EA0000000698
B1416525631308N01007746EA0000000696
B1416585631206N01007719EA0000000706
B1417075631095N01007634EA0000000739
B1417125631133N01007579EA0000000725
B1417175631197N01007680EA0000000727
B1417225631193N01007857EA0000000738
B1417285631111N01007988EA0000000748
B1417345631025N01007964EA0000000759
B1417395631011N01007883EA0000000761
B1417445631067N01007849EA0000000752
B1417495631136N01007933EA0000000757
B1417545631179N01008089EA0000000759
B1418015631156N01008329EA0000000767
B1418065631082N01008436EA0000000767
B1418115631005N01008444EA0000000774
B1418195630905N01008361EA0000000777
B1418265630851N01008240EA0000000768
B1418315630797N01008148EA0000000748
B1418365630714N01008085EA0000000732
B1418435630575N01008084EA0000000730
B1418485630476N01008093EA0000000723
B1418575630298N01008104EA0000000711
B1419025630193N01008114EA0000000702
B1419075630084N01008120EA0000000694
B1419135629955N01008100EA0000000685
B1419195629836N01008065EA0000000683
B1419265629703N01008010EA0000000673
B1419315629609N01007958EA0000000666
B1419435629387N01007834EA0000000655
B1419495629272N01007782EA0000000642
B1419545629172N01007728EA0000000630
B1420005629051N01007673EA0000000622
B1420085628880N01007617EA0000000609
B1420145628755N01007574EA0000000605
B1420195628654N01007529EA0000000597
B1420245628554N01007478EA0000000591
B1420425628221N01007275EA0000000576
B1420495628097N01007200EA0000000563
B1420585627926N01007115EA0000000557
B1421055627808N01007042EA0000000572
B1421125627693N01006968EA0000000557
B1421235627499N01006845EA0000000539
B1421355627290N01006681EA0000000540
B1421495627093N01006438EA0000000531
B1421575626992N01006283EA0000000532
B1422035626920N01006176EA0000000546
B1422095626856N01006063EA0000000546
B1422215626756N01005802EA0000000534
B1422265626727N01005689EA0000000526
B1422345626668N01005527EA0000000517
B1422395626584N01005521EA0000000510
B1422495626414N01005717EA0000000497
B1422595626249N01005935EA0000000498
B1423085626129N01006194EA0000000488
B1423145626079N01006406EA0000000476
B1423215626079N01006684EA0000000460
B1423305626115N01007026EA0000000451
B1423415626222N01007356EA0000000441
B1423515626360N01007559EA0000000431
B1424015626510N01007697EA0000000411
B1424065626589N01007726EA0000000403
B1424195626775N01007637EA0000000406
B1424355626891N01007427EA0000000412
B1424415626811N01007393EA0000000405
B1424465626727N01007439EA0000000413
B1424515626665N01007559EA0000000418
B1424575626664N01007753EA0000000412
B1425085626798N01007899EA0000000418
B1425155626841N01007813EA0000000409
B1425285626749N01007640EA0000000399
B1425335626706N01007551EA0000000403
B1425485626576N01007363EA0000000404
B1425585626610N01007626EA0000000397
B1426035626672N01007609EA0000000408
B1426085626696N01007527EA0000000406
B1426175626623N01007400EA0000000411
B1426235626539N01007508EA0000000408
B1426325626590N01007752EA0000000410
B1426435626688N01007650EA0000000416
B1426505626634N01007550EA0000000408
B1426555626558N01007544EA0000000400
B1427045626452N01007415EA0000000376
B1427105626419N01007275EA0000000370
B1427165626400N01007133EA0000000359
B1427215626390N01007014EA0000000349
B1427275626385N01006876EA0000000349
B1427405626375N01006567EA0000000335
B1427475626372N01006402EA0000000330
B1427525626370N01006284EA0000000327
B1428145626359N01005796EA0000000304
B1428225626357N01005610EA0000000312
B1428295626363N01005454EA0000000314
B1428435626381N01005164EA0000000321
B1428495626397N01005043EA0000000320
B1428575626425N01004885EA0000000319
B1429035626435N01004770EA0000000320
B1429085626394N01004692EA0000000323
B1429155626285N01004700EA0000000320
B1429315626245N01005154EA0000000324
B1429375626326N01005204EA0000000327
B1429495626451N01005110EA0000000323
B1429545626454N01005031EA0000000318
B1430005626412N01004940EA0000000310
B1430085626346N01004823EA0000000299
B1430145626303N01004733EA0000000293
B1430215626249N01004627EA0000000287
B1430275626218N01004520EA0000000292
B1430365626297N01004458EA0000000292
B1430415626354N01004575EA0000000296
B1430505626387N01004889EA0000000302
B1431045626418N01005394EA0000000322
B1431185626398N01005908EA0000000332
B1431255626328N01006138EA0000000328
B1431335626199N01006310EA0000000327
B1431395626090N01006372EA0000000342
B1431505625898N01006395EA0000000369
B1431565625794N01006381EA0000000374
B1432015625711N01006364EA0000000384
B1432105625576N01006302EA0000000397
B1432195625452N01006196EA0000000402
B1432245625379N01006139EA0000000408
B1432355625210N01006033EA0000000429
B1432415625120N01005978EA0000000438
B1432465625046N01005924EA0000000445
B1432575624900N01005778EA0000000470
B1433025624840N01005706EA0000000489
B1433095624760N01005600EA0000000498
B1433155624686N01005511EA0000000508
B1433205624623N01005446EA0000000521
B1433265624545N01005366EA0000000528
B1433315624478N01005296EA0000000537
B1433415624347N01005149EA0000000568
B1433525624220N01004976EA0000000586
B1433575624161N01004902EA0000000593
B1434075624039N01004760EA0000000598
B1434145623947N01004667EA0000000608
B1434195623880N01004603EA0000000611
B1434265623790N01004513EA0000000638
B1434315623724N01004450EA0000000649
B1434365623654N01004383EA0000000658
B1434435623555N01004293EA0000000680
B1434525623428N01004180EA0000000684
B1434585623344N01004111EA0000000698
B1435055623253N01004038EA0000000712
B1435105623188N01003984EA0000000721
B1435185623083N01003906EA0000000739
B1435235623018N01003860EA0000000748
B1435295622935N01003806EA0000000756
B1435355622852N01003753EA0000000770
B1435425622754N01003697EA0000000782
B1435495622656N01003639EA0000000797
B1435555622582N01003575EA0000000806
B1436045622478N01003480EA0000000797
B1436095622419N01003422EA0000000798
B1436165622335N01003331EA0000000814
B1436215622270N01003276EA0000000825
B1436265622205N01003225EA0000000830
B1436315622140N01003166EA0000000839
B1436365622073N01003110EA0000000860
B1436415622007N01003060EA0000000873
B1436485621919N01002981EA0000000897
B1436535621858N01002921EA0000000913
B1437005621772N01002844EA0000000940
B1437075621689N01002770EA0000000954
B1437175621575N01002650EA0000000973
B1437275621477N01002535EA0000000965
B1437335621418N01002466EA0000000951
B1437385621365N01002396EA0000000927
B1437435621302N01002319EA0000000916
B1437485621239N01002256EA0000000917
B1437555621152N01002164EA0000000897
B1438015621078N01002075EA0000000887
B1438065621016N01002015EA0000000885
B1438165620885N01001896EA0000000860
B1438235620798N01001791EA0000000854
B1438285620728N01001746EA0000000848
B1438335620649N01001717EA0000000832
B1438395620559N01001651EA0000000830
B1438455620479N01001574EA0000000834
B1438515620401N01001486EA0000000827
B1438565620330N01001413EA0000000826
B1439015620259N01001360EA0000000835
B1439075620178N01001285EA0000000826
B1439135620098N01001180EA0000000811
B1439195620017N01001060EA0000000816
B1439255619944N01000952EA0000000818
B1439325619860N01000839EA0000000813
B1439405619764N01000731EA0000000799
B1439465619695N01000656EA0000000786
B1439515619634N01000590EA0000000770
B1439565619572N01000524EA0000000766
B1440045619480N01000415EA0000000758
B1440095619426N01000336EA0000000751
B1440145619368N01000241EA0000000734
B1440205619293N01000103EA0000000722
B1440255619229N00959995EA0000000732
B1440315619156N00959879EA0000000749
B1440365619086N00959796EA0000000748
B1440425618987N00959710EA0000000751
B1440475618908N00959641EA0000000757
B1440525618828N00959585EA0000000749
B1440585618724N00959514EA0000000731
B1441045618619N00959425EA0000000729
B1441095618542N00959364EA0000000742
B1441185618420N00959263EA0000000720
B1441275618359N00959066EA0000000699
B1441365618336N00958830EA0000000685
B1441415618325N00958698EA0000000681
B1441465618316N00958569EA0000000678
B1441535618303N00958395EA0000000688
B1442015618286N00958209EA0000000704
B1442085618270N00958046EA0000000718
B1442135618258N00957932EA0000000714
B1442195618242N00957785EA0000000713
B1442255618228N00957634EA0000000710
B1442315618210N00957475EA0000000713
B1442365618188N00957350EA0000000730
B1442425618169N00957208EA0000000731
B1442485618154N00957061EA0000000729
B1442535618140N00956942EA0000000732
B1443015618112N00956752EA0000000733
B1443085618088N00956589EA0000000739
B1443135618073N00956473EA0000000731
B1443205618043N00956306EA0000000720
B1443265618012N00956160EA0000000710
B1443325617987N00956009EA0000000698
B1443385617978N00955842EA0000000679
B1443475617971N00955592EA0000000677
B1443535617961N00955426EA0000000658
B1444005617950N00955210EA0000000641
B1444075617938N00955011EA0000000652
B1444135617930N00954867EA0000000651
B1444195617924N00954710EA0000000622
B1444245617917N00954561EA0000000617
B1444295617912N00954416EA0000000618
B1444345617911N00954274EA0000000614
B1444395617909N00954132EA0000000615
B1444485617901N00953890EA0000000605
B1444575617896N00953651EA0000000594
B1445025617899N00953518EA0000000586
B1445085617905N00953362EA0000000585
B1445185617905N00953091EA0000000556
B1445235617903N00952953EA0000000546
B1445295617907N00952791EA0000000537
B1445345617914N00952663EA0000000538
B1445395617923N00952547EA0000000540
B1445445617930N00952433EA0000000532
B1445545617899N00952207EA0000000525
B1446005617875N00952068EA0000000526
B1446065617853N00951925EA0000000519
B1446125617824N00951787EA0000000513
B1446185617785N00951653EA0000000516
B1446235617748N00951544EA0000000514
B1446285617711N00951439EA0000000517
B1446355617663N00951302EA0000000516
B1446405617629N00951220EA0000000515
B1446455617591N00951144EA0000000503
B1446515617541N00951053EA0000000487
B1446575617487N00950962EA0000000478
B1447055617413N00950841EA0000000478
B1447125617351N00950730EA0000000482
B1447185617297N00950631EA0000000489
B1447265617222N00950485EA0000000511
B1447325617163N00950377EA0000000521
B1447385617097N00950269EA0000000534
B1447475616996N00950117EA0000000554
B1447535616918N00950028EA0000000559
B1447595616835N00949946EA0000000576
B1448045616762N00949878EA0000000586
B1448095616688N00949804EA0000000605
B1448155616605N00949713EA0000000623
B1448205616536N00949642EA0000000635
B1448265616457N00949565EA0000000648
B1448315616387N00949504EA0000000660
B1448385616290N00949431EA0000000681
B1448455616191N00949357EA0000000684
B1448505616122N00949292EA0000000689
B1448565616046N00949206EA0000000699
B1449035615968N00949101EA0000000711
B1449105615895N00948983EA0000000723
B1449155615843N00948897EA0000000732
B1449215615784N00948794EA0000000748
B1449285615722N00948666EA0000000759
B1449425615599N00948405EA0000000789
B1449505615524N00948264EA0000000805
B1449575615453N00948145EA0000000816
B1450035615395N00948043EA0000000826
B1450085615351N00947953EA0000000831
B1450165615284N00947801EA0000000849
B1450235615215N00947678EA0000000868
B1450285615166N00947588EA0000000875
B1450345615111N00947486EA0000000895
B1450405615056N00947390EA0000000907
B1450465615008N00947284EA0000000921
B1450515614972N00947196EA0000000931
B1450575614931N00947097EA0000000923
B1451025614896N00947016EA0000000916
B1451085614851N00946920EA0000000896
B1451155614792N00946792EA0000000881
B1451225614728N00946658EA0000000867
B1451275614675N00946554EA0000000859
B1451335614609N00946419EA0000000846
B1451395614540N00946281EA0000000840
B1451445614480N00946172EA0000000838
B1451495614420N00946069EA0000000835
B1451575614328N00945900EA0000000824
B1452055614245N00945720EA0000000815
B1452125614167N00945572EA0000000809
B1452185614097N00945449EA0000000798
B1452235614039N00945340EA0000000790
B1452295613971N00945212EA0000000786
B1452345613917N00945103EA0000000782
B1452415613846N00944944EA0000000776
B1452485613776N00944787EA0000000767
B1452545613710N00944652EA0000000763
B1452595613656N00944551EA0000000766
B1453045613605N00944455EA0000000764
B1453105613546N00944337EA0000000760
B1453185613477N00944166EA0000000751
B1453245613427N00944032EA0000000747
B1453295613382N00943922EA0000000748
B1453375613311N00943761EA0000000754
B1453425613273N00943658EA0000000744
B1453475613238N00943547EA0000000743
B1453525613208N00943433EA0000000735
B1453585613178N00943287EA0000000723
B1454035613153N00943162EA0000000720
B1454085613129N00943039EA0000000714
B1454145613100N00942894EA0000000710
B1454205613065N00942760EA0000000707
B1454265613027N00942634EA0000000699
B1454315613000N00942521EA0000000691
B1454385612961N00942365EA0000000684
B1454455612918N00942211EA0000000678
B1454505612887N00942104EA0000000681
B1454575612845N00941954EA0000000672
B1455035612790N00941827EA0000000670
B1455095612713N00941735EA0000000682
B1455145612649N00941665EA0000000703
B1455205612601N00941569EA0000000726
B1455255612623N00941476EA0000000735
B1455305612696N00941490EA0000000756
B1455365612736N00941665EA0000000762
B1455415612669N00941765EA0000000772
B1455465612611N00941714EA0000000800
B1455515612632N00941623EA0000000810
B1455565612708N00941648EA0000000830
B1456015612741N00941801EA0000000832
B1456065612683N00941913EA0000000842
B1456115612619N00941867EA0000000864
B1456165612639N00941771EA0000000880
B1456215612719N00941814EA0000000892
B1456265612736N00941993EA0000000896
B1456315612665N00942080EA0000000926
B1456365612621N00942008EA0000000944
B1456415612669N00941928EA0000000942
B1456465612745N00942041EA0000000955
B1456515612710N00942201EA0000000975
B1456565612639N00942196EA0000000989
B1457015612642N00942079EA0000001004
B1457085612749N00942131EA0000001022
B1457135612754N00942312EA0000001026
B1457185612688N00942431EA0000001048
B1457235612614N00942426EA0000001056
B1457285612581N00942320EA0000001067
B1457335612609N00942216EA0000001093
B1457385612681N00942214EA0000001094
B1457435612735N00942372EA0000001097
B1457485612686N00942530EA0000001109
B1457535612607N00942504EA0000001127
B1457585612610N00942388EA0000001144
B1458035612692N00942400EA0000001143
B1458085612721N00942583EA0000001155
B1458135612651N00942685EA0000001179
B1458235612593N00942526EA0000001196
B1458295612688N00942548EA0000001201
B1458345612717N00942725EA0000001208
B1458395612651N00942845EA0000001221
B1458445612575N00942810EA0000001233
B1458495612543N00942705EA0000001249
B1458545612563N00942607EA0000001248
B1458595612590N00942508EA0000001226
B1459055612596N00942341EA0000001189
B1459105612568N00942182EA0000001174
B1459155612519N00942027EA0000001162
B1459205612462N00941869EA0000001148
B1459255612406N00941708EA0000001140
B1459305612348N00941550EA0000001134
B1459355612290N00941392EA0000001126
B1459455612184N00941063EA0000001107
B1459545612098N00940752EA0000001088
B1459595612046N00940584EA0000001081
B1500055611988N00940383EA0000001074
B1500125611924N00940141EA0000001052
B1500195611837N00939916EA0000001049
B1500245611776N00939765EA0000001045
B1500295611723N00939613EA0000001033
B1500345611674N00939458EA0000001023
B1500395611625N00939307EA0000001024
B1500445611572N00939161EA0000001028
B1500495611518N00939007EA0000001028
B1500545611468N00938861EA0000001028
B1500595611418N00938711EA0000001017
B1501055611360N00938516EA0000000997
B1501135611271N00938258EA0000000982
B1501185611214N00938099EA0000000973
B1501235611160N00937940EA0000000967
B1501285611101N00937795EA0000000968
B1501345611042N00937616EA0000000959
B1501405611000N00937425EA0000000957
B1501465610961N00937239EA0000000959
B1501515610932N00937082EA0000000944
B1501575610901N00936874EA0000000934
B1502035610868N00936676EA0000000971
B1502085610839N00936535EA0000000975
B1502145610802N00936360EA0000000956
B1502195610769N00936209EA0000000948
B1502245610736N00936058EA0000000943
B1502295610710N00935909EA0000000943
B1502345610687N00935760EA0000000934
B1502425610630N00935521EA0000000919
B1502495610568N00935316EA0000000910
B1502565610495N00935128EA0000000919
B1503015610442N00935010EA0000000920
B1503065610391N00934883EA0000000911
B1503125610331N00934719EA0000000900
B1503175610281N00934581EA0000000890
B1503225610231N00934438EA0000000877
B1503295610160N00934230EA0000000865
B1503345610108N00934080EA0000000859
B1503415610040N00933856EA0000000848
B1503475609984N00933661EA0000000844
B1503525609937N00933503EA0000000842
B1503585609886N00933312EA0000000834
B1504065609813N00933049EA0000000819
B1504115609765N00932888EA0000000815
B1504185609704N00932663EA0000000813
B1504255609645N00932446EA0000000810
B1504305609602N00932296EA0000000807
B1504365609549N00932121EA0000000803
B1504415609503N00931980EA0000000797
B1504465609453N00931837EA0000000784
B1504535609382N00931633EA0000000774
B1505025609297N00931368EA0000000762
B1505075609254N00931219EA0000000756
B1505135609201N00931047EA0000000753
B1505245609105N00930735EA0000000739
B1505295609062N00930594EA0000000735
B1505345609015N00930458EA0000000730
B1505405608958N00930292EA0000000722
B1505455608910N00930149EA0000000719
B1505505608863N00930010EA0000000714
B1505565608805N00929850EA0000000709
B1506025608748N00929698EA0000000705
B1506095608681N00929521EA0000000694
B1506155608624N00929370EA0000000693
B1506205608575N00929249EA0000000687
B1506255608529N00929123EA0000000676
B1506315608472N00928963EA0000000665
B1506395608395N00928755EA0000000652
B1506465608327N00928580EA0000000649
B1506515608279N00928461EA0000000641
B1506565608230N00928339EA0000000625
B1507015608182N00928205EA0000000612
B1507075608135N00928034EA0000000604
B1507125608100N00927884EA0000000599
B1507175608065N00927741EA0000000611
B1507225608037N00927617EA0000000624
B1507275608016N00927504EA0000000626
B1507325607998N00927392EA0000000629
B1507385607976N00927260EA0000000632
B1507445607954N00927122EA0000000634
B1507495607926N00927008EA0000000639
B1507545607892N00926910EA0000000647
B1507595607837N00926838EA0000000641
B1508045607789N00926745EA0000000638
B1508095607754N00926637EA0000000646
B1508165607704N00926487EA0000000651
B1508245607659N00926306EA0000000659
B1508295607646N00926195EA0000000649
B1508355607623N00926054EA0000000649
B1508405607601N00925937EA0000000649
B1508455607576N00925818EA0000000647
B1508515607545N00925671EA0000000640
B1508565607523N00925547EA0000000632
B1509015607507N00925421EA0000000624
B1509095607500N00925207EA0000000627
B1509155607492N00925061EA0000000645
B1509205607448N00924972EA0000000635
B1509255607362N00925037EA0000000631
B1509305607333N00925217EA0000000630
B1509365607387N00925407EA0000000627
B1509415607469N00925477EA0000000638
B1509465607555N00925470EA0000000643
B1509515607625N00925407EA0000000648
B1509565607657N00925302EA0000000651
B1510025607647N00925169EA0000000656
B1510095607631N00925010EA0000000654
B1510145607617N00924888EA0000000663
B1510205607599N00924763EA0000000674
B1510255607541N00924702EA0000000665
B1510305607468N00924808EA0000000674
B1510355607473N00924989EA0000000676
B1510415607558N00925118EA0000000673
B1510465607640N00925122EA0000000678
B1510515607707N00925069EA0000000687
B1510565607752N00924981EA0000000686
B1511015607765N00924867EA0000000690
B1511095607759N00924677EA0000000686
B1511195607743N00924426EA0000000699
B1511255607707N00924299EA0000000694
B1511305607617N00924321EA0000000694
B1511355607565N00924481EA0000000713
B1511405607593N00924652EA0000000719
B1511455607671N00924735EA0000000728
B1511505607746N00924710EA0000000741
B1511555607779N00924624EA0000000752
B1512005607754N00924536EA0000000752
B1512055607699N00924477EA0000000741
B1512105607654N00924384EA0000000721
B1512165607634N00924232EA0000000716
B1512235607635N00924048EA0000000716
B1512305607642N00923864EA0000000724
B1512365607644N00923711EA0000000740
B1512415607598N00923628EA0000000757
B1512465607523N00923681EA0000000768
B1512515607505N00923846EA0000000786
B1512565607559N00923963EA0000000796
B1513015607632N00923960EA0000000800
B1513065607668N00923870EA0000000803
B1513115607652N00923766EA0000000814
B1513165607590N00923732EA0000000817
B1513215607513N00923807EA0000000822
B1513275607487N00924000EA0000000845
B1513325607539N00924131EA0000000849
B1513375607616N00924158EA0000000865
B1513425607664N00924086EA0000000868
B1513475607655N00923986EA0000000870
B1513535607593N00923935EA0000000862
B1513585607517N00923959EA0000000861
B1514035607448N00924053EA0000000874
B1514085607414N00924206EA0000000884
B1514135607423N00924372EA0000000893
B1514185607478N00924493EA0000000897
B1514235607553N00924518EA0000000908
B1514285607595N00924438EA0000000912
B1514335607563N00924354EA0000000921
B1514385607488N00924398EA0000000924
B1514435607453N00924564EA0000000940
B1514485607499N00924710EA0000000951
B1514535607579N00924721EA0000000956
B1514595607620N00924611EA0000000967
B1515045607583N00924531EA0000000970
B1515095607507N00924548EA0000000973
B1515145607450N00924679EA0000000982
B1515195607461N00924852EA0000000995
B1515245607529N00924945EA0000001003
B1515295607596N00924899EA0000001001
B1515365607611N00924745EA0000001010
B1515415607613N00924639EA0000001006
B1515495607611N00924440EA0000000972
B1515545607603N00924300EA0000000958
B1516015607588N00924091EA0000000939
B1516075607568N00923909EA0000000941
B1516125607546N00923769EA0000000961
B1516185607533N00923622EA0000000985
B1516245607521N00923470EA0000000993
B1516295607499N00923351EA0000001002
B1516345607450N00923251EA0000000998
B1516405607380N00923134EA0000000980
B1516485607298N00922922EA0000000962
B1516535607250N00922777EA0000000952
B1516585607201N00922627EA0000000942
B1517055607142N00922409EA0000000932
B1517105607101N00922257EA0000000929
B1517155607059N00922113EA0000000923
B1517215607011N00921949EA0000000920
B1517265606974N00921809EA0000000905
B1517315606933N00921659EA0000000885
B1517375606869N00921476EA0000000869
B1517435606805N00921288EA0000000852
B1517485606757N00921122EA0000000846
B1517555606691N00920883EA0000000835
B1518015606638N00920679EA0000000840
B1518085606582N00920443EA0000000828
B1518155606528N00920212EA0000000828
B1518215606485N00920022EA0000000832
B1518265606453N00919876EA0000000852
B1518315606428N00919746EA0000000865
B1518375606399N00919597EA0000000874
B1518435606353N00919462EA0000000878
B1518485606291N00919371EA0000000879
B1518535606207N00919360EA0000000900
B1518585606138N00919456EA0000000914
B1519035606122N00919617EA0000000914
B1519085606176N00919738EA0000000912
B1519135606250N00919730EA0000000911
B1519185606269N00919628EA0000000920
B1519235606223N00919535EA0000000922
B1519285606173N00919444EA0000000933
B1519335606131N00919336EA0000000926
B1519405606083N00919131EA0000000874
B1519455606042N00918941EA0000000847
B1519515605961N00918723EA0000000827
B1519575605872N00918523EA0000000828
B1520025605801N00918361EA0000000822
B1520075605732N00918201EA0000000817
B1520125605663N00918050EA0000000817
B1520175605602N00917906EA0000000815
B1520225605543N00917761EA0000000809
B1520275605483N00917621EA0000000805
B1520335605403N00917465EA0000000796
B1520385605334N00917338EA0000000786
B1520445605258N00917182EA0000000783
B1520495605202N00917048EA0000000779
B1520545605153N00916909EA0000000767
B1520595605109N00916759EA0000000782
B1521045605077N00916632EA0000000814
B1521095605049N00916519EA0000000825
B1521145605023N00916402EA0000000812
B1521195604991N00916270EA0000000793
B1521255604941N00916107EA0000000780
B1521305604895N00915958EA0000000753
B1521355604845N00915796EA0000000738
B1521425604774N00915570EA0000000737
B1521475604728N00915410EA0000000731
B1521525604678N00915250EA0000000724
B1521575604624N00915096EA0000000718
B1522045604531N00914880EA0000000714
B1522105604452N00914684EA0000000689
B1522165604375N00914467EA0000000669
B1522215604310N00914285EA0000000656
B1522275604228N00914062EA0000000638
B1522335604137N00913852EA0000000627
B1522385604063N00913678EA0000000621
B1522435603996N00913502EA0000000615
B1522485603926N00913331EA0000000611
B1522585603779N00913001EA0000000596
B1523035603712N00912831EA0000000593
B1523085603652N00912660EA0000000586
B1523135603592N00912486EA0000000581
B1523185603532N00912322EA0000000580
B1523245603464N00912126EA0000000578
B1523295603413N00911961EA0000000574
B1523355603348N00911760EA0000000568
B1523405603280N00911597EA0000000574
B1523455603208N00911440EA0000000587
B1523515603122N00911272EA0000000604
B1523565603056N00911143EA0000000620
B1524025602978N00910989EA0000000595
B1524075602906N00910846EA0000000576
B1524135602815N00910663EA0000000566
B1524195602729N00910469EA0000000553
B1524245602662N00910300EA0000000546
B1524305602580N00910106EA0000000535
B1524355602506N00909948EA0000000521
B1524415602424N00909755EA0000000510
B1524475602338N00909561EA0000000492
B1524525602268N00909395EA0000000479
B1524585602193N00909183EA0000000463
B1525045602132N00908956EA0000000455
B1525095602078N00908781EA0000000459
B1525145602019N00908607EA0000000445
B1525215601939N00908355EA0000000419
B1525265601883N00908174EA0000000410
B1525325601817N00907960EA0000000409
B1525385601754N00907743EA0000000406
B1525435601708N00907556EA0000000404
B1525515601636N00907251EA0000000388
B1525575601567N00907018EA0000000368
B1526035601494N00906789EA0000000368
B1526095601422N00906570EA0000000368
B1526145601361N00906392EA0000000357
B1526205601294N00906179EA0000000356
B1526285601210N00905901EA0000000348
B1526355601147N00905656EA0000000328
B1526415601126N00905427EA0000000310
B1526475601112N00905197EA0000000292
B1526525601094N00905006EA0000000286
B1526585601079N00904791EA0000000293
B1527035601067N00904626EA0000000296
B1527085601056N00904470EA0000000296
B1527135601044N00904323EA0000000298
B1527185601031N00904202EA0000000310
B1527235601013N00904091EA0000000303
B1527315600985N00903904EA0000000285
B1527365600964N00903783EA0000000275
B1527445600931N00903592EA0000000249
B1527535600904N00903373EA0000000221
B1528005600889N00903198EA0000000203
B1528065600873N00903046EA0000000188
B1528115600862N00902920EA0000000175
B1528175600846N00902766EA0000000163
B1528235600828N00902608EA0000000154
B1528295600810N00902456EA0000000139
B1528345600796N00902329EA0000000137
B1528395600785N00902207EA0000000132
B1528455600774N00902064EA0000000124
B1528515600761N00901929EA0000000110
B1528575600747N00901792EA0000000085
B1529025600733N00901669EA0000000066
B1529095600710N00901496EA0000000045
B1529145600695N00901385EA0000000040
B1529205600678N00901273EA0000000039
B1529255600666N00901197EA0000000039
