AOGNOGN
HFDTE080825
HFFXA050
HFPLTPILOTINCHARGE:
HFGTYGLIDERTYPE:LS-4
HFGIDGLIDERID:OY-XNV
HFDTM100GPSDATUM:WGS-1984
HFRFWFIRMWAREVERSION:
HFRHWHARDWAREVERSION:
HFFTYFRTYPE:OGN-FLIGHTBOOK
HFGPSGENERIC
HFPRSPRESSALTSENSOR:
HFCIDCOMPETITIONID:V8
B1208315600691N00901443EA0000000040
B1208355600687N00901364EA0000000040
B1208405600682N00901247EA0000000044
B1208485600667N00901040EA0000000066
B1208545600641N00900898EA0000000089
B1209025600585N00900724EA0000000107
B1209085600554N00900578EA0000000121
B1209215600496N00900267EA0000000162
B1209295600455N00900087EA0000000187
B1209385600400N00859885EA0000000208
B1209455600355N00859731EA0000000227
B1209535600303N00859557EA0000000244
B1209585600265N00859450EA0000000259
B1210055600215N00859307EA0000000284
B1210115600171N00859175EA0000000294
B1210165600132N00859060EA0000000305
B1210215600096N00858941EA0000000319
B1210275600056N00858798EA0000000333
B1210335600024N00858655EA0000000352
B1210395559996N00858516EA0000000371
B1210465559965N00858356EA0000000390
B1210575559909N00858098EA0000000422
B1211035559870N00857969EA0000000445
B1211095559810N00857861EA0000000463
B1211155559720N00857802EA0000000488
B1211205559637N00857810EA0000000522
B1211265559555N00857913EA0000000558
B1211315559515N00858057EA0000000556
B1211385559572N00858265EA0000000549
B1211455559686N00858373EA0000000564
B1211515559780N00858386EA0000000581
B1211585559801N00858261EA0000000582
B1212035559736N00858217EA0000000582
B1212095559656N00858337EA0000000598
B1212165559680N00858564EA0000000617
B1212225559773N00858622EA0000000636
B1212275559808N00858549EA0000000644
B1212335559754N00858477EA0000000649
B1212405559669N00858593EA0000000670
B1212455559677N00858752EA0000000677
B1212555559816N00858862EA0000000700
B1213055559807N00858707EA0000000701
B1213105559732N00858737EA0000000706
B1213165559699N00858910EA0000000731
B1213265559813N00858977EA0000000744
B1213345559767N00858856EA0000000754
B1213395559702N00858910EA0000000759
B1213445559685N00859077EA0000000759
B1213535559803N00859206EA0000000787
B1214015559788N00859077EA0000000788
B1214065559724N00859086EA0000000798
B1214145559689N00859323EA0000000804
B1214195559748N00859430EA0000000811
B1214285559808N00859314EA0000000814
B1214335559748N00859282EA0000000826
B1214385559689N00859380EA0000000835
B1214435559678N00859538EA0000000845
B1214495559733N00859684EA0000000855
B1214575559793N00859595EA0000000858
B1215025559739N00859538EA0000000866
B1215075559675N00859613EA0000000888
B1215125559673N00859771EA0000000898
B1215185559751N00859859EA0000000908
B1215245559775N00859759EA0000000905
B1215295559715N00859701EA0000000921
B1215355559640N00859800EA0000000939
B1215445559679N00900068EA0000000944
B1215515559774N00900090EA0000000965
B1215575559759N00859983EA0000000958
B1216025559680N00859988EA0000000962
B1216075559626N00900119EA0000000977
B1216185559740N00900332EA0000000993
B1216235559765N00900246EA0000000993
B1216285559709N00900186EA0000000999
B1216335559640N00900272EA0000001007
B1216395559640N00900473EA0000001011
B1216495559762N00900526EA0000001023
B1216565559740N00900394EA0000001021
B1217025559644N00900428EA0000001021
B1217135559663N00900782EA0000001033
B1217185559733N00900848EA0000001046
B1217235559775N00900782EA0000001040
B1217295559717N00900721EA0000001041
B1217345559673N00900846EA0000001037
B1217455559709N00901238EA0000001055
B1217535559737N00901514EA0000001061
B1218015559760N00901796EA0000001081
B1218065559761N00901973EA0000001084
B1218125559773N00902195EA0000001078
B1218175559825N00902347EA0000001077
B1218245559952N00902435EA0000001055
B1218325600116N00902513EA0000001036
B1218415600308N00902578EA0000001021
B1218475600436N00902610EA0000001010
B1218545600587N00902639EA0000000998
B1219005600716N00902664EA0000000993
B1219075600865N00902708EA0000000984
B1219135600995N00902756EA0000000974
B1219225601193N00902806EA0000000964
B1219295601346N00902831EA0000000956
B1219355601479N00902845EA0000000947
B1219405601590N00902853EA0000000945
B1219455601698N00902863EA0000000942
B1219515601828N00902877EA0000000929
B1219585601985N00902894EA0000000910
B1220065602162N00902907EA0000000894
B1220135602317N00902921EA0000000882
B1220185602429N00902933EA0000000876
B1220295602665N00902952EA0000000866
B1220355602789N00902962EA0000000860
B1220485603057N00903028EA0000000849
B1220545603173N00903082EA0000000866
B1221015603242N00903285EA0000000887
B1221075603180N00903441EA0000000893
B1221135603114N00903383EA0000000900
B1221185603134N00903290EA0000000910
B1221235603185N00903225EA0000000919
B1221285603254N00903271EA0000000922
B1221335603285N00903426EA0000000923
B1221425603187N00903612EA0000000935
B1221475603134N00903567EA0000000936
B1221525603138N00903479EA0000000935
B1221595603206N00903397EA0000000934
B1222065603301N00903426EA0000000927
B1222145603403N00903612EA0000000937
B1222215603407N00903818EA0000000945
B1222315603301N00903781EA0000000946
B1222405603389N00903755EA0000000962
B1222465603406N00903938EA0000000961
B1222515603342N00904024EA0000000957
B1222575603287N00903952EA0000000960
B1223025603324N00903882EA0000000963
B1223095603416N00903974EA0000000957
B1223185603495N00904254EA0000000970
B1223235603508N00904418EA0000000987
B1223285603445N00904515EA0000000993
B1223345603384N00904443EA0000001000
B1223405603446N00904365EA0000001000
B1223485603553N00904544EA0000001022
B1223565603465N00904734EA0000001042
B1224045603409N00904605EA0000001052
B1224095603476N00904549EA0000001057
B1224175603558N00904746EA0000001076
B1224225603495N00904869EA0000001084
B1224275603422N00904825EA0000001095
B1224325603433N00904711EA0000001102
B1224385603530N00904707EA0000001106
B1224435603578N00904861EA0000001119
B1224495603520N00905041EA0000001130
B1224595603423N00904921EA0000001151
B1225055603505N00904870EA0000001153
B1225105603575N00904988EA0000001158
B1225155603559N00905174EA0000001149
B1225245603423N00905077EA0000001148
B1225385603386N00904648EA0000001146
B1225475603360N00904370EA0000001141
B1225535603344N00904182EA0000001135
B1225585603330N00904025EA0000001125
B1226085603298N00903708EA0000001100
B1226145603272N00903517EA0000001086
B1226205603239N00903325EA0000001079
B1226265603205N00903149EA0000001097
B1226315603178N00903013EA0000001099
B1226395603128N00902798EA0000001093
B1226445603090N00902675EA0000001100
B1226505603029N00902564EA0000001109
B1226575602942N00902458EA0000001098
B1227025602931N00902327EA0000001091
B1227125602934N00902048EA0000001090
B1227185603011N00901975EA0000001085
B1227245603115N00902049EA0000001080
B1227315603168N00902275EA0000001085
B1227365603111N00902410EA0000001084
B1227415603031N00902389EA0000001082
B1227465603013N00902270EA0000001095
B1227535603099N00902206EA0000001098
B1227585603170N00902301EA0000001087
B1228115603251N00902812EA0000001071
B1228205603279N00903190EA0000001064
B1228275603307N00903485EA0000001054
B1228325603331N00903692EA0000001054
B1228385603361N00903937EA0000001055
B1228445603385N00904182EA0000001046
B1228525603415N00904515EA0000001038
B1228595603444N00904800EA0000001034
B1229155603530N00905426EA0000001006
B1229255603590N00905819EA0000000994
B1229315603631N00906056EA0000000986
B1229365603663N00906259EA0000000977
B1229415603678N00906472EA0000000972
B1229465603667N00906691EA0000000966
B1229515603604N00906870EA0000000971
B1229565603516N00906905EA0000000986
B1230045603485N00906754EA0000000986
B1230115603521N00906625EA0000000993
B1230325603507N00906129EA0000000942
B1230475603450N00905718EA0000000908
B1230585603403N00905411EA0000000891
B1231035603385N00905274EA0000000884
B1231145603359N00904966EA0000000877
B1231205603355N00904799EA0000000885
B1231265603357N00904645EA0000000883
B1231325603364N00904496EA0000000879
B1231385603340N00904359EA0000000887
B1231485603224N00904208EA0000000888
B1231535603231N00904078EA0000000892
B1231585603296N00904022EA0000000908
B1232035603351N00904133EA0000000901
B1232085603306N00904276EA0000000889
B1232145603226N00904218EA0000000884
B1232255603161N00903962EA0000000905
B1232335603259N00903963EA0000000913
B1232385603256N00904119EA0000000905
B1232445603171N00904170EA0000000905
B1232505603134N00904062EA0000000907
B1232565603145N00903932EA0000000898
B1233035603206N00903784EA0000000892
B1233105603278N00903640EA0000000872
B1233165603342N00903511EA0000000872
B1233245603426N00903333EA0000000883
B1233335603521N00903122EA0000000881
B1233395603569N00902969EA0000000880
B1233455603608N00902816EA0000000879
B1233515603650N00902675EA0000000877
B1233595603712N00902493EA0000000876
B1234045603754N00902375EA0000000869
B1234105603818N00902238EA0000000859
B1234155603894N00902153EA0000000862
B1234205603925N00902037EA0000000866
B1234255603900N00901925EA0000000874
B1234345603771N00901935EA0000000891
B1234415603771N00902164EA0000000917
B1234465603851N00902207EA0000000927
B1234515603871N00902116EA0000000932
B1235005603747N00902140EA0000000948
B1235075603742N00902363EA0000000967
B1235125603812N00902398EA0000000977
B1235205603779N00902296EA0000000991
B1235275603700N00902452EA0000001019
B1235345603774N00902610EA0000001034
B1235405603810N00902502EA0000001044
B1235475603716N00902508EA0000001059
B1235535603717N00902715EA0000001074
B1236015603819N00902696EA0000001091
B1236095603721N00902665EA0000001110
B1236145603705N00902839EA0000001122
B1236195603779N00902923EA0000001139
B1236255603817N00902823EA0000001144
B1236365603720N00902998EA0000001162
B1236415603796N00903073EA0000001176
B1236465603838N00902989EA0000001188
B1236545603744N00902964EA0000001203
B1236595603712N00903130EA0000001210
B1237065603804N00903280EA0000001228
B1237115603845N00903203EA0000001236
B1237205603740N00903265EA0000001252
B1237275603803N00903456EA0000001268
B1237335603857N00903379EA0000001273
B1237405603765N00903383EA0000001293
B1237455603746N00903551EA0000001302
B1237505603813N00903666EA0000001310
B1237565603883N00903595EA0000001316
B1238085603761N00903622EA0000001337
B1238155603833N00903788EA0000001354
B1238245603813N00903689EA0000001372
B1238305603784N00903867EA0000001378
B1238365603880N00903934EA0000001379
B1238415603894N00903820EA0000001378
B1238535603722N00903929EA0000001370
B1238595603731N00904197EA0000001370
B1239085603791N00904609EA0000001357
B1239145603836N00904893EA0000001343
B1239195603877N00905130EA0000001331
B1239255603924N00905415EA0000001324
B1239325603968N00905752EA0000001308
B1239415604011N00906194EA0000001298
B1239485604044N00906537EA0000001292
B1239535604067N00906781EA0000001292
B1239595604093N00907066EA0000001289
B1240055604121N00907351EA0000001277
B1240495604340N00909497EA0000001209
B1240565604373N00909836EA0000001201
B1241015604396N00910077EA0000001192
B1241065604418N00910320EA0000001179
B1241135604452N00910661EA0000001164
B1241245604509N00911190EA0000001141
B1243055605051N00915569EA0000001111
B1243295605136N00916594EA0000001088
B1247475605704N00925071EA0000001069
B1248085605678N00925218EA0000001095
B1248505605676N00925535EA0000001165
B1249115605670N00925664EA0000001201
B1249315605632N00925816EA0000001234
B1254365605535N00937265EA0000001135
B1254585605574N00937434EA0000001172
B1300505611188N00946953EA0000001044
B1300565611262N00947134EA0000001044
B1301095611196N00947597EA0000001066
B1301145611120N00947612EA0000001070
B1301245611129N00947441EA0000001065
B1301295611203N00947439EA0000001078
B1301435611163N00947744EA0000001089
B1301525611161N00947588EA0000001099
B1301575611234N00947617EA0000001101
B1302085611209N00947918EA0000001114
B1302185611164N00947781EA0000001126
B1302255611256N00947844EA0000001118
B1302375611152N00948096EA0000001127
B1302475611164N00947931EA0000001122
B1303195611782N00948057EA0000001079
B1303255611903N00948062EA0000001073
B1306285615708N00948037EA0000000840
B1307015616404N00948082EA0000000834
B1307135616368N00948343EA0000000857
B1307285616426N00948146EA0000000886
B1307425616380N00948454EA0000000911
B1308015616470N00948192EA0000000937
B1308185616367N00948412EA0000000939
B1308305616495N00948384EA0000000960
B1308405616443N00948626EA0000000958
B1308495616451N00948502EA0000000973
B1309065616390N00948754EA0000000977
B1309215616424N00948595EA0000000995
B1309445616266N00949055EA0000001021
B1309545616303N00948931EA0000001032
B1310095616261N00949248EA0000001042
B1310145616219N00949176EA0000001050
B1310225616293N00949118EA0000001050
B1310365616256N00949493EA0000001059
B1322305628161N01000743EA0000000623
B1322365628219N01000974EA0000000619
B1322585628223N01001771EA0000000636
B1323055628269N01002020EA0000000624
B1323165628370N01002429EA0000000598
B1323225628426N01002658EA0000000585
B1323325628524N01003037EA0000000571
B1323455628653N01003517EA0000000548
B1323535628748N01003794EA0000000543
B1324125629026N01004312EA0000000530
B1324205629121N01004554EA0000000516
