AOGNOGN
HFDTE080825
HFFXA050
HFPLTPILOTINCHARGE:
HFGTYGLIDERTYPE:LS-6
HFGIDGLIDERID:OY-HPX
HFDTM100GPSDATUM:WGS-1984
HFRFWFIRMWAREVERSION:
HFRHWHARDWAREVERSION:
HFFTYFRTYPE:OGN-FLIGHTBOOK
HFGPSGENERIC
HFPRSPRESSALTSENSOR:
HFCIDCOMPETITIONID:HP
B1219355600716N00901484EA0000000041
B1219405600709N00901387EA0000000041
B1219405600709N00901387EA0000000041
B1219465600698N00901227EA0000000041
B1219525600683N00901042EA0000000056
B1219575600673N00900888EA0000000078
B1220025600662N00900738EA0000000101
B1220075600653N00900591EA0000000120
B1220145600655N00900390EA0000000148
B1220195600688N00900258EA0000000169
B1220245600743N00900146EA0000000191
B1220295600823N00900062EA0000000208
B1220385600996N00900008EA0000000245
B1220485601200N00859990EA0000000276
B1220545601317N00859929EA0000000295
B1220595601411N00859876EA0000000316
B1221045601501N00859822EA0000000341
B1221135601670N00859729EA0000000368
B1221185601765N00859679EA0000000381
B1221245601876N00859631EA0000000398
B1221295601964N00859591EA0000000420
B1221355602068N00859544EA0000000453
B1221435602210N00859487EA0000000481
B1221515602356N00859456EA0000000501
B1221565602453N00859464EA0000000509
B1222015602553N00859491EA0000000524
B1222105602731N00859622EA0000000545
B1222165602841N00859766EA0000000559
B1222215602923N00859914EA0000000565
B1222265602994N00900063EA0000000585
B1222335603074N00900267EA0000000605
B1222395603094N00900477EA0000000603
B1222445603025N00900588EA0000000608
B1222505602945N00900520EA0000000620
B1222565602980N00900388EA0000000630
B1223035603088N00900500EA0000000646
B1223085603062N00900672EA0000000644
B1223135602977N00900678EA0000000660
B1223185602952N00900566EA0000000675
B1223245603032N00900522EA0000000689
B1223295603076N00900671EA0000000698
B1223345603027N00900816EA0000000703
B1223395602954N00900796EA0000000720
B1223455602972N00900678EA0000000730
B1223515603060N00900730EA0000000736
B1223565603070N00900898EA0000000740
B1224025602979N00900941EA0000000754
B1224075602966N00900839EA0000000769
B1224125603033N00900804EA0000000767
B1224185603118N00900910EA0000000782
B1224235603132N00901075EA0000000777
B1224285603089N00901223EA0000000773
B1224335603009N00901252EA0000000782
B1224385602981N00901154EA0000000791
B1224435603050N00901128EA0000000797
B1224485603088N00901289EA0000000805
B1224545603008N00901403EA0000000818
B1224595602962N00901316EA0000000831
B1225055603025N00901248EA0000000835
B1225125603093N00901442EA0000000846
B1225175603031N00901553EA0000000855
B1225225602971N00901483EA0000000858
B1225275602996N00901377EA0000000864
B1225325603074N00901384EA0000000864
B1225385603120N00901568EA0000000880
B1225435603058N00901678EA0000000885
B1225485603004N00901608EA0000000899
B1225535603031N00901521EA0000000907
B1225595603125N00901558EA0000000910
B1226055603163N00901754EA0000000920
B1226115603096N00901911EA0000000917
B1226165603016N00901880EA0000000921
B1226215602975N00901771EA0000000932
B1226275603020N00901662EA0000000940
B1226325603105N00901736EA0000000944
B1226375603131N00901910EA0000000963
B1226425603074N00902027EA0000000960
B1226475603014N00901960EA0000000965
B1226535603074N00901884EA0000000972
B1226585603126N00902038EA0000000970
B1227035603068N00902168EA0000000987
B1227085603009N00902105EA0000000985
B1227145603065N00901994EA0000000992
B1227205603157N00902090EA0000001010
B1227255603147N00902261EA0000001010
B1227305603066N00902320EA0000001005
B1227355603013N00902238EA0000001010
B1227425603070N00902114EA0000001005
B1227475603160N00902156EA0000000996
B1227525603228N00902304EA0000001003
B1227585603279N00902523EA0000001007
B1228045603300N00902757EA0000001000
B1228115603260N00903021EA0000000995
B1228175603187N00903202EA0000000993
B1228235603087N00903298EA0000000985
B1228285602999N00903303EA0000000980
B1228335602929N00903237EA0000000984
B1228385602915N00903121EA0000000980
B1228435602966N00903021EA0000000977
B1228495603068N00902976EA0000000981
B1228555603169N00902994EA0000000994
B1229005603251N00903041EA0000000998
B1229055603318N00903150EA0000000999
B1229105603315N00903324EA0000000990
B1229155603262N00903477EA0000000988
B1229215603168N00903558EA0000000987
B1229265603091N00903530EA0000000978
B1229315603045N00903431EA0000000980
B1229365603024N00903309EA0000000984
B1229435603011N00903129EA0000000982
B1229495603002N00902974EA0000000980
B1229585603001N00902726EA0000000953
B1230055603030N00902529EA0000000944
B1230105603063N00902392EA0000000943
B1230175603110N00902212EA0000000937
B1230235603159N00902055EA0000000913
B1230305603227N00901848EA0000000910
B1230355603277N00901702EA0000000901
B1230425603355N00901510EA0000000892
B1230495603455N00901334EA0000000872
B1230545603531N00901208EA0000000872
B1231005603624N00901063EA0000000867
B1231055603707N00900959EA0000000870
B1231115603812N00900844EA0000000873
B1231165603863N00900732EA0000000909
B1231215603836N00900620EA0000000914
B1231275603733N00900622EA0000000911
B1231325603679N00900778EA0000000913
B1231375603686N00900960EA0000000922
B1231435603767N00901116EA0000000910
B1231485603858N00901099EA0000000913
B1231535603904N00900992EA0000000923
B1231585603902N00900866EA0000000903
B1232085603757N00900957EA0000000918
B1232175603866N00901125EA0000000934
B1232245603927N00900989EA0000000933
B1232295603954N00900881EA0000000933
B1232355603971N00900745EA0000000919
B1232405603982N00900622EA0000000924
B1232475603995N00900465EA0000000940
B1232545604002N00900319EA0000000946
B1233005604005N00900190EA0000000947
B1233075604002N00900032EA0000000959
B1233155604017N00859858EA0000000983
B1233225604111N00859962EA0000000990
B1233275604069N00900119EA0000001001
B1233325604004N00900070EA0000001005
B1233375604026N00859955EA0000001020
B1233435604112N00900020EA0000001038
B1233495604071N00900208EA0000001036
B1233555603991N00900152EA0000001048
B1234005604014N00900045EA0000001056
B1234075604117N00900115EA0000001066
B1234145604101N00900339EA0000001076
B1234215604033N00900268EA0000001076
B1234265604100N00900213EA0000001083
B1234315604162N00900339EA0000001092
B1234365604120N00900494EA0000001092
B1234415604044N00900466EA0000001095
B1234465604075N00900358EA0000001103
B1234515604151N00900436EA0000001112
B1234565604133N00900612EA0000001127
B1235025604040N00900661EA0000001140
B1235075604026N00900557EA0000001142
B1235125604101N00900545EA0000001146
B1235185604143N00900725EA0000001155
B1235235604078N00900842EA0000001158
B1235285604012N00900789EA0000001168
B1235345604054N00900680EA0000001163
B1235395604134N00900750EA0000001170
B1235445604137N00900920EA0000001175
B1235495604057N00900982EA0000001176
B1235545604020N00900887EA0000001182
B1235595604075N00900825EA0000001188
B1236045604146N00900913EA0000001188
B1236095604149N00901086EA0000001205
B1236145604081N00901168EA0000001202
B1236195604031N00901084EA0000001198
B1236265604102N00900993EA0000001211
B1236315604171N00901099EA0000001212
B1236365604186N00901284EA0000001221
B1236415604161N00901461EA0000001230
B1236465604083N00901517EA0000001234
B1236545604088N00901355EA0000001246
B1237025604196N00901511EA0000001256
B1237085604202N00901753EA0000001259
B1237135604179N00901966EA0000001262
B1237185604143N00902179EA0000001272
B1237255604094N00902474EA0000001266
B1237315604066N00902743EA0000001272
B1237365604040N00902951EA0000001274
B1237425603967N00903137EA0000001276
B1237495603845N00903203EA0000001272
B1237545603765N00903291EA0000001252
B1237595603734N00903497EA0000001243
B1238055603788N00903731EA0000001275
B1238105603869N00903736EA0000001296
B1238165603858N00903610EA0000001303
B1238215603784N00903661EA0000001318
B1238275603795N00903870EA0000001326
B1238325603875N00903880EA0000001337
B1238375603873N00903775EA0000001347
B1238425603801N00903802EA0000001354
B1238475603777N00903989EA0000001349
B1238545603868N00904223EA0000001355
B1238595603965N00904236EA0000001352
B1239045604015N00904122EA0000001347
B1239095603969N00904022EA0000001364
B1239145603882N00904046EA0000001367
B1239205603794N00904217EA0000001365
B1239285603734N00904560EA0000001361
B1239375603717N00904991EA0000001350
B1239465603722N00905448EA0000001309
B1239515603745N00905714EA0000001302
B1240015603811N00906234EA0000001302
B1240095603873N00906662EA0000001281
B1240175603943N00907096EA0000001267
B1240255604018N00907511EA0000001277
B1240315604075N00907803EA0000001275
B1240395604149N00908200EA0000001252
B1240475604219N00908613EA0000001230
B1240545604275N00908980EA0000001217
B1241025604331N00909402EA0000001210
B1241105604377N00909818EA0000001199
B1241155604402N00910076EA0000001186
B1241215604428N00910396EA0000001173
B1241265604450N00910663EA0000001164
B1241335604479N00911029EA0000001156
B1241385604502N00911284EA0000001146
B1241435604525N00911539EA0000001139
B1241515604571N00911946EA0000001127
B1241595604625N00912351EA0000001120
B1242045604659N00912603EA0000001113
B1242125604717N00913000EA0000001111
B1242175604759N00913238EA0000001123
B1242245604810N00913531EA0000001151
B1242305604846N00913770EA0000001158
B1242395604899N00914117EA0000001176
B1242455604926N00914346EA0000001178
B1242505604942N00914543EA0000001176
B1242565604956N00914781EA0000001170
B1243035604973N00915066EA0000001158
B1243105604985N00915361EA0000001145
B1243175605004N00915661EA0000001140
B1243235605031N00915915EA0000001126
B1243285605055N00916140EA0000001106
B1243345605080N00916419EA0000001098
B1243395605098N00916651EA0000001087
B1243445605110N00916887EA0000001078
B1243515605120N00917201EA0000001091
B1243585605123N00917496EA0000001085
B1244045605133N00917757EA0000001080
B1244095605146N00917968EA0000001093
B1244145605159N00918161EA0000001114
B1244205605175N00918373EA0000001120
B1244285605198N00918665EA0000001106
B1244345605219N00918903EA0000001088
B1244455605280N00919372EA0000001052
B1244505605310N00919604EA0000001034
B1244565605344N00919886EA0000001024
B1245065605382N00920353EA0000001016
B1245145605371N00920716EA0000001010
B1245225605363N00921074EA0000001007
B1245285605367N00921334EA0000001022
B1245395605370N00921765EA0000001045
B1245465605371N00922031EA0000001042
B1245535605375N00922304EA0000001047
B1245595605385N00922542EA0000001052
B1246065605402N00922817EA0000001048
B1246145605428N00923127EA0000001056
B1246245605466N00923528EA0000001031
B1246305605480N00923777EA0000001025
B1246365605478N00924022EA0000001021
B1246465605485N00924383EA0000001076
B1247015605487N00924897EA0000001089
B1247145605505N00925366EA0000001098
B1247245605521N00925738EA0000001107
B1247295605530N00925925EA0000001107
B1247345605543N00926116EA0000001106
B1247415605571N00926386EA0000001104
B1247475605599N00926610EA0000001112
B1247525605622N00926793EA0000001102
B1248015605666N00927135EA0000001085
B1248085605713N00927411EA0000001077
B1248175605783N00927762EA0000001072
B1248225605823N00927948EA0000001082
B1248275605858N00928133EA0000001082
B1248325605882N00928301EA0000001109
B1248405605921N00928556EA0000001107
B1248495605973N00928866EA0000001117
B1248565606014N00929109EA0000001126
B1249065606068N00929457EA0000001113
B1249115606099N00929646EA0000001110
B1249175606136N00929871EA0000001101
B1249275606171N00930277EA0000001077
B1249345606163N00930595EA0000001049
B1249395606143N00930834EA0000001035
B1249475606089N00931214EA0000001024
B1249585606002N00931719EA0000001012
B1250055605942N00932039EA0000001000
B1250145605864N00932443EA0000000990
B1250195605824N00932667EA0000000986
B1250265605770N00932982EA0000000972
B1250315605733N00933207EA0000000968
B1250385605686N00933522EA0000000959
B1250445605649N00933789EA0000000952
B1250505605614N00934062EA0000000937
B1250565605579N00934338EA0000000928
B1251035605534N00934636EA0000000929
B1251095605489N00934886EA0000000908
B1251145605449N00935108EA0000000896
B1251205605406N00935363EA0000000919
B1251255605376N00935534EA0000000946
B1251365605386N00935888EA0000000941
B1251455605453N00935757EA0000000955
B1251505605376N00935743EA0000000962
B1251595605331N00936014EA0000000976
B1252045605410N00936046EA0000000980
B1252165605344N00935904EA0000000987
B1252235605266N00936088EA0000000999
B1252285605274N00936264EA0000001000
B1252345605336N00936444EA0000001000
B1252405605407N00936608EA0000001008
B1252455605484N00936686EA0000001006
B1252545605524N00936521EA0000001013
B1253035605453N00936704EA0000001028
B1253135605533N00936617EA0000001050
B1253235605448N00936822EA0000001057
B1253285605527N00936894EA0000001068
B1253365605524N00936752EA0000001080
B1253435605459N00936925EA0000001092
B1253485605511N00937061EA0000001106
B1253585605562N00936933EA0000001107
B1254035605488N00936974EA0000001113
B1254085605470N00937152EA0000001119
B1254135605537N00937272EA0000001123
B1254195605599N00937189EA0000001132
B1254245605545N00937122EA0000001134
B1254295605474N00937210EA0000001143
B1254365605485N00937449EA0000001144
B1254415605567N00937502EA0000001151
B1254495605566N00937350EA0000001148
B1254565605462N00937485EA0000001161
B1255015605468N00937681EA0000001154
B1255065605539N00937852EA0000001143
B1255135605660N00938062EA0000001157
B1255205605795N00938269EA0000001141
B1255285605967N00938510EA0000001128
B1255335606075N00938670EA0000001122
B1255395606201N00938868EA0000001117
B1255485606386N00939175EA0000001092
B1255545606511N00939394EA0000001074
B1256005606637N00939613EA0000001069
B1256065606757N00939828EA0000001059
B1256145606913N00940123EA0000001043
B1256245607098N00940458EA0000001085
B1256295607169N00940569EA0000001121
B1256345607243N00940671EA0000001115
B1256395607327N00940791EA0000001105
B1256445607409N00940936EA0000001100
B1256515607508N00941173EA0000001100
B1256585607594N00941424EA0000001106
B1257045607664N00941637EA0000001105
B1257105607733N00941857EA0000001098
B1257165607831N00942043EA0000001090
B1257215607930N00942164EA0000001082
B1257285608074N00942308EA0000001082
B1257395608290N00942474EA0000001093
B1257495608481N00942620EA0000001080
B1257565608616N00942722EA0000001086
B1258035608745N00942838EA0000001084
B1258085608839N00942900EA0000001084
B1258145608953N00942957EA0000001085
B1258215609092N00943045EA0000001083
B1258275609208N00943163EA0000001086
B1258335609287N00943344EA0000001109
B1258415609356N00943618EA0000001107
B1258465609403N00943800EA0000001109
B1258525609461N00944004EA0000001112
B1258585609527N00944200EA0000001102
B1259055609608N00944436EA0000001093
B1259125609698N00944657EA0000001100
B1259185609776N00944828EA0000001083
B1259235609847N00944990EA0000001063
B1259285609923N00945165EA0000001050
B1259355610030N00945417EA0000001041
B1259455610187N00945759EA0000001046
B1259535610301N00946010EA0000001054
B1300005610395N00946227EA0000001049
B1300055610465N00946384EA0000001050
B1300115610548N00946560EA0000001056
B1300205610677N00946796EA0000001048
B1300255610756N00946906EA0000001052
B1300325610876N00947029EA0000001047
B1300405611021N00947152EA0000001039
B1300455611114N00947216EA0000001058
B1300505611190N00947292EA0000001077
B1300565611183N00947489EA0000001069
B1301045611082N00947469EA0000001065
B1301105611097N00947347EA0000001072
B1301155611154N00947289EA0000001065
B1301205611229N00947375EA0000001075
B1301255611250N00947545EA0000001084
B1301305611189N00947661EA0000001082
B1301365611120N00947588EA0000001087
B1301415611146N00947489EA0000001095
B1301475611237N00947504EA0000001087
B1301525611293N00947649EA0000001093
B1301595611236N00947844EA0000001107
B1302085611140N00947739EA0000001114
B1302135611189N00947665EA0000001113
B1302185611261N00947752EA0000001110
B1302265611207N00948007EA0000001114
B1302365611106N00947912EA0000001122
B1302425611168N00947826EA0000001119
B1302475611255N00947821EA0000001106
B1302575611467N00947851EA0000001068
B1303055611664N00947872EA0000001052
B1303115611814N00947882EA0000001043
B1303165611935N00947884EA0000001053
B1303235612091N00947877EA0000001050
B1303325612291N00947884EA0000001034
B1303375612408N00947898EA0000001016
B1303495612697N00947918EA0000000985
B1303575612885N00947903EA0000000977
B1304085613144N00947884EA0000000968
B1304135613260N00947872EA0000000960
B1304245613517N00947834EA0000000958
B1304325613698N00947796EA0000000958
B1304395613855N00947746EA0000000934
B1304445613967N00947687EA0000000926
B1304525614133N00947575EA0000000920
B1304595614272N00947468EA0000000923
B1305045614355N00947377EA0000000951
B1305105614429N00947281EA0000000974
B1305165614486N00947185EA0000000976
B1305215614476N00947084EA0000000967
B1305275614390N00947074EA0000000972
B1305325614325N00947190EA0000000979
B1305385614288N00947393EA0000000988
B1305465614361N00947609EA0000001004
B1305525614433N00947523EA0000001000
B1305575614421N00947412EA0000001009
B1306025614349N00947425EA0000001008
B1306075614336N00947605EA0000001010
B1306135614392N00947802EA0000001035
B1306185614458N00947922EA0000001026
B1306245614531N00947862EA0000001022
B1306295614499N00947777EA0000001021
B1306345614421N00947811EA0000001022
B1306415614358N00948032EA0000001043
B1306465614356N00948206EA0000001041
B1306525614447N00948316EA0000001038
B1306575614539N00948313EA0000001024
B1307035614651N00948299EA0000001016
B1307125614821N00948246EA0000000988
B1307185614950N00948210EA0000000960
B1307255615115N00948165EA0000000946
B1307345615330N00948122EA0000000937
B1307405615470N00948104EA0000000948
B1307455615581N00948093EA0000000958
B1307515615713N00948082EA0000000946
B1308035615992N00948088EA0000000919
B1308095616116N00948080EA0000000968
B1308165616226N00948074EA0000000983
B1308285616420N00948174EA0000000981
B1308365616528N00948365EA0000000990
B1308425616542N00948589EA0000000991
B1308505616422N00948720EA0000000998
B1308565616346N00948614EA0000001010
B1309025616293N00948500EA0000001022
B1309085616341N00948395EA0000001018
B1309145616436N00948516EA0000001013
B1309205616457N00948757EA0000001020
B1309255616416N00948933EA0000001031
B1309335616291N00949083EA0000001030
B1309385616219N00949001EA0000001037
B1309435616218N00948876EA0000001052
B1309495616307N00948848EA0000001052
B1309575616328N00949128EA0000001061
B1310045616211N00949158EA0000001065
B1310095616215N00949032EA0000001076
B1310155616312N00949031EA0000001080
B1310215616347N00949241EA0000001083
B1310265616272N00949357EA0000001087
B1310355616224N00949186EA0000001095
B1310455616384N00949247EA0000001092
B1310505616420N00949439EA0000001092
B1310595616468N00949797EA0000001101
B1311055616517N00950014EA0000001120
B1311155616596N00950349EA0000001127
B1311225616657N00950591EA0000001128
B1311285616711N00950799EA0000001144
B1311335616755N00950976EA0000001147
B1311455616867N00951413EA0000001169
B1311525616926N00951664EA0000001172
B1311575616964N00951839EA0000001185
B1312045617013N00952084EA0000001202
B1312165617088N00952524EA0000001207
B1312215617122N00952704EA0000001216
B1312265617168N00952869EA0000001221
B1312325617259N00952996EA0000001214
B1312395617388N00953020EA0000001215
B1312485617556N00953008EA0000001209
B1312545617679N00952993EA0000001192
B1313045617900N00952977EA0000001171
B1313095618014N00952969EA0000001161
B1313155618151N00952953EA0000001152
B1313235618333N00952913EA0000001149
B1313295618465N00952880EA0000001151
B1313345618563N00952853EA0000001180
B1313455618740N00952796EA0000001211
B1313515618835N00952764EA0000001210
B1313595618965N00952719EA0000001194
B1314065619093N00952678EA0000001182
B1314115619190N00952650EA0000001178
B1314185619325N00952618EA0000001181
B1314235619420N00952602EA0000001172
B1314375619718N00952565EA0000001155
B1314425619808N00952529EA0000001167
B1314495619931N00952479EA0000001159
B1314565620061N00952426EA0000001141
B1315015620160N00952383EA0000001125
B1315135620423N00952301EA0000001094
B1315225620627N00952264EA0000001091
B1315295620790N00952240EA0000001060
B1315365620967N00952225EA0000001038
B1315415621097N00952223EA0000001034
B1315495621300N00952248EA0000001030
B1315545621427N00952278EA0000001023
B1316025621628N00952362EA0000001023
B1316085621771N00952447EA0000001020
B1316165621955N00952569EA0000001011
B1316215622065N00952667EA0000001010
B1316275622191N00952815EA0000001008
B1316335622307N00952963EA0000001014
B1316385622404N00953071EA0000001004
B1316505622664N00953288EA0000000979
B1316555622777N00953368EA0000000966
B1317315623585N00953584EA0000000923
B1318495622213N00954271EA0000000845
B1319045621949N00954212EA0000000831
B1319215621693N00954005EA0000000824
B1319285621585N00953904EA0000000812
B1319345621500N00953820EA0000000817
B1319465621341N00953636EA0000000800
B1319525621254N00953556EA0000000784
B1319595621135N00953470EA0000000758
B1320045621048N00953406EA0000000755
B1320145620893N00953254EA0000000744
B1320305620649N00953458EA0000000727
B1320445620455N00953830EA0000000716
B1320525620318N00953881EA0000000707
B1320585620219N00953868EA0000000696
B1321065620099N00953803EA0000000679
B1321145620003N00953667EA0000000662
B1321205619945N00953540EA0000000653
B1321265619893N00953411EA0000000646
B1321335619835N00953261EA0000000632
B1321415619764N00953082EA0000000606
B1321525619658N00952827EA0000000572
B1321575619605N00952713EA0000000558
B1322025619550N00952599EA0000000545
B1322085619482N00952470EA0000000544
B1322135619425N00952371EA0000000535
B1322185619374N00952268EA0000000537
B1322265619307N00952116EA0000000541
B1322325619258N00952005EA0000000533
B1322525619248N00951594EA0000000565
B1323095619154N00951781EA0000000593
B1323165619246N00951771EA0000000612
B1323255619151N00951729EA0000000616
B1323305619141N00951907EA0000000643
B1323395619256N00951972EA0000000660
B1323445619239N00951880EA0000000667
B1323555619159N00952122EA0000000682
B1324045619279N00952114EA0000000702
B1324095619242N00952027EA0000000713
B1324205619170N00952300EA0000000744
B1324295619292N00952302EA0000000758
B1324435619179N00952485EA0000000791
B1324515619292N00952533EA0000000803
B1324565619278N00952432EA0000000808
B1325015619198N00952467EA0000000821
B1325075619199N00952684EA0000000835
B1325165619311N00952668EA0000000849
B1325225619247N00952598EA0000000847
B1325285619176N00952769EA0000000871
B1325335619207N00952943EA0000000881
B1325405619308N00952946EA0000000890
B1325525619189N00953017EA0000000915
B1326035619315N00953208EA0000000930
B1326085619315N00953106EA0000000939
B1326185619191N00953255EA0000000968
B1326285619314N00953365EA0000000974
B1326335619291N00953267EA0000000978
B1326445619188N00953506EA0000001011
B1326525619307N00953569EA0000001016
B1326585619289N00953456EA0000001027
B1327055619182N00953526EA0000001042
B1327105619184N00953706EA0000001054
B1327195619314N00953707EA0000001068
B1327245619294N00953610EA0000001072
B1327305619198N00953630EA0000001080
B1327365619162N00953845EA0000001093
B1327455619291N00953920EA0000001107
B1327505619282N00953819EA0000001121
B1327565619194N00953804EA0000001129
B1328015619137N00953952EA0000001135
B1328065619182N00954113EA0000001142
B1328115619262N00954100EA0000001147
B1328165619264N00953994EA0000001162
B1328225619175N00953985EA0000001167
B1328275619135N00954151EA0000001179
B1328405619299N00954268EA0000001202
B1328455619283N00954172EA0000001208
B1328505619209N00954173EA0000001216
B1328575619163N00954393EA0000001230
B1329025619223N00954521EA0000001239
B1329075619298N00954530EA0000001244
B1329125619335N00954447EA0000001251
B1329175619310N00954353EA0000001253
B1329225619234N00954353EA0000001263
B1329275619181N00954493EA0000001271
B1329385619309N00954696EA0000001286
B1329435619342N00954608EA0000001296
B1329485619324N00954512EA0000001298
B1329535619294N00954410EA0000001280
B1330015619275N00954201EA0000001250
B1330085619268N00953984EA0000001227
B1330135619263N00953821EA0000001212
B1330205619253N00953571EA0000001188
B1330295619235N00953225EA0000001169
B1330365619220N00952953EA0000001151
B1330415619203N00952760EA0000001146
B1330475619179N00952544EA0000001162
B1330545619141N00952315EA0000001150
B1330595619116N00952138EA0000001134
B1331075619084N00951844EA0000001124
B1331135619070N00951630EA0000001122
B1331195619057N00951425EA0000001122
B1331255619042N00951218EA0000001114
B1331335619027N00950963EA0000001114
B1331385619016N00950805EA0000001098
B1331475619003N00950496EA0000001081
B1335285620671N00945126EA0000000860
B1335335620634N00945039EA0000000861
B1335405620511N00945040EA0000000844
B1335465620396N00945080EA0000000833
B1335525620283N00945129EA0000000829
B1335585620173N00945178EA0000000830
B1336065620028N00945212EA0000000813
B1336135619892N00945238EA0000000796
B1336235619694N00945257EA0000000793
B1336335619519N00945253EA0000000795
B1336385619430N00945244EA0000000788
B1336465619292N00945197EA0000000809
B1337025619349N00945088EA0000000824
B1337075619347N00945263EA0000000833
B1337125619265N00945313EA0000000845
B1337215619263N00945140EA0000000860
B1337275619350N00945214EA0000000859
B1337325619341N00945387EA0000000864
B1337505619345N00945363EA0000000878
B1337585619297N00945586EA0000000889
B1338095619229N00945429EA0000000873
B1338165619337N00945453EA0000000884
B1338215619369N00945612EA0000000890
B1338285619276N00945718EA0000000896
B1338375619286N00945560EA0000000904
B1338435619369N00945668EA0000000907
B1338485619349N00945841EA0000000912
B1338595619281N00945724EA0000000912
B1339055619370N00945785EA0000000926
B1339165619262N00945989EA0000000939
B1339225619273N00945869EA0000000937
B1339285619362N00945944EA0000000942
B1339335619359N00946114EA0000000946
B1339385619285N00946198EA0000000955
B1339475619255N00946042EA0000000961
B1339555619371N00946138EA0000000960
B1340005619354N00946308EA0000000967
B1340055619276N00946376EA0000000969
B1340105619199N00946347EA0000000975
B1340175619191N00946188EA0000000954
B1340225619268N00946179EA0000000955
B1340305619293N00946429EA0000000949
B1340355619225N00946525EA0000000965
B1340405619149N00946583EA0000000960
B1340455619063N00946626EA0000000939
B1340505618968N00946668EA0000000927
B1340555618876N00946679EA0000000926
B1341005618801N00946631EA0000000919
B1341055618737N00946562EA0000000911
B1341105618674N00946489EA0000000903
B1341185618569N00946383EA0000000897
B1341255618479N00946299EA0000000889
B1341305618415N00946232EA0000000880
B1341365618340N00946146EA0000000873
B1341425618271N00946049EA0000000861
B1341475618219N00945950EA0000000848
B1341525618167N00945848EA0000000841
B1341585618055N00945859EA0000000828
B1342035617965N00945978EA0000000826
B1342085617880N00946107EA0000000824
B1342145617776N00946250EA0000000817
B1342245617595N00946461EA0000000803
B1342325617453N00946657EA0000000788
B1342385617341N00946798EA0000000785
B1342465617196N00946958EA0000000779
B1342515617107N00947048EA0000000769
B1342585616975N00947131EA0000000747
B1343055616844N00947288EA0000000730
B1343145616695N00947485EA0000000751
B1343245616552N00947702EA0000000750
B1343305616465N00947840EA0000000745
B1343375616353N00947979EA0000000739
B1343465616202N00948107EA0000000726
B1343515616109N00948163EA0000000717
B1343575615995N00948211EA0000000710
B1344055615853N00948213EA0000000707
B1344175615659N00948179EA0000000696
B1344225615578N00948156EA0000000687
B1344275615499N00948118EA0000000675
B1344325615420N00948073EA0000000664
B1344395615313N00948009EA0000000663
B1344445615244N00947960EA0000000668
B1344505615167N00947899EA0000000660
B1344585615064N00947803EA0000000645
B1345045614989N00947712EA0000000637
B1345105614923N00947609EA0000000653
B1345175614878N00947488EA0000000659
B1345225614932N00947420EA0000000658
B1345275615010N00947495EA0000000658
B1345325615021N00947668EA0000000657
B1345395614935N00947853EA0000000653
B1345465614835N00948003EA0000000672
B1345555614728N00947979EA0000000659
B1346035614820N00947936EA0000000658
B1346085614862N00948092EA0000000668
B1346135614819N00948241EA0000000670
B1346205614755N00948163EA0000000665
B1346265614829N00948146EA0000000673
B1346325614873N00948324EA0000000679
B1346375614816N00948445EA0000000679
B1346455614761N00948331EA0000000674
B1346505614821N00948302EA0000000678
B1346565614884N00948451EA0000000685
B1347015614848N00948602EA0000000687
B1347095614773N00948521EA0000000675
B1347145614835N00948477EA0000000686
B1347195614899N00948592EA0000000691
B1347265614839N00948784EA0000000703
B1347325614778N00948717EA0000000702
B1347395614846N00948660EA0000000717
B1347445614896N00948790EA0000000719
B1347495614854N00948937EA0000000720
B1347555614785N00948882EA0000000721
B1348005614834N00948815EA0000000732
B1348055614902N00948921EA0000000734
B1348105614874N00949089EA0000000742
B1348185614791N00949036EA0000000746
B1348235614848N00948974EA0000000751
B1348285614921N00949077EA0000000751
B1348335614902N00949254EA0000000758
B1348385614823N00949297EA0000000758
B1348435614803N00949194EA0000000761
B1348485614872N00949155EA0000000768
B1348535614930N00949289EA0000000763
B1348585614884N00949436EA0000000772
B1349065614808N00949345EA0000000758
B1349135614908N00949307EA0000000767
B1349205614936N00949529EA0000000764
B1349255614865N00949626EA0000000768
B1349325614781N00949553EA0000000772
B1349375614780N00949447EA0000000772
B1349435614855N00949370EA0000000772
B1349495614923N00949520EA0000000776
B1349545614884N00949672EA0000000769
B1349595614803N00949765EA0000000756
B1350045614714N00949850EA0000000761
B1350095614632N00949939EA0000000770
B1350145614549N00950022EA0000000762
B1350215614430N00950135EA0000000762
B1350285614326N00950238EA0000000776
B1350335614245N00950248EA0000000764
B1350385614214N00950152EA0000000776
B1350435614271N00950102EA0000000785
B1350485614326N00950232EA0000000796
B1350535614271N00950363EA0000000804
B1350595614214N00950291EA0000000812
B1351065614294N00950258EA0000000822
B1351125614315N00950453EA0000000838
B1351175614240N00950518EA0000000844
B1351225614216N00950421EA0000000850
B1351285614299N00950447EA0000000860
B1351345614279N00950656EA0000000874
B1351415614187N00950622EA0000000888
B1351465614220N00950542EA0000000889
B1351515614291N00950605EA0000000884
B1351565614302N00950781EA0000000893
B1352015614227N00950862EA0000000896
B1352065614204N00950765EA0000000902
B1352125614286N00950749EA0000000901
B1352175614344N00950892EA0000000905
B1352225614332N00951070EA0000000920
B1352275614253N00951121EA0000000919
B1352325614234N00951021EA0000000926
B1352385614320N00951035EA0000000935
B1352435614348N00951205EA0000000955
B1352505614252N00951318EA0000000958
B1352555614230N00951221EA0000000963
B1353015614311N00951210EA0000000969
B1353065614346N00951379EA0000000981
B1353115614278N00951492EA0000000983
B1353165614221N00951413EA0000000982
B1353245614322N00951369EA0000000997
B1353295614346N00951548EA0000001007
B1353345614275N00951668EA0000001016
B1353395614215N00951601EA0000001023
B1353455614273N00951521EA0000001027
B1353505614334N00951666EA0000001041
B1353555614292N00951819EA0000001060
B1354025614216N00951748EA0000001066
B1354105614319N00951755EA0000001074
B1354155614311N00951932EA0000001092
B1354205614235N00951967EA0000001103
B1354255614227N00951867EA0000001097
B1354305614300N00951872EA0000001107
B1354355614331N00952031EA0000001106
B1354405614262N00952152EA0000001128
B1354465614196N00952096EA0000001135
B1354515614237N00952013EA0000001124
B1354565614313N00952072EA0000001132
B1355015614335N00952234EA0000001138
B1355065614276N00952355EA0000001151
B1355125614216N00952279EA0000001153
B1355175614278N00952253EA0000001146
B1355225614312N00952418EA0000001146
B1355285614246N00952609EA0000001167
B1355335614166N00952656EA0000001174
B1355385614136N00952564EA0000001161
B1355445614216N00952517EA0000001160
B1355495614272N00952645EA0000001162
B1355545614270N00952830EA0000001179
B1356005614197N00952977EA0000001199
B1356095614102N00952893EA0000001183
B1356165614176N00952792EA0000001172
B1356215614260N00952843EA0000001170
B1356275614318N00953043EA0000001180
B1356325614297N00953236EA0000001187
B1356375614217N00953358EA0000001196
B1356425614134N00953338EA0000001196
B1356495614110N00953183EA0000001194
B1356545614175N00953141EA0000001191
B1356595614250N00953226EA0000001184
B1357045614290N00953420EA0000001174
B1357095614289N00953644EA0000001194
B1357155614218N00953820EA0000001215
B1357215614138N00953783EA0000001209
B1357265614155N00953675EA0000001211
B1357345614270N00953725EA0000001236
B1357395614309N00953880EA0000001238
B1357445614299N00954070EA0000001237
B1357495614234N00954201EA0000001242
B1357545614153N00954248EA0000001241
B1358005614053N00954262EA0000001234
B1358065613958N00954265EA0000001232
B1358155613816N00954230EA0000001214
B1358205613725N00954201EA0000001203
B1358265613603N00954164EA0000001180
B1358335613453N00954125EA0000001176
B1358405613305N00954129EA0000001176
B1358535613032N00954121EA0000001151
B1358585612926N00954102EA0000001149
B1359095612698N00954026EA0000001136
B1359175612533N00953953EA0000001135
B1359255612362N00953889EA0000001117
B1359305612250N00953854EA0000001109
B1359355612138N00953818EA0000001100
B1359445611940N00953742EA0000001090
B1359495611851N00953690EA0000001124
B1359545611779N00953636EA0000001127
B1400005611683N00953567EA0000001110
B1400075611563N00953479EA0000001111
B1400145611443N00953398EA0000001105
B1400215611316N00953327EA0000001085
B1400265611220N00953280EA0000001073
B1400325611102N00953223EA0000001063
B1400385610981N00953173EA0000001055
B1400445610864N00953107EA0000001046
B1400495610773N00953036EA0000001041
B1400545610687N00952968EA0000001044
B1400595610606N00952901EA0000001037
B1401065610499N00952781EA0000001018
B1401125610412N00952663EA0000001017
B1401215610290N00952486EA0000001006
B1401285610166N00952420EA0000000994
B1401375609994N00952395EA0000000983
B1401425609899N00952381EA0000000971
B1401495609763N00952342EA0000000951
B1401565609636N00952283EA0000000943
B1402015609546N00952241EA0000000952
B1402065609473N00952219EA0000000980
B1402125609389N00952207EA0000000982
B1402205609272N00952211EA0000000995
B1402365609229N00952096EA0000000999
B1402425609274N00952274EA0000001013
B1402505609180N00952337EA0000001024
B1402565609242N00952283EA0000001030
B1403015609277N00952439EA0000001045
B1403065609219N00952557EA0000001055
B1403125609160N00952485EA0000001060
B1403175609220N00952444EA0000001057
B1403225609274N00952577EA0000001072
B1403285609226N00952738EA0000001071
B1403335609163N00952682EA0000001074
B1403385609189N00952583EA0000001080
B1403445609268N00952674EA0000001090
B1403495609232N00952822EA0000001095
B1403545609159N00952807EA0000001107
B1404005609175N00952705EA0000001114
B1404055609247N00952778EA0000001115
B1404105609227N00952945EA0000001121
B1404165609142N00952929EA0000001133
B1404215609171N00952839EA0000001132
B1404265609244N00952923EA0000001138
B1404325609205N00953102EA0000001150
B1404375609138N00953077EA0000001159
B1404435609165N00952975EA0000001160
B1404485609237N00953030EA0000001154
B1404535609236N00953201EA0000001154
B1405015609124N00953221EA0000001170
B1405065609125N00953123EA0000001160
B1405115609194N00953116EA0000001153
B1405165609231N00953267EA0000001139
B1405275609089N00953273EA0000001144
B1405345609035N00953135EA0000001148
B1405395609004N00953037EA0000001156
B1405495608945N00952855EA0000001159
B1405555608908N00952752EA0000001172
B1406025608867N00952634EA0000001173
B1406095608832N00952512EA0000001188
B1406155608802N00952410EA0000001182
B1406225608746N00952300EA0000001197
B1406275608708N00952233EA0000001209
B1406335608662N00952142EA0000001196
B1406405608608N00952021EA0000001208
B1406465608568N00951918EA0000001206
B1406535608518N00951798EA0000001216
B1407005608470N00951682EA0000001224
B1407095608415N00951520EA0000001234
B1407165608374N00951385EA0000001246
B1407225608345N00951265EA0000001244
B1407295608309N00951119EA0000001234
B1407405608215N00950915EA0000001233
B1408055607841N00950575EA0000001183
B1408115607727N00950519EA0000001164
B1408175607606N00950455EA0000001152
B1408225607503N00950402EA0000001149
B1408285607379N00950348EA0000001141
B1408335607271N00950322EA0000001137
B1408385607160N00950311EA0000001129
B1408445607025N00950302EA0000001119
B1408535606818N00950287EA0000001102
B1409015606635N00950269EA0000001093
B1409105606431N00950253EA0000001081
B1409215606192N00950213EA0000001080
B1409265606087N00950195EA0000001077
B1409315605982N00950183EA0000001068
B1409385605828N00950169EA0000001055
B1409555605453N00950109EA0000001042
B1410105605140N00950082EA0000001037
B1410155605035N00950111EA0000001028
B1410225604882N00950180EA0000001010
B1410285604750N00950231EA0000001005
B1410375604559N00950286EA0000001001
B1410425604455N00950304EA0000000997
B1410475604349N00950319EA0000000989
B1410565604156N00950347EA0000000975
B1411085603909N00950315EA0000000973
B1411175603750N00950238EA0000000984
B1411275603612N00950157EA0000000990
B1411335603532N00950109EA0000001003
B1411575603228N00949937EA0000001036
B1412055603141N00949860EA0000001042
B1412125603169N00949754EA0000001046
B1412175603231N00949859EA0000001047
B1412225603203N00950021EA0000001055
B1412275603128N00950061EA0000001060
B1412335603072N00949964EA0000001070
B1412385603045N00949866EA0000001074
B1412435603061N00949767EA0000001063
B1412485603133N00949796EA0000001066
B1412535603150N00949955EA0000001074
B1413025603026N00950050EA0000001079
B1413075603007N00949951EA0000001072
B1413125603062N00949907EA0000001071
B1413175603126N00949993EA0000001071
B1413225603162N00950142EA0000001079
B1413275603186N00950304EA0000001081
B1413365603077N00950412EA0000001094
B1413415603098N00950321EA0000001096
B1413525603075N00950514EA0000001103
B1413575603083N00950416EA0000001118
B1414035603150N00950515EA0000001127
B1414125603044N00950625EA0000001141
B1414185603063N00950513EA0000001141
B1414265603143N00950670EA0000001152
B1414345603039N00950759EA0000001157
B1414405603048N00950644EA0000001158
B1414455603119N00950678EA0000001163
B1414515603126N00950865EA0000001172
B1415025602995N00950847EA0000001186
B1415075603050N00950793EA0000001178
B1415135603111N00950942EA0000001190
B1415295602976N00950984EA0000001195
B1415365603065N00951028EA0000001201
B1415425603057N00951220EA0000001200
B1416085603009N00951370EA0000001202
B1416255602992N00951921EA0000001232
B1416355602861N00951974EA0000001236
B1416425602880N00951850EA0000001241
B1416485602955N00951909EA0000001244
B1416545602950N00952099EA0000001245
B1417015602847N00952146EA0000001239
B1417065602830N00952040EA0000001248
B1417115602882N00951993EA0000001245
B1417165602940N00952096EA0000001249
B1417215602913N00952257EA0000001251
B1417465602483N00952405EA0000001223
B1417545602361N00952633EA0000001216
B1417595602288N00952782EA0000001207
B1418095602144N00953093EA0000001201
B1418155602061N00953281EA0000001193
B1418225601964N00953496EA0000001192
B1418295601869N00953696EA0000001193
B1418405601722N00954003EA0000001184
B1418515601563N00954288EA0000001178
B1418565601477N00954380EA0000001179
B1419045601338N00954493EA0000001170
B1419095601249N00954562EA0000001158
B1419145601152N00954636EA0000001143
B1419235600964N00954772EA0000001123
B1419345600730N00954941EA0000001111
B1419445600518N00955108EA0000001100
B1419495600412N00955188EA0000001097
B1420015600165N00955383EA0000001086
B1421025559098N00956126EA0000001089
B1421085559020N00956098EA0000001099
B1421145558955N00956033EA0000001096
B1421225558915N00955895EA0000001093
B1421275558906N00955811EA0000001081
B1421325558907N00955717EA0000001067
B1421375558914N00955618EA0000001057
B1421515558934N00955353EA0000001052
B1421575558933N00955245EA0000001054
B1422055558934N00955091EA0000001041
B1422145558943N00954932EA0000001034
B1422245558953N00954738EA0000001028
B1422295558979N00954655EA0000001026
B1422345559013N00954578EA0000001024
B1422405559063N00954493EA0000001026
B1422465559121N00954427EA0000001018
B1422515559164N00954358EA0000001007
B1422565559170N00954255EA0000000991
B1423065559080N00954055EA0000000970
B1423125559007N00953954EA0000000962
B1423225558883N00953790EA0000000953
B1423345558741N00953588EA0000000936
B1423415558655N00953469EA0000000929
B1423485558572N00953353EA0000000917
B1423585558443N00953186EA0000000899
B1424045558363N00953092EA0000000913
B1424095558299N00953036EA0000000927
B1424145558236N00952978EA0000000936
B1424235558213N00952808EA0000000940
B1424315558299N00952953EA0000000957
B1424375558225N00953061EA0000000970
B1424425558185N00952981EA0000000964
B1424475558240N00952915EA0000000963
B1424545558295N00953101EA0000000980
B1424595558229N00953208EA0000000990
B1425065558155N00953124EA0000000987
B1425115558205N00953053EA0000000986
B1425165558273N00953150EA0000000992
B1425215558255N00953318EA0000001007
B1425285558151N00953358EA0000001009
B1425345558096N00953246EA0000001007
B1425395558047N00953152EA0000001004
B1425445557987N00953063EA0000001010
B1425505557919N00952982EA0000001016
B1425585557822N00952872EA0000000985
B1426035557753N00952789EA0000000964
B1426085557680N00952695EA0000000966
B1426145557596N00952584EA0000000968
B1426195557526N00952485EA0000000959
B1426255557442N00952357EA0000000949
B1426305557373N00952251EA0000000941
B1426395557254N00952064EA0000000929
B1426475557143N00951898EA0000000903
B1426535557053N00951782EA0000000895
B1427005556949N00951650EA0000000890
B1427095556804N00951504EA0000000892
B1427165556713N00951437EA0000000940
B1427215556655N00951394EA0000000942
B1427285556671N00951273EA0000000952
B1427335556746N00951335EA0000000955
B1427385556756N00951503EA0000000955
B1427445556677N00951618EA0000000960
B1427515556576N00951593EA0000000966
B1427575556530N00951475EA0000000974
B1428045556551N00951333EA0000000971
B1428105556641N00951407EA0000000975
B1428165556626N00951606EA0000000969
B1428215556546N00951629EA0000000964
B1428265556512N00951532EA0000000968
B1428315556506N00951435EA0000000981
B1428405556532N00951267EA0000000983
B1428455556610N00951303EA0000001000
B1428505556616N00951470EA0000001003
B1428555556536N00951510EA0000001002
B1429015556500N00951396EA0000001018
B1429075556511N00951288EA0000001014
B1429145556602N00951387EA0000001006
B1429205556554N00951560EA0000001013
B1429255556482N00951558EA0000001013
B1429315556442N00951455EA0000001002
B1429365556439N00951341EA0000000983
B1429445556453N00951132EA0000000968
B1430275556476N00949986EA0000000892
B1430325556478N00949839EA0000000870
B1430375556483N00949681EA0000000855
B1431185556532N00948503EA0000000853
B1431245556516N00948346EA0000000866
B1431355556483N00948109EA0000000890
B1431465556407N00947948EA0000000902
B1431525556383N00948146EA0000000914
B1432005556492N00948171EA0000000936
B1432125556389N00948126EA0000000949
B1432185556383N00948338EA0000000959
B1432255556484N00948396EA0000000972
B1432375556408N00948251EA0000000982
B1432455556359N00948512EA0000000989
B1432505556428N00948618EA0000001003
B1432575556521N00948572EA0000001007
B1433065556454N00948457EA0000001016
B1433145556410N00948706EA0000001020
B1433225556534N00948764EA0000001026
B1433285556559N00948639EA0000001030
B1433355556550N00948484EA0000001031
B1433425556526N00948324EA0000001017
B1433475556507N00948204EA0000001019
B1433535556501N00948064EA0000001023
B1433585556495N00947947EA0000001017
B1434165556376N00947705EA0000001013
B1434225556383N00947921EA0000001005
B1434275556456N00947946EA0000001017
B1434385556528N00947752EA0000001014
B1434585556573N00947233EA0000000971
B1435115556576N00946899EA0000001006
B1435195556573N00946718EA0000001010
B1435255556561N00946577EA0000001019
B1435345556534N00946362EA0000001019
B1435425556539N00946177EA0000000992
B1435505556565N00945956EA0000000961
B1436015556593N00945628EA0000000956
B1436085556600N00945421EA0000000953
B1436195556599N00945092EA0000000940
B1436245556592N00944944EA0000000919
B1436305556588N00944767EA0000000907
B1436375556589N00944568EA0000000899
B1436435556593N00944391EA0000000881
B1436495556597N00944209EA0000000867
B1436545556603N00944051EA0000000854
B1437015556599N00943828EA0000000848
B1437085556586N00943604EA0000000836
B1437135556574N00943459EA0000000847
B1437185556562N00943318EA0000000832
B1437255556530N00943116EA0000000840
B1437315556508N00942979EA0000000857
B1437365556493N00942873EA0000000849
B1437425556457N00942739EA0000000832
B1437475556419N00942618EA0000000817
B1437525556396N00942482EA0000000801
B1437575556399N00942353EA0000000800
B1438095556450N00942090EA0000000785
B1438245556535N00941767EA0000000775
B1438315556590N00941641EA0000000790
B1438365556637N00941568EA0000000799
B1438485556671N00941381EA0000000828
B1438575556627N00941601EA0000000861
B1439035556697N00941569EA0000000878
B1439105556632N00941466EA0000000886
B1439185556589N00941695EA0000000903
B1439245556672N00941692EA0000000923
B1439315556618N00941572EA0000000933
B1439395556568N00941787EA0000000952
B1439455556652N00941804EA0000000967
B1439545556607N00941637EA0000000981
B1440055556551N00941897EA0000000998
B1440185556571N00941742EA0000001021
B1440275556515N00941959EA0000001029
B1440355556603N00941903EA0000001033
B1440435556611N00941721EA0000001051
B1440525556535N00941609EA0000001039
B1440585556532N00941797EA0000001039
B1441065556644N00941799EA0000001063
B1441175556697N00941587EA0000001051
B1441255556691N00941388EA0000001053
B1441315556689N00941246EA0000001061
B1441395556687N00941063EA0000001070
B1441555556789N00941171EA0000001104
B1442005556713N00941235EA0000001105
B1442095556702N00941090EA0000001119
B1442185556787N00941274EA0000001139
B1442255556689N00941369EA0000001145
B1442355556725N00941243EA0000001161
B1442425556753N00941462EA0000001174
B1442495556648N00941522EA0000001184
B1442565556667N00941401EA0000001191
B1443115556638N00941701EA0000001211
B1443205556666N00941558EA0000001230
B1443365556616N00941860EA0000001260
B1443455556635N00941712EA0000001267
B1443505556703N00941802EA0000001278
B1443585556625N00942009EA0000001276
B1444035556553N00941932EA0000001270
B1444085556521N00941790EA0000001255
B1444145556521N00941596EA0000001245
B1444215556539N00941364EA0000001224
B1444275556556N00941163EA0000001215
B1444335556569N00940961EA0000001206
B1444395556580N00940756EA0000001202
B1444455556590N00940558EA0000001200
B1444505556599N00940400EA0000001195
B1444565556615N00940216EA0000001187
B1445015556628N00940059EA0000001172
B1445105556646N00939774EA0000001166
B1445165556655N00939595EA0000001159
B1445275556671N00939257EA0000001133
B1445325556681N00939098EA0000001125
B1445425556703N00938792EA0000001119
B1445485556714N00938614EA0000001112
B1445555556729N00938415EA0000001111
B1446045556750N00938158EA0000001098
B1446095556766N00938008EA0000001087
B1446145556785N00937856EA0000001084
B1446205556804N00937680EA0000001083
B1446255556820N00937537EA0000001081
B1446315556842N00937365EA0000001071
B1446365556861N00937220EA0000001060
B1446445556886N00936977EA0000001044
B1446585556936N00936567EA0000001045
B1447045556958N00936402EA0000001051
B1447095556974N00936273EA0000001058
B1447175557002N00936087EA0000001072
B1447245557017N00935941EA0000001084
B1447295557028N00935840EA0000001093
B1447365557044N00935707EA0000001088
B1447415557061N00935604EA0000001079
B1447505557109N00935422EA0000001069
B1447565557153N00935313EA0000001067
B1448015557195N00935227EA0000001061
B1448075557251N00935135EA0000001084
B1448135557299N00935059EA0000001089
B1448215557368N00934953EA0000001095
B1448285557428N00934862EA0000001103
B1448355557497N00934791EA0000001100
B1448415557579N00934888EA0000001100
B1448465557561N00935054EA0000001097
B1448515557488N00935073EA0000001099
B1448565557472N00934981EA0000001093
B1449025557519N00934876EA0000001097
B1449095557583N00934785EA0000001095
B1449165557672N00934697EA0000001073
B1449215557746N00934635EA0000001064
B1449265557826N00934571EA0000001047
B1449325557926N00934489EA0000001035
B1449375558011N00934420EA0000001025
B1449425558099N00934355EA0000001017
B1449535558296N00934218EA0000001006
B1449595558403N00934140EA0000000991
B1450045558495N00934068EA0000000978
B1450105558602N00933981EA0000000975
B1450155558690N00933916EA0000000971
B1450215558792N00933849EA0000000972
B1450325558982N00933745EA0000000957
B1450395559109N00933678EA0000000941
B1450445559195N00933636EA0000000970
B1450495559257N00933601EA0000001004
B1450595559250N00933453EA0000001015
B1451075559205N00933669EA0000001023
B1451185559244N00933579EA0000001050
B1451275559155N00933776EA0000001052
B1451335559235N00933887EA0000001070
B1451435559260N00933733EA0000001085
B1451515559158N00933858EA0000001085
B1451565559216N00933982EA0000001097
B1452015559283N00933952EA0000001117
B1452095559278N00933805EA0000001137
B1452145559207N00933835EA0000001136
B1452195559203N00933999EA0000001130
B1452245559276N00934037EA0000001145
B1452325559325N00933903EA0000001162
B1452385559333N00933780EA0000001176
B1452485559334N00933561EA0000001178
B1452535559335N00933444EA0000001182
B1452585559340N00933328EA0000001186
B1453045559351N00933190EA0000001180
B1453125559368N00932990EA0000001168
B1453175559378N00932860EA0000001172
B1453235559386N00932702EA0000001157
B1453305559396N00932517EA0000001139
B1453355559411N00932384EA0000001125
B1453435559451N00932177EA0000001118
B1453485559464N00932051EA0000001113
B1453545559463N00931896EA0000001115
B1453595559455N00931782EA0000001129
B1454045559441N00931682EA0000001131
B1454115559420N00931524EA0000001111
B1454165559405N00931399EA0000001131
B1454215559393N00931297EA0000001147
B1454275559377N00931172EA0000001147
B1454345559352N00931013EA0000001151
B1454395559332N00930901EA0000001158
B1454455559308N00930770EA0000001160
B1454515559288N00930636EA0000001153
B1454575559268N00930487EA0000001144
B1455025559249N00930358EA0000001141
B1455075559233N00930232EA0000001138
B1455135559216N00930093EA0000001133
B1455205559199N00929923EA0000001113
B1455265559185N00929769EA0000001110
B1455335559172N00929595EA0000001104
B1455395559163N00929449EA0000001097
B1455465559160N00929272EA0000001080
B1455515559157N00929145EA0000001083
B1456015559153N00928907EA0000001067
B1456075559148N00928758EA0000001080
B1456125559141N00928651EA0000001090
B1456195559133N00928506EA0000001089
B1456275559128N00928329EA0000001080
B1456335559141N00928192EA0000001077
B1456385559157N00928077EA0000001079
B1456455559185N00927916EA0000001073
B1456525559213N00927762EA0000001097
B1456575559243N00927672EA0000001097
B1457035559323N00927741EA0000001112
B1457095559279N00927910EA0000001116
B1457145559219N00927858EA0000001116
B1457195559250N00927774EA0000001114
B1457255559328N00927885EA0000001117
B1457305559296N00928049EA0000001128
B1457355559220N00928102EA0000001140
B1457415559177N00928013EA0000001136
B1457465559221N00927955EA0000001133
B1457515559278N00928073EA0000001124
B1457575559212N00928230EA0000001140
B1458025559151N00928190EA0000001139
B1458095559158N00928039EA0000001121
B1458145559179N00927927EA0000001111
B1458195559201N00927809EA0000001102
B1458245559223N00927692EA0000001096
B1458325559253N00927497EA0000001078
B1458375559265N00927364EA0000001072
B1458455559273N00927141EA0000001068
B1458575559280N00926875EA0000001100
B1459025559280N00926771EA0000001097
B1459135559293N00926527EA0000001084
B1459185559300N00926411EA0000001074
B1459235559304N00926288EA0000001076
B1459295559301N00926158EA0000001098
B1459375559281N00925998EA0000001102
B1459475559263N00925788EA0000001141
B1459525559256N00925685EA0000001144
B1459585559251N00925559EA0000001152
B1500035559246N00925453EA0000001151
B1500125559240N00925258EA0000001145
B1500195559239N00925096EA0000001135
B1500295559239N00924848EA0000001112
B1500365559246N00924663EA0000001105
B1500415559259N00924530EA0000001097
B1500485559285N00924343EA0000001089
B1500545559311N00924189EA0000001096
B1500595559334N00924068EA0000001103
B1501055559358N00923929EA0000001117
B1501115559378N00923788EA0000001111
B1501175559400N00923635EA0000001114
B1501255559431N00923443EA0000001119
B1501315559453N00923297EA0000001134
B1501365559468N00923184EA0000001140
B1501435559490N00923031EA0000001147
B1501525559526N00922831EA0000001132
B1501585559554N00922685EA0000001121
B1502045559582N00922535EA0000001113
B1502105559612N00922381EA0000001103
B1502155559639N00922249EA0000001096
B1502215559675N00922085EA0000001082
B1502305559729N00921836EA0000001083
B1502365559763N00921671EA0000001084
B1502415559790N00921536EA0000001083
B1502465559815N00921401EA0000001087
B1502555559860N00921158EA0000001081
B1503025559896N00920958EA0000001080
B1503085559928N00920786EA0000001069
B1503135559959N00920638EA0000001062
B1503215600012N00920398EA0000001054
B1503265600045N00920244EA0000001048
B1503345600099N00920004EA0000001050
B1503405600141N00919824EA0000001046
B1503455600176N00919672EA0000001050
B1503505600208N00919521EA0000001044
B1503555600236N00919362EA0000001038
B1504025600260N00919131EA0000001041
B1504075600270N00918964EA0000001039
B1504125600277N00918798EA0000001042
B1504175600285N00918639EA0000001044
B1504235600298N00918448EA0000001041
B1504325600321N00918144EA0000001021
B1504385600330N00917935EA0000001014
B1504435600334N00917758EA0000001015
B1504485600338N00917580EA0000001012
B1504545600343N00917356EA0000001008
B1504595600348N00917168EA0000001007
B1505085600358N00916836EA0000000996
B1505165600360N00916550EA0000000994
B1505215600365N00916377EA0000000987
B1505265600368N00916206EA0000000978
B1505315600370N00916032EA0000000966
B1505365600371N00915857EA0000000958
B1505425600376N00915648EA0000000953
B1505485600381N00915444EA0000000946
B1505545600380N00915236EA0000000938
B1506005600374N00915025EA0000000925
B1506075600372N00914769EA0000000911
B1506145600370N00914510EA0000000898
B1506275600371N00914017EA0000000863
B1506385600370N00913585EA0000000840
B1506445600371N00913347EA0000000834
B1506535600372N00912986EA0000000816
B1507015600372N00912670EA0000000807
B1507075600378N00912431EA0000000793
B1507165600385N00912066EA0000000767
B1507215600388N00911864EA0000000764
B1507265600389N00911668EA0000000755
B1507365600396N00911273EA0000000739
B1507415600400N00911077EA0000000727
B1507505600401N00910720EA0000000708
B1507555600404N00910524EA0000000695
B1508005600406N00910327EA0000000685
B1508065600411N00910093EA0000000669
B1508125600416N00909856EA0000000653
B1508175600421N00909660EA0000000644
B1508225600428N00909463EA0000000631
B1508275600436N00909270EA0000000629
B1508325600442N00909084EA0000000626
B1508395600450N00908819EA0000000610
B1508455600453N00908585EA0000000598
B1508515600457N00908351EA0000000590
B1508595600458N00908037EA0000000577
B1509065600465N00907766EA0000000570
B1509125600476N00907537EA0000000565
B1509185600491N00907319EA0000000572
B1509235600500N00907144EA0000000567
B1509295600509N00906929EA0000000546
B1509375600520N00906628EA0000000530
B1509425600529N00906435EA0000000522
B1509475600540N00906242EA0000000514
B1509545600552N00905968EA0000000490
B1510015600561N00905686EA0000000470
B1510065600566N00905485EA0000000456
B1510115600571N00905284EA0000000444
B1510175600580N00905044EA0000000429
B1510225600590N00904845EA0000000424
B1510275600593N00904653EA0000000419
B1510375600596N00904268EA0000000403
B1510435600605N00904031EA0000000395
B1510515600613N00903707EA0000000368
B1510565600617N00903499EA0000000353
B1511015600630N00903285EA0000000335
B1511065600652N00903075EA0000000335
B1511135600680N00902786EA0000000324
B1511185600669N00902580EA0000000323
B1511265600625N00902303EA0000000352
B1511315600592N00902159EA0000000362
B1511365600555N00902037EA0000000369
B1511425600508N00901902EA0000000365
B1511475600474N00901787EA0000000362
B1511525600447N00901663EA0000000348
B1511595600412N00901477EA0000000342
B1512065600385N00901295EA0000000344
B1512135600364N00901128EA0000000347
B1512225600354N00900905EA0000000346
B1512295600360N00900737EA0000000337
B1512365600374N00900566EA0000000328
B1512445600428N00900386EA0000000318
B1512495600472N00900285EA0000000312
B1512545600523N00900187EA0000000308
B1513015600605N00900077EA0000000301
B1513065600669N00900025EA0000000299
B1513125600750N00859975EA0000000286
B1513205600871N00859933EA0000000276
B1513265600966N00900002EA0000000270
B1513325601029N00900179EA0000000264
B1513375601063N00900344EA0000000261
B1513425601094N00900506EA0000000263
B1513475601123N00900674EA0000000257
B1513525601152N00900847EA0000000251
B1513575601185N00901019EA0000000248
B1514025601211N00901193EA0000000251
B1514075601219N00901369EA0000000250
B1514125601200N00901543EA0000000240
B1514195601161N00901784EA0000000233
B1514245601113N00901940EA0000000232
B1514315601008N00902064EA0000000215
B1514375600902N00902095EA0000000192
B1514425600813N00902073EA0000000185
B1514475600761N00901982EA0000000179
B1514535600741N00901837EA0000000142
B1514585600726N00901704EA0000000119
B1515035600708N00901569EA0000000091
B1515095600691N00901413EA0000000077
B1515145600677N00901290EA0000000060
B1515205600662N00901142EA0000000045
B1515265600653N00901003EA0000000042
B1515325600645N00900869EA0000000039
B1515385600636N00900745EA0000000039
B1515445600628N00900665EA0000000039
