AOGNOGN
HFDTE080825
HFFXA050
HFPLTPILOTINCHARGE:
HFGTYGLIDERTYPE:PA-18 Super Cub
HFGIDGLIDERID:OY-RPY
HFDTM100GPSDATUM:WGS-1984
HFRFWFIRMWAREVERSION:
HFRHWHARDWAREVERSION:
HFFTYFRTYPE:OGN-FLIGHTBOOK
HFGPSGENERIC
HFPRSPRESSALTSENSOR:
HFCIDCOMPETITIONID:PY
B1208305600690N00901423EA0000000037
B1208355600685N00901328EA0000000038
B1208355600685N00901328EA0000000038
B1208405600679N00901209EA0000000043
B1208465600669N00901054EA0000000059
B1208515600653N00900927EA0000000078
B1208565600620N00900814EA0000000094
B1209015600584N00900704EA0000000106
B1209065600557N00900585EA0000000117
B1209115600536N00900463EA0000000132
B1209205600495N00900248EA0000000162
B1209285600454N00900068EA0000000186
B1209375600398N00859866EA0000000207
B1209445600354N00859711EA0000000226
B1209545600286N00859493EA0000000248
B1210015600234N00859346EA0000000274
B1210095600177N00859177EA0000000290
B1210185600108N00858971EA0000000310
B1210285600043N00858732EA0000000336
B1210365600003N00858542EA0000000360
B1210415559981N00858428EA0000000376
B1210475559955N00858290EA0000000393
B1210535559926N00858149EA0000000409
B1211035559862N00857927EA0000000446
B1211085559810N00857841EA0000000460
B1211145559718N00857787EA0000000482
B1211195559632N00857801EA0000000519
B1211265559537N00857937EA0000000560
B1211345559455N00858261EA0000000496
B1211425559491N00858708EA0000000441
B1211475559557N00858970EA0000000402
B1211525559628N00859233EA0000000373
B1212015559750N00859681EA0000000344
B1212075559827N00859962EA0000000329
B1212165559941N00900372EA0000000292
B1212235600030N00900677EA0000000258
B1212285600092N00900896EA0000000229
B1212365600183N00901240EA0000000212
B1212425600249N00901476EA0000000203
B1212475600303N00901657EA0000000191
B1212555600408N00901902EA0000000161
B1213025600525N00901993EA0000000131
B1213075600606N00901986EA0000000105
B1213155600705N00901885EA0000000076
B1213245600756N00901723EA0000000064
B1213325600753N00901580EA0000000051
B1213375600746N00901486EA0000000040
B1213455600741N00901376EA0000000038
