AOGNOGN
HFDTE080825
HFFXA050
HFPLTPILOTINCHARGE:
HFGTYGLIDERTYPE:PA-18 Super Cub
HFGIDGLIDERID:OY-RPY
HFDTM100GPSDATUM:WGS-1984
HFRFWFIRMWAREVERSION:
HFRHWHARDWAREVERSION:
HFFTYFRTYPE:OGN-FLIGHTBOOK
HFGPSGENERIC
HFPRSPRESSALTSENSOR:
HFCIDCOMPETITIONID:PY
B1138475600699N00901075EA0000000039
B1138515600683N00901007EA0000000040
B1138565600656N00900906EA0000000043
B1139035600627N00900735EA0000000056
B1139165600642N00900412EA0000000092
B1139225600702N00900282EA0000000106
B1139295600805N00900193EA0000000125
B1139345600888N00900163EA0000000138
B1139485601126N00900108EA0000000167
B1139555601244N00900064EA0000000183
B1140015601344N00900008EA0000000199
B1140065601429N00859965EA0000000212
B1140135601552N00859912EA0000000224
B1140185601644N00859885EA0000000232
B1140245601755N00859847EA0000000251
B1140345601871N00859639EA0000000299
B1140415601894N00859461EA0000000334
B1140465601897N00859337EA0000000355
B1140555601887N00859108EA0000000384
B1141045601863N00858892EA0000000406
B1141155601811N00858632EA0000000430
B1141245601775N00858416EA0000000451
B1141335601778N00858185EA0000000486
B1141425601822N00857954EA0000000534
B1141555601904N00857684EA0000000553
B1142005602022N00857770EA0000000514
B1142055602087N00857996EA0000000487
B1142125602069N00858369EA0000000461
B1142235601980N00858935EA0000000422
B1142335601871N00859445EA0000000374
B1142385601803N00859684EA0000000352
B1142445601716N00859961EA0000000335
B1142505601641N00900244EA0000000308
B1143045601446N00900855EA0000000216
B1143125601328N00901165EA0000000185
B1143185601239N00901385EA0000000157
B1143235601166N00901563EA0000000138
B1143285601088N00901710EA0000000129
B1143355600973N00901837EA0000000112
B1143425600859N00901894EA0000000089
B1143475600787N00901867EA0000000076
B1143525600751N00901778EA0000000069
B1144005600743N00901605EA0000000055
B1144065600730N00901476EA0000000037
B1144155600718N00901348EA0000000036
