AOGNOGN
HFDTE080825
HFFXA050
HFPLTPILOTINCHARGE:
HFGTYGLIDERTYPE:ASK-21
HFGIDGLIDERID:OY-XPC
HFDTM100GPSDATUM:WGS-1984
HFRFWFIRMWAREVERSION:
HFRHWHARDWAREVERSION:
HFFTYFRTYPE:OGN-FLIGHTBOOK
HFGPSGENERIC
HFPRSPRESSALTSENSOR:
HFCIDCOMPETITIONID:PC
B1741445600724N00901343EA0000000045
B1741495600718N00901224EA0000000094
B1741565600715N00901069EA0000000202
B1742015600713N00900968EA0000000185
B1742065600671N00900881EA0000000186
B1742125600586N00900906EA0000000183
B1742185600503N00901022EA0000000175
B1742245600448N00901200EA0000000166
B1742295600435N00901374EA0000000161
B1742345600467N00901539EA0000000150
B1742395600542N00901648EA0000000145
B1742445600629N00901654EA0000000136
B1742495600686N00901557EA0000000130
B1742565600688N00901379EA0000000101
B1743015600671N00901257EA0000000074
B1743075600645N00901116EA0000000045
B1743155600615N00900956EA0000000041
