AOGNOGN
HFDTE080825
HFFXA050
HFPLTPILOTINCHARGE:
HFGTYGLIDERTYPE:ASK-21
HFGIDGLIDERID:OY-XPC
HFDTM100GPSDATUM:WGS-1984
HFRFWFIRMWAREVERSION:
HFRHWHARDWAREVERSION:
HFFTYFRTYPE:OGN-FLIGHTBOOK
HFGPSGENERIC
HFPRSPRESSALTSENSOR:
HFCIDCOMPETITIONID:PC
B1859155600727N00901312EA0000000043
B1859155600727N00901312EA0000000043
B1859205600717N00901187EA0000000101
B1859265600711N00901067EA0000000202
B1859315600704N00900970EA0000000278
B1859365600695N00900864EA0000000344
B1859415600685N00900756EA0000000399
B1859465600676N00900645EA0000000443
B1859515600669N00900536EA0000000469
B1859585600664N00900389EA0000000476
B1900045600702N00900287EA0000000469
B1900105600783N00900227EA0000000462
B1900155600856N00900190EA0000000458
B1900205600932N00900173EA0000000455
B1900255601015N00900221EA0000000446
B1900335601125N00900439EA0000000438
B1900385601203N00900529EA0000000432
B1900435601265N00900482EA0000000426
B1900485601250N00900392EA0000000421
B1900535601201N00900333EA0000000415
B1901005601125N00900266EA0000000410
B1901055601064N00900249EA0000000409
B1901105601000N00900315EA0000000405
B1901165600979N00900511EA0000000399
B1901215600995N00900685EA0000000391
B1901265601044N00900833EA0000000387
B1901315601121N00900903EA0000000377
B1901365601186N00900864EA0000000368
B1901415601198N00900770EA0000000362
B1901485601167N00900648EA0000000352
B1901535601145N00900559EA0000000346
B1902015601116N00900410EA0000000338
B1902065601101N00900318EA0000000334
B1902115601092N00900221EA0000000328
B1902205601090N00900045EA0000000326
B1902255601098N00859956EA0000000326
B1902305601146N00859900EA0000000319
B1902355601222N00859948EA0000000315
B1902405601270N00900101EA0000000309
B1902465601296N00900308EA0000000305
B1902515601300N00900481EA0000000300
B1902565601250N00900601EA0000000292
B1903015601187N00900589EA0000000285
B1903095601153N00900428EA0000000270
B1903155601139N00900307EA0000000269
B1903205601171N00900227EA0000000270
B1903255601244N00900253EA0000000263
B1903305601287N00900402EA0000000257
B1903355601254N00900543EA0000000252
B1903405601187N00900572EA0000000244
B1903455601123N00900539EA0000000236
B1903505601053N00900563EA0000000233
B1903555601000N00900679EA0000000229
B1904005600990N00900841EA0000000226
B1904055600998N00901014EA0000000213
B1904135601023N00901298EA0000000204
B1904195601043N00901506EA0000000203
B1904275601060N00901786EA0000000195
B1904325601045N00901954EA0000000191
B1904375600993N00902086EA0000000185
B1904455600878N00902184EA0000000179
B1904505600810N00902161EA0000000169
B1904565600781N00902021EA0000000142
B1905045600758N00901824EA0000000100
B1905115600732N00901646EA0000000066
B1905195600702N00901434EA0000000042
B1905265600670N00901275EA0000000037
B1905335600638N00901179EA0000000038
