AOGNOGN
HFDTE080825
HFFXA050
HFPLTPILOTINCHARGE:
HFGTYGLIDERTYPE:DG-300
HFGIDGLIDERID:OY-XRU
HFDTM100GPSDATUM:WGS-1984
HFRFWFIRMWAREVERSION:
HFRHWHARDWAREVERSION:
HFFTYFRTYPE:OGN-FLIGHTBOOK
HFGPSGENERIC
HFPRSPRESSALTSENSOR:
HFCIDCOMPETITIONID:RU
B1211025600695N00901371EA0000000040
B1211025600695N00901371EA0000000040
B1211105600680N00901160EA0000000046
B1211185600655N00900937EA0000000072
B1211235600636N00900806EA0000000093
B1211285600614N00900679EA0000000108
B1211395600536N00900418EA0000000140
B1211445600500N00900311EA0000000165
B1211515600450N00900175EA0000000191
B1211585600395N00900034EA0000000210
B1212085600316N00859834EA0000000243
B1212155600259N00859696EA0000000261
B1212225600202N00859558EA0000000279
B1212275600161N00859458EA0000000294
B1212335600111N00859340EA0000000311
B1212395600058N00859229EA0000000329
B1212465559990N00859102EA0000000347
B1212575559890N00858890EA0000000388
B1213055559820N00858729EA0000000408
B1213135559747N00858559EA0000000439
B1213185559704N00858449EA0000000468
B1213235559660N00858339EA0000000485
B1213285559616N00858233EA0000000518
B1213355559551N00858084EA0000000549
B1213445559484N00857916EA0000000584
B1213535559456N00857770EA0000000609
B1214015559446N00857636EA0000000614
B1214115559469N00857458EA0000000634
B1214165559483N00857374EA0000000644
B1214395559539N00856977EA0000000645
B1215055559599N00856487EA0000000594
B1215185559628N00856197EA0000000579
B1215275559645N00855970EA0000000564
B1215345559654N00855792EA0000000553
B1215395559658N00855668EA0000000550
B1215465559664N00855498EA0000000544
B1215545559656N00855309EA0000000532
B1216025559544N00855318EA0000000526
B1216075559495N00855483EA0000000509
B1216155559446N00855798EA0000000499
B1216235559425N00856123EA0000000493
B1216315559405N00856436EA0000000492
B1216395559387N00856739EA0000000484
B1216475559359N00857043EA0000000480
B1216525559337N00857226EA0000000479
B1216575559312N00857402EA0000000496
B1217025559255N00857509EA0000000505
B1217085559197N00857446EA0000000520
B1217145559248N00857380EA0000000531
B1217195559300N00857478EA0000000541
B1217245559281N00857632EA0000000537
B1217295559205N00857684EA0000000540
B1217355559151N00857589EA0000000567
B1217405559175N00857504EA0000000579
B1217455559239N00857558EA0000000587
B1217505559236N00857718EA0000000592
B1217555559166N00857764EA0000000595
B1218035559181N00857638EA0000000625
B1218085559239N00857712EA0000000625
B1218155559192N00857921EA0000000636
B1218255559085N00857877EA0000000656
B1218305559125N00857814EA0000000666
B1218405559174N00858044EA0000000676
B1218465559083N00858106EA0000000679
B1218525559034N00858003EA0000000689
B1218595559099N00857931EA0000000693
B1219055559162N00858087EA0000000710
B1219105559138N00858242EA0000000725
B1219155559062N00858291EA0000000728
B1219235559027N00858163EA0000000735
B1219295559097N00858139EA0000000738
B1219345559160N00858238EA0000000749
B1219395559203N00858374EA0000000765
B1219445559234N00858505EA0000000775
B1219505559303N00858557EA0000000769
B1219555559323N00858478EA0000000764
B1220015559250N00858442EA0000000767
B1220065559197N00858558EA0000000782
B1220115559216N00858705EA0000000780
B1220175559301N00858756EA0000000772
B1220245559319N00858638EA0000000775
B1220295559255N00858645EA0000000785
B1220345559221N00858784EA0000000791
B1220395559241N00858942EA0000000788
B1220475559294N00859180EA0000000791
B1220525559322N00859337EA0000000804
B1221025559358N00859645EA0000000826
B1221105559372N00859898EA0000000829
B1221165559371N00900090EA0000000839
B1221235559373N00900316EA0000000854
B1221295559431N00900461EA0000000866
B1221345559496N00900452EA0000000877
B1221395559502N00900365EA0000000885
B1221445559445N00900328EA0000000878
B1221505559389N00900476EA0000000891
B1221555559422N00900632EA0000000905
B1222005559491N00900697EA0000000913
B1222075559526N00900586EA0000000920
B1222165559411N00900619EA0000000924
B1222215559414N00900780EA0000000934
B1222275559492N00900884EA0000000942
B1222325559563N00900904EA0000000948
B1222425559532N00900770EA0000000959
B1222505559461N00900951EA0000000966
B1222595559501N00901236EA0000000974
B1223075559550N00901482EA0000000967
B1223155559593N00901745EA0000000954
B1223235559630N00902011EA0000000966
B1223325559660N00902287EA0000000981
B1223395559714N00902478EA0000000985
B1223445559776N00902562EA0000000990
B1223505559852N00902556EA0000000991
B1223555559886N00902484EA0000000999
B1224015559878N00902389EA0000001007
B1224065559835N00902338EA0000001005
B1224135559741N00902419EA0000001003
B1224185559724N00902571EA0000001010
B1224235559767N00902706EA0000001010
B1224295559848N00902772EA0000001017
B1224345559918N00902790EA0000001021
B1224435600039N00902793EA0000001029
B1224495600132N00902783EA0000001010
B1224545600219N00902762EA0000000999
B1225015600347N00902724EA0000000986
B1225065600439N00902700EA0000000979
B1225115600533N00902687EA0000000979
B1225205600699N00902683EA0000000957
B1225275600843N00902671EA0000000946
B1225375601043N00902667EA0000000934
B1225445601185N00902662EA0000000922
B1225515601322N00902665EA0000000915
B1225575601440N00902677EA0000000903
B1226035601560N00902699EA0000000885
B1226085601659N00902711EA0000000880
B1226155601792N00902729EA0000000875
B1226205601892N00902746EA0000000863
B1226265602018N00902774EA0000000869
B1226325602124N00902809EA0000000903
B1226385602223N00902850EA0000000884
B1226465602357N00902900EA0000000879
B1226525602456N00902945EA0000000855
B1226585602569N00902996EA0000000844
B1227035602660N00903039EA0000000840
B1227315603160N00903183EA0000000802
B1227375603265N00903203EA0000000817
B1227455603386N00903178EA0000000829
B1227535603386N00903053EA0000000817
B1228005603321N00902962EA0000000804
B1228075603248N00902865EA0000000797
B1228135603184N00902779EA0000000807
B1228225603124N00902631EA0000000821
B1228275603165N00902567EA0000000838
B1228325603227N00902625EA0000000845
B1228385603234N00902799EA0000000843
B1228435603180N00902900EA0000000844
B1228505603095N00903000EA0000000855
B1228585603016N00902936EA0000000860
B1229035603028N00902852EA0000000871
B1229105603106N00902835EA0000000876
B1229175603170N00902987EA0000000885
B1229225603155N00903126EA0000000891
B1229285603078N00903182EA0000000899
B1229335603042N00903109EA0000000905
B1229385603073N00903042EA0000000913
B1229435603137N00903083EA0000000915
B1229485603157N00903226EA0000000921
B1229535603102N00903324EA0000000928
B1229585603043N00903293EA0000000935
B1230035603051N00903212EA0000000936
B1230085603113N00903217EA0000000941
B1230145603168N00903348EA0000000945
B1230195603135N00903479EA0000000948
B1230245603074N00903460EA0000000953
B1230305603111N00903386EA0000000956
B1230355603169N00903474EA0000000955
B1230425603208N00903681EA0000000961
B1230515603227N00903965EA0000000966
B1230575603271N00904115EA0000000971
B1231035603353N00904106EA0000000964
B1231095603431N00904045EA0000000974
B1231185603542N00903973EA0000000974
B1231265603652N00903899EA0000000960
B1231315603723N00903859EA0000000959
B1231385603822N00903811EA0000000953
B1231505603997N00903729EA0000000950
B1231585604120N00903681EA0000000941
B1232065604245N00903635EA0000000932
B1232135604356N00903598EA0000000928
B1232185604438N00903579EA0000000923
B1232275604588N00903553EA0000000914
B1232375604748N00903540EA0000000912
B1232475604914N00903540EA0000000899
B1232555605051N00903536EA0000000892
B1233015605141N00903483EA0000000889
B1233135605259N00903303EA0000000879
B1233275605356N00903053EA0000000840
B1233545605364N00902453EA0000000799
B1234015605344N00902300EA0000000782
B1234085605298N00902161EA0000000764
B1234195605167N00901962EA0000000713
B1234275605054N00901812EA0000000695
B1234395604887N00901605EA0000000687
B1234445604817N00901516EA0000000681
B1234565604654N00901307EA0000000682
B1235025604580N00901210EA0000000669
B1235085604500N00901123EA0000000662
B1235145604426N00901025EA0000000660
B1235195604367N00900939EA0000000664
B1235315604230N00900813EA0000000694
B1235385604180N00900722EA0000000711
B1235435604212N00900653EA0000000728
B1235485604284N00900696EA0000000733
B1235535604322N00900829EA0000000751
B1235585604299N00900971EA0000000755
B1236035604237N00901046EA0000000761
B1236125604162N00900965EA0000000790
B1236175604147N00900897EA0000000804
B1236225604169N00900834EA0000000808
B1236275604236N00900861EA0000000823
B1236335604270N00901022EA0000000834
B1236385604223N00901141EA0000000840
B1236445604149N00901141EA0000000857
B1236495604143N00901063EA0000000866
B1236565604226N00901064EA0000000888
B1237015604263N00901194EA0000000894
B1237065604233N00901333EA0000000897
B1237115604166N00901375EA0000000906
B1237175604132N00901292EA0000000922
B1237225604175N00901238EA0000000930
B1237305604261N00901393EA0000000952
B1237355604241N00901543EA0000000959
B1237455604146N00901512EA0000000979
B1237505604187N00901454EA0000000996
B1237595604268N00901635EA0000001014
B1238065604203N00901777EA0000001021
B1238115604160N00901728EA0000001033
B1238165604188N00901661EA0000001050
B1238215604249N00901702EA0000001063
B1238285604273N00901901EA0000001072
B1238355604194N00901989EA0000001079
B1238405604165N00901917EA0000001095
B1238465604214N00901862EA0000001114
B1238525604282N00901958EA0000001115
B1238585604275N00902132EA0000001128
B1239035604214N00902188EA0000001133
B1239085604181N00902128EA0000001145
B1239135604217N00902075EA0000001163
B1239205604296N00902172EA0000001165
B1239255604303N00902318EA0000001176
B1239315604240N00902435EA0000001176
B1239365604190N00902399EA0000001192
B1239425604203N00902316EA0000001212
B1239475604261N00902322EA0000001218
B1239545604315N00902494EA0000001225
B1239595604292N00902654EA0000001226
B1240085604259N00902930EA0000001252
B1240135604239N00903076EA0000001258
B1240235604178N00903358EA0000001266
B1240305604134N00903560EA0000001268
B1240385604085N00903807EA0000001272
B1240465604044N00904048EA0000001273
B1240545604002N00904288EA0000001260
B1241015603971N00904524EA0000001236
B1241105603929N00904869EA0000001227
B1241175603897N00905101EA0000001251
B1241285603869N00905449EA0000001254
B1241355603854N00905702EA0000001233
B1241425603850N00905975EA0000001218
B1241535603850N00906446EA0000001180
B1241585603852N00906665EA0000001177
B1242095603851N00907115EA0000001186
B1242195603853N00907538EA0000001156
B1242245603855N00907753EA0000001155
B1242345603853N00908152EA0000001173
B1242415603855N00908418EA0000001177
B1242485603866N00908682EA0000001162
B1242535603898N00908885EA0000001142
B1242585603936N00909093EA0000001133
B1243045603978N00909338EA0000001123
B1243095604011N00909541EA0000001119
B1243145604043N00909741EA0000001115
B1243235604103N00910107EA0000001098
B1243315604153N00910451EA0000001080
B1243365604183N00910673EA0000001072
B1243415604213N00910895EA0000001065
B1243485604250N00911206EA0000001055
B1243565604295N00911555EA0000001042
B1244035604338N00911854EA0000001031
B1244085604366N00912066EA0000001025
B1244135604394N00912276EA0000001018
B1244225604445N00912674EA0000000994
B1244325604492N00913126EA0000000996
B1244385604515N00913384EA0000000997
B1244455604544N00913678EA0000000995
B1244595604584N00914247EA0000000980
B1245345604659N00915673EA0000000967
B1245515604701N00916330EA0000000997
B1246035604739N00916778EA0000000985
B1246335604869N00917896EA0000001014
B1246415604898N00918162EA0000000990
B1246465604913N00918353EA0000000968
B1246585604956N00918822EA0000001001
B1247035604975N00918995EA0000001001
B1247085604995N00919174EA0000000999
B1247225605050N00919664EA0000001025
B1247335605089N00920036EA0000001024
B1247415605117N00920335EA0000001008
B1247535605136N00920814EA0000001023
B1248025605153N00921141EA0000001024
B1248105605175N00921448EA0000001012
B1248185605197N00921778EA0000001007
B1248265605225N00922098EA0000001018
B1248395605272N00922560EA0000001057
B1248565605336N00923116EA0000001071
B1249015605355N00923281EA0000001061
B1249065605373N00923463EA0000001051
B1249125605391N00923696EA0000001036
B1249175605410N00923890EA0000001041
B1249265605440N00924215EA0000001059
B1249375605480N00924602EA0000001047
B1249535605532N00925164EA0000001054
B1249585605553N00925332EA0000001035
B1250035605573N00925516EA0000001019
B1250095605595N00925752EA0000001003
B1250205605636N00926175EA0000001027
B1250345605622N00926599EA0000001066
B1250475605591N00926487EA0000001091
B1250585605653N00926728EA0000001119
B1251125605602N00926663EA0000001150
B1251255605632N00926925EA0000001178
B1251355605586N00926831EA0000001201
B1251485605626N00927080EA0000001230
B1251595605577N00926971EA0000001259
B1252085605674N00927122EA0000001276
B1252145605690N00927320EA0000001292
B1252245605707N00927653EA0000001305
B1252305605726N00927848EA0000001318
B1252355605745N00928015EA0000001317
B1252415605773N00928251EA0000001292
B1252485605811N00928578EA0000001276
B1252555605855N00928935EA0000001256
B1253005605891N00929204EA0000001234
B1253055605928N00929489EA0000001212
B1253125605967N00929904EA0000001186
B1253175605989N00930209EA0000001172
B1256415605547N00938842EA0000001088
B1256465605616N00938961EA0000001105
B1256545605711N00939118EA0000001130
B1257025605804N00939293EA0000001125
B1257295606193N00939986EA0000001092
B1257465606457N00940447EA0000001060
B1257545606585N00940668EA0000001047
B1258055606768N00940968EA0000001024
B1258105606856N00941097EA0000001016
B1258205607032N00941344EA0000000999
B1258265607133N00941482EA0000001021
B1258315607209N00941586EA0000001018
B1259195608059N00942539EA0000000991
B1259325608294N00942857EA0000000981
B1259505608599N00943259EA0000000990
B1300035608792N00943527EA0000001001
B1300085608864N00943634EA0000000997
B1300235609085N00943960EA0000000982
B1300295609169N00944098EA0000000983
B1300345609238N00944217EA0000000979
B1300485609449N00944474EA0000000971
B1300545609518N00944631EA0000000974
B1300595609568N00944772EA0000000964
B1301045609628N00944919EA0000000955
B1301125609720N00945141EA0000000967
B1301205609811N00945369EA0000000949
B1301255609875N00945514EA0000000945
B1301335609978N00945745EA0000000930
B1301455610152N00946099EA0000000908
B1301505610230N00946247EA0000000907
B1301555610302N00946385EA0000000911
B1302045610434N00946625EA0000000904
B1302095610503N00946755EA0000000912
B1302215610672N00947055EA0000000905
B1303005611208N00947969EA0000000888
B1303055611254N00948096EA0000000894
B1303125611193N00948251EA0000000888
B1303205611154N00948134EA0000000896
B1303315611307N00948101EA0000000909
B1303395611435N00948139EA0000000903
B1303445611517N00948163EA0000000904
B1306465614609N00947888EA0000000768
B1306535614565N00947781EA0000000762
B1307035614436N00947927EA0000000766
B1307085614395N00948079EA0000000776
B1307325614398N00948221EA0000000796
B1307375614360N00948357EA0000000813
B1307575614394N00948419EA0000000828
B1308025614362N00948557EA0000000840
B1308125614493N00948704EA0000000841
B1310165616299N00949351EA0000000805
B1310245616249N00949258EA0000000823
B1310375616361N00949394EA0000000814
B1310475616244N00949542EA0000000806
B1310525616186N00949515EA0000000809
B1310575616160N00949452EA0000000809
B1311215616460N00949747EA0000000784
B1311445616526N00949856EA0000000851
B1311495616492N00949997EA0000000857
B1312115616541N00949983EA0000000912
B1312335616554N00950105EA0000000945
B1312385616490N00950181EA0000000943
B1312555616530N00950719EA0000000971
B1313055616619N00950968EA0000000996
B1313265616785N00951556EA0000001022
B1313575616990N00951955EA0000001116
B1314025616925N00951993EA0000001119
B1314265617034N00952278EA0000001190
B1314315616981N00952259EA0000001197
B1314365616930N00952369EA0000001205
B1314545616975N00952425EA0000001249
B1315145617086N00952715EA0000001290
B1315205617065N00952607EA0000001296
B1315265616987N00952687EA0000001297
B1320105621946N00957446EA0000001122
B1320505622689N00957612EA0000001097
B1320575622827N00957629EA0000001089
B1321045622964N00957645EA0000001088
B1321105623079N00957672EA0000001095
B1321235623299N00957638EA0000001110
B1321415623561N00957480EA0000001117
B1321555623776N00957386EA0000001115
B1322055623905N00957264EA0000001114
B1322195624102N00957094EA0000001094
B1322445624500N00956774EA0000001061
B1322495624584N00956706EA0000001052
B1322545624670N00956636EA0000001047
B1323055624853N00956500EA0000001059
B1323145624994N00956407EA0000001039
B1323215625112N00956332EA0000001042
B1323275625203N00956289EA0000001061
B1323555625242N00956519EA0000001095
B1324025625337N00956528EA0000001091
B1324095625448N00956500EA0000001060
B1324145625535N00956471EA0000001047
B1324225625678N00956427EA0000001031
B1324325625864N00956393EA0000001016
B1324375625959N00956381EA0000001010
B1325075626521N00956332EA0000001007
B1325135626619N00956334EA0000001001
B1325205626741N00956339EA0000000987
B1325255626830N00956352EA0000000979
B1325335626968N00956378EA0000000981
B1325525627281N00956473EA0000000973
B1325585627378N00956509EA0000000939
B1328015629398N00957951EA0000000863
B1328095629525N00957974EA0000000853
B1328165629632N00957997EA0000000858
B1328215629705N00958020EA0000000862
B1328485630113N00958129EA0000000839
B1328545630211N00958140EA0000000822
B1329025630345N00958143EA0000000828
B1329505631061N00958418EA0000000832
B1330035630966N00958677EA0000000856
B1330085630940N00958607EA0000000870
B1330215631053N00958622EA0000000882
B1330515631048N00958893EA0000000910
B1331065630944N00959006EA0000000932
B1331135631022N00958989EA0000000942
B1331185631068N00959126EA0000000945
B1331255631016N00959315EA0000000954
B1331415631012N00959214EA0000000972
B1331485631063N00959422EA0000000978
B1331585630968N00959482EA0000000984
B1332035631017N00959445EA0000000993
B1332085631056N00959580EA0000000992
B1332185630948N00959766EA0000001002
B1332305631001N00959696EA0000001005
