AOGNOGN
HFDTE080825
HFFXA050
HFPLTPILOTINCHARGE:
HFGTYGLIDERTYPE:Discus
HFGIDGLIDERID:OY-XZT
HFDTM100GPSDATUM:WGS-1984
HFRFWFIRMWAREVERSION:
HFRHWHARDWAREVERSION:
HFFTYFRTYPE:OGN-FLIGHTBOOK
HFGPSGENERIC
HFPRSPRESSALTSENSOR:
HFCIDCOMPETITIONID:ZT
B1120335600687N00901280EA0000000045
B1120335600687N00901280EA0000000045
B1120385600679N00901167EA0000000046
B1120465600665N00900941EA0000000053
B1120525600652N00900764EA0000000077
B1120585600641N00900597EA0000000101
B1121055600635N00900405EA0000000123
B1121125600666N00900214EA0000000143
B1121185600728N00900083EA0000000165
B1121235600797N00900002EA0000000182
B1121315600931N00859926EA0000000208
B1121375601041N00859900EA0000000227
B1121425601136N00859881EA0000000248
B1121485601251N00859872EA0000000267
B1121545601365N00859873EA0000000286
B1122015601498N00859874EA0000000304
B1122075601614N00859872EA0000000319
B1122125601710N00859863EA0000000331
B1122175601804N00859856EA0000000356
B1122275602001N00859851EA0000000388
B1122335602119N00859862EA0000000409
B1122395602238N00859895EA0000000429
B1122445602339N00859934EA0000000442
B1122495602440N00859975EA0000000458
B1122545602540N00900038EA0000000473
B1123015602674N00900145EA0000000498
B1123075602787N00900240EA0000000520
B1123125602878N00900339EA0000000530
B1123175602965N00900448EA0000000547
B1123255603100N00900650EA0000000568
B1123305603182N00900787EA0000000584
B1123355603259N00900936EA0000000599
B1123435603367N00901203EA0000000604
B1123485603431N00901361EA0000000621
B1123545603518N00901424EA0000000627
B1123595603539N00901328EA0000000619
B1124045603476N00901283EA0000000626
B1124095603404N00901366EA0000000629
B1124145603385N00901541EA0000000623
B1124215603446N00901761EA0000000622
B1124265603523N00901763EA0000000603
B1124315603559N00901654EA0000000596
B1124445603561N00901348EA0000000596
B1124495603557N00901232EA0000000586
B1124555603551N00901092EA0000000585
B1125025603508N00900939EA0000000567
B1125085603436N00900844EA0000000578
B1125135603368N00900798EA0000000578
B1125185603289N00900799EA0000000569
B1125235603218N00900908EA0000000562
B1125285603202N00901086EA0000000559
B1125355603250N00901328EA0000000544
B1125405603323N00901470EA0000000530
B1125455603417N00901582EA0000000510
B1125515603532N00901704EA0000000520
B1125585603656N00901841EA0000000519
B1126045603758N00901970EA0000000523
B1126095603841N00902057EA0000000529
B1126145603917N00902039EA0000000520
B1126195603922N00901929EA0000000512
B1126245603864N00901859EA0000000505
B1126305603764N00901809EA0000000481
B1126365603650N00901763EA0000000475
B1126415603554N00901732EA0000000484
B1126485603432N00901696EA0000000491
B1126535603343N00901672EA0000000483
B1127005603215N00901629EA0000000468
B1127055603126N00901600EA0000000466
B1127105603036N00901575EA0000000453
B1127155602938N00901561EA0000000447
B1127235602789N00901536EA0000000454
B1127285602695N00901526EA0000000446
B1127335602604N00901498EA0000000437
B1127385602522N00901438EA0000000433
B1127465602410N00901294EA0000000417
B1127555602305N00901089EA0000000420
B1128015602240N00900963EA0000000428
B1128065602195N00900862EA0000000422
B1128125602151N00900721EA0000000415
B1128185602115N00900585EA0000000419
B1128265602042N00900418EA0000000385
B1128315601964N00900325EA0000000381
B1128365601898N00900244EA0000000405
B1128425601888N00900119EA0000000398
B1128475601877N00900002EA0000000381
B1128525601824N00859902EA0000000366
B1128595601745N00859771EA0000000374
B1129045601667N00859734EA0000000364
B1129095601600N00859666EA0000000356
B1129155601575N00859522EA0000000348
B1129205601585N00859393EA0000000339
B1129265601606N00859237EA0000000337
B1129315601631N00859119EA0000000335
B1129365601715N00859150EA0000000316
B1129425601725N00859387EA0000000309
B1129475601679N00859571EA0000000297
B1129565601571N00859885EA0000000287
B1130015601512N00900049EA0000000291
B1130075601443N00900229EA0000000286
B1130155601332N00900410EA0000000281
B1130225601234N00900547EA0000000286
B1130285601152N00900661EA0000000285
B1130335601075N00900692EA0000000272
B1130395601010N00900600EA0000000258
B1130445600940N00900642EA0000000234
B1130495600950N00900839EA0000000231
B1130545600976N00901037EA0000000216
B1130595600996N00901242EA0000000207
B1131045601018N00901446EA0000000197
B1131115601034N00901735EA0000000186
B1131205601014N00902093EA0000000184
B1131255600985N00902276EA0000000172
B1131305600923N00902417EA0000000159
B1131355600847N00902377EA0000000146
B1131415600824N00902219EA0000000125
B1131465600812N00902081EA0000000114
B1131515600797N00901945EA0000000100
B1131575600777N00901779EA0000000083
B1132045600758N00901589EA0000000058
B1132095600746N00901456EA0000000040
B1132145600736N00901335EA0000000040
B1132205600730N00901244EA0000000039
