AOGNOGN
HFDTE190725
HFFXA050
HFPLTPILOTINCHARGE:
HFGTYGLIDERTYPE:LS-4
HFGIDGLIDERID:OY-XNE
HFDTM100GPSDATUM:WGS-1984
HFRFWFIRMWAREVERSION:
HFRHWHARDWAREVERSION:
HFFTYFRTYPE:OGN-FLIGHTBOOK
HFGPSGENERIC
HFPRSPRESSALTSENSOR:
HFCIDCOMPETITIONID:NE
B1235205527159N01138271EA0000000039
B1235205527159N01138271EA0000000039
B1235255527158N01138401EA0000000112
B1235305527157N01138522EA0000000194
B1235365527158N01138669EA0000000278
B1235445527157N01138854EA0000000337
B1235515527147N01139001EA0000000325
B1235585527139N01139163EA0000000322
B1236055527129N01139322EA0000000315
B1236105527133N01139438EA0000000312
B1236155527173N01139528EA0000000306
B1236225527267N01139536EA0000000300
B1236285527348N01139486EA0000000287
B1236385527478N01139336EA0000000258
B1236465527567N01139159EA0000000248
B1236555527613N01138907EA0000000237
B1237025527625N01138690EA0000000223
B1237135527566N01138352EA0000000211
B1237185527528N01138207EA0000000207
B1237235527468N01138101EA0000000207
B1237295527381N01138108EA0000000204
B1237345527334N01138201EA0000000193
B1237405527315N01138355EA0000000182
B1237465527356N01138482EA0000000182
B1237515527426N01138477EA0000000179
B1237565527475N01138381EA0000000177
B1238035527482N01138199EA0000000162
B1238125527416N01137958EA0000000142
B1238205527332N01137754EA0000000129
B1238275527238N01137650EA0000000132
B1238325527171N01137659EA0000000131
B1238375527142N01137762EA0000000117
B1238435527146N01137916EA0000000106
B1238535527147N01138164EA0000000052
B1238595527142N01138311EA0000000034
B1239055527138N01138431EA0000000033
B1239105527135N01138482EA0000000034
