AOGNOGN
HFDTE190725
HFFXA050
HFPLTPILOTINCHARGE:
HFGTYGLIDERTYPE:ASK-21
HFGIDGLIDERID:OY-XPL
HFDTM100GPSDATUM:WGS-1984
HFRFWFIRMWAREVERSION:
HFRHWHARDWAREVERSION:
HFFTYFRTYPE:OGN-FLIGHTBOOK
HFGPSGENERIC
HFPRSPRESSALTSENSOR:
HFCIDCOMPETITIONID:PL
B0939325527154N01138259EA0000000034
B0939325527154N01138259EA0000000034
B0939375527160N01138371EA0000000113
B0939435527169N01138499EA0000000228
B0939485527178N01138612EA0000000300
B0939535527187N01138733EA0000000349
B0940005527183N01138918EA0000000388
B0940055527176N01139025EA0000000403
B0940125527156N01139163EA0000000387
B0940185527098N01139234EA0000000383
B0940235527036N01139244EA0000000383
B0940295526959N01139251EA0000000379
B0940345526893N01139263EA0000000366
B0940395526821N01139271EA0000000358
B0940445526759N01139219EA0000000351
B0940545526744N01138964EA0000000328
B0940595526753N01138828EA0000000319
B0941045526757N01138690EA0000000303
B0941095526716N01138582EA0000000290
B0941145526648N01138588EA0000000276
B0941205526626N01138712EA0000000256
B0941255526676N01138786EA0000000246
B0941305526749N01138771EA0000000232
B0941355526805N01138669EA0000000218
B0941425526835N01138467EA0000000204
B0941485526845N01138287EA0000000196
B0941565526849N01138053EA0000000194
B0942025526851N01137878EA0000000196
B0942075526856N01137736EA0000000202
B0942165526908N01137517EA0000000194
B0942215526947N01137397EA0000000191
B0942295527051N01137339EA0000000183
B0942355527125N01137382EA0000000179
B0942405527142N01137488EA0000000174
B0942455527145N01137608EA0000000144
B0942555527148N01137860EA0000000100
B0943155527151N01138349EA0000000033
B0943235527154N01138490EA0000000032
