AOGNOGN
HFDTE190725
HFFXA050
HFPLTPILOTINCHARGE:
HFGTYGLIDERTYPE:ASK-23
HFGIDGLIDERID:OY-XVB
HFDTM100GPSDATUM:WGS-1984
HFRFWFIRMWAREVERSION:
HFRHWHARDWAREVERSION:
HFFTYFRTYPE:OGN-FLIGHTBOOK
HFGPSGENERIC
HFPRSPRESSALTSENSOR:
HFCIDCOMPETITIONID:M4
B1145185527153N01138230EA0000000037
B1145215527153N01138295EA0000000057
B1145285527153N01138437EA0000000186
B1146245526783N01138806EA0000000305
B1146305526729N01138705EA0000000298
B1146365526681N01138594EA0000000293
B1146425526642N01138469EA0000000292
B1146475526616N01138353EA0000000291
B1146525526592N01138235EA0000000298
B1146575526538N01138207EA0000000311
B1147025526532N01138290EA0000000314
B1147075526584N01138303EA0000000324
B1147135526617N01138195EA0000000329
B1147195526571N01138104EA0000000335
B1147245526523N01138151EA0000000340
B1147305526541N01138255EA0000000344
B1147355526600N01138256EA0000000351
B1147405526634N01138165EA0000000353
B1147475526586N01138043EA0000000357
B1147525526530N01138073EA0000000362
B1147575526528N01138173EA0000000363
B1148055526618N01138219EA0000000372
B1148105526643N01138119EA0000000374
B1148155526600N01138039EA0000000378
B1148215526533N01138090EA0000000384
B1148265526524N01138198EA0000000385
B1148315526570N01138271EA0000000391
B1148385526638N01138186EA0000000397
B1148435526610N01138081EA0000000402
B1148495526537N01138073EA0000000410
B1148555526511N01138188EA0000000416
B1149005526554N01138262EA0000000421
B1149055526612N01138229EA0000000425
B1149125526619N01138078EA0000000429
B1149175526562N01138022EA0000000432
B1149225526503N01138072EA0000000441
B1149295526520N01138207EA0000000451
B1149345526580N01138207EA0000000454
B1149395526602N01138105EA0000000454
B1149465526538N01137986EA0000000457
B1149515526472N01138005EA0000000467
B1149565526455N01138108EA0000000473
B1150025526509N01138188EA0000000481
B1150075526567N01138146EA0000000480
B1150125526577N01138031EA0000000485
B1150195526502N01137962EA0000000496
B1150245526451N01138026EA0000000504
B1150295526445N01138130EA0000000511
B1150365526517N01138190EA0000000514
B1150415526566N01138117EA0000000516
B1150465526551N01138009EA0000000519
B1150535526466N01137968EA0000000525
B1150585526430N01138050EA0000000531
B1151045526472N01138144EA0000000536
B1151105526539N01138093EA0000000535
B1151155526536N01137977EA0000000536
B1151205526492N01137885EA0000000543
B1151275526403N01137859EA0000000556
B1151325526391N01137955EA0000000563
B1151375526446N01137994EA0000000569
B1151445526491N01137865EA0000000579
B1151505526461N01137749EA0000000587
B1151555526400N01137734EA0000000586
B1152015526345N01137822EA0000000586
B1152065526352N01137926EA0000000591
B1152115526405N01137978EA0000000598
B1152205526467N01137831EA0000000601
B1152255526422N01137747EA0000000615
B1152305526363N01137766EA0000000622
B1152355526342N01137857EA0000000621
B1152405526373N01137951EA0000000630
B1152455526431N01137976EA0000000634
B1152525526480N01137857EA0000000633
B1152575526449N01137749EA0000000637
B1153025526406N01137660EA0000000644
B1153095526330N01137689EA0000000645
B1153145526342N01137781EA0000000644
B1153195526400N01137781EA0000000648
B1153265526445N01137647EA0000000654
B1153315526424N01137540EA0000000656
B1153365526365N01137527EA0000000662
B1153445526345N01137675EA0000000657
B1153495526395N01137737EA0000000659
B1153555526467N01137717EA0000000667
B1154005526524N01137677EA0000000670
B1154055526547N01137574EA0000000674
B1154105526506N01137474EA0000000676
B1154175526422N01137383EA0000000682
B1154225526371N01137438EA0000000683
B1154275526386N01137538EA0000000688
B1154345526469N01137539EA0000000699
B1154395526487N01137438EA0000000706
B1154445526454N01137349EA0000000711
B1154515526380N01137382EA0000000705
B1154585526392N01137526EA0000000709
B1155035526427N01137618EA0000000711
B1155085526488N01137647EA0000000713
B1155135526551N01137635EA0000000716
B1155185526597N01137557EA0000000714
B1155255526585N01137389EA0000000719
B1155315526564N01137251EA0000000733
B1155365526512N01137202EA0000000741
B1155425526466N01137281EA0000000740
B1155475526495N01137367EA0000000739
B1155525526551N01137345EA0000000748
B1155595526584N01137196EA0000000755
B1156045526540N01137116EA0000000765
B1156095526489N01137158EA0000000771
B1156165526504N01137295EA0000000766
B1156225526576N01137317EA0000000781
B1156275526616N01137240EA0000000791
B1156335526594N01137112EA0000000790
B1156385526534N01137076EA0000000797
B1156435526491N01137143EA0000000801
B1156495526509N01137260EA0000000796
B1156565526593N01137270EA0000000805
B1157015526647N01137217EA0000000809
B1157075526649N01137090EA0000000812
B1157135526579N01137048EA0000000811
B1157185526542N01137122EA0000000816
B1157235526564N01137211EA0000000817
B1157285526622N01137235EA0000000819
B1157335526680N01137228EA0000000824
B1157405526752N01137166EA0000000818
B1157475526809N01137040EA0000000808
B1157575526899N01136833EA0000000796
B1158055526968N01136677EA0000000794
B1158105527026N01136625EA0000000783
B1158175527120N01136667EA0000000763
B1158255527205N01136796EA0000000760
B1158315527256N01136901EA0000000758
B1158375527301N01137007EA0000000758
B1158435527314N01137129EA0000000756
B1158485527293N01137235EA0000000750
B1158555527231N01137367EA0000000738
B1159015527170N01137473EA0000000733
B1159075527103N01137564EA0000000727
B1159155527002N01137652EA0000000723
B1159225526902N01137691EA0000000716
B1159355526713N01137743EA0000000704
B1159415526626N01137754EA0000000703
B1159475526539N01137749EA0000000699
B1159565526413N01137692EA0000000676
B1200015526340N01137651EA0000000660
B1200075526252N01137590EA0000000644
B1200135526164N01137518EA0000000634
B1200195526080N01137441EA0000000631
B1200245526018N01137358EA0000000630
B1200305525945N01137252EA0000000633
B1200365525875N01137132EA0000000629
B1200475525749N01136888EA0000000624
B1200525525700N01136762EA0000000628
B1200585525627N01136687EA0000000633
B1201045525583N01136770EA0000000622
B1201105525601N01136897EA0000000605
B1201155525641N01137002EA0000000591
B1201215525706N01137117EA0000000576
B1201275525772N01137241EA0000000577
B1201325525828N01137342EA0000000581
B1201385525893N01137448EA0000000578
B1201465525977N01137611EA0000000575
B1201525526010N01137765EA0000000569
B1201595526041N01137946EA0000000562
B1202145526047N01138327EA0000000557
B1202195526062N01138449EA0000000554
B1202245526078N01138570EA0000000553
B1202295526091N01138690EA0000000553
B1202365526118N01138850EA0000000552
B1202425526147N01138984EA0000000548
B1202515526193N01139192EA0000000534
B1202575526221N01139335EA0000000525
B1203055526253N01139523EA0000000514
B1203105526272N01139638EA0000000510
B1203195526301N01139862EA0000000509
B1203245526321N01139980EA0000000517
B1203295526375N01140005EA0000000522
B1203365526397N01139858EA0000000520
B1203425526330N01139810EA0000000522
B1203475526299N01139884EA0000000520
B1203565526300N01140036EA0000000506
B1204025526329N01140145EA0000000499
B1204075526355N01140244EA0000000501
B1204135526352N01140365EA0000000516
B1204185526297N01140405EA0000000521
B1204235526256N01140324EA0000000522
B1204285526287N01140234EA0000000516
B1204335526347N01140224EA0000000522
B1204385526379N01140296EA0000000529
B1204445526339N01140389EA0000000528
B1204495526278N01140361EA0000000525
B1204545526260N01140252EA0000000529
B1205025526311N01140105EA0000000547
B1205075526365N01140120EA0000000554
B1205125526376N01140201EA0000000552
B1205185526312N01140232EA0000000558
B1205235526264N01140154EA0000000571
B1205285526272N01140045EA0000000583
B1205355526339N01140050EA0000000590
B1205405526321N01140129EA0000000600
B1205455526262N01140104EA0000000612
B1205525526255N01139953EA0000000623
B1205575526311N01139922EA0000000627
B1206035526351N01140012EA0000000627
B1206095526311N01140120EA0000000637
B1206145526244N01140122EA0000000647
B1206195526201N01140027EA0000000659
B1206265526235N01139871EA0000000658
B1206315526298N01139862EA0000000663
B1206365526339N01139936EA0000000671
B1206445526291N01140056EA0000000686
B1206495526235N01140008EA0000000697
B1206545526232N01139892EA0000000710
B1207005526300N01139839EA0000000722
B1207055526333N01139910EA0000000732
B1207105526304N01139985EA0000000735
B1207175526231N01139923EA0000000746
B1207225526247N01139809EA0000000759
B1207275526306N01139774EA0000000771
B1207345526357N01139858EA0000000773
B1207395526328N01139936EA0000000769
B1207445526271N01139901EA0000000777
B1207515526246N01139737EA0000000794
B1207575526303N01139652EA0000000809
B1208045526348N01139737EA0000000809
B1208095526303N01139783EA0000000805
B1208145526261N01139698EA0000000818
B1208195526275N01139576EA0000000823
B1208265526361N01139534EA0000000823
B1208315526374N01139627EA0000000814
B1208365526316N01139648EA0000000809
B1208445526296N01139452EA0000000815
B1208495526344N01139360EA0000000813
B1208555526406N01139407EA0000000804
B1209005526383N01139490EA0000000795
B1209055526332N01139430EA0000000780
B1209135526327N01139211EA0000000761
B1209215526330N01138978EA0000000749
B1209335526305N01138635EA0000000739
B1209405526288N01138438EA0000000739
B1209495526238N01138199EA0000000740
B1209545526189N01138098EA0000000739
B1209595526128N01138029EA0000000731
B1210085526025N01137867EA0000000719
B1210135525975N01137761EA0000000712
B1210185525942N01137641EA0000000706
B1210235525977N01137555EA0000000699
B1210295526022N01137651EA0000000684
B1210365526046N01137823EA0000000669
B1210415526058N01137946EA0000000669
B1210475526073N01138093EA0000000667
B1210545526092N01138262EA0000000668
B1210595526104N01138374EA0000000666
B1211055526121N01138505EA0000000665
B1211115526115N01138630EA0000000667
B1211165526089N01138728EA0000000663
B1211215526060N01138821EA0000000667
B1211265526030N01138911EA0000000674
B1211315525991N01138991EA0000000684
B1211365525975N01139090EA0000000696
B1211415526019N01139152EA0000000708
B1211485526075N01139049EA0000000724
B1211535526037N01138969EA0000000741
B1211585525989N01139004EA0000000754
B1212055526014N01139119EA0000000767
B1212105526073N01139087EA0000000780
B1212155526083N01138980EA0000000793
B1212225526015N01138956EA0000000811
B1212275526007N01139049EA0000000821
B1212325526056N01139101EA0000000835
B1212405526119N01138971EA0000000852
B1212455526082N01138874EA0000000859
B1212505526023N01138896EA0000000880
B1212565526022N01139014EA0000000901
B1213015526081N01139056EA0000000917
B1213065526136N01138989EA0000000929
B1213165526082N01138825EA0000000951
B1213215526041N01138891EA0000000967
B1213265526069N01138983EA0000000982
B1213315526133N01138984EA0000000995
B1213365526166N01138882EA0000001000
B1213415526139N01138776EA0000001009
B1213475526067N01138777EA0000001022
B1213525526057N01138876EA0000001041
B1213585526122N01138923EA0000001059
B1214045526173N01138819EA0000001066
B1214095526156N01138702EA0000001073
B1214155526088N01138665EA0000001086
B1214215526057N01138756EA0000001108
B1214265526095N01138816EA0000001121
B1214315526152N01138786EA0000001131
B1214385526167N01138640EA0000001144
B1214455526098N01138603EA0000001149
B1214505526071N01138681EA0000001163
B1214555526105N01138746EA0000001176
B1215005526169N01138720EA0000001182
B1215055526204N01138618EA0000001194
B1215125526159N01138492EA0000001194
B1215185526090N01138512EA0000001206
B1215235526088N01138599EA0000001221
B1215295526156N01138611EA0000001235
B1215345526189N01138509EA0000001244
B1215395526169N01138401EA0000001246
B1215465526089N01138351EA0000001256
B1215515526054N01138423EA0000001272
B1215565526080N01138505EA0000001286
B1216025526150N01138483EA0000001301
B1216085526172N01138340EA0000001311
B1216155526104N01138289EA0000001332
B1216215526104N01138384EA0000001345
B1216265526158N01138398EA0000001358
B1216315526203N01138317EA0000001365
B1216365526199N01138198EA0000001360
B1216415526150N01138125EA0000001370
B1216465526099N01138155EA0000001381
B1216535526110N01138280EA0000001400
B1216585526169N01138285EA0000001415
B1217035526203N01138184EA0000001427
B1217115526145N01138051EA0000001435
B1217165526110N01138112EA0000001451
B1217215526128N01138190EA0000001464
B1217285526205N01138178EA0000001479
B1217345526230N01138044EA0000001479
B1217395526192N01137955EA0000001487
B1217465526137N01137998EA0000001493
B1217515526152N01138101EA0000001490
B1218015526216N01138334EA0000001497
B1218075526266N01138485EA0000001491
B1218135526314N01138639EA0000001484
B1218185526354N01138761EA0000001464
B1218285526436N01138994EA0000001453
B1218355526503N01139141EA0000001440
B1218405526571N01139216EA0000001428
B1218465526670N01139242EA0000001413
B1218555526845N01139227EA0000001385
B1219065527051N01139217EA0000001380
B1219165527232N01139164EA0000001359
B1219285527425N01138963EA0000001332
B1219405527568N01138653EA0000001319
B1219465527636N01138510EA0000001311
B1219515527688N01138386EA0000001302
B1219565527703N01138232EA0000001294
B1220015527682N01138079EA0000001285
B1220125527588N01137767EA0000001273
B1220175527532N01137646EA0000001269
B1220235527443N01137539EA0000001251
B1220285527356N01137455EA0000001231
B1220355527232N01137328EA0000001232
B1220415527129N01137243EA0000001232
B1220485527011N01137228EA0000001225
B1220535526930N01137227EA0000001218
B1221015526808N01137228EA0000001207
B1221115526659N01137221EA0000001186
B1221255526448N01137175EA0000001158
B1221315526358N01137174EA0000001154
B1221435526180N01137212EA0000001143
B1221495526080N01137204EA0000001144
B1221545526003N01137161EA0000001173
B1221595525938N01137174EA0000001195
B1222055525920N01137290EA0000001208
B1222105525965N01137369EA0000001216
B1222165526044N01137349EA0000001230
B1222225526067N01137205EA0000001232
B1222275526019N01137123EA0000001244
B1222325525969N01137155EA0000001261
B1222375525974N01137240EA0000001267
B1222425526037N01137263EA0000001275
B1222495526097N01137123EA0000001283
B1222555526053N01136994EA0000001284
B1223015525979N01137032EA0000001301
B1223065525959N01137134EA0000001311
B1223125526011N01137233EA0000001323
B1223175526075N01137210EA0000001337
B1223235526098N01137075EA0000001337
B1223285526053N01136979EA0000001340
B1223335525993N01136998EA0000001340
B1223405525957N01137123EA0000001362
B1223465525996N01137220EA0000001360
B1223515526066N01137198EA0000001364
B1223585526085N01137027EA0000001376
B1224035526025N01136977EA0000001380
B1224085525990N01137056EA0000001381
B1224145526038N01137171EA0000001384
B1224205526120N01137157EA0000001401
B1224325526093N01136926EA0000001410
B1224375526041N01136961EA0000001413
B1224425526039N01137052EA0000001413
B1224485526083N01137153EA0000001418
B1224535526146N01137151EA0000001418
B1224585526179N01137045EA0000001408
B1225055526113N01136959EA0000001408
B1225115526075N01137056EA0000001412
B1225225526073N01137283EA0000001412
B1225285526082N01137414EA0000001404
B1225395526061N01137668EA0000001378
B1225465526052N01137839EA0000001377
B1225515526043N01137959EA0000001376
B1225575526038N01138102EA0000001384
B1226045526043N01138263EA0000001389
B1226095526051N01138376EA0000001382
B1226165526064N01138555EA0000001367
B1226215526055N01138689EA0000001359
B1226275526045N01138853EA0000001344
B1226375526028N01139102EA0000001340
B1226425526018N01139212EA0000001333
B1226525526012N01139450EA0000001311
B1226575525989N01139565EA0000001309
B1227075525969N01139809EA0000001301
B1227135525964N01139966EA0000001302
B1227185525965N01140084EA0000001322
B1227235526005N01140166EA0000001336
B1227285526071N01140156EA0000001343
B1227335526107N01140059EA0000001346
B1227435526013N01139973EA0000001349
B1227485525979N01140057EA0000001358
B1227555526013N01140182EA0000001375
B1228015526091N01140147EA0000001382
B1228065526111N01140024EA0000001381
B1228125526057N01139930EA0000001382
B1228175525996N01139954EA0000001387
B1228225525954N01140028EA0000001395
B1228295525988N01140145EA0000001404
B1228345526052N01140112EA0000001410
B1228395526072N01139996EA0000001418
B1228505525971N01139932EA0000001428
B1228555525981N01140033EA0000001427
B1229515526381N01140215EA0000001447
B1229595526497N01140322EA0000001450
B1230095526626N01140455EA0000001450
B1230145526676N01140546EA0000001446
B1230315526861N01140810EA0000001454
B1230365526924N01140855EA0000001460
B1230425526996N01140783EA0000001462
B1230475527006N01140657EA0000001458
B1230525526957N01140581EA0000001456
B1230585526907N01140637EA0000001456
B1231035526927N01140722EA0000001461
B1231105527019N01140736EA0000001465
B1231155527081N01140762EA0000001463
B1231205527102N01140845EA0000001463
B1231265527075N01140946EA0000001455
B1231325527032N01141028EA0000001454
B1231375526975N01141044EA0000001453
B1231445526896N01140923EA0000001457
B1231495526851N01140796EA0000001455
B1231555526797N01140627EA0000001456
B1232005526747N01140487EA0000001454
B1232065526678N01140319EA0000001445
B1232115526624N01140172EA0000001443
B1232195526542N01139936EA0000001434
B1232245526489N01139789EA0000001431
B1232295526438N01139643EA0000001423
B1232355526388N01139460EA0000001424
B1232405526345N01139316EA0000001436
B1232475526289N01139128EA0000001434
B1232575526205N01138839EA0000001430
B1233035526162N01138681EA0000001434
B1233085526119N01138555EA0000001428
B1233145526067N01138399EA0000001427
B1233215526009N01138221EA0000001428
B1233275525963N01138081EA0000001432
B1233345525920N01137904EA0000001427
B1233455525904N01137581EA0000001404
B1233505525895N01137430EA0000001393
B1233575525899N01137217EA0000001386
B1234065525910N01136951EA0000001385
B1234145525916N01136725EA0000001376
B1234225525929N01136498EA0000001395
B1234275525913N01136384EA0000001410
B1234325525866N01136389EA0000001415
B1234395525895N01136499EA0000001417
B1234445525961N01136478EA0000001425
B1234495525983N01136358EA0000001433
B1234565525917N01136282EA0000001440
B1235035525907N01136409EA0000001448
B1235155526012N01136273EA0000001463
B1235205525963N01136209EA0000001466
B1235255525927N01136279EA0000001468
B1235305525963N01136364EA0000001473
B1235365526038N01136317EA0000001476
B1235425526047N01136166EA0000001477
B1235475525988N01136122EA0000001482
B1235525525954N01136204EA0000001488
B1236045526075N01136198EA0000001493
B1236095526075N01136069EA0000001497
B1236145526020N01136018EA0000001496
B1236215525986N01136146EA0000001502
B1236265526039N01136205EA0000001511
B1236315526103N01136156EA0000001511
B1236395526105N01135961EA0000001507
B1236445526046N01135948EA0000001509
B1236495526030N01136040EA0000001517
B1236555526094N01136107EA0000001519
B1237005526164N01136100EA0000001525
B1237055526200N01136005EA0000001521
B1237125526143N01135917EA0000001513
B1237185526131N01136023EA0000001510
B1237235526193N01136040EA0000001513
B1237295526274N01135984EA0000001487
B1237355526377N01135949EA0000001459
B1237425526503N01135941EA0000001459
B1237475526579N01135996EA0000001457
B1237545526630N01136164EA0000001450
B1238025526640N01136375EA0000001446
B1238075526648N01136501EA0000001439
B1238135526650N01136651EA0000001427
B1238195526630N01136795EA0000001422
B1238255526609N01136939EA0000001420
B1238325526589N01137114EA0000001417
B1238385526579N01137266EA0000001412
B1238435526571N01137397EA0000001410
B1238485526562N01137528EA0000001407
B1238585526546N01137787EA0000001396
B1239045526542N01137939EA0000001397
B1239105526530N01138082EA0000001389
B1239155526520N01138205EA0000001383
B1239205526511N01138332EA0000001376
B1239295526530N01138569EA0000001360
B1239385526575N01138799EA0000001355
B1239445526595N01138950EA0000001347
B1240025526647N01139387EA0000001312
B1240095526669N01139552EA0000001302
B1240155526687N01139705EA0000001297
B1240205526700N01139832EA0000001309
B1240275526713N01139986EA0000001321
B1240325526749N01140060EA0000001332
B1240375526801N01140009EA0000001331
B1240435526780N01139874EA0000001332
B1240495526709N01139883EA0000001337
B1240545526708N01139973EA0000001342
B1240595526769N01139986EA0000001338
B1241065526804N01139823EA0000001342
B1241115526751N01139749EA0000001348
B1241175526699N01139811EA0000001353
B1241225526729N01139890EA0000001353
B1241285526802N01139843EA0000001355
B1241345526791N01139703EA0000001358
B1241445526702N01139771EA0000001363
B1241495526743N01139843EA0000001362
B1241545526807N01139793EA0000001366
B1242015526785N01139640EA0000001372
B1242065526728N01139659EA0000001371
B1242115526727N01139753EA0000001376
B1242175526801N01139764EA0000001377
B1242225526841N01139658EA0000001374
B1242275526811N01139548EA0000001377
B1242345526734N01139588EA0000001381
B1242395526747N01139676EA0000001385
B1242455526822N01139692EA0000001385
B1242565526812N01139489EA0000001383
B1243035526758N01139572EA0000001389
B1243085526753N01139662EA0000001393
B1243135526793N01139725EA0000001391
B1243185526858N01139685EA0000001388
B1243275526836N01139489EA0000001390
B1243325526778N01139507EA0000001387
B1243425526803N01139688EA0000001396
B1243495526887N01139740EA0000001392
B1243595527028N01139771EA0000001386
B1244095527176N01139763EA0000001382
B1244165527283N01139769EA0000001372
B1244245527409N01139766EA0000001365
B1244355527577N01139730EA0000001355
B1244555527858N01139690EA0000001363
B1245005527920N01139661EA0000001366
B1245065527967N01139551EA0000001371
B1245115527953N01139440EA0000001372
B1245165527898N01139407EA0000001377
B1245255527876N01139545EA0000001384
B1245305527934N01139560EA0000001381
B1245355527974N01139471EA0000001384
B1245415527938N01139349EA0000001383
B1245465527872N01139315EA0000001387
B1245515527831N01139381EA0000001396
B1245595527899N01139459EA0000001407
B1246045527942N01139373EA0000001405
B1246095527913N01139262EA0000001400
B1246145527844N01139248EA0000001408
B1246205527815N01139354EA0000001424
B1246255527859N01139414EA0000001427
B1246315527912N01139323EA0000001434
B1246365527886N01139212EA0000001435
B1246455527797N01139270EA0000001450
B1246505527831N01139340EA0000001457
B1246555527886N01139296EA0000001463
B1247005527888N01139181EA0000001466
B1247055527830N01139120EA0000001471
B1247105527783N01139175EA0000001480
B1247185527824N01139308EA0000001479
B1247235527888N01139304EA0000001480
B1247285527928N01139208EA0000001476
B1247335527908N01139084EA0000001477
B1247405527823N01139016EA0000001481
B1247455527789N01139098EA0000001493
B1247535527864N01139162EA0000001495
B1247585527900N01139066EA0000001497
B1248045527854N01138934EA0000001490
B1248095527783N01138912EA0000001502
B1248155527733N01138997EA0000001510
B1248225527775N01139118EA0000001496
B1248275527839N01139105EA0000001506
B1248325527869N01139014EA0000001514
B1248375527844N01138899EA0000001510
B1248425527778N01138839EA0000001516
B1248495527714N01138931EA0000001530
B1248555527749N01139027EA0000001519
B1249005527810N01138994EA0000001512
B1249055527818N01138878EA0000001517
B1249105527758N01138818EA0000001514
B1249185527688N01138933EA0000001529
B1249235527676N01139049EA0000001505
B1249325527645N01139302EA0000001474
B1249385527627N01139478EA0000001469
B1249455527617N01139676EA0000001461
B1249505527619N01139819EA0000001457
B1249555527615N01139955EA0000001457
B1250025527591N01140133EA0000001453
B1250075527574N01140261EA0000001449
B1250125527562N01140393EA0000001439
B1250195527552N01140587EA0000001431
B1250245527545N01140717EA0000001424
B1250295527537N01140849EA0000001416
B1250405527499N01141139EA0000001416
B1250465527483N01141288EA0000001406
B1250515527469N01141420EA0000001402
B1250575527453N01141583EA0000001398
B1251035527438N01141749EA0000001409
B1251085527454N01141858EA0000001425
B1251135527510N01141852EA0000001426
B1251195527523N01141725EA0000001422
B1251245527469N01141666EA0000001429
B1251305527406N01141733EA0000001433
B1251365527407N01141854EA0000001439
B1251415527460N01141887EA0000001447
B1251465527501N01141814EA0000001450
B1251535527451N01141708EA0000001456
B1251585527402N01141769EA0000001458
B1252035527411N01141866EA0000001466
B1252105527485N01141838EA0000001475
B1252155527477N01141728EA0000001477
B1252205527415N01141698EA0000001483
B1252275527382N01141813EA0000001496
B1252325527435N01141846EA0000001503
B1252375527476N01141770EA0000001518
B1252445527430N01141655EA0000001528
B1252505527377N01141719EA0000001533
B1252555527406N01141794EA0000001537
B1253015527480N01141731EA0000001517
B1253095527503N01141433EA0000001513
B1253145527502N01141248EA0000001515
B1253205527494N01141023EA0000001501
B1253275527487N01140750EA0000001485
B1253365527466N01140395EA0000001473
B1253415527455N01140203EA0000001466
B1253465527444N01140016EA0000001456
B1253525527368N01139837EA0000001435
B1254005527230N01139642EA0000001418
B1254095527080N01139415EA0000001407
B1254145527002N01139289EA0000001396
B1254205526911N01139130EA0000001373
B1254275526804N01138944EA0000001373
B1254355526695N01138737EA0000001358
B1254435526597N01138487EA0000001344
B1254485526549N01138337EA0000001370
B1254535526521N01138236EA0000001400
B1255015526466N01138091EA0000001361
B1255085526424N01137908EA0000001351
B1255135526413N01137772EA0000001348
B1255215526401N01137533EA0000001336
B1255265526406N01137384EA0000001350
B1255345526422N01137175EA0000001354
B1255395526431N01137047EA0000001348
B1255545526430N01136651EA0000001342
B1256025526426N01136426EA0000001323
B1256085526421N01136251EA0000001315
B1256135526426N01136102EA0000001312
B1256185526488N01136023EA0000001307
B1256255526533N01136173EA0000001293
B1256315526504N01136341EA0000001274
B1256385526434N01136505EA0000001269
B1256435526380N01136609EA0000001272
B1256495526325N01136715EA0000001279
B1256565526264N01136816EA0000001289
B1257025526221N01136902EA0000001294
B1257075526226N01136992EA0000001302
B1257125526280N01137016EA0000001307
B1257175526314N01136921EA0000001308
B1257225526282N01136828EA0000001311
B1257275526229N01136847EA0000001316
B1257325526225N01136937EA0000001320
B1257375526281N01136974EA0000001326
B1257425526326N01136884EA0000001331
B1257495526270N01136763EA0000001333
B1257545526228N01136823EA0000001342
B1257595526252N01136907EA0000001349
B1258075526333N01136824EA0000001362
B1258135526295N01136709EA0000001363
B1258185526243N01136739EA0000001367
B1258235526241N01136833EA0000001371
B1258345526345N01136782EA0000001389
B1258405526304N01136676EA0000001396
B1258455526261N01136717EA0000001393
B1258535526271N01136875EA0000001399
B1258585526289N01136970EA0000001413
B1259045526357N01136959EA0000001422
B1259095526369N01136842EA0000001426
B1259155526306N01136782EA0000001425
B1259205526277N01136861EA0000001428
B1259285526347N01136950EA0000001444
B1259345526389N01136830EA0000001451
B1259395526345N01136743EA0000001453
B1259455526287N01136795EA0000001455
B1259505526265N01136890EA0000001462
B1259565526312N01136983EA0000001472
B1300015526370N01136923EA0000001469
B1300065526358N01136801EA0000001475
B1300115526303N01136794EA0000001483
B1300165526290N01136888EA0000001489
B1300225526352N01136929EA0000001493
B1300275526381N01136820EA0000001492
B1300325526334N01136753EA0000001500
B1300395526278N01136837EA0000001507
B1300445526308N01136913EA0000001512
B1300515526367N01136814EA0000001512
B1300565526326N01136721EA0000001511
B1301015526272N01136748EA0000001518
B1301085526317N01136833EA0000001530
B1301135526365N01136759EA0000001529
B1301185526349N01136646EA0000001529
B1301235526296N01136649EA0000001537
B1301315526347N01136746EA0000001541
B1301375526391N01136631EA0000001539
B1301425526347N01136544EA0000001546
B1301475526300N01136589EA0000001549
B1301535526335N01136685EA0000001554
B1302045526368N01136482EA0000001555
B1302095526307N01136496EA0000001560
B1302145526292N01136597EA0000001566
B1302215526325N01136770EA0000001552
B1302265526355N01136914EA0000001549
B1302355526413N01137188EA0000001533
B1302405526434N01137346EA0000001529
B1302465526458N01137532EA0000001525
B1302525526494N01137711EA0000001521
B1302585526546N01137882EA0000001511
B1303065526593N01138139EA0000001484
B1303125526635N01138337EA0000001471
B1303175526674N01138487EA0000001466
B1303265526775N01138712EA0000001454
B1303315526833N01138825EA0000001450
B1303405526940N01139033EA0000001426
B1303515527085N01139285EA0000001431
B1303595527182N01139473EA0000001416
B1304075527329N01139612EA0000001391
B1304125527423N01139688EA0000001394
B1304195527541N01139782EA0000001413
B1304295527688N01139869EA0000001426
B1304365527783N01139913EA0000001432
B1304425527857N01139953EA0000001440
B1304475527915N01139919EA0000001444
B1304535527922N01139780EA0000001450
B1304585527869N01139732EA0000001457
B1305035527830N01139790EA0000001457
B1305125527938N01139824EA0000001444
B1305175527995N01139894EA0000001456
B1305225528002N01140007EA0000001468
B1305275527951N01140063EA0000001483
B1305325527899N01139988EA0000001491
B1305415527950N01139787EA0000001508
B1305465528012N01139805EA0000001527
B1305515528002N01139888EA0000001537
B1305565527946N01139855EA0000001547
B1306025527959N01139708EA0000001555
B1306075528015N01139577EA0000001535
B1306135528029N01139352EA0000001535
B1306185528014N01139162EA0000001538
B1306235527984N01138979EA0000001542
B1306295527947N01138765EA0000001547
B1306355527904N01138560EA0000001540
B1306415527854N01138361EA0000001530
B1306475527796N01138174EA0000001520
B1306525527737N01138034EA0000001515
B1306585527649N01137902EA0000001511
B1307155527366N01137708EA0000001492
B1307335527056N01137532EA0000001468
B1307435526884N01137458EA0000001463
B1307485526802N01137429EA0000001458
B1307545526699N01137394EA0000001448
B1308015526589N01137332EA0000001454
B1308075526503N01137293EA0000001453
B1308145526406N01137249EA0000001447
B1308215526309N01137218EA0000001443
B1308295526210N01137146EA0000001452
B1308345526152N01137104EA0000001459
B1308395526106N01137158EA0000001460
B1308445526124N01137253EA0000001470
B1308515526208N01137213EA0000001476
B1308565526213N01137088EA0000001481
B1309015526159N01137035EA0000001486
B1309085526116N01137134EA0000001491
B1309145526181N01137180EA0000001501
B1309195526231N01137091EA0000001495
B1309255526202N01136949EA0000001502
B1309305526142N01136948EA0000001504
B1309355526125N01137049EA0000001502
B1309425526202N01137119EA0000001512
B1309475526247N01137015EA0000001513
B1309535526206N01136884EA0000001515
B1309595526133N01136914EA0000001518
B1310045526125N01137018EA0000001522
B1310095526139N01137118EA0000001529
B1310165526217N01137142EA0000001521
B1310215526262N01137032EA0000001519
B1310295526320N01136837EA0000001519
B1310365526357N01136663EA0000001523
B1310415526330N01136555EA0000001523
B1310465526272N01136552EA0000001518
B1310515526255N01136651EA0000001520
B1310565526235N01136740EA0000001523
B1311035526163N01136810EA0000001520
B1311085526106N01136858EA0000001514
B1311135526044N01136917EA0000001515
B1311195525974N01136993EA0000001523
B1311265525895N01137083EA0000001536
B1311315525870N01137171EA0000001546
B1311365525909N01137229EA0000001545
B1311415525954N01137158EA0000001539
B1311475525924N01137029EA0000001544
B1311525525866N01136974EA0000001551
B1311575525824N01137040EA0000001551
B1312025525859N01137128EA0000001542
B1312075525923N01137093EA0000001546
B1312145525898N01136952EA0000001558
B1312195525851N01136997EA0000001559
B1312275525857N01137170EA0000001552
B1312345525864N01137344EA0000001529
B1312435525880N01137580EA0000001506
B1312495525880N01137742EA0000001485
B1312545525875N01137874EA0000001484
B1312595525876N01137995EA0000001479
B1313045525902N01138107EA0000001473
B1313095525928N01138214EA0000001482
B1313175525945N01138395EA0000001483
B1313225525948N01138514EA0000001476
B1313355525938N01138809EA0000001459
B1313425525921N01138984EA0000001434
B1313505525902N01139199EA0000001429
B1313585525909N01139396EA0000001406
B1314035525904N01139522EA0000001398
B1314095525899N01139666EA0000001391
B1314145525912N01139788EA0000001372
B1314205525932N01139934EA0000001356
B1314255525941N01140057EA0000001347
B1314305525947N01140182EA0000001337
B1314365525956N01140313EA0000001347
B1314415526007N01140363EA0000001332
B1315335526215N01140921EA0000001278
B1315395526291N01140958EA0000001281
B1315485526383N01141061EA0000001263
B1315545526438N01141176EA0000001258
B1316025526512N01141327EA0000001257
B1316085526569N01141434EA0000001260
B1316165526651N01141583EA0000001254
B1316225526719N01141695EA0000001263
B1316275526770N01141769EA0000001261
B1316335526838N01141855EA0000001250
B1316455526996N01141986EA0000001245
B1316515527080N01142019EA0000001241
B1316565527152N01142045EA0000001244
B1317025527236N01142055EA0000001257
B1317075527271N01141962EA0000001263
B1317135527223N01141894EA0000001262
B1317185527202N01141978EA0000001267
B1317235527254N01142020EA0000001275
B1317305527285N01141890EA0000001277
B1317355527235N01141876EA0000001275
B1317405527232N01141973EA0000001280
B1317475527315N01141968EA0000001284
B1317525527341N01141854EA0000001283
B1317575527294N01141782EA0000001287
B1318045527266N01141903EA0000001287
B1318095527321N01141967EA0000001303
B1318145527376N01141913EA0000001302
B1318215527354N01141760EA0000001302
B1318265527292N01141760EA0000001305
B1318315527283N01141858EA0000001311
B1318385527366N01141868EA0000001314
B1318435527381N01141756EA0000001315
B1318485527333N01141697EA0000001316
B1318555527293N01141815EA0000001315
B1319005527325N01141908EA0000001320
B1319055527389N01141877EA0000001322
B1319125527379N01141732EA0000001326
B1319195527317N01141792EA0000001332
B1319245527350N01141881EA0000001334
B1319295527413N01141842EA0000001334
B1319345527407N01141731EA0000001338
B1319395527354N01141725EA0000001344
B1319465527370N01141850EA0000001345
B1319515527433N01141823EA0000001344
B1319565527441N01141706EA0000001339
B1320025527381N01141607EA0000001336
B1320075527319N01141584EA0000001344
B1320135527292N01141681EA0000001347
B1320195527362N01141727EA0000001347
B1320245527407N01141645EA0000001348
B1320295527407N01141532EA0000001346
B1320365527334N01141500EA0000001345
B1320425527283N01141587EA0000001346
B1320485527292N01141701EA0000001348
B1320535527320N01141796EA0000001353
B1320585527346N01141883EA0000001368
B1321035527403N01141891EA0000001380
B1321105527411N01141748EA0000001392
B1321155527356N01141730EA0000001395
B1321205527344N01141815EA0000001406
B1321275527418N01141884EA0000001424
B1321325527470N01141812EA0000001441
B1321375527449N01141718EA0000001449
B1321485527427N01141845EA0000001477
B1321535527482N01141814EA0000001493
B1321585527488N01141712EA0000001498
B1322045527425N01141690EA0000001501
B1322115527420N01141831EA0000001518
B1322185527506N01141868EA0000001545
B1322235527520N01141757EA0000001559
B1322285527464N01141721EA0000001575
B1322365527475N01141882EA0000001558
B1322415527579N01141936EA0000001554
B1322465527683N01141870EA0000001565
B1322525527741N01141659EA0000001558
B1323055527741N01141142EA0000001575
B1323115527736N01140908EA0000001562
B1323165527734N01140707EA0000001553
B1323285527748N01140214EA0000001529
B1323375527737N01139859EA0000001541
B1323435527727N01139642EA0000001541
B1323505527734N01139378EA0000001525
B1324015527757N01138964EA0000001519
B1324175527770N01138372EA0000001482
B1324315527758N01137804EA0000001447
B1324445527708N01137305EA0000001449
B1324575527635N01136828EA0000001480
B1325085527581N01136485EA0000001514
B1325175527537N01136208EA0000001507
B1325255527493N01135956EA0000001503
B1325305527469N01135803EA0000001496
B1325355527445N01135657EA0000001498
B1325425527412N01135460EA0000001493
B1325475527409N01135304EA0000001489
B1325535527464N01135153EA0000001488
B1325595527545N01135102EA0000001480
B1326045527589N01135176EA0000001470
B1326105527548N01135274EA0000001453
B1326165527474N01135339EA0000001446
B1326215527443N01135423EA0000001448
B1326265527496N01135471EA0000001434
B1326335527607N01135392EA0000001417
B1326405527723N01135366EA0000001405
B1326465527814N01135384EA0000001410
B1326535527908N01135409EA0000001416
B1326585527966N01135455EA0000001417
B1327075528013N01135636EA0000001428
B1327125528007N01135751EA0000001424
B1327185527964N01135871EA0000001422
B1327245527876N01135883EA0000001422
B1327315527814N01135748EA0000001446
B1327365527836N01135642EA0000001452
B1327415527891N01135635EA0000001463
B1327465527916N01135720EA0000001465
B1327525527881N01135833EA0000001465
B1327585527807N01135823EA0000001482
B1328035527783N01135717EA0000001489
B1328085527814N01135626EA0000001499
B1328145527864N01135689EA0000001501
B1328205527880N01135822EA0000001504
B1328275527917N01135979EA0000001496
B1328345527965N01136148EA0000001496
B1328395527990N01136277EA0000001492
B1328495528045N01136539EA0000001518
B1328555528088N01136703EA0000001523
B1329025528144N01136901EA0000001534
B1329075528181N01137043EA0000001542
B1329125528198N01137194EA0000001546
B1329225528179N01137503EA0000001540
B1329295528157N01137728EA0000001528
B1329345528139N01137886EA0000001521
B1329395528123N01138039EA0000001522
B1329455528112N01138222EA0000001509
B1329515528101N01138417EA0000001492
B1329565528091N01138585EA0000001483
B1330055528080N01138886EA0000001473
B1330175528051N01139278EA0000001465
B1330255528033N01139543EA0000001455
B1330305528022N01139714EA0000001453
B1330365528012N01139914EA0000001457
B1330475527997N01140255EA0000001462
B1330555527984N01140502EA0000001461
B1331045527968N01140786EA0000001460
B1331095527957N01140949EA0000001466
B1331155527943N01141125EA0000001480
B1331225527927N01141327EA0000001483
B1331275527918N01141474EA0000001491
B1331325527913N01141626EA0000001499
B1331385527912N01141814EA0000001505
B1331485527908N01142129EA0000001503
B1331575527903N01142409EA0000001495
B1332025527866N01142542EA0000001495
B1332075527795N01142613EA0000001501
B1332125527709N01142603EA0000001501
B1332175527647N01142505EA0000001524
B1332235527629N01142341EA0000001517
B1332295527652N01142147EA0000001503
B1332355527678N01141940EA0000001496
B1332425527719N01141692EA0000001488
B1332495527816N01141505EA0000001491
B1332575527941N01141314EA0000001500
B1333025528018N01141195EA0000001513
B1333075528089N01141079EA0000001531
B1333125528143N01140989EA0000001563
B1333195528227N01140852EA0000001528
B1333255528278N01140637EA0000001515
B1333305528301N01140442EA0000001529
B1333365528313N01140250EA0000001577
B1333445528309N01140029EA0000001540
B1333505528296N01139840EA0000001503
B1333575528284N01139606EA0000001471
B1334115528245N01139164EA0000001415
B1334205528208N01138885EA0000001412
B1334275528167N01138694EA0000001402
B1334345528108N01138524EA0000001395
B1334405528064N01138373EA0000001400
B1334455528095N01138237EA0000001389
B1334505528184N01138207EA0000001382
B1334555528247N01138310EA0000001393
B1335015528242N01138478EA0000001403
B1335065528225N01138620EA0000001407
B1335125528197N01138769EA0000001404
B1335185528156N01138901EA0000001397
B1335265528110N01139091EA0000001402
B1335315528083N01139227EA0000001396
B1335415527979N01139482EA0000001397
B1335465527903N01139581EA0000001399
B1335525527814N01139552EA0000001432
B1335595527832N01139330EA0000001411
B1336045527875N01139148EA0000001401
B1336095527950N01139000EA0000001407
B1336185528099N01138768EA0000001410
B1336265528255N01138654EA0000001428
B1336345528412N01138669EA0000001430
B1336395528487N01138755EA0000001433
B1336445528515N01138891EA0000001430
B1336525528495N01139133EA0000001407
B1337025528460N01139466EA0000001400
B1337075528440N01139634EA0000001412
B1337135528408N01139825EA0000001426
B1337195528372N01140000EA0000001440
B1337275528320N01140222EA0000001464
B1337345528264N01140390EA0000001486
B1337425528190N01140572EA0000001478
B1337515528096N01140773EA0000001481
B1337575528021N01140884EA0000001489
B1338085527872N01141038EA0000001496
B1338135527798N01141097EA0000001484
B1338195527691N01141150EA0000001462
B1338255527566N01141148EA0000001452
B1338345527372N01141071EA0000001443
B1338425527208N01140950EA0000001434
B1338475527123N01140814EA0000001422
B1338535527029N01140616EA0000001395
B1338595526929N01140404EA0000001372
B1339045526862N01140220EA0000001380
B1339105526799N01139994EA0000001360
B1339165526746N01139748EA0000001336
B1339215526722N01139534EA0000001324
B1339265526701N01139315EA0000001313
B1339365526698N01138913EA0000001309
B1339415526709N01138704EA0000001299
B1339465526729N01138494EA0000001283
B1339515526752N01138284EA0000001291
B1339575526776N01138109EA0000001328
B1340035526797N01137939EA0000001308
B1340085526825N01137785EA0000001301
B1340135526884N01137663EA0000001305
B1340185526962N01137604EA0000001311
B1340235527040N01137615EA0000001313
B1340285527095N01137697EA0000001314
B1340335527100N01137812EA0000001315
B1340455526977N01138021EA0000001292
B1340525526933N01138204EA0000001280
B1340585526895N01138360EA0000001273
B1341055526832N01138555EA0000001252
B1341145526762N01138823EA0000001250
B1341205526739N01139008EA0000001247
B1341255526752N01139154EA0000001253
B1341315526825N01139253EA0000001259
B1341365526904N01139276EA0000001250
B1341435527019N01139300EA0000001244
B1341485527100N01139311EA0000001241
B1342025527341N01139374EA0000001218
B1342105527480N01139413EA0000001210
B1342165527585N01139424EA0000001205
B1342225527675N01139336EA0000001212
B1342285527731N01139174EA0000001212
B1342335527779N01139037EA0000001212
B1343245527396N01137484EA0000001105
B1343325527224N01137398EA0000001088
B1343395527071N01137377EA0000001086
B1343445526972N01137400EA0000001089
B1343495526889N01137486EA0000001084
B1343585526804N01137740EA0000001074
B1344075526753N01138026EA0000001054
B1344135526710N01138224EA0000001038
B1344215526649N01138485EA0000001036
B1344275526610N01138677EA0000001029
B1344325526620N01138839EA0000001031
B1344425526737N01139085EA0000001028
B1344505526859N01139231EA0000001026
B1344555526930N01139344EA0000001019
B1345005526955N01139493EA0000001019
B1345055526905N01139605EA0000001020
B1345105526827N01139630EA0000001013
B1345155526755N01139562EA0000001002
B1346115527099N01137760EA0000000920
B1346165527205N01137744EA0000000913
B1346215527300N01137808EA0000000915
B1346265527351N01137942EA0000000916
B1346335527377N01138162EA0000000909
B1346425527414N01138437EA0000000903
B1346495527453N01138650EA0000000892
B1346555527471N01138836EA0000000896
B1347015527459N01139012EA0000000893
B1347085527431N01139224EA0000000872
B1347175527361N01139482EA0000000866
B1347235527294N01139629EA0000000857
B1347285527235N01139733EA0000000862
B1347355527131N01139798EA0000000852
B1347405527057N01139767EA0000000855
B1347495526951N01139585EA0000000826
B1347565526884N01139400EA0000000818
B1348025526853N01139221EA0000000814
B1348085526840N01139039EA0000000810
B1348135526850N01138883EA0000000799
B1348195526884N01138684EA0000000778
B1348255526929N01138475EA0000000767
B1348325526993N01138241EA0000000765
B1348405527077N01137998EA0000000764
B1348455527119N01137846EA0000000759
B1348505527107N01137697EA0000000765
B1348575527011N01137635EA0000000769
B1349025526958N01137715EA0000000768
B1349075526991N01137825EA0000000757
B1349145527104N01137909EA0000000734
B1349195527197N01137962EA0000000725
B1349285527365N01138068EA0000000713
B1349375527527N01138193EA0000000710
B1349445527652N01138288EA0000000696
B1349555527855N01138412EA0000000685
B1350025527970N01138477EA0000000685
B1350095528074N01138557EA0000000682
B1350145528146N01138610EA0000000680
B1350195528195N01138705EA0000000671
B1350245528182N01138828EA0000000657
B1350295528118N01138900EA0000000643
B1350395527963N01139011EA0000000632
B1350445527885N01139087EA0000000614
B1350495527824N01139212EA0000000604
B1350585527716N01139448EA0000000586
B1351035527650N01139573EA0000000578
B1351085527574N01139690EA0000000572
B1351135527496N01139774EA0000000578
B1351195527398N01139821EA0000000569
B1351245527315N01139856EA0000000559
B1351315527197N01139891EA0000000555
B1351365527122N01139864EA0000000558
B1351435527037N01139781EA0000000562
B1351495526970N01139682EA0000000557
B1351565526904N01139522EA0000000542
B1352045526844N01139303EA0000000531
B1352095526822N01139167EA0000000541
B1352145526811N01139036EA0000000545
B1352215526806N01138866EA0000000565
B1352265526813N01138750EA0000000569
B1352345526836N01138568EA0000000563
B1352415526865N01138405EA0000000553
B1352555526908N01138068EA0000000550
B1353005526851N01138018EA0000000546
B1353055526788N01138095EA0000000549
B1353125526757N01138298EA0000000557
B1353175526739N01138442EA0000000551
B1353225526723N01138580EA0000000552
B1353305526714N01138784EA0000000547
B1353375526718N01138961EA0000000541
B1353465526727N01139177EA0000000542
B1353525526731N01139313EA0000000535
B1354025526741N01139557EA0000000515
B1354085526770N01139707EA0000000508
B1354165526827N01139906EA0000000505
B1354215526856N01140037EA0000000501
B1354265526889N01140162EA0000000508
B1354315526953N01140198EA0000000510
B1354365527003N01140132EA0000000503
B1354415527007N01140028EA0000000499
B1354475526948N01139973EA0000000501
B1354535526880N01140027EA0000000496
B1354585526860N01140146EA0000000491
B1355035526895N01140248EA0000000497
B1355105526983N01140279EA0000000494
B1355155527034N01140226EA0000000488
B1355215527035N01140107EA0000000481
B1355275527003N01139999EA0000000481
B1355325526968N01139921EA0000000472
B1355375526925N01139844EA0000000468
B1355445526865N01139737EA0000000466
B1355505526812N01139644EA0000000462
B1355575526763N01139518EA0000000455
B1356035526741N01139393EA0000000448
B1356095526709N01139273EA0000000444
B1356165526654N01139153EA0000000441
B1356235526602N01139026EA0000000426
B1356315526515N01138925EA0000000419
B1356365526458N01138946EA0000000418
B1356415526433N01139047EA0000000408
B1356465526463N01139148EA0000000403
B1356535526542N01139132EA0000000394
B1356585526565N01139041EA0000000384
B1357065526580N01138880EA0000000369
B1357125526592N01138752EA0000000360
B1357175526604N01138645EA0000000348
B1357225526620N01138532EA0000000344
B1357275526645N01138421EA0000000348
B1357325526697N01138360EA0000000362
B1357385526756N01138443EA0000000362
B1357445526723N01138567EA0000000361
B1357495526661N01138552EA0000000366
B1357545526652N01138459EA0000000375
B1358015526728N01138438EA0000000384
B1358075526752N01138567EA0000000378
B1358125526712N01138665EA0000000381
B1358185526640N01138657EA0000000385
B1358235526616N01138568EA0000000382
B1358285526643N01138477EA0000000385
B1358355526726N01138497EA0000000394
B1358405526744N01138613EA0000000397
B1358455526700N01138691EA0000000397
B1358525526634N01138608EA0000000401
B1358575526662N01138527EA0000000407
B1359025526721N01138538EA0000000413
B1359095526739N01138691EA0000000412
B1359145526690N01138765EA0000000419
B1359195526637N01138734EA0000000426
B1359265526661N01138625EA0000000427
B1359315526720N01138650EA0000000432
B1359365526746N01138760EA0000000435
B1359435526687N01138867EA0000000442
B1359485526642N01138807EA0000000446
B1359535526661N01138720EA0000000450
B1400015526755N01138744EA0000000452
B1400075526776N01138876EA0000000453
B1400125526728N01138953EA0000000450
B1400175526670N01138912EA0000000450
B1400225526661N01138808EA0000000454
B1400275526707N01138732EA0000000453
B1400345526794N01138781EA0000000458
B1400395526807N01138898EA0000000457
B1400445526757N01138947EA0000000463
B1400515526723N01138835EA0000000467
B1400565526769N01138772EA0000000466
B1401015526819N01138830EA0000000467
B1401085526755N01138923EA0000000452
B1401135526698N01138870EA0000000447
B1401185526694N01138760EA0000000450
B1401255526778N01138697EA0000000450
B1401305526822N01138800EA0000000452
B1401355526799N01138920EA0000000453
B1401435526698N01138960EA0000000448
B1401485526646N01138906EA0000000450
B1401535526622N01138802EA0000000445
B1401595526600N01138663EA0000000453
B1402045526620N01138577EA0000000465
B1402095526678N01138583EA0000000468
B1402165526698N01138732EA0000000474
B1402215526649N01138774EA0000000476
B1402265526637N01138698EA0000000476
B1402325526684N01138622EA0000000487
B1402405526759N01138538EA0000000487
B1402455526822N01138560EA0000000486
B1402505526854N01138664EA0000000484
B1402555526822N01138753EA0000000478
B1403015526752N01138732EA0000000477
B1403065526711N01138663EA0000000483
B1403115526704N01138570EA0000000483
B1403165526717N01138474EA0000000489
B1403245526810N01138504EA0000000482
B1403305526832N01138646EA0000000481
B1403365526784N01138764EA0000000473
B1403445526692N01138883EA0000000480
B1403495526622N01138894EA0000000476
B1403545526574N01138816EA0000000474
B1403595526587N01138702EA0000000463
B1404045526642N01138614EA0000000457
B1404095526714N01138613EA0000000465
B1404145526771N01138698EA0000000468
B1404195526800N01138829EA0000000466
B1404245526776N01138961EA0000000463
B1404315526684N01139021EA0000000472
B1404365526637N01138950EA0000000477
B1404415526635N01138843EA0000000470
B1404485526703N01138724EA0000000460
B1404535526779N01138743EA0000000470
B1404585526825N01138847EA0000000471
B1405055526807N01139027EA0000000469
B1405105526752N01139074EA0000000479
B1405155526716N01139010EA0000000482
B1405225526768N01138919EA0000000489
B1405275526828N01138973EA0000000490
B1405325526835N01139097EA0000000492
B1405395526759N01139162EA0000000490
B1405445526712N01139105EA0000000494
B1405495526718N01139004EA0000000499
B1405565526794N01138946EA0000000513
B1406015526847N01139025EA0000000506
B1406065526837N01139149EA0000000511
B1406135526757N01139189EA0000000504
B1406185526694N01139141EA0000000499
B1406235526659N01139031EA0000000495
B1406305526698N01138853EA0000000490
B1406355526763N01138760EA0000000492
B1406405526835N01138774EA0000000511
B1406475526871N01138939EA0000000497
B1406545526888N01139141EA0000000483
B1407045526878N01139436EA0000000481
B1407095526836N01139536EA0000000480
B1407145526768N01139577EA0000000470
B1407225526656N01139530EA0000000469
B1407275526603N01139448EA0000000468
B1407325526575N01139333EA0000000463
B1407395526598N01139156EA0000000459
B1407465526658N01138997EA0000000456
B1407515526697N01138889EA0000000463
B1407565526719N01138775EA0000000460
B1408045526691N01138594EA0000000461
B1408125526606N01138486EA0000000459
B1408185526527N01138467EA0000000450
B1408235526475N01138528EA0000000451
B1408295526469N01138657EA0000000449
B1408395526472N01138911EA0000000433
B1408465526475N01139112EA0000000433
B1408525526441N01139275EA0000000424
B1408585526421N01139443EA0000000420
B1409045526415N01139606EA0000000421
B1409095526428N01139739EA0000000418
B1409155526453N01139894EA0000000414
B1409215526477N01140059EA0000000391
B1409285526492N01140277EA0000000373
B1409365526507N01140517EA0000000376
B1409415526516N01140673EA0000000366
B1409475526545N01140851EA0000000382
B1409535526613N01140945EA0000000393
B1409585526672N01140912EA0000000395
B1410035526683N01140819EA0000000398
B1410105526615N01140791EA0000000405
B1410155526579N01140885EA0000000404
B1410205526582N01141007EA0000000409
B1410275526665N01141060EA0000000410
B1410325526704N01140990EA0000000409
B1410375526685N01140910EA0000000410
B1410445526619N01140977EA0000000415
B1410495526624N01141088EA0000000420
B1410545526681N01141115EA0000000420
B1411025526723N01140993EA0000000414
B1411085526722N01140860EA0000000402
B1411145526736N01140709EA0000000396
B1411205526759N01140547EA0000000385
B1411255526773N01140411EA0000000383
B1411325526781N01140220EA0000000384
B1411395526784N01140022EA0000000372
B1411455526780N01139845EA0000000366
B1411525526778N01139647EA0000000357
B1412025526779N01139364EA0000000349
B1412095526770N01139193EA0000000353
B1412155526758N01139034EA0000000336
B1412205526763N01138894EA0000000340
B1412265526769N01138739EA0000000346
B1412345526773N01138541EA0000000355
B1412395526741N01138444EA0000000366
B1412445526685N01138475EA0000000378
B1412495526682N01138588EA0000000382
B1412545526733N01138647EA0000000384
B1413005526783N01138580EA0000000387
B1413055526761N01138501EA0000000392
B1413105526705N01138523EA0000000395
B1413175526702N01138680EA0000000398
B1413225526762N01138719EA0000000402
B1413275526804N01138650EA0000000401
B1413355526747N01138534EA0000000405
B1413405526711N01138628EA0000000415
B1413455526760N01138702EA0000000422
B1413515526814N01138629EA0000000427
B1413565526783N01138554EA0000000433
B1414015526726N01138595EA0000000444
B1414085526733N01138742EA0000000450
B1414135526797N01138754EA0000000450
B1414185526815N01138661EA0000000457
B1414255526737N01138654EA0000000462
B1414305526727N01138779EA0000000470
B1414355526782N01138844EA0000000480
B1414425526834N01138743EA0000000481
B1414475526790N01138677EA0000000487
B1414525526733N01138736EA0000000499
B1414595526769N01138888EA0000000500
B1415045526839N01138871EA0000000505
B1415095526853N01138773EA0000000513
B1415165526780N01138759EA0000000526
B1415215526761N01138876EA0000000533
B1415265526807N01138965EA0000000535
B1415325526860N01138886EA0000000533
B1415375526835N01138792EA0000000542
B1415425526773N01138806EA0000000546
B1415495526769N01138963EA0000000562
B1415545526830N01138972EA0000000560
B1415595526858N01138882EA0000000562
B1416065526799N01138822EA0000000573
B1416125526775N01138942EA0000000581
B1416175526822N01139025EA0000000578
B1416235526882N01138968EA0000000581
B1416285526865N01138883EA0000000585
B1416335526811N01138885EA0000000594
B1416405526790N01139017EA0000000602
B1416455526845N01139056EA0000000599
B1416505526884N01138985EA0000000601
B1416575526849N01138895EA0000000616
B1417025526803N01138944EA0000000618
B1417075526803N01139055EA0000000616
B1417145526885N01139096EA0000000617
B1417205526931N01139009EA0000000617
B1417255526928N01138913EA0000000617
B1417315526860N01138906EA0000000625
B1417365526847N01139016EA0000000634
B1417415526897N01139076EA0000000639
B1417485526938N01138983EA0000000636
B1417535526894N01138930EA0000000638
B1417585526846N01138992EA0000000640
B1418055526888N01139130EA0000000642
B1418105526939N01139088EA0000000643
B1418155526916N01139016EA0000000647
B1418225526857N01139101EA0000000654
B1418275526852N01139215EA0000000649
B1418335526874N01139364EA0000000646
B1418395526897N01139519EA0000000636
B1418465526938N01139693EA0000000639
B1418535526974N01139861EA0000000637
B1418585527003N01139985EA0000000629
B1419055527039N01140181EA0000000618
B1419105527068N01140322EA0000000614
B1419155527104N01140459EA0000000599
B1419215527155N01140633EA0000000599
B1419305527219N01140888EA0000000600
B1419375527183N01141065EA0000000594
B1419435527134N01141208EA0000000595
B1419515527072N01141406EA0000000607
B1419565527062N01141544EA0000000620
B1420015527095N01141659EA0000000634
B1420065527158N01141692EA0000000642
B1420115527197N01141621EA0000000651
B1420165527176N01141544EA0000000655
B1420215527120N01141554EA0000000657
B1420275527098N01141683EA0000000666
B1420325527149N01141752EA0000000677
B1420385527205N01141683EA0000000678
B1420435527182N01141593EA0000000682
B1420485527121N01141614EA0000000688
B1420555527109N01141776EA0000000704
B1421015527180N01141846EA0000000710
B1421065527248N01141805EA0000000704
B1421125527285N01141671EA0000000708
B1421175527244N01141587EA0000000717
B1421225527178N01141610EA0000000718
B1421295527134N01141766EA0000000734
B1421345527180N01141858EA0000000744
B1421395527247N01141831EA0000000740
B1421465527251N01141682EA0000000752
B1421515527191N01141652EA0000000761
B1421565527133N01141692EA0000000772
B1422025527115N01141828EA0000000778
B1422075527165N01141906EA0000000774
B1422135527244N01141865EA0000000781
B1422195527284N01141749EA0000000789
B1422245527262N01141656EA0000000800
B1422295527206N01141649EA0000000810
B1422365527191N01141780EA0000000823
B1422415527253N01141802EA0000000833
B1422465527303N01141737EA0000000838
B1422535527279N01141603EA0000000851
B1422585527224N01141641EA0000000854
B1423035527224N01141760EA0000000864
B1423105527316N01141802EA0000000872
B1423155527355N01141703EA0000000880
B1423205527330N01141597EA0000000885
B1423275527243N01141624EA0000000894
B1423325527231N01141741EA0000000912
B1423375527274N01141831EA0000000922
B1423445527361N01141803EA0000000936
B1423495527388N01141704EA0000000939
B1423545527367N01141601EA0000000944
B1424015527285N01141571EA0000000961
B1424075527268N01141693EA0000000971
B1424135527337N01141766EA0000000981
B1424185527397N01141711EA0000000985
B1424235527408N01141593EA0000000988
B1424285527364N01141498EA0000000987
B1424355527274N01141526EA0000001006
B1424415527265N01141655EA0000001017
B1424465527324N01141714EA0000001028
B1424525527393N01141640EA0000001020
B1424575527419N01141486EA0000000994
B1425035527433N01141261EA0000000977
B1425095527452N01141022EA0000000973
B1425145527460N01140831EA0000000975
B1425195527468N01140640EA0000000965
B1425265527485N01140375EA0000000973
B1425315527492N01140187EA0000000956
B1425365527501N01139991EA0000000930
B1425435527507N01139703EA0000000922
B1425495527513N01139456EA0000000903
B1426005527517N01139008EA0000000884
B1426065527525N01138769EA0000000865
B1426125527528N01138518EA0000000843
B1426175527521N01138317EA0000000843
B1426225527517N01138128EA0000000834
B1426275527511N01137935EA0000000813
B1426345527460N01137690EA0000000821
B1426395527412N01137550EA0000000824
B1426445527350N01137588EA0000000829
B1426515527426N01137644EA0000000823
B1426565527426N01137514EA0000000802
B1427015527351N01137544EA0000000779
B1427085527422N01137747EA0000000765
B1427145527504N01137908EA0000000755
B1427205527567N01138073EA0000000761
B1427265527535N01138202EA0000000748
B1427315527509N01138077EA0000000731
B1427365527585N01138091EA0000000720
B1427425527519N01138166EA0000000702
B1427515527393N01137986EA0000000696
B1427595527281N01137827EA0000000683
B1428045527201N01137744EA0000000676
B1428095527127N01137798EA0000000663
B1428175527078N01138052EA0000000652
B1428245527034N01138253EA0000000667
B1428295527011N01138366EA0000000666
B1428345526990N01138484EA0000000658
B1428425526917N01138660EA0000000631
B1428495526874N01138832EA0000000640
B1428545526892N01138949EA0000000639
B1429005526910N01139102EA0000000635
B1429065526849N01139144EA0000000608
B1429115526863N01139020EA0000000599
B1429165526923N01139080EA0000000592
B1429265526919N01139366EA0000000590
B1429315526872N01139420EA0000000583
B1429375526861N01139293EA0000000557
B1429465526875N01139077EA0000000555
B1429575526872N01138830EA0000000544
B1430045526865N01138669EA0000000535
B1430145526868N01138442EA0000000522
B1430195526873N01138332EA0000000513
B1430245526821N01138306EA0000000498
B1430315526790N01138475EA0000000496
B1430375526784N01138618EA0000000492
B1430425526779N01138737EA0000000486
B1430485526749N01138866EA0000000472
B1430545526802N01138986EA0000000465
B1431055526889N01139208EA0000000448
B1431105526927N01139315EA0000000441
B1431155526976N01139279EA0000000422
B1431245526942N01139061EA0000000400
B1431315526900N01138907EA0000000389
B1431415526836N01138685EA0000000369
B1431475526809N01138541EA0000000368
B1431575526806N01138303EA0000000350
B1432025526813N01138184EA0000000339
B1432075526867N01138123EA0000000337
B1432135526890N01138258EA0000000323
B1432195526856N01138405EA0000000318
B1432245526802N01138469EA0000000308
B1432305526758N01138384EA0000000295
B1432385526791N01138198EA0000000285
B1432435526838N01138120EA0000000284
B1432485526865N01138224EA0000000267
B1432545526842N01138401EA0000000251
B1432595526832N01138552EA0000000246
B1433045526831N01138697EA0000000237
B1433095526788N01138793EA0000000230
B1433145526737N01138739EA0000000225
B1433215526756N01138572EA0000000218
B1433285526774N01138396EA0000000212
B1433345526781N01138246EA0000000210
B1433425526751N01138055EA0000000199
B1433475526772N01137947EA0000000196
B1433525526827N01137982EA0000000195
B1433575526814N01138118EA0000000177
B1434055526794N01138354EA0000000168
B1434135526787N01138591EA0000000159
B1434185526785N01138743EA0000000151
B1434265526773N01138991EA0000000140
B1434335526805N01139197EA0000000145
B1434395526842N01139366EA0000000143
B1434465526899N01139544EA0000000133
B1434515526970N01139597EA0000000119
B1434575527064N01139593EA0000000113
B1435025527124N01139522EA0000000106
B1435075527131N01139396EA0000000093
B1435165527129N01139166EA0000000068
B1435255527129N01138932EA0000000048
B1435305527133N01138805EA0000000038
B1435365527135N01138663EA0000000031
B1435475527134N01138492EA0000000031
