AOGNOGN
HFDTE220625
HFFXA050
HFPLTPILOTINCHARGE:
HFGTYGLIDERTYPE:EuroFox
HFGIDGLIDERID:OY-9448
HFDTM100GPSDATUM:WGS-1984
HFRFWFIRMWAREVERSION:
HFRHWHARDWAREVERSION:
HFFTYFRTYPE:OGN-FLIGHTBOOK
HFGPSGENERIC
HFPRSPRESSALTSENSOR:
HFCIDCOMPETITIONID:
B1214355624605N00924526EA0000000027
B1214405624589N00924608EA0000000028
B1214405624589N00924608EA0000000028
B1214455624570N00924710EA0000000028
B1214515624537N00924845EA0000000034
B1214575624507N00924990EA0000000044
B1215075624463N00925246EA0000000059
B1215125624428N00925360EA0000000068
B1215215624327N00925484EA0000000084
B1215275624248N00925512EA0000000102
B1215325624187N00925478EA0000000119
B1215405624121N00925342EA0000000138
B1215455624089N00925235EA0000000148
B1215535624062N00925039EA0000000164
B1215585624065N00924901EA0000000176
B1216035624073N00924760EA0000000185
B1216095624091N00924584EA0000000196
B1216175624122N00924349EA0000000211
B1216245624160N00924146EA0000000221
B1216325624215N00923910EA0000000236
B1216395624275N00923707EA0000000251
B1216465624311N00923484EA0000000264
B1216515624285N00923355EA0000000267
B1216565624229N00923292EA0000000279
B1217035624150N00923309EA0000000287
B1217105624086N00923407EA0000000295
B1217155624046N00923487EA0000000295
B1217205624011N00923577EA0000000289
B1217265623974N00923696EA0000000278
B1217325623956N00923843EA0000000265
B1217375623970N00923979EA0000000259
B1217425624015N00924106EA0000000250
B1217485624108N00924217EA0000000237
B1217545624225N00924239EA0000000226
B1217595624316N00924182EA0000000218
B1218075624431N00924000EA0000000190
B1218135624503N00923835EA0000000173
B1218195624585N00923686EA0000000158
B1218245624682N00923654EA0000000146
B1218295624761N00923734EA0000000127
B1218355624772N00923887EA0000000100
B1218415624725N00924010EA0000000075
B1218465624686N00924115EA0000000057
B1218515624658N00924236EA0000000038
B1218575624632N00924386EA0000000027
B1219035624610N00924512EA0000000025
B1219115624587N00924630EA0000000026
