AOGNOGN
HFDTE220625
HFFXA050
HFPLTPILOTINCHARGE:
HFGTYGLIDERTYPE:Twin Astir II
HFGIDGLIDERID:OY-ZXN
HFDTM100GPSDATUM:WGS-1984
HFRFWFIRMWAREVERSION:
HFRHWHARDWAREVERSION:
HFFTYFRTYPE:OGN-FLIGHTBOOK
HFGPSGENERIC
HFPRSPRESSALTSENSOR:
HFCIDCOMPETITIONID:XN
B1145385624603N00924530EA0000000025
B1145385624603N00924530EA0000000025
B1145465624572N00924689EA0000000027
B1145525624541N00924828EA0000000033
B1146005624493N00925001EA0000000054
B1146055624448N00925093EA0000000060
B1146105624399N00925181EA0000000070
B1146155624348N00925264EA0000000082
B1146205624293N00925330EA0000000090
B1146265624223N00925392EA0000000104
B1150375624782N00924773EA0000000586
B1151085624664N00925078EA0000000553
B1153425623427N00923783EA0000000369
B1153555623655N00923707EA0000000355
B1154025623788N00923730EA0000000341
B1154075623881N00923751EA0000000335
B1154125623971N00923789EA0000000325
B1154185624083N00923826EA0000000312
B1154235624177N00923858EA0000000308
B1154365624422N00923933EA0000000299
B1154425624527N00923992EA0000000292
B1154475624585N00924087EA0000000289
B1154525624585N00924191EA0000000286
B1154595624537N00924269EA0000000280
B1155065624480N00924335EA0000000272
B1155155624411N00924437EA0000000263
B1155225624356N00924501EA0000000255
B1155275624319N00924555EA0000000250
B1155335624270N00924614EA0000000239
B1155385624234N00924683EA0000000229
B1155435624202N00924772EA0000000220
B1155545624099N00924871EA0000000202
B1155595624052N00924802EA0000000204
B1156045624040N00924671EA0000000201
B1156105624079N00924505EA0000000196
B1156185624141N00924291EA0000000197
B1156245624186N00924125EA0000000182
B1156295624222N00923980EA0000000173
B1156405624303N00923672EA0000000170
B1156475624408N00923554EA0000000160
B1156535624517N00923521EA0000000151
B1156595624634N00923502EA0000000139
B1157045624732N00923499EA0000000131
B1157095624785N00923601EA0000000119
B1157195624750N00923842EA0000000108
B1157255624719N00923973EA0000000095
B1157315624679N00924090EA0000000082
B1157375624650N00924206EA0000000056
B1157465624611N00924407EA0000000023
B1157535624587N00924519EA0000000023
