AOGNOGN
HFDTE220625
HFFXA050
HFPLTPILOTINCHARGE:
HFGTYGLIDERTYPE:PA-25 Pawnee
HFGIDGLIDERID:OY-CYP
HFDTM100GPSDATUM:WGS-1984
HFRFWFIRMWAREVERSION:
HFRHWHARDWAREVERSION:
HFFTYFRTYPE:OGN-FLIGHTBOOK
HFGPSGENERIC
HFPRSPRESSALTSENSOR:
HFCIDCOMPETITIONID:YP
B1137515553136N01213463EA0000000014
B1137545553131N01213521EA0000000015
B1138015553112N01213682EA0000000029
B1138065553092N01213796EA0000000045
B1138165553042N01214025EA0000000058
B1138225553014N01214180EA0000000079
B1138275552995N01214313EA0000000094
B1138335552968N01214459EA0000000114
B1138385552941N01214576EA0000000128
B1138435552898N01214677EA0000000140
B1138485552838N01214749EA0000000153
B1139025552665N01214892EA0000000189
B1139085552584N01214945EA0000000198
B1139185552445N01215011EA0000000225
B1139245552371N01215076EA0000000243
B1139315552339N01215243EA0000000265
B1139365552368N01215385EA0000000278
B1139415552432N01215508EA0000000295
B1139475552472N01215673EA0000000310
B1139525552450N01215800EA0000000316
B1139585552373N01215882EA0000000325
B1140035552293N01215895EA0000000337
B1140085552213N01215810EA0000000341
B1140135552151N01215670EA0000000358
B1140205552056N01215537EA0000000388
B1140255551984N01215541EA0000000396
B1140305551924N01215608EA0000000412
B1140355551860N01215653EA0000000426
B1140425551753N01215610EA0000000439
B1140475551689N01215492EA0000000446
B1140525551643N01215336EA0000000468
B1141005551565N01215108EA0000000499
B1141055551510N01214973EA0000000511
B1141135551421N01214760EA0000000530
B1141185551363N01214637EA0000000547
B1141255551284N01214475EA0000000569
B1141315551214N01214339EA0000000584
B1141395551123N01214158EA0000000607
B1141455551057N01214022EA0000000624
B1141525550976N01213867EA0000000633
B1141575550962N01213673EA0000000622
B1142035551020N01213427EA0000000612
B1142085551090N01213241EA0000000601
B1142195551264N01212868EA0000000573
B1142265551378N01212639EA0000000550
B1142335551499N01212417EA0000000527
B1142435551674N01212095EA0000000483
B1142495551778N01211893EA0000000464
B1142545551867N01211735EA0000000442
B1142595551981N01211654EA0000000418
B1143065552142N01211680EA0000000385
B1143125552273N01211754EA0000000357
B1143195552421N01211857EA0000000321
B1143255552539N01211970EA0000000289
B1143325552660N01212123EA0000000248
B1143395552782N01212266EA0000000213
B1143455552901N01212359EA0000000193
B1143535553061N01212451EA0000000158
B1143585553156N01212511EA0000000135
B1144035553205N01212622EA0000000115
B1144105553193N01212790EA0000000070
B1144165553173N01212941EA0000000041
B1144245553147N01213147EA0000000016
B1144295553134N01213261EA0000000015
B1144365553120N01213376EA0000000014
