AOGNOGN
HFDTE220625
HFFXA050
HFPLTPILOTINCHARGE:
HFGTYGLIDERTYPE:ASK-21
HFGIDGLIDERID:OY-XKI
HFDTM100GPSDATUM:WGS-1984
HFRFWFIRMWAREVERSION:
HFRHWHARDWAREVERSION:
HFFTYFRTYPE:OGN-FLIGHTBOOK
HFGPSGENERIC
HFPRSPRESSALTSENSOR:
HFCIDCOMPETITIONID:KI
B1258595553136N01213367EA0000000015
B1259045553127N01213463EA0000000015
B1259045553127N01213463EA0000000015
B1259105553107N01213614EA0000000016
B1259165553086N01213793EA0000000024
B1259215553064N01213936EA0000000048
B1259265553047N01214062EA0000000075
B1259335553018N01214227EA0000000095
B1259395552955N01214325EA0000000101
B1259445552880N01214330EA0000000115
B1259505552794N01214247EA0000000134
B1259555552727N01214160EA0000000155
B1300015552646N01214061EA0000000176
B1300065552582N01213982EA0000000196
B1300145552479N01213865EA0000000214
B1300215552388N01213746EA0000000228
B1300295552280N01213608EA0000000254
B1300345552214N01213516EA0000000266
B1300465552053N01213307EA0000000313
B1300525551975N01213208EA0000000337
B1300585551893N01213115EA0000000347
B1301045551809N01213027EA0000000365
B1301105551726N01212933EA0000000383
B1301155551657N01212850EA0000000396
B1301205551589N01212765EA0000000415
B1301285551484N01212634EA0000000441
B1301335551416N01212560EA0000000453
B1301405551324N01212460EA0000000476
B1301535551135N01212353EA0000000525
B1301595551053N01212406EA0000000543
B1302045551006N01212504EA0000000568
B1302105550988N01212666EA0000000584
B1302165551003N01212856EA0000000597
B1302235551025N01213084EA0000000615
B1302295551045N01213279EA0000000630
B1302345551060N01213443EA0000000638
B1302405551076N01213644EA0000000654
B1302515551106N01214023EA0000000690
B1302565551120N01214193EA0000000709
B1303045551142N01214470EA0000000732
B1303115551164N01214720EA0000000748
B1303185551199N01214972EA0000000764
B1303295551258N01215367EA0000000790
B1303355551293N01215581EA0000000805
B1303405551338N01215743EA0000000811
B1303455551431N01215837EA0000000807
B1303525551586N01215807EA0000000803
B1303575551688N01215755EA0000000804
B1304055551843N01215665EA0000000806
B1304105551937N01215617EA0000000802
B1304175552081N01215671EA0000000796
B1304265552259N01215771EA0000000792
B1304315552360N01215786EA0000000786
B1304435552596N01215767EA0000000778
B1304485552690N01215736EA0000000772
B1304565552769N01215572EA0000000760
B1305015552743N01215497EA0000000757
B1305065552705N01215533EA0000000753
B1305115552707N01215651EA0000000748
B1305175552778N01215791EA0000000740
B1305225552868N01215854EA0000000737
B1305295553003N01215890EA0000000736
B1305345553095N01215908EA0000000727
B1305405553216N01215919EA0000000714
B1305455553322N01215914EA0000000715
B1305515553416N01215897EA0000000715
B1305575553537N01215862EA0000000689
B1306025553636N01215824EA0000000698
B1306085553727N01215779EA0000000692
B1306135553826N01215716EA0000000666
B1306225553996N01215575EA0000000666
B1306295554117N01215450EA0000000663
B1306345554197N01215352EA0000000661
B1306395554272N01215244EA0000000659
B1306465554323N01215056EA0000000653
B1306525554287N01214981EA0000000654
B1306595554330N01215099EA0000000650
B1307045554411N01215037EA0000000609
B1307095554466N01214848EA0000000588
B1307165554512N01214626EA0000000620
B1307215554538N01214484EA0000000618
B1307285554565N01214288EA0000000613
B1307365554578N01214074EA0000000604
B1307445554571N01213867EA0000000595
B1307545554526N01213864EA0000000575
B1307595554578N01214004EA0000000528
B1308065554661N01214182EA0000000552
B1308145554663N01214343EA0000000552
B1308205554612N01214359EA0000000545
B1308275554544N01214319EA0000000531
B1308355554475N01214280EA0000000553
B1308405554450N01214267EA0000000491
B1308455554379N01214261EA0000000494
B1308505554320N01214253EA0000000497
B1309015554201N01214245EA0000000487
B1309095554115N01214239EA0000000473
B1309145554059N01214209EA0000000467
B1309195554028N01214098EA0000000464
B1309245554010N01213964EA0000000448
B1309315553997N01213824EA0000000443
B1309375553954N01213665EA0000000420
B1309425553921N01213553EA0000000430
B1309485553877N01213427EA0000000435
B1309535553837N01213332EA0000000430
B1309585553795N01213246EA0000000427
B1310065553728N01213121EA0000000419
B1310185553629N01212960EA0000000408
B1310255553569N01212883EA0000000399
B1310325553502N01212816EA0000000383
B1310395553430N01212761EA0000000365
B1310455553366N01212725EA0000000355
B1310515553301N01212702EA0000000345
B1310585553224N01212689EA0000000338
B1311045553160N01212690EA0000000336
B1311135553064N01212715EA0000000327
B1311195553006N01212768EA0000000331
B1311245552954N01212801EA0000000341
B1311315552905N01212701EA0000000341
B1311365552949N01212573EA0000000344
B1311415553028N01212557EA0000000328
B1311505553044N01212731EA0000000321
B1311565553005N01212817EA0000000313
B1312045552948N01212926EA0000000299
B1312095552903N01212986EA0000000295
B1312165552833N01213061EA0000000294
B1312215552781N01213111EA0000000286
B1312285552698N01213151EA0000000280
B1312385552583N01213222EA0000000268
B1312465552519N01213350EA0000000267
B1312515552527N01213453EA0000000266
B1312565552605N01213512EA0000000257
B1313015552698N01213478EA0000000246
B1313065552772N01213365EA0000000233
B1313135552804N01213143EA0000000207
B1313185552795N01212974EA0000000195
B1313245552782N01212776EA0000000192
B1313295552774N01212613EA0000000195
B1313345552791N01212447EA0000000189
B1313415552869N01212246EA0000000185
B1313465552959N01212143EA0000000168
B1313515553065N01212106EA0000000161
B1313565553171N01212135EA0000000146
B1314025553242N01212279EA0000000135
B1314075553236N01212423EA0000000118
B1314165553209N01212688EA0000000101
B1314215553192N01212818EA0000000081
B1314285553169N01212998EA0000000059
B1314335553152N01213124EA0000000042
B1314395553132N01213289EA0000000018
B1314455553116N01213441EA0000000016
B1314535553101N01213556EA0000000016
