AOGNOGN
HFDTE220625
HFFXA050
HFPLTPILOTINCHARGE:
HFGTYGLIDERTYPE:ASK-21
HFGIDGLIDERID:OY-XKI
HFDTM100GPSDATUM:WGS-1984
HFRFWFIRMWAREVERSION:
HFRHWHARDWAREVERSION:
HFFTYFRTYPE:OGN-FLIGHTBOOK
HFGPSGENERIC
HFPRSPRESSALTSENSOR:
HFCIDCOMPETITIONID:KI
B0858525553166N01213375EA0000000019
B0858575553140N01213487EA0000000085
B0859025553115N01213596EA0000000173
B0859085553091N01213745EA0000000262
B0859145553069N01213924EA0000000305
B0859195553053N01214082EA0000000322
B0859255553003N01214173EA0000000333
B0859335552911N01214142EA0000000319
B0859385552854N01214104EA0000000315
B0859445552792N01214042EA0000000304
B0859535552705N01213905EA0000000300
B0900015552621N01213801EA0000000290
B0900075552552N01213751EA0000000279
B0900165552453N01213651EA0000000269
B0900245552369N01213562EA0000000258
B0900295552325N01213604EA0000000265
B0900355552358N01213744EA0000000252
B0900405552447N01213784EA0000000244
B0900465552533N01213665EA0000000239
B0900515552526N01213530EA0000000225
B0900565552469N01213506EA0000000216
B0901035552416N01213631EA0000000213
B0901085552400N01213736EA0000000205
B0901135552420N01213858EA0000000197
B0901195552516N01213896EA0000000198
B0901245552575N01213780EA0000000181
B0901295552601N01213628EA0000000175
B0901345552615N01213471EA0000000162
B0901405552625N01213280EA0000000162
B0901455552642N01213120EA0000000163
B0901505552695N01212978EA0000000156
B0901575552790N01212799EA0000000145
B0902035552878N01212646EA0000000129
B0902085552960N01212533EA0000000125
B0902145553078N01212510EA0000000107
B0902195553149N01212615EA0000000094
B0902265553176N01212820EA0000000064
B0902315553168N01212961EA0000000039
B0902365553150N01213090EA0000000022
B0902435553127N01213251EA0000000016
B0902485553117N01213330EA0000000016
