AOGNOGN
HFDTE220625
HFFXA050
HFPLTPILOTINCHARGE:
HFGTYGLIDERTYPE:ASK-21
HFGIDGLIDERID:OY-XKI
HFDTM100GPSDATUM:WGS-1984
HFRFWFIRMWAREVERSION:
HFRHWHARDWAREVERSION:
HFFTYFRTYPE:OGN-FLIGHTBOOK
HFGPSGENERIC
HFPRSPRESSALTSENSOR:
HFCIDCOMPETITIONID:KI
B0918385553166N01213373EA0000000018
B0918395553161N01213395EA0000000024
B0918445553142N01213501EA0000000105
B0918495553126N01213606EA0000000185
B0918555553103N01213752EA0000000263
B0919015553080N01213925EA0000000306
B0919065553055N01214059EA0000000327
B0919125553019N01214146EA0000000333
B0919185552953N01214125EA0000000313
B0919235552895N01214081EA0000000312
B0919295552834N01214027EA0000000312
B0919355552774N01213980EA0000000300
B0919415552706N01213987EA0000000285
B0919465552647N01214002EA0000000278
B0919525552578N01213949EA0000000271
B0919575552527N01213880EA0000000270
B0920025552473N01213808EA0000000261
B0920075552416N01213786EA0000000269
B0920125552397N01213881EA0000000271
B0920195552503N01213954EA0000000267
B0920245552570N01213843EA0000000267
B0920295552557N01213709EA0000000250
B0920375552454N01213673EA0000000246
B0920425552395N01213696EA0000000257
B0920475552377N01213790EA0000000257
B0920535552448N01213905EA0000000245
B0920585552542N01213862EA0000000231
B0921035552587N01213709EA0000000216
B0921105552606N01213486EA0000000224
B0921175552620N01213277EA0000000206
B0921235552634N01213090EA0000000204
B0921305552640N01212862EA0000000203
B0921355552635N01212705EA0000000190
B0921415552665N01212512EA0000000187
B0921465552750N01212418EA0000000180
B0921545552917N01212400EA0000000146
B0922015553064N01212416EA0000000118
B0922065553151N01212498EA0000000096
B0922115553188N01212643EA0000000065
B0922185553179N01212849EA0000000042
B0922265553159N01213050EA0000000015
B0922325553143N01213170EA0000000014
