AOGNOGN
HFDTE220625
HFFXA050
HFPLTPILOTINCHARGE:
HFGTYGLIDERTYPE:ASK-21
HFGIDGLIDERID:OY-XKI
HFDTM100GPSDATUM:WGS-1984
HFRFWFIRMWAREVERSION:
HFRHWHARDWAREVERSION:
HFFTYFRTYPE:OGN-FLIGHTBOOK
HFGPSGENERIC
HFPRSPRESSALTSENSOR:
HFCIDCOMPETITIONID:KI
B1425275553132N01213411EA0000000016
B1425305553124N01213473EA0000000015
B1425365553103N01213624EA0000000019
B1425435553079N01213822EA0000000037
B1425495553061N01213986EA0000000062
B1425555553049N01214146EA0000000085
B1426005553039N01214278EA0000000101
B1426065553052N01214440EA0000000121
B1426115553090N01214581EA0000000131
B1426175553148N01214750EA0000000145
B1426235553215N01214916EA0000000166
B1426325553320N01215157EA0000000201
B1426405553424N01215358EA0000000225
B1426465553503N01215502EA0000000248
B1426535553601N01215655EA0000000272
B1426585553699N01215719EA0000000282
B1427045553834N01215717EA0000000306
B1427105553965N01215623EA0000000327
B1427175554094N01215448EA0000000354
B1427225554178N01215300EA0000000373
B1427315554323N01215020EA0000000398
B1427365554390N01214850EA0000000418
B1427415554425N01214664EA0000000432
B1427505554415N01214332EA0000000458
B1427575554378N01214095EA0000000483
B1428065554329N01213794EA0000000509
B1428115554305N01213625EA0000000526
B1428225554268N01213255EA0000000568
B1428275554255N01213090EA0000000585
B1428365554234N01212793EA0000000609
B1428415554221N01212633EA0000000622
B1428485554203N01212413EA0000000642
B1428535554186N01212259EA0000000656
B1429015554158N01212020EA0000000683
B1429065554133N01211885EA0000000702
B1429135554071N01211740EA0000000722
B1429205554002N01211601EA0000000744
B1429315553888N01211413EA0000000785
B1429395553793N01211299EA0000000801
B1429445553732N01211312EA0000000803
B1429515553692N01211506EA0000000790
B1429595553738N01211785EA0000000788
B1430045553814N01211925EA0000000792
B1430105553941N01211967EA0000000792
B1430155554030N01211898EA0000000790
B1430215554071N01211761EA0000000790
B1430265554048N01211679EA0000000787
B1430315554005N01211652EA0000000786
B1430385553957N01211763EA0000000779
B1430495553952N01212083EA0000000780
B1430575553966N01212278EA0000000784
B1431025553983N01212408EA0000000764
B1431075554004N01212551EA0000000762
B1431125554027N01212694EA0000000758
B1431175554053N01212836EA0000000758
B1431225554082N01212950EA0000000770
B1431295554132N01213147EA0000000727
B1431345554173N01213302EA0000000732
B1431405554222N01213474EA0000000731
B1431465554269N01213639EA0000000728
B1431515554310N01213774EA0000000724
B1432005554378N01214018EA0000000714
B1432125554353N01214058EA0000000697
B1432235554426N01214164EA0000000679
B1432315554360N01214074EA0000000661
B1432405554400N01213922EA0000000627
B1432455554437N01214059EA0000000633
B1432545554455N01214291EA0000000625
B1433015554459N01214466EA0000000621
B1433065554439N01214563EA0000000618
B1433125554384N01214565EA0000000611
B1433205554323N01214522EA0000000626
B1433275554271N01214500EA0000000566
B1433325554211N01214489EA0000000587
B1433445554098N01214479EA0000000581
B1433515554036N01214476EA0000000573
B1433575553995N01214399EA0000000566
B1434045554086N01214323EA0000000560
B1434095554100N01214416EA0000000537
B1434185554028N01214569EA0000000523
B1434255553978N01214655EA0000000526
B1434325553922N01214700EA0000000522
B1434405553854N01214728EA0000000514
B1434495553768N01214718EA0000000506
B1434565553701N01214712EA0000000495
B1435015553654N01214717EA0000000490
B1435095553579N01214731EA0000000479
B1435215553461N01214760EA0000000469
B1435265553412N01214770EA0000000472
B1435315553366N01214779EA0000000465
B1435375553307N01214776EA0000000455
B1435445553236N01214738EA0000000447
B1435495553185N01214702EA0000000438
B1435565553110N01214659EA0000000427
B1436015553051N01214628EA0000000415
B1436065552990N01214603EA0000000413
B1436175552865N01214561EA0000000403
B1436345552687N01214490EA0000000387
B1436425552607N01214452EA0000000383
B1436515552522N01214396EA0000000371
B1436585552455N01214340EA0000000356
B1437045552394N01214290EA0000000344
B1437095552342N01214245EA0000000345
B1437165552271N01214175EA0000000347
B1437225552214N01214100EA0000000338
B1437275552175N01214004EA0000000335
B1437325552137N01213902EA0000000331
B1437385552094N01213775EA0000000328
B1437455552059N01213597EA0000000321
B1437515552064N01213418EA0000000316
B1437565552126N01213291EA0000000308
B1438015552215N01213295EA0000000296
B1438075552234N01213407EA0000000283
B1438125552186N01213396EA0000000280
B1438175552174N01213263EA0000000273
B1438235552215N01213081EA0000000267
B1438285552288N01212972EA0000000258
B1438335552370N01213007EA0000000247
B1438385552400N01213113EA0000000234
B1438435552410N01213220EA0000000226
B1438495552424N01213355EA0000000219
B1438545552489N01213429EA0000000215
B1438595552580N01213368EA0000000202
B1439065552656N01213156EA0000000185
B1439125552697N01212945EA0000000160
B1439185552736N01212720EA0000000149
B1439235552802N01212559EA0000000145
B1439285552897N01212441EA0000000136
B1439405553163N01212389EA0000000108
B1439455553218N01212511EA0000000094
B1439515553210N01212680EA0000000074
B1439575553190N01212830EA0000000059
B1440035553171N01212984EA0000000037
B1440085553153N01213125EA0000000026
B1440165553125N01213350EA0000000015
B1440235553111N01213501EA0000000014
B1440315553093N01213595EA0000000016
