AOGNOGN
HFDTE220625
HFFXA050
HFPLTPILOTINCHARGE:
HFGTYGLIDERTYPE:ASK-21
HFGIDGLIDERID:OY-XVC
HFDTM100GPSDATUM:WGS-1984
HFRFWFIRMWAREVERSION:
HFRHWHARDWAREVERSION:
HFFTYFRTYPE:OGN-FLIGHTBOOK
HFGPSGENERIC
HFPRSPRESSALTSENSOR:
HFCIDCOMPETITIONID:VC
B1345495553136N01213355EA0000000017
B1345535553127N01213422EA0000000016
B1345595553110N01213561EA0000000017
B1346045553095N01213704EA0000000021
B1346115553071N01213916EA0000000043
B1346165553050N01214060EA0000000065
B1346215553028N01214197EA0000000085
B1346285553002N01214386EA0000000110
B1346355552975N01214571EA0000000133
B1346415552931N01214698EA0000000154
B1346495552839N01214797EA0000000178
B1346575552733N01214849EA0000000200
B1347025552666N01214889EA0000000213
B1347085552586N01214940EA0000000229
B1347145552505N01214982EA0000000245
B1347195552441N01215018EA0000000266
B1347245552381N01215063EA0000000289
B1347315552295N01215148EA0000000296
B1347405552182N01215262EA0000000318
B1347455552117N01215316EA0000000329
B1347505552054N01215356EA0000000351
B1347575551971N01215432EA0000000369
B1348055551865N01215519EA0000000386
B1348115551785N01215582EA0000000397
B1348165551719N01215637EA0000000410
B1348215551658N01215690EA0000000428
B1348265551595N01215729EA0000000445
B1348315551527N01215753EA0000000457
B1348375551445N01215780EA0000000473
B1348445551351N01215818EA0000000490
B1348505551274N01215830EA0000000516
B1348555551208N01215803EA0000000523
B1349005551147N01215726EA0000000539
B1349065551086N01215588EA0000000556
B1349155551000N01215376EA0000000584
B1349225550951N01215187EA0000000608
B1349285550935N01214999EA0000000625
B1349335550936N01214832EA0000000639
B1349395550938N01214632EA0000000647
B1349455550944N01214436EA0000000646
B1349535550954N01214168EA0000000633
B1349595550961N01213962EA0000000624
B1350055550967N01213756EA0000000614
B1350105550975N01213580EA0000000606
B1350175551012N01213321EA0000000587
B1350255551092N01213027EA0000000576
B1350315551173N01212825EA0000000571
B1350375551257N01212625EA0000000559
B1350425551327N01212450EA0000000548
B1350475551399N01212272EA0000000538
B1350535551485N01212061EA0000000533
B1350595551562N01211843EA0000000523
B1351045551627N01211660EA0000000515
B1351105551704N01211443EA0000000510
B1351185551805N01211154EA0000000498
B1351235551822N01210988EA0000000508
B1351325551763N01211039EA0000000502
B1351405551809N01211237EA0000000491
B1351505551886N01211481EA0000000487
B1351555551928N01211595EA0000000484
B1352005551970N01211703EA0000000480
B1352125552069N01211959EA0000000464
B1352175552103N01212075EA0000000455
B1352225552132N01212191EA0000000451
B1352295552167N01212351EA0000000442
B1352365552200N01212515EA0000000429
B1352415552218N01212632EA0000000422
B1352465552233N01212751EA0000000414
B1352575552264N01213013EA0000000400
B1353045552284N01213170EA0000000396
B1353095552299N01213275EA0000000394
B1353245552355N01213572EA0000000382
B1353325552388N01213727EA0000000366
B1353375552390N01213823EA0000000362
B1353425552344N01213830EA0000000361
B1353495552290N01213720EA0000000353
B1353585552221N01213585EA0000000341
B1354035552182N01213507EA0000000334
B1354105552130N01213385EA0000000325
B1354165552118N01213239EA0000000324
B1354235552185N01213057EA0000000317
B1354285552241N01212929EA0000000313
B1354335552298N01212804EA0000000306
B1354395552365N01212649EA0000000296
B1354485552500N01212631EA0000000278
B1354555552539N01212788EA0000000258
B1355015552552N01212933EA0000000255
B1355075552550N01213074EA0000000245
B1355135552542N01213208EA0000000240
B1355185552531N01213312EA0000000232
B1355255552511N01213455EA0000000217
B1355305552505N01213562EA0000000211
B1355355552551N01213662EA0000000207
B1355405552642N01213644EA0000000199
B1355465552709N01213471EA0000000186
B1355565552766N01213116EA0000000166
B1356015552787N01212940EA0000000158
B1356065552812N01212765EA0000000152
B1356135552903N01212554EA0000000146
B1356185552982N01212418EA0000000139
B1356275553168N01212356EA0000000124
B1356325553228N01212440EA0000000116
B1356385553217N01212566EA0000000107
B1356445553198N01212694EA0000000094
B1356495553184N01212813EA0000000077
B1356555553166N01212960EA0000000058
B1357005553151N01213080EA0000000036
B1357065553132N01213223EA0000000019
B1357115553117N01213338EA0000000017
B1357175553104N01213444EA0000000015
