AOGNOGN
HFDTE100825
HFFXA050
HFPLTPILOTINCHARGE:
HFGTYGLIDERTYPE:SZD-51 Junior
HFGIDGLIDERID:OY-RXB
HFDTM100GPSDATUM:WGS-1984
HFRFWFIRMWAREVERSION:
HFRHWHARDWAREVERSION:
HFFTYFRTYPE:OGN-FLIGHTBOOK
HFGPSGENERIC
HFPRSPRESSALTSENSOR:
HFCIDCOMPETITIONID:RB
B1217195720611N01024892EA0000000030
B1217195720611N01024892EA0000000030
B1217255720641N01024794EA0000000117
B1219095720608N01024551EA0000000405
B1219535720829N01024411EA0000000394
B1245215720938N01026112EA0000000557
B1245595720846N01025962EA0000000538
B1246235720944N01026117EA0000000541
B1248375720236N01026768EA0000000512
B1300415720332N01027741EA0000000651
B1300545720298N01027594EA0000000668
B1301455720395N01027592EA0000000639
B1312195722055N01026588EA0000000637
B1319495721852N01027189EA0000000590
B1351055720761N01024331EA0000000406
B1353405720729N01023763EA0000000353
