AOGNOGN
HFDTE100825
HFFXA050
HFPLTPILOTINCHARGE:
HFGTYGLIDERTYPE:SZD-51 Junior
HFGIDGLIDERID:OY-RXB
HFDTM100GPSDATUM:WGS-1984
HFRFWFIRMWAREVERSION:
HFRHWHARDWAREVERSION:
HFFTYFRTYPE:OGN-FLIGHTBOOK
HFGPSGENERIC
HFPRSPRESSALTSENSOR:
HFCIDCOMPETITIONID:RB
B1039395720614N01024892EA0000000041
B1039475720638N01024774EA0000000170
B1039525720652N01024702EA0000000240
B1045005720850N01025212EA0000000463
B1050285720956N01026069EA0000000570
B1050345720950N01025990EA0000000577
B1050515720965N01025765EA0000000562
B1050565720981N01025700EA0000000549
B1051015720994N01025613EA0000000530
B1051135720995N01025422EA0000000504
B1111575720697N01025297EA0000000491
B1112085720647N01025363EA0000000491
B1112135720673N01025517EA0000000480
B1112335720660N01025638EA0000000472
B1112445720614N01025765EA0000000482
B1113015720605N01025998EA0000000474
B1119275720928N01025280EA0000000183
B1119335720823N01025399EA0000000169
B1119425720674N01025420EA0000000157
B1119495720595N01025369EA0000000154
B1119595720562N01025194EA0000000098
B1120095720619N01024975EA0000000039
B1120155720652N01024840EA0000000025
B1120215720679N01024738EA0000000027
B1123575720699N01024656EA0000000032
