AOGNOGN
HFDTE100825
HFFXA050
HFPLTPILOTINCHARGE:
HFGTYGLIDERTYPE:Astir CS
HFGIDGLIDERID:OY-XGG
HFDTM100GPSDATUM:WGS-1984
HFRFWFIRMWAREVERSION:
HFRHWHARDWAREVERSION:
HFFTYFRTYPE:OGN-FLIGHTBOOK
HFGPSGENERIC
HFPRSPRESSALTSENSOR:
HFCIDCOMPETITIONID:G6
B0950285720609N01024892EA0000000036
B0950335720633N01024793EA0000000117
B0950385720653N01024708EA0000000212
B0950435720677N01024623EA0000000298
B0950525720731N01024473EA0000000423
B0950585720772N01024376EA0000000438
B0951045720801N01024322EA0000000463
B0951115720826N01024274EA0000000446
B0951165720830N01024226EA0000000440
B0951215720801N01024189EA0000000434
B0951275720753N01024141EA0000000415
B0951365720681N01024034EA0000000405
B0951415720651N01023987EA0000000410
B0952015720518N01023742EA0000000363
B0952065720482N01023676EA0000000383
B0952125720445N01023642EA0000000394
B0952225720383N01023587EA0000000387
B0952295720324N01023523EA0000000377
B0952385720240N01023449EA0000000398
B0952435720202N01023440EA0000000391
B0952485720155N01023417EA0000000375
B0952535720116N01023373EA0000000369
B0952595720139N01023309EA0000000358
B0953045720205N01023340EA0000000359
B0953105720253N01023494EA0000000379
B0953155720286N01023640EA0000000358
B0953265720356N01023679EA0000000339
B0953325720293N01023633EA0000000333
B0953385720241N01023619EA0000000367
B0953445720189N01023615EA0000000351
B0953525720099N01023577EA0000000337
B0953585720038N01023548EA0000000343
B0954035719997N01023514EA0000000333
B0954095720008N01023434EA0000000316
B0954145720068N01023418EA0000000304
B0954205720164N01023510EA0000000298
B0954255720236N01023610EA0000000314
B0954305720289N01023702EA0000000320
B0954365720364N01023803EA0000000320
B0954415720422N01023867EA0000000331
B0954485720505N01023941EA0000000321
B0954545720566N01023968EA0000000324
B0954595720612N01023964EA0000000309
B0955045720621N01023915EA0000000300
B0955115720554N01023880EA0000000293
B0955175720495N01023869EA0000000293
B0955225720438N01023865EA0000000281
B0955275720369N01023937EA0000000280
B0955325720337N01024095EA0000000292
B0955375720368N01024238EA0000000292
B0955455720440N01024284EA0000000298
B0955505720463N01024252EA0000000288
B0955565720447N01024191EA0000000273
B0956015720397N01024146EA0000000255
B0956065720383N01024074EA0000000254
B0956115720403N01024028EA0000000262
B0956185720455N01023993EA0000000250
B0956255720504N01023931EA0000000228
B0956305720545N01023882EA0000000210
B0956355720601N01024007EA0000000202
B0956405720578N01024209EA0000000191
B0956455720524N01024397EA0000000171
B0956535720409N01024676EA0000000159
B0956585720341N01024847EA0000000153
B0957035720310N01025053EA0000000157
B0957085720344N01025230EA0000000144
B0957165720462N01025364EA0000000135
B0957215720516N01025313EA0000000125
B0957265720546N01025215EA0000000096
B0957325720581N01025087EA0000000070
B0957425720635N01024891EA0000000032
B0957475720656N01024816EA0000000030
