AOGNOGN
HFDTE100825
HFFXA050
HFPLTPILOTINCHARGE:
HFGTYGLIDERTYPE:Astir CS
HFGIDGLIDERID:OY-XGG
HFDTM100GPSDATUM:WGS-1984
HFRFWFIRMWAREVERSION:
HFRHWHARDWAREVERSION:
HFFTYFRTYPE:OGN-FLIGHTBOOK
HFGPSGENERIC
HFPRSPRESSALTSENSOR:
HFCIDCOMPETITIONID:G6
B1153295720619N01024859EA0000000050
B1153305720623N01024838EA0000000063
B1153355720648N01024745EA0000000149
B1153405720668N01024677EA0000000225
B1153455720685N01024608EA0000000287
B1153505720701N01024528EA0000000345
B1153565720717N01024420EA0000000402
B1154015720734N01024331EA0000000439
B1154085720759N01024212EA0000000455
B1154165720780N01024120EA0000000460
B1154225720759N01024061EA0000000467
B1154295720713N01024001EA0000000463
B1154345720689N01023950EA0000000469
B1154555720677N01023721EA0000000474
B1155045720660N01023634EA0000000483
B1155255720673N01023375EA0000000446
B1155325720681N01023260EA0000000455
B1155385720681N01023187EA0000000468
B1155435720648N01023147EA0000000474
B1155525720583N01023390EA0000000469
B1156015720672N01023432EA0000000464
B1156065720654N01023364EA0000000472
B1156135720578N01023529EA0000000480
B1156245720641N01023588EA0000000487
B1156295720571N01023613EA0000000490
B1156355720532N01023816EA0000000493
B1156415720588N01023938EA0000000493
B1156485720608N01023866EA0000000498
B1156535720546N01023865EA0000000503
B1156585720497N01024006EA0000000497
B1157035720532N01024163EA0000000481
B1157085720574N01024145EA0000000485
B1157195720546N01023987EA0000000503
B1157255720478N01023979EA0000000480
B1157335720399N01023918EA0000000455
B1157385720410N01023827EA0000000438
B1157555720512N01023523EA0000000418
B1158015720528N01023432EA0000000429
B1158085720543N01023346EA0000000426
B1158165720563N01023234EA0000000405
B1158225720585N01023137EA0000000392
B1158345720643N01022928EA0000000367
B1158415720673N01022813EA0000000366
B1158485720706N01022719EA0000000358
B1159235720910N01022372EA0000000340
B1159285720959N01022485EA0000000336
B1159345720940N01022693EA0000000327
B1159395720866N01022806EA0000000344
B1159545720853N01022870EA0000000335
B1200025720858N01023157EA0000000323
B1200085720765N01023278EA0000000324
B1200155720666N01023348EA0000000332
B1200215720588N01023411EA0000000312
B1200275720504N01023410EA0000000304
B1200325720467N01023363EA0000000301
B1200375720481N01023310EA0000000297
B1200435720532N01023282EA0000000294
B1200535720633N01023221EA0000000268
B1200585720687N01023202EA0000000264
B1201215720749N01022943EA0000000247
B1201335720864N01022966EA0000000229
B1201385720890N01023152EA0000000219
B1201445720833N01023370EA0000000227
B1201525720737N01023579EA0000000234
B1201575720669N01023692EA0000000221
B1202025720599N01023805EA0000000218
B1202075720531N01023919EA0000000211
B1202135720447N01024015EA0000000213
B1202215720345N01024044EA0000000193
B1202275720330N01023978EA0000000176
B1202325720398N01024040EA0000000155
B1202385720395N01024306EA0000000155
B1202455720342N01024585EA0000000147
B1202505720307N01024787EA0000000154
B1202555720323N01024996EA0000000136
B1203025720411N01025219EA0000000129
B1203075720492N01025275EA0000000105
B1203135720545N01025166EA0000000087
B1203205720590N01025033EA0000000057
B1203255720620N01024936EA0000000032
B1203305720640N01024843EA0000000008
