AOGNOGN
HFDTE300625
HFFXA050
HFPLTPILOTINCHARGE:
HFGTYGLIDERTYPE:LS-4
HFGIDGLIDERID:OY-PNX
HFDTM100GPSDATUM:WGS-1984
HFRFWFIRMWAREVERSION:
HFRHWHARDWAREVERSION:
HFFTYFRTYPE:OGN-FLIGHTBOOK
HFGPSGENERIC
HFPRSPRESSALTSENSOR:
HFCIDCOMPETITIONID:5M
B1354205554419N00927266EA0000000101
B1354255554437N00927150EA0000000193
B1354305554453N00927037EA0000000274
B1354355554475N00926913EA0000000350
B1354405554497N00926783EA0000000399
B1354475554531N00926584EA0000000433
B1354555554581N00926386EA0000000440
B1355025554659N00926349EA0000000427
B1355105554740N00926503EA0000000404
B1355165554797N00926631EA0000000391
B1355215554847N00926739EA0000000386
B1355275554914N00926859EA0000000384
B1355325554974N00926845EA0000000388
B1355375554967N00926752EA0000000388
B1355425554907N00926750EA0000000391
B1355475554886N00926863EA0000000387
B1355535554894N00927046EA0000000363
B1355585554840N00927141EA0000000362
B1356045554838N00926991EA0000000352
B1356095554899N00926940EA0000000335
B1356145554901N00927110EA0000000345
B1356195554945N00927219EA0000000350
B1356245555002N00927143EA0000000345
B1356315555057N00927013EA0000000353
B1356425555125N00926800EA0000000336
B1356475555136N00926691EA0000000332
B1356545555057N00926654EA0000000320
B1357015555005N00926823EA0000000310
B1357065554973N00926957EA0000000301
B1357135554929N00927153EA0000000296
B1357185554887N00927285EA0000000293
B1357235554817N00927286EA0000000298
B1357285554819N00927185EA0000000293
B1357335554881N00927188EA0000000296
B1357385554886N00927308EA0000000299
B1357435554825N00927334EA0000000298
B1357485554824N00927235EA0000000294
B1357535554885N00927239EA0000000300
B1357585554896N00927360EA0000000300
B1358035554865N00927479EA0000000295
B1358105554843N00927676EA0000000288
B1358205554797N00927943EA0000000278
B1358255554768N00928074EA0000000269
B1358305554732N00928202EA0000000261
B1358355554670N00928277EA0000000253
B1358405554596N00928318EA0000000236
B1358465554513N00928263EA0000000225
B1358515554450N00928189EA0000000217
B1358575554378N00928085EA0000000210
B1359025554371N00927959EA0000000196
B1359085554389N00927805EA0000000173
B1359185554420N00927553EA0000000123
B1359265554442N00927343EA0000000094
B1359325554456N00927222EA0000000091
