AOGNOGN
HFDTE190625
HFFXA050
HFPLTPILOTINCHARGE:
HFGTYGLIDERTYPE:Duo Discus
HFGIDGLIDERID:OY-XVF
HFDTM100GPSDATUM:WGS-1984
HFRFWFIRMWAREVERSION:
HFRHWHARDWAREVERSION:
HFFTYFRTYPE:OGN-FLIGHTBOOK
HFGPSGENERIC
HFPRSPRESSALTSENSOR:
HFCIDCOMPETITIONID:VF
B1221395553042N01214027EA0000000025
B1221445553055N01213933EA0000000102
B1221495553075N01213848EA0000000185
B1221545553095N01213754EA0000000258
B1222005553119N01213630EA0000000328
B1222055553135N01213522EA0000000381
B1222105553148N01213406EA0000000423
B1222175553177N01213250EA0000000445
B1222245553211N01213120EA0000000452
B1222295553238N01213058EA0000000450
B1222345553280N01213057EA0000000446
B1222405553328N01213166EA0000000441
B1222465553361N01213306EA0000000434
B1222515553388N01213437EA0000000416
B1223005553456N01213693EA0000000366
B1223055553503N01213819EA0000000390
B1223105553560N01213865EA0000000410
B1223175553623N01213819EA0000000443
B1223255553667N01213705EA0000000461
B1223355553727N01213536EA0000000489
B1223425553764N01213440EA0000000503
B1223495553795N01213337EA0000000508
B1223545553805N01213250EA0000000524
B1224005553788N01213126EA0000000535
B1224065553766N01213007EA0000000539
B1224125553746N01212897EA0000000544
B1224275553695N01212633EA0000000559
B1224335553681N01212526EA0000000569
B1224465553658N01212301EA0000000581
B1224575553632N01212103EA0000000587
B1225025553621N01212015EA0000000589
B1225095553603N01211894EA0000000592
B1225145553586N01211806EA0000000594
B1225315553534N01211513EA0000000600
B1225375553513N01211406EA0000000603
B1225585553399N01211007EA0000000634
B1227135552758N01209532EA0000000621
B1227185552764N01209452EA0000000616
B1227235552795N01209400EA0000000607
B1227365552701N01209223EA0000000562
B1227415552597N01209253EA0000000546
B1228015552311N01209895EA0000000522
B1228075552259N01210102EA0000000520
B1228175552186N01210436EA0000000541
B1228225552207N01210562EA0000000537
B1228275552254N01210559EA0000000537
B1228445552036N01210586EA0000000547
B1228495552035N01210740EA0000000546
B1228545552085N01210786EA0000000543
B1228595552098N01210711EA0000000550
B1229055552014N01210636EA0000000554
B1229135551876N01210771EA0000000575
B1229185551872N01210934EA0000000564
B1229235551925N01211010EA0000000561
B1229295551951N01210931EA0000000569
B1229345551883N01210868EA0000000583
B1229395551803N01210955EA0000000592
B1229445551806N01211100EA0000000586
B1229505551862N01211144EA0000000597
B1230005551772N01211040EA0000000609
B1230055551691N01211130EA0000000620
B1230125551691N01211329EA0000000614
B1230175551740N01211392EA0000000613
B1230225551777N01211354EA0000000619
B1230295551718N01211260EA0000000609
B1230355551603N01211322EA0000000618
B1230425551493N01211472EA0000000610
B1230475551418N01211603EA0000000593
B1230555551288N01211824EA0000000579
B1231025551181N01212025EA0000000557
B1231085551085N01212220EA0000000532
B1231165550969N01212504EA0000000528
B1231215550914N01212682EA0000000547
B1231265550882N01212857EA0000000552
B1231365550837N01213212EA0000000547
B1231485550852N01213608EA0000000538
B1231535550894N01213728EA0000000531
B1231585550952N01213800EA0000000519
B1232035551013N01213842EA0000000507
B1232105551101N01213872EA0000000519
B1232155551157N01213885EA0000000515
B1232215551232N01213889EA0000000484
B1232275551307N01213884EA0000000501
B1232325551355N01213881EA0000000498
B1232405551438N01213841EA0000000488
B1232475551509N01213785EA0000000482
B1232525551539N01213710EA0000000485
B1232575551559N01213620EA0000000475
B1233055551591N01213463EA0000000466
B1233115551619N01213348EA0000000452
B1233195551663N01213200EA0000000443
B1233255551696N01213097EA0000000434
B1233355551765N01212920EA0000000407
B1233415551811N01212818EA0000000397
B1233525551889N01212639EA0000000389
B1233595551937N01212536EA0000000392
B1234125552033N01212363EA0000000367
B1234175552075N01212290EA0000000354
B1234275552152N01212138EA0000000340
B1234375552232N01211987EA0000000329
B1234445552288N01211876EA0000000325
B1234495552320N01211801EA0000000334
B1235005552401N01211677EA0000000333
B1235075552460N01211605EA0000000315
B1235125552511N01211550EA0000000300
B1235195552579N01211484EA0000000306
B1235245552630N01211458EA0000000295
B1235295552687N01211504EA0000000297
B1235345552731N01211600EA0000000295
B1235395552741N01211744EA0000000294
B1235475552735N01211998EA0000000273
B1235545552725N01212229EA0000000252
B1236015552718N01212453EA0000000233
B1236115552715N01212807EA0000000218
B1236165552705N01212979EA0000000234
B1236215552690N01213144EA0000000241
B1236295552665N01213406EA0000000251
B1236345552648N01213566EA0000000267
B1236425552631N01213829EA0000000291
B1236475552645N01213981EA0000000293
B1236525552684N01214102EA0000000296
B1236595552756N01214198EA0000000303
B1237045552810N01214217EA0000000313
B1237095552859N01214224EA0000000316
B1237165552920N01214219EA0000000318
B1237255552994N01214172EA0000000318
B1237325553052N01214128EA0000000334
B1237385553096N01214087EA0000000344
B1237435553128N01214046EA0000000346
B1237495553163N01213987EA0000000349
B1237545553193N01213944EA0000000350
B1238005553228N01213894EA0000000346
B1238075553264N01213826EA0000000330
B1238145553299N01213737EA0000000322
B1238205553330N01213658EA0000000312
B1238265553362N01213568EA0000000305
B1238355553408N01213439EA0000000308
B1238425553445N01213353EA0000000310
B1238485553478N01213287EA0000000314
B1238545553515N01213230EA0000000317
B1239025553568N01213165EA0000000310
B1239105553625N01213094EA0000000308
B1239185553686N01213027EA0000000316
B1239245553733N01212986EA0000000315
B1239315553790N01212947EA0000000317
B1239395553856N01212913EA0000000323
B1239455553905N01212883EA0000000331
B1239555553987N01212832EA0000000332
B1240015554040N01212806EA0000000332
B1240075554096N01212777EA0000000333
B1240135554151N01212746EA0000000340
B1240235554222N01212659EA0000000352
B1240285554210N01212560EA0000000356
B1240335554153N01212471EA0000000366
B1240395554041N01212457EA0000000370
B1240445553951N01212563EA0000000364
B1240495553902N01212730EA0000000369
B1240565553915N01212942EA0000000370
B1241035553961N01213111EA0000000383
B1241135554050N01213259EA0000000382
B1241275554181N01213295EA0000000393
B1241395554279N01213235EA0000000404
B1241475554335N01213175EA0000000411
B1241585554397N01213079EA0000000405
B1242045554431N01213010EA0000000405
B1242105554462N01212937EA0000000410
B1242155554487N01212878EA0000000417
B1242215554518N01212804EA0000000428
B1242335554602N01212706EA0000000438
B1242385554655N01212740EA0000000441
B1242515554779N01212749EA0000000451
B1243095554825N01212481EA0000000461
B1243155554815N01212363EA0000000464
B1243245554786N01212193EA0000000474
B1243295554766N01212100EA0000000479
B1243385554718N01211928EA0000000487
B1243485554650N01211731EA0000000496
B1243545554601N01211609EA0000000511
B1244025554566N01211467EA0000000522
B1244225554639N01211187EA0000000520
B1244305554587N01211035EA0000000534
B1244365554527N01210938EA0000000546
B1244455554422N01210783EA0000000548
B1244535554326N01210658EA0000000565
B1245015554237N01210538EA0000000566
B1245105554138N01210393EA0000000554
B1245185554057N01210253EA0000000552
B1245275553975N01210087EA0000000559
B1245325553935N01209998EA0000000562
B1245405553873N01209847EA0000000567
B1245455553835N01209753EA0000000571
B1246305553475N01208928EA0000000578
B1246355553419N01208834EA0000000582
B1246415553351N01208715EA0000000583
B1246475553281N01208598EA0000000605
B1246525553237N01208500EA0000000612
B1246575553229N01208404EA0000000615
B1247065553240N01208239EA0000000628
B1247145553239N01208090EA0000000633
B1247265553228N01207861EA0000000601
B1247325553243N01207750EA0000000595
B1247385553294N01207711EA0000000599
B1247435553343N01207780EA0000000596
B1247565553279N01208129EA0000000602
B1248015553183N01208144EA0000000599
B1248085553044N01208119EA0000000593
B1248285552644N01208184EA0000000578
B1248345552521N01208262EA0000000549
B1248395552421N01208365EA0000000541
B1248445552323N01208466EA0000000533
B1248515552186N01208614EA0000000513
B1248565552091N01208733EA0000000499
B1249045551950N01208936EA0000000486
B1249115551836N01209115EA0000000478
B1249195551715N01209333EA0000000470
B1249275551609N01209566EA0000000478
B1249345551547N01209785EA0000000490
B1249395551537N01209939EA0000000498
B1249445551582N01210009EA0000000506
B1249495551601N01209953EA0000000507
B1250045551390N01210026EA0000000519
B1250095551391N01210171EA0000000523
B1250165551453N01210183EA0000000531
B1250245551375N01210088EA0000000534
B1250295551287N01210160EA0000000538
B1250345551239N01210300EA0000000544
B1250395551259N01210437EA0000000545
B1250445551305N01210437EA0000000547
B1250525551225N01210340EA0000000555
B1250575551153N01210445EA0000000566
B1251025551173N01210579EA0000000564
B1251075551214N01210550EA0000000567
B1251145551130N01210489EA0000000572
B1251195551069N01210611EA0000000579
B1251245551086N01210746EA0000000577
B1251295551136N01210753EA0000000579
B1251405551033N01210675EA0000000586
B1251455550956N01210761EA0000000595
B1251505550909N01210902EA0000000591
B1252025550780N01211176EA0000000594
B1252085550745N01211077EA0000000594
B1252205550768N01211278EA0000000608
B1252255550686N01211260EA0000000611
B1252315550698N01211164EA0000000617
B1252435550649N01211401EA0000000633
B1252485550599N01211319EA0000000638
B1252535550644N01211279EA0000000645
B1253075550549N01211468EA0000000657
B1253125550568N01211392EA0000000670
B1253275550524N01211658EA0000000673
B1253325550468N01211572EA0000000673
B1253525550427N01211811EA0000000684
B1253575550370N01211727EA0000000690
B1254025550367N01211633EA0000000700
B1254225550314N01212006EA0000000700
B1254275550245N01211942EA0000000702
B1254325550233N01211848EA0000000710
B1254375550282N01211842EA0000000703
B1254555550310N01212370EA0000000701
B1255065550324N01212707EA0000000702
B1255115550329N01212867EA0000000695
B1255175550284N01213065EA0000000697
B1255245550215N01213268EA0000000710
B1255305550153N01213445EA0000000709
B1255385550074N01213682EA0000000708
B1255445550007N01213863EA0000000697
B1256005549780N01214286EA0000000693
B1256055549696N01214272EA0000000697
B1256125549653N01214140EA0000000682
B1256185549661N01214032EA0000000678
B1256235549695N01213985EA0000000675
B1256295549753N01214015EA0000000661
B1256365549803N01214184EA0000000658
B1256435549799N01214403EA0000000663
B1256515549724N01214661EA0000000646
B1256575549634N01214827EA0000000628
B1257025549539N01214922EA0000000615
B1257075549436N01214923EA0000000624
B1257125549357N01214883EA0000000642
B1257195549340N01214762EA0000000625
B1257255549402N01214769EA0000000618
B1257305549459N01214804EA0000000602
B1257365549519N01214757EA0000000595
B1257435549561N01214646EA0000000597
B1257535549593N01214458EA0000000597
B1258025549630N01214284EA0000000593
B1258105549621N01214120EA0000000606
B1258185549487N01214151EA0000000610
B1258245549465N01214333EA0000000618
B1258295549521N01214371EA0000000625
B1258345549525N01214276EA0000000630
B1258445549363N01214327EA0000000640
B1258495549349N01214482EA0000000653
B1258545549398N01214566EA0000000655
B1259015549424N01214466EA0000000656
B1259095549291N01214476EA0000000652
B1259145549270N01214635EA0000000660
B1259195549317N01214731EA0000000656
B1259245549376N01214722EA0000000653
B1259305549392N01214629EA0000000646
B1259365549345N01214512EA0000000638
B1259415549300N01214434EA0000000642
B1259465549263N01214338EA0000000629
B1259525549230N01214209EA0000000617
B1300005549192N01214046EA0000000625
B1300055549173N01213943EA0000000613
B1300115549159N01213812EA0000000605
B1300165549146N01213701EA0000000596
B1300225549133N01213567EA0000000593
B1300285549127N01213436EA0000000572
B1300365549154N01213250EA0000000537
B1300445549190N01213104EA0000000553
B1300495549211N01213033EA0000000548
B1300565549243N01212926EA0000000525
B1301055549329N01212860EA0000000505
B1301135549435N01212864EA0000000462
B1301205549547N01212896EA0000000460
B1301255549625N01212942EA0000000451
B1301315549715N01213000EA0000000457
B1301365549773N01213025EA0000000499
B1301415549793N01212954EA0000000515
B1301465549730N01212885EA0000000528
B1301515549649N01212979EA0000000520
B1301565549666N01213122EA0000000539
B1302015549710N01213094EA0000000559
B1302095549609N01213005EA0000000577
B1302145549554N01213155EA0000000576
B1302195549599N01213254EA0000000601
B1302385549491N01213350EA0000000640
B1302435549547N01213374EA0000000662
B1302485549535N01213278EA0000000673
B1302545549430N01213289EA0000000691
B1302595549387N01213445EA0000000690
B1303045549429N01213558EA0000000709
B1303095549474N01213544EA0000000717
B1303165549411N01213435EA0000000737
B1303215549329N01213529EA0000000738
B1303265549336N01213687EA0000000747
B1303325549397N01213676EA0000000761
B1303375549385N01213577EA0000000772
B1303445549263N01213568EA0000000787
B1303565549266N01213863EA0000000805
B1304015549316N01213846EA0000000817
B1304065549316N01213754EA0000000822
B1304115549252N01213685EA0000000829
B1304235549043N01213868EA0000000831
B1304325549065N01214119EA0000000849
B1304375549100N01214080EA0000000853
B1304425549045N01214013EA0000000868
B1304475548958N01214094EA0000000877
B1304535548959N01214274EA0000000890
B1304585549004N01214263EA0000000892
B1305035548969N01214177EA0000000906
B1305085548876N01214223EA0000000912
B1305165548867N01214459EA0000000930
B1305215548905N01214421EA0000000928
B1305265548850N01214342EA0000000940
B1305315548755N01214414EA0000000947
B1305375548752N01214601EA0000000963
B1305425548800N01214615EA0000000962
B1305485548775N01214513EA0000000979
B1305585548604N01214632EA0000000982
B1306055548600N01214851EA0000000994
B1306105548647N01214866EA0000001000
B1306155548641N01214785EA0000001002
B1306255548476N01214857EA0000001019
B1306305548437N01215015EA0000001025
B1306355548459N01215144EA0000001033
B1306405548502N01215155EA0000001041
B1306455548491N01215078EA0000001039
B1306565548311N01215188EA0000001051
B1307035548284N01215411EA0000001054
B1307105548350N01215527EA0000001054
B1307155548391N01215512EA0000001058
B1307205548371N01215431EA0000001058
B1307255548286N01215401EA0000001063
B1307315548182N01215512EA0000001076
B1307365548167N01215673EA0000001079
B1307415548216N01215752EA0000001078
B1307475548243N01215682EA0000001078
B1307525548187N01215597EA0000001083
B1307585548104N01215505EA0000001091
B1308045548020N01215409EA0000001088
B1308125547910N01215306EA0000001092
B1308215547787N01215186EA0000001084
B1308275547726N01215085EA0000001078
B1308335547663N01214982EA0000001065
B1308385547602N01214891EA0000001056
B1308435547539N01214800EA0000001047
B1308505547457N01214672EA0000001040
B1308555547399N01214582EA0000001032
B1309035547303N01214434EA0000001011
B1309095547224N01214319EA0000000996
B1309165547129N01214193EA0000000993
B1309215547062N01214109EA0000000984
B1309295546954N01213963EA0000000955
B1309355546868N01213834EA0000000945
B1309415546790N01213709EA0000000957
B1309465546733N01213621EA0000000974
B1309525546663N01213523EA0000000947
B1309595546574N01213367EA0000000931
B1310055546507N01213247EA0000000944
B1310105546453N01213151EA0000000938
B1310205546343N01212935EA0000000916
B1310285546241N01212762EA0000000901
B1310365546136N01212597EA0000000892
B1310425546063N01212474EA0000000883
B1310495545980N01212329EA0000000876
B1310575545892N01212167EA0000000867
B1311025545843N01212068EA0000000862
B1311105545760N01211905EA0000000840
B1311175545701N01211748EA0000000810
B1311275545605N01211506EA0000000796
B1311355545538N01211321EA0000000805
B1311405545500N01211217EA0000000819
B1311475545453N01211080EA0000000825
B1311545545437N01210941EA0000000845
B1312115545350N01211085EA0000000906
B1312205545401N01211014EA0000000927
B1312375545311N01211281EA0000000985
B1312435545373N01211266EA0000000997
B1313115545540N01210819EA0000000946
B1313285545656N01210494EA0000000938
B1313365545710N01210373EA0000000929
B1313435545763N01210271EA0000000917
B1313525545834N01210137EA0000000895
B1314015545912N01210012EA0000000889
B1314075545961N01209943EA0000000894
B1314135546013N01209869EA0000000894
B1314215546080N01209779EA0000000910
B1314265546128N01209751EA0000000907
B1314315546177N01209724EA0000000896
B1314375546243N01209679EA0000000874
B1314465546343N01209582EA0000000852
B1314515546397N01209523EA0000000837
B1314565546454N01209460EA0000000831
B1315025546517N01209400EA0000000846
B1315085546578N01209348EA0000000836
B1315165546661N01209264EA0000000819
B1315255546754N01209169EA0000000809
B1315325546826N01209084EA0000000800
B1315425546913N01208924EA0000000790
B1315515546984N01208769EA0000000782
B1315565547021N01208684EA0000000780
B1316025547062N01208579EA0000000776
B1316075547087N01208489EA0000000778
B1316195547128N01208274EA0000000769
B1316325547152N01208015EA0000000766
B1316375547166N01207922EA0000000771
B1316465547239N01207810EA0000000772
B1316535547304N01207720EA0000000767
B1317035547390N01207568EA0000000769
B1317085547444N01207540EA0000000773
B1317145547511N01207605EA0000000777
B1317205547572N01207605EA0000000786
B1317255547574N01207531EA0000000781
B1317475547254N01207363EA0000000754
B1317545547179N01207241EA0000000755
B1318035547110N01207069EA0000000772
B1318285546998N01207155EA0000000769
B1318345546941N01207050EA0000000777
B1318445546939N01206892EA0000000768
B1318515547017N01206899EA0000000750
B1319055547188N01206889EA0000000744
B1319145547300N01206877EA0000000727
B1319405547278N01206949EA0000000749
B1320055547233N01207069EA0000000768
B1320335547184N01207304EA0000000796
B1320415547237N01207244EA0000000796
B1320475547147N01207185EA0000000798
B1321015547075N01207562EA0000000819
B1321085547138N01207543EA0000000820
B1321295546999N01207823EA0000000826
B1321405547095N01207782EA0000000826
B1322205547046N01208590EA0000000799
B1322255547103N01208686EA0000000788
B1322305547169N01208710EA0000000777
B1322365547244N01208677EA0000000771
B1322435547318N01208614EA0000000767
B1322495547375N01208547EA0000000761
B1322555547425N01208461EA0000000752
B1323075547512N01208277EA0000000745
B1323195547585N01208060EA0000000737
B1323295547644N01207848EA0000000739
B1324025547817N01207227EA0000000744
B1324075547854N01207161EA0000000751
B1324145547909N01207061EA0000000757
B1324225547956N01206950EA0000000759
B1324385548027N01206668EA0000000761
B1324445548047N01206573EA0000000772
B1325015547977N01206775EA0000000757
B1325065547980N01206683EA0000000768
B1325135548028N01206618EA0000000773
B1325185548066N01206571EA0000000763
B1325285548125N01206423EA0000000748
B1327355547619N01206551EA0000000780
B1327425547593N01206440EA0000000780
B1329015547287N01208653EA0000000728
B1329085547348N01208618EA0000000719
B1329135547348N01208531EA0000000709
B1329505546667N01208801EA0000000698
B1329555546620N01208717EA0000000696
B1330005546653N01208648EA0000000696
B1330275546513N01209227EA0000000697
B1330325546450N01209152EA0000000699
B1330375546465N01209078EA0000000710
B1330485546414N01209285EA0000000724
B1330535546380N01209195EA0000000729
B1331055546365N01209387EA0000000750
B1331115546322N01209293EA0000000759
B1331245546295N01209507EA0000000774
B1331435546231N01209639EA0000000799
B1331485546176N01209568EA0000000804
B1332065546146N01209787EA0000000816
B1332115546103N01209700EA0000000820
B1332165546151N01209693EA0000000827
B1332275546064N01209940EA0000000836
B1332335546023N01209826EA0000000834
B1332435546016N01209982EA0000000843
B1332485545975N01209894EA0000000850
B1333105545889N01210210EA0000000861
B1333155545820N01210140EA0000000872
B1333315545773N01210288EA0000000892
B1333365545702N01210230EA0000000909
B1333415545706N01210145EA0000000910
B1333575545615N01210429EA0000000924
B1334045545536N01210332EA0000000925
B1334285545413N01210535EA0000000934
B1334335545435N01210469EA0000000932
B1334385545491N01210457EA0000000915
B1334445545553N01210390EA0000000935
B1334515545602N01210296EA0000000951
B1334565545635N01210232EA0000000946
B1335015545673N01210157EA0000000923
B1335085545736N01210052EA0000000910
B1335155545799N01209952EA0000000903
B1335205545840N01209897EA0000000938
B1335365545846N01210132EA0000000960
B1335415545836N01210053EA0000000967
B1335545545793N01210290EA0000000986
B1335595545775N01210201EA0000000988
B1336165545754N01210482EA0000001018
B1336215545732N01210404EA0000001028
B1336415545746N01210745EA0000001042
B1336465545705N01210674EA0000001052
B1336535545729N01210577EA0000001067
B1336595545749N01210483EA0000001051
B1337055545764N01210380EA0000001043
B1337105545774N01210287EA0000001041
B1337195545776N01210100EA0000001035
B1337285545790N01209916EA0000001053
B1337465545734N01210158EA0000001060
B1337515545681N01210089EA0000001072
B1337565545702N01210026EA0000001070
B1338075545684N01210257EA0000001077
B1338125545629N01210196EA0000001084
B1338185545646N01210113EA0000001097
B1338315545685N01210354EA0000001102
B1338365545607N01210348EA0000001095
B1338415545598N01210258EA0000001104
B1338545545667N01210465EA0000001105
B1339035545542N01210633EA0000001122
B1339095545496N01210546EA0000001108
B1339165545561N01210544EA0000001114
B1339355545419N01210995EA0000001124
B1339405545370N01210931EA0000001133
B1339485545408N01210828EA0000001127
B1339535545422N01210748EA0000001134
B1340005545429N01210633EA0000001141
B1340085545458N01210525EA0000001137
B1340195545511N01210385EA0000001122
B1340255545540N01210309EA0000001103
B1340315545575N01210220EA0000001094
B1340395545615N01210091EA0000001107
B1340485545650N01209951EA0000001119
B1340535545668N01209872EA0000001136
B1340585545651N01209790EA0000001133
B1341045545552N01209804EA0000001107
B1341145545527N01210096EA0000001147
B1341195545577N01210168EA0000001147
B1341255545643N01210184EA0000001150
B1341345545728N01210132EA0000001126
B1341395545761N01210081EA0000001127
B1341465545799N01210011EA0000001121
B1341525545835N01209947EA0000001108
B1342005545895N01209878EA0000001094
B1342075545953N01209814EA0000001087
B1342125545996N01209771EA0000001094
B1342235546080N01209690EA0000001080
B1342305546139N01209620EA0000001054
B1342355546189N01209567EA0000001049
B1342435546273N01209487EA0000001044
B1342495546329N01209431EA0000001048
B1342545546369N01209378EA0000001046
B1342595546407N01209315EA0000001031
B1343065546465N01209222EA0000001052
B1343145546520N01209126EA0000001060
B1343205546561N01209034EA0000001044
B1343255546589N01208961EA0000001057
B1343335546631N01208854EA0000001048
B1343425546679N01208722EA0000001034
B1343485546707N01208630EA0000001021
B1343545546736N01208536EA0000001003
B1344005546762N01208436EA0000000986
B1344065546776N01208325EA0000000988
B1344165546778N01208126EA0000000977
B1344215546775N01208016EA0000000977
B1344285546769N01207867EA0000000983
B1344385546772N01207654EA0000001000
B1344485546820N01207485EA0000001023
B1344535546852N01207419EA0000001028
B1345065546962N01207271EA0000001012
B1345135547033N01207193EA0000001007
B1345225547125N01207102EA0000001005
B1345425547315N01206939EA0000001001
B1346025547503N01206771EA0000000980
B1346075547546N01206711EA0000000979
B1346135547595N01206627EA0000000971
B1346215547648N01206479EA0000000966
B1346275547649N01206347EA0000000969
B1346345547614N01206178EA0000000965
B1346415547565N01206026EA0000000981
B1346505547502N01205847EA0000000964
B1346575547457N01205693EA0000000952
B1347045547415N01205547EA0000000952
B1347105547382N01205432EA0000000951
B1347215547318N01205227EA0000000946
B1347295547266N01205072EA0000000934
B1348235546722N01204049EA0000000895
B1348325546636N01203863EA0000000879
B1348415546558N01203686EA0000000871
B1348465546520N01203588EA0000000863
B1348525546473N01203470EA0000000853
B1348585546424N01203355EA0000000848
B1349045546376N01203244EA0000000843
B1349095546339N01203152EA0000000839
B1349195546262N01202966EA0000000831
B1349265546207N01202831EA0000000826
B1349315546167N01202736EA0000000824
B1349385546113N01202603EA0000000820
B1349465546050N01202453EA0000000810
B1349565545971N01202255EA0000000794
B1350045545909N01202091EA0000000785
B1350125545851N01201929EA0000000776
B1350365545683N01201419EA0000000736
B1350415545654N01201305EA0000000727
B1350465545624N01201191EA0000000722
B1350515545594N01201076EA0000000715
B1351015545533N01200840EA0000000705
B1351075545494N01200708EA0000000708
B1351145545448N01200556EA0000000705
B1351205545410N01200438EA0000000710
B1351295545351N01200247EA0000000692
B1351405545284N01159995EA0000000683
B1351475545240N01159834EA0000000679
B1351545545194N01159673EA0000000673
B1352015545145N01159517EA0000000667
B1352105545083N01159321EA0000000656
B1352175545032N01159168EA0000000644
B1352225544996N01159064EA0000000632
B1352295544943N01158911EA0000000603
B1352365544892N01158735EA0000000574
B1352435544846N01158543EA0000000576
B1352515544805N01158350EA0000000594
B1352575544801N01158225EA0000000598
B1353035544804N01158091EA0000000591
B1353085544807N01157979EA0000000598
B1353175544788N01157779EA0000000583
B1353285544796N01157533EA0000000569
B1353375544815N01157345EA0000000557
B1353475544839N01157141EA0000000547
B1353535544859N01157029EA0000000539
B1353585544878N01156932EA0000000525
B1354085544922N01156728EA0000000515
B1354165544961N01156574EA0000000512
B1354215544991N01156490EA0000000513
B1400555545742N01159308EA0000000606
B1401005545763N01159465EA0000000615
B1401055545812N01159571EA0000000619
B1401125545889N01159599EA0000000632
B1401175545925N01159542EA0000000636
B1401235545940N01159437EA0000000646
B1401305545945N01159314EA0000000652
B1401385545951N01159176EA0000000658
B1401475545966N01159024EA0000000665
B1401545545983N01158905EA0000000669
B1402025546005N01158768EA0000000678
B1402115546026N01158604EA0000000687
B1402215546046N01158414EA0000000698
B1402295546061N01158273EA0000000709
B1402365546077N01158152EA0000000713
B1402415546088N01158061EA0000000716
B1402475546101N01157954EA0000000720
B1402575546123N01157779EA0000000727
B1403075546154N01157602EA0000000729
B1403145546178N01157478EA0000000737
B1403215546202N01157360EA0000000741
B1403275546221N01157253EA0000000742
B1403355546248N01157110EA0000000749
B1403445546277N01156958EA0000000759
B1406475546477N01201191EA0000000924
B1406555546463N01201482EA0000000931
B1407015546458N01201689EA0000000929
B1407085546464N01201928EA0000000921
B1407185546487N01202273EA0000000910
B1407335546548N01202812EA0000000879
B1407425546617N01203128EA0000000871
B1407505546687N01203404EA0000000856
B1407555546731N01203574EA0000000854
B1408035546800N01203846EA0000000851
B1408115546866N01204108EA0000000841
B1408185546928N01204332EA0000000833
B1408295547034N01204673EA0000000821
B1408585547325N01205388EA0000000869
B1409035547383N01205456EA0000000868
B1409105547467N01205552EA0000000866
B1409195547568N01205704EA0000000855
B1409295547676N01205896EA0000000854
B1409375547755N01206047EA0000000850
B1409425547808N01206147EA0000000846
B1409485547874N01206277EA0000000838
B1409545547942N01206411EA0000000835
B1410045547968N01206727EA0000000840
B1410205547732N01206973EA0000000843
B1410255547686N01206897EA0000000854
B1410315547725N01206838EA0000000854
B1410485547635N01207136EA0000000869
B1410535547636N01207040EA0000000867
B1411095547605N01207295EA0000000880
B1411145547608N01207208EA0000000884
B1411315547530N01207462EA0000000900
B1411365547537N01207380EA0000000907
B1411535547484N01207658EA0000000904
B1411585547469N01207565EA0000000912
B1412165547432N01207845EA0000000919
B1412215547409N01207758EA0000000925
B1412515547227N01208144EA0000000937
B1412565547172N01208285EA0000000938
B1413215547219N01209040EA0000000906
B1413385547021N01209588EA0000000860
B1413465546922N01209834EA0000000846
B1413515546859N01209987EA0000000842
B1413565546798N01210140EA0000000837
B1414025546731N01210329EA0000000840
B1414155546766N01210688EA0000000831
B1414225546851N01210800EA0000000833
B1414295546935N01210905EA0000000823
B1414365547027N01211019EA0000000803
B1414465547163N01211166EA0000000792
B1414515547230N01211230EA0000000783
B1414565547301N01211294EA0000000770
B1415025547392N01211364EA0000000760
B1415095547493N01211434EA0000000766
B1415195547629N01211507EA0000000758
B1415245547697N01211538EA0000000754
B1415305547784N01211577EA0000000747
B1415375547884N01211623EA0000000741
B1415465548010N01211678EA0000000730
B1415535548109N01211717EA0000000720
B1416005548207N01211747EA0000000709
B1416055548276N01211767EA0000000701
B1416105548347N01211786EA0000000698
B1416205548488N01211838EA0000000682
B1416275548582N01211872EA0000000677
B1416335548662N01211904EA0000000680
B1416395548738N01211935EA0000000678
B1416445548807N01211955EA0000000665
B1416515548909N01211982EA0000000664
B1416565548978N01211997EA0000000673
B1417015549040N01212003EA0000000691
B1417065549081N01211954EA0000000693
B1417115549139N01211963EA0000000703
B1417185549222N01212065EA0000000708
B1417235549270N01212068EA0000000719
B1417285549307N01212014EA0000000716
B1417355549374N01212031EA0000000716
B1417405549429N01212079EA0000000693
B1417485549532N01212151EA0000000664
B1417555549642N01212202EA0000000623
B1418025549777N01212235EA0000000600
B1418095549913N01212251EA0000000582
B1418155550029N01212263EA0000000562
B1418205550126N01212270EA0000000550
B1418265550243N01212276EA0000000540
B1418315550343N01212280EA0000000532
B1418405550526N01212280EA0000000530
B1418455550614N01212283EA0000000553
B1418505550703N01212284EA0000000543
B1418565550812N01212250EA0000000525
B1419015550904N01212207EA0000000512
B1419075551015N01212164EA0000000497
B1419125551104N01212126EA0000000485
B1419175551191N01212081EA0000000466
B1419225551278N01212035EA0000000448
B1419285551379N01211981EA0000000449
B1419355551491N01211926EA0000000460
B1419405551559N01211890EA0000000466
B1419535551725N01211828EA0000000444
B1419585551791N01211810EA0000000457
B1420035551828N01211738EA0000000469
B1420095551824N01211606EA0000000468
B1420165551726N01211491EA0000000443
B1420215551634N01211608EA0000000445
B1420265551629N01211792EA0000000430
B1420315551697N01211893EA0000000419
B1420375551800N01211905EA0000000408
B1420425551886N01211881EA0000000418
B1420475551957N01211859EA0000000447
B1420565552075N01211830EA0000000440
B1421025552147N01211806EA0000000442
B1421085552216N01211773EA0000000440
B1421165552304N01211705EA0000000424
B1421235552375N01211628EA0000000422
B1421295552434N01211562EA0000000410
B1421345552497N01211527EA0000000396
B1421395552565N01211597EA0000000400
B1421445552592N01211753EA0000000394
B1421545552457N01212026EA0000000366
B1421595552360N01211978EA0000000352
B1422065552322N01211785EA0000000333
B1422115552345N01211660EA0000000326
B1422235552491N01211551EA0000000325
B1422295552578N01211582EA0000000314
B1422345552647N01211655EA0000000308
B1422405552687N01211845EA0000000291
B1422455552670N01212048EA0000000276
B1422525552616N01212338EA0000000261
B1422595552563N01212619EA0000000253
B1423055552524N01212857EA0000000249
B1423105552489N01213051EA0000000240
B1423155552458N01213242EA0000000233
B1423255552402N01213628EA0000000216
B1423315552392N01213875EA0000000208
B1423365552405N01214070EA0000000222
B1423415552421N01214252EA0000000233
B1423495552454N01214525EA0000000219
B1423555552490N01214719EA0000000207
B1424015552560N01214860EA0000000191
B1424085552663N01214943EA0000000177
B1424145552748N01214999EA0000000172
B1424195552815N01215043EA0000000156
B1424245552884N01215057EA0000000142
B1424305552941N01214957EA0000000125
B1424395552973N01214743EA0000000108
B1424455552989N01214598EA0000000094
B1424525553010N01214434EA0000000075
B1425025553039N01214192EA0000000041
B1425075553054N01214065EA0000000025
B1425135553063N01213923EA0000000019
B1425215553075N01213790EA0000000019
