AOGNOGN
HFDTE190625
HFFXA050
HFPLTPILOTINCHARGE:
HFGTYGLIDERTYPE:H36 Dimona
HFGIDGLIDERID:OY-NFX
HFDTM100GPSDATUM:WGS-1984
HFRFWFIRMWAREVERSION:
HFRHWHARDWAREVERSION:
HFFTYFRTYPE:OGN-FLIGHTBOOK
HFGPSGENERIC
HFPRSPRESSALTSENSOR:
HFCIDCOMPETITIONID:FX
B1514205553062N01213952EA0000000018
B1514235553068N01213898EA0000000018
B1514285553079N01213784EA0000000021
B1514335553089N01213665EA0000000051
B1514405553097N01213524EA0000000082
B1514455553099N01213422EA0000000095
B1514515553111N01213298EA0000000111
B1514575553146N01213199EA0000000132
B1515025553185N01213138EA0000000155
B1515095553249N01213068EA0000000179
B1515145553295N01213026EA0000000194
B1515215553360N01212961EA0000000201
B1515315553455N01212870EA0000000221
B1515385553537N01212875EA0000000236
B1515485553650N01212908EA0000000252
B1515555553735N01212939EA0000000269
B1516055553853N01212932EA0000000293
B1516115553921N01212936EA0000000325
B1516165553979N01212950EA0000000331
B1516225554060N01212978EA0000000346
B1516295554145N01213035EA0000000373
B1516355554210N01213115EA0000000385
B1516415554268N01213231EA0000000395
B1516465554298N01213364EA0000000406
B1516515554322N01213506EA0000000415
B1516565554345N01213652EA0000000428
B1517015554367N01213800EA0000000436
B1517085554407N01213998EA0000000447
B1517135554442N01214128EA0000000456
B1517185554481N01214251EA0000000468
B1517255554537N01214414EA0000000489
B1517305554587N01214511EA0000000501
B1517365554649N01214614EA0000000516
B1517435554719N01214726EA0000000543
B1517515554806N01214861EA0000000563
B1517575554869N01214974EA0000000584
B1518045554945N01215106EA0000000603
B1518155555065N01215316EA0000000625
B1518215555133N01215430EA0000000638
B1518265555197N01215533EA0000000641
B1518325555282N01215657EA0000000654
B1518395555377N01215818EA0000000676
B1518455555460N01215968EA0000000686
B1518515555545N01216122EA0000000693
B1518595555663N01216324EA0000000704
B1519055555751N01216476EA0000000713
B1519125555861N01216615EA0000000725
B1519175555948N01216686EA0000000723
B1519245556074N01216784EA0000000731
B1519335556237N01216932EA0000000735
B1519395556350N01217027EA0000000737
B1519455556459N01217119EA0000000759
B1519505556545N01217195EA0000000772
B1519555556622N01217295EA0000000780
B1520005556667N01217475EA0000000778
B1520055556645N01217712EA0000000770
B1520125556541N01218041EA0000000761
B1520185556455N01218327EA0000000756
B1520255556357N01218671EA0000000745
B1520305556277N01218905EA0000000751
B1520365556139N01219098EA0000000754
B1520415555995N01219128EA0000000733
B1520465555871N01219023EA0000000701
B1520535555811N01218752EA0000000693
B1520585555820N01218557EA0000000683
B1521045555862N01218339EA0000000677
B1521105555910N01218147EA0000000688
B1521155555950N01218008EA0000000697
B1521235556006N01217804EA0000000702
B1521285556041N01217670EA0000000707
B1521345556079N01217522EA0000000727
B1521405556117N01217390EA0000000732
B1521455556143N01217276EA0000000742
B1521505556174N01217166EA0000000732
B1521585556278N01217073EA0000000744
B1522035556333N01217016EA0000000751
B1522085556357N01216895EA0000000727
B1522135556343N01216741EA0000000734
B1522185556293N01216605EA0000000741
B1522255556173N01216460EA0000000735
B1522325556043N01216346EA0000000737
B1522375555947N01216277EA0000000739
B1522425555876N01216172EA0000000731
B1522475555871N01216025EA0000000702
B1522525555924N01215891EA0000000680
B1522575556009N01215801EA0000000679
B1523025556093N01215727EA0000000684
B1523095556192N01215613EA0000000696
B1523145556253N01215532EA0000000703
B1523205556317N01215420EA0000000708
B1523265556360N01215281EA0000000708
B1523315556365N01215138EA0000000704
B1523385556312N01214938EA0000000704
B1523435556245N01214808EA0000000703
B1523505556148N01214635EA0000000706
B1523565556062N01214484EA0000000708
B1524045555934N01214299EA0000000695
B1524115555803N01214153EA0000000689
B1524175555676N01214064EA0000000678
B1524235555545N01213985EA0000000666
B1524305555396N01213887EA0000000644
B1524375555246N01213783EA0000000600
B1524445555104N01213674EA0000000585
B1524515554967N01213562EA0000000562
B1524575554851N01213443EA0000000538
B1525035554736N01213307EA0000000519
B1525095554619N01213172EA0000000503
B1525175554464N01212998EA0000000480
B1525225554370N01212888EA0000000467
B1525285554292N01212712EA0000000453
B1525335554270N01212546EA0000000433
B1525385554249N01212383EA0000000422
B1525435554184N01212260EA0000000418
B1525495554057N01212219EA0000000394
B1525545553937N01212232EA0000000374
B1525595553815N01212279EA0000000357
B1526055553696N01212448EA0000000341
B1526135553656N01212789EA0000000313
B1526235553657N01213211EA0000000281
B1526295553656N01213463EA0000000259
B1526345553653N01213674EA0000000240
B1526405553654N01213928EA0000000230
B1526495553652N01214302EA0000000213
B1526545553634N01214504EA0000000200
B1527005553567N01214722EA0000000192
B1527065553457N01214881EA0000000175
B1527115553346N01214949EA0000000155
B1527175553212N01214928EA0000000135
B1527235553096N01214826EA0000000117
B1527285553021N01214710EA0000000087
B1527345553001N01214542EA0000000074
B1527405553013N01214383EA0000000056
B1527455553027N01214250EA0000000043
B1527505553044N01214116EA0000000029
B1527575553066N01213923EA0000000023
B1528035553086N01213757EA0000000022
B1528105553106N01213563EA0000000024
B1528155553118N01213419EA0000000035
B1528235553137N01213183EA0000000063
B1528285553148N01213035EA0000000089
B1528375553150N01212794EA0000000135
B1528425553124N01212666EA0000000153
B1528485553049N01212535EA0000000169
B1528535552967N01212447EA0000000181
B1528585552876N01212379EA0000000196
B1529055552736N01212325EA0000000226
B1529105552632N01212354EA0000000250
B1529155552544N01212482EA0000000261
B1529225552476N01212739EA0000000272
B1529305552423N01213057EA0000000273
B1529355552398N01213258EA0000000271
B1529415552378N01213501EA0000000270
B1529475552369N01213737EA0000000267
B1529565552365N01214076EA0000000254
B1530015552371N01214255EA0000000251
B1530075552389N01214459EA0000000242
B1530135552422N01214653EA0000000232
B1530185552466N01214795EA0000000222
B1530245552541N01214915EA0000000221
B1530315552638N01215020EA0000000203
B1530365552707N01215098EA0000000190
B1530415552777N01215158EA0000000176
B1530475552854N01215125EA0000000172
B1530525552902N01215047EA0000000162
B1530595552943N01214903EA0000000131
B1531045552963N01214790EA0000000115
B1531095552980N01214673EA0000000098
B1531145552997N01214554EA0000000082
B1531215553018N01214386EA0000000060
B1531285553038N01214215EA0000000040
B1531355553058N01214034EA0000000020
B1531425553074N01213881EA0000000017
B1531495553083N01213777EA0000000017
