AOGNOGN
HFDTE300725
HFFXA050
HFPLTPILOTINCHARGE:
HFGTYGLIDERTYPE:Stemme S-10
HFGIDGLIDERID:D-KGCY
HFDTM100GPSDATUM:WGS-1984
HFRFWFIRMWAREVERSION:
HFRHWHARDWAREVERSION:
HFFTYFRTYPE:OGN-FLIGHTBOOK
HFGPSGENERIC
HFPRSPRESSALTSENSOR:
HFCIDCOMPETITIONID:Q4
B1206045650896N00927054EA0000000033
B1206095650883N00927142EA0000000032
B1206095650883N00927142EA0000000032
B1206155650860N00927282EA0000000032
B1206205650837N00927417EA0000000036
B1206275650793N00927598EA0000000055
B1206325650738N00927703EA0000000063
B1206385650652N00927806EA0000000071
B1206435650574N00927873EA0000000085
B1206535650402N00927913EA0000000117
B1207005650277N00927885EA0000000142
B1207065650174N00927850EA0000000155
B1207115650089N00927823EA0000000167
B1207175649989N00927792EA0000000178
B1207225649907N00927748EA0000000188
B1207275649835N00927639EA0000000198
B1207345649809N00927425EA0000000247
B1207395649869N00927341EA0000000258
B1207445649919N00927410EA0000000254
B1207515649855N00927496EA0000000284
B1207565649798N00927416EA0000000286
B1208015649800N00927275EA0000000291
B1208085649898N00927167EA0000000277
B1208145649974N00927262EA0000000283
B1208195650002N00927380EA0000000302
B1208255649948N00927467EA0000000300
B1208305649878N00927403EA0000000304
B1208355649866N00927268EA0000000321
B1208425649954N00927170EA0000000313
B1208495650037N00927273EA0000000334
B1208545650027N00927377EA0000000337
B1208595649955N00927382EA0000000325
B1209045649907N00927254EA0000000324
B1209095649920N00927097EA0000000338
B1209165649986N00926930EA0000000349
B1209215650052N00926908EA0000000368
B1209265650085N00926998EA0000000370
B1209345650002N00927089EA0000000383
B1209395649947N00926996EA0000000387
B1209445649952N00926847EA0000000393
B1209495650015N00926769EA0000000403
B1209555650082N00926838EA0000000418
B1210005650063N00926954EA0000000421
B1210065649980N00926941EA0000000435
B1210115649957N00926792EA0000000440
B1210165650007N00926685EA0000000454
B1210235650066N00926793EA0000000459
B1210285650016N00926879EA0000000479
B1210335649951N00926828EA0000000489
B1210405649968N00926627EA0000000498
B1210455650036N00926608EA0000000515
B1210515650060N00926737EA0000000516
B1210595649955N00926775EA0000000539
B1211045649921N00926632EA0000000549
B1211095649955N00926494EA0000000556
B1211145650025N00926460EA0000000567
B1211195650058N00926554EA0000000569
B1211245650010N00926656EA0000000566
B1211315649917N00926570EA0000000598
B1211365649929N00926416EA0000000592
B1211415649993N00926339EA0000000608
B1211485650052N00926439EA0000000609
B1211535650013N00926542EA0000000615
B1211595649925N00926534EA0000000638
B1212055649930N00926373EA0000000635
B1212105650003N00926348EA0000000646
B1212155650056N00926410EA0000000658
B1212225650035N00926552EA0000000660
B1212275649961N00926570EA0000000662
B1212325649902N00926636EA0000000663
B1212405649993N00926671EA0000000663
B1212465650036N00926508EA0000000667
B1212535650072N00926298EA0000000675
B1213005650100N00926088EA0000000674
B1213055650096N00925940EA0000000672
B1213105650037N00925834EA0000000663
B1213165649933N00925844EA0000000650
B1213235649815N00925884EA0000000656
B1213305649811N00926042EA0000000630
B1213355649838N00926187EA0000000619
B1213405649800N00926325EA0000000629
B1213495649648N00926464EA0000000613
B1213565649499N00926495EA0000000609
B1214015649390N00926494EA0000000602
B1214275648843N00926404EA0000000573
B1214325648750N00926369EA0000000603
B1214385648675N00926254EA0000000611
B1214435648701N00926106EA0000000602
B1214495648808N00926028EA0000000590
B1214575648868N00926150EA0000000612
B1215035648779N00926192EA0000000581
B1215215648464N00926050EA0000000575
B1215375648158N00925936EA0000000529
B1215425648042N00925919EA0000000510
B1215475647924N00925906EA0000000520
B1215525647825N00925957EA0000000540
B1215585647781N00926113EA0000000571
B1216045647858N00926173EA0000000564
B1216115647902N00925979EA0000000551
B1216165647817N00925953EA0000000542
B1216215647782N00926103EA0000000550
B1216275647790N00926300EA0000000555
B1216345647774N00926510EA0000000548
B1216395647817N00926641EA0000000537
B1216445647914N00926637EA0000000531
B1216495647983N00926504EA0000000526
B1216545647961N00926329EA0000000508
B1216595647859N00926281EA0000000480
B1217215647389N00926430EA0000000485
B1217345647155N00926457EA0000000532
B1217395647154N00926337EA0000000523
B1217445647230N00926313EA0000000523
B1217515647223N00926448EA0000000528
B1217575647151N00926559EA0000000520
B1218025647171N00926672EA0000000511
B1218075647240N00926590EA0000000506
B1218125647210N00926437EA0000000482
B1218185647090N00926363EA0000000473
B1218475646519N00926177EA0000000450
B1218535646398N00926133EA0000000448
B1218585646302N00926073EA0000000447
B1219035646215N00925974EA0000000437
B1219095646133N00925805EA0000000439
B1219155646088N00925606EA0000000455
B1219225646051N00925391EA0000000477
B1219275645987N00925401EA0000000475
B1219325646002N00925522EA0000000478
B1219375646069N00925591EA0000000490
B1219445646157N00925516EA0000000494
B1219505646101N00925374EA0000000486
B1219565646014N00925414EA0000000499
B1220095646082N00925457EA0000000505
B1220185645981N00925375EA0000000523
B1220355646030N00925235EA0000000541
B1220405645980N00925321EA0000000552
B1220475646065N00925382EA0000000548
B1221015646026N00925140EA0000000554
B1221095645921N00925212EA0000000584
B1221155645899N00925048EA0000000557
B1221285646045N00924737EA0000000563
B1221335646118N00924662EA0000000567
B1221555646145N00924953EA0000000557
B1222015646069N00925064EA0000000558
B1222075646011N00925203EA0000000552
B1222275645820N00925374EA0000000584
B1222355645905N00925247EA0000000598
B1222405645963N00925312EA0000000590
B1222515646075N00925509EA0000000605
B1222595645988N00925532EA0000000608
B1223055645990N00925350EA0000000616
B1223135646068N00925417EA0000000624
B1223185646002N00925432EA0000000627
B1223235646000N00925283EA0000000633
B1223355646016N00925379EA0000000644
B1223405646006N00925235EA0000000649
B1223545646019N00925321EA0000000665
B1224005646022N00925146EA0000000672
B1224095646107N00925230EA0000000682
B1224145646047N00925248EA0000000684
B1224235646101N00925053EA0000000695
B1224395646029N00925132EA0000000698
B1225255645740N00924857EA0000000743
B1225305645712N00924728EA0000000724
B1225355645776N00924615EA0000000692
B1225505645833N00924996EA0000000705
B1226105645819N00924976EA0000000736
B1226315645828N00924949EA0000000767
B1226365645829N00925071EA0000000777
B1226495645864N00924877EA0000000789
B1226545645810N00924948EA0000000809
B1227165645816N00924836EA0000000832
B1227215645774N00924929EA0000000849
B1227355645872N00924802EA0000000857
B1227415645791N00924824EA0000000881
B1227465645806N00924945EA0000000886
B1228025645835N00924731EA0000000901
B1228075645794N00924823EA0000000938
B1228125645824N00924910EA0000000926
B1228255645872N00924648EA0000000932
B1228315645798N00924681EA0000000937
B1228375645849N00924809EA0000000949
B1228425645917N00924759EA0000000952
B1228495645886N00924585EA0000000945
B1228555645798N00924627EA0000000963
B1229155645891N00924653EA0000000976
B1229235645850N00924419EA0000000984
B1229285645779N00924371EA0000000997
B1229335645741N00924479EA0000001005
B1229385645791N00924571EA0000001012
B1229445645879N00924497EA0000001006
B1229525645856N00924287EA0000001030
B1229575645785N00924285EA0000001041
B1230025645751N00924399EA0000001047
B1230075645787N00924512EA0000001052
B1230195645879N00924286EA0000001044
B1230245645810N00924238EA0000001065
B1230295645757N00924328EA0000001061
B1230345645776N00924455EA0000001078
B1230505645876N00924199EA0000001071
B1230555645816N00924114EA0000001086
B1231045645705N00923993EA0000001091
B1231275645314N00923819EA0000001063
B1231355645163N00923759EA0000001043
B1231475644929N00923613EA0000001020
B1231565644755N00923486EA0000001016
B1232025644643N00923406EA0000001008
B1232085644532N00923331EA0000001004
B1232215644277N00923137EA0000000953
B1232285644145N00923038EA0000000990
B1232335644065N00922956EA0000000988
B1232385643994N00922828EA0000000958
B1232485643903N00922405EA0000000940
B1232535643869N00922194EA0000000941
B1233015643819N00921865EA0000000936
B1233095643772N00921552EA0000000953
B1233245643712N00921036EA0000000958
B1233335643670N00920727EA0000000932
B1233495643576N00920042EA0000000864
B1234035643482N00919439EA0000000845
B1234095643475N00919194EA0000000879
B1234145643475N00919021EA0000000884
B1234205643472N00918805EA0000000889
B1234255643495N00918654EA0000000915
B1234315643525N00918501EA0000000920
B1234425643520N00918108EA0000000877
B1234475643505N00917909EA0000000869
B1235085643427N00917049EA0000000823
B1235135643418N00916843EA0000000827
B1236415643175N00913482EA0000000757
B1236585643182N00913625EA0000000754
B1237045643099N00913600EA0000000761
B1237095643025N00913575EA0000000760
B1237195642974N00913349EA0000000767
B1237265643052N00913390EA0000000762
B1237515642938N00912994EA0000000782
B1237565642930N00912837EA0000000780
B1238015642865N00912726EA0000000773
B1238065642779N00912732EA0000000772
B1238115642732N00912844EA0000000773
B1238205642809N00913029EA0000000764
B1238285642934N00912897EA0000000758
B1238465643003N00912223EA0000000727
B1239135642823N00911189EA0000000760
B1239185642878N00911098EA0000000762
B1239235642934N00911158EA0000000753
B1239315642871N00911301EA0000000765
B1239395642754N00911214EA0000000762
B1239505642699N00910930EA0000000764
B1239555642774N00910878EA0000000752
B1240025642869N00910994EA0000000731
B1240125642844N00911219EA0000000730
B1240185642727N00911194EA0000000730
B1240295642523N00911067EA0000000735
B1240485642436N00910389EA0000000707
B1241045642403N00909773EA0000000704
B1241295642345N00908837EA0000000684
B1241405642304N00908434EA0000000667
B1241505642270N00908063EA0000000674
B1242025642245N00907681EA0000000675
B1242105642227N00907395EA0000000646
B1242345642278N00906882EA0000000669
B1242535642157N00906688EA0000000676
B1243025642241N00906827EA0000000690
B1243115642168N00906958EA0000000687
B1243185642060N00906928EA0000000680
B1243435642033N00906280EA0000000730
B1244255641928N00906022EA0000000788
B1244315642001N00906064EA0000000787
B1244455641929N00905950EA0000000812
B1244565641954N00906082EA0000000832
B1245525641972N00905708EA0000000900
B1246465641866N00905736EA0000000940
B1247465641451N00905357EA0000000913
B1247555641272N00905202EA0000000900
B1248035641116N00905073EA0000000893
B1248095640999N00904986EA0000000888
B1248145640900N00904906EA0000000877
B1248285640624N00904673EA0000000866
B1248395640403N00904500EA0000000845
B1248455640280N00904407EA0000000843
B1249095639796N00904049EA0000000819
B1249145639696N00903977EA0000000816
B1249245639501N00903824EA0000000808
B1249355639292N00903659EA0000000799
B1250055638714N00903301EA0000000767
B1250365638158N00902978EA0000000749
B1250505637896N00902875EA0000000735
B1250575637762N00902828EA0000000731
B1251035637650N00902791EA0000000728
B1251115637500N00902743EA0000000724
B1251185637372N00902701EA0000000725
B1251245637269N00902668EA0000000729
B1251325637134N00902629EA0000000723
B1251385637033N00902614EA0000000719
B1251445636933N00902606EA0000000710
B1251515636814N00902586EA0000000701
B1252035636604N00902553EA0000000689
B1252085636516N00902536EA0000000686
B1252255636218N00902475EA0000000668
B1252325636097N00902431EA0000000664
B1252435635905N00902374EA0000000655
B1252525635753N00902329EA0000000644
B1253015635601N00902291EA0000000636
B1253095635468N00902263EA0000000628
B1253145635385N00902257EA0000000619
B1253265635176N00902248EA0000000603
B1253365635001N00902245EA0000000595
B1253445634861N00902228EA0000000590
B1254035634528N00902208EA0000000571
B1254115634382N00902196EA0000000564
B1254195634232N00902187EA0000000551
B1254255634117N00902182EA0000000547
B1254345633949N00902171EA0000000544
B1254445633767N00902145EA0000000540
B1254515633643N00902115EA0000000537
B1255025633442N00902070EA0000000529
B1255095633313N00902033EA0000000528
B1255165633183N00901996EA0000000522
B1255245633039N00901958EA0000000520
B1255315632921N00901993EA0000000513
B1255365632845N00902052EA0000000510
B1255415632771N00902115EA0000000502
B1255475632676N00902183EA0000000491
B1255525632594N00902235EA0000000490
B1255585632497N00902303EA0000000483
B1256085632319N00902410EA0000000480
B1256145632230N00902495EA0000000500
B1256215632226N00902651EA0000000481
B1256265632293N00902687EA0000000477
B1256315632350N00902579EA0000000465
B1256365632345N00902403EA0000000451
B1256415632295N00902249EA0000000454
B1256485632277N00902025EA0000000461
B1256535632328N00901915EA0000000467
B1257005632428N00901901EA0000000468
B1257055632475N00901981EA0000000468
B1257105632463N00902103EA0000000462
B1257185632384N00902270EA0000000466
B1257245632296N00902265EA0000000468
B1257295632285N00902129EA0000000451
B1257345632342N00902064EA0000000465
B1257395632395N00902098EA0000000469
B1257445632437N00902165EA0000000467
B1257505632489N00902261EA0000000456
B1257575632554N00902386EA0000000438
B1258045632630N00902532EA0000000416
B1258095632686N00902649EA0000000406
B1258145632726N00902788EA0000000396
B1258225632779N00903014EA0000000388
B1258275632812N00903150EA0000000390
B1258325632809N00903277EA0000000409
B1258375632739N00903307EA0000000409
B1258425632684N00903191EA0000000415
B1258475632707N00903071EA0000000417
B1258525632773N00903076EA0000000406
B1258575632811N00903178EA0000000415
B1259045632785N00903324EA0000000413
B1259095632707N00903319EA0000000412
B1259155632629N00903202EA0000000420
B1259215632582N00903049EA0000000427
B1259275632643N00902993EA0000000418
B1259385632594N00903248EA0000000411
B1259435632546N00903356EA0000000415
B1259485632486N00903260EA0000000395
B1259595632595N00903118EA0000000408
B1300045632660N00903151EA0000000413
B1300095632643N00903247EA0000000407
B1300155632553N00903214EA0000000398
B1300215632475N00903110EA0000000391
B1300275632380N00903005EA0000000391
B1300325632322N00902880EA0000000400
B1300375632349N00902758EA0000000407
B1300425632401N00902792EA0000000417
B1300475632380N00902897EA0000000425
B1300525632306N00902899EA0000000428
B1300595632273N00902727EA0000000424
B1301045632332N00902656EA0000000433
B1301105632377N00902727EA0000000443
B1301155632325N00902808EA0000000440
B1301205632266N00902725EA0000000446
B1301265632301N00902578EA0000000452
B1301315632356N00902565EA0000000456
B1301365632364N00902666EA0000000456
B1301415632312N00902743EA0000000461
B1301465632236N00902764EA0000000458
B1301535632117N00902769EA0000000442
B1301585632039N00902746EA0000000465
B1302035631963N00902705EA0000000469
B1302095631905N00902574EA0000000474
B1302145631943N00902454EA0000000468
B1302195632005N00902475EA0000000470
B1302265631964N00902586EA0000000474
B1302315631883N00902541EA0000000475
B1302365631810N00902455EA0000000473
B1302415631740N00902353EA0000000471
B1302465631684N00902246EA0000000493
B1302515631704N00902132EA0000000499
B1302575631766N00902183EA0000000495
B1303025631732N00902265EA0000000524
B1303075631679N00902198EA0000000494
B1303135631724N00902060EA0000000514
B1303185631771N00902129EA0000000514
B1303235631745N00902223EA0000000523
B1303285631684N00902145EA0000000525
B1303335631717N00902033EA0000000539
B1303385631765N00902084EA0000000541
B1303435631729N00902168EA0000000540
B1303485631663N00902090EA0000000534
B1303535631688N00901953EA0000000550
B1303585631748N00901972EA0000000551
B1304035631735N00902076EA0000000554
B1304085631660N00902057EA0000000550
B1304135631608N00901924EA0000000566
B1304205631640N00901772EA0000000573
B1304255631678N00901842EA0000000567
B1304305631624N00901917EA0000000570
B1304355631546N00901915EA0000000582
B1304415631507N00901772EA0000000583
B1304465631568N00901710EA0000000589
B1304525631585N00901828EA0000000590
B1304585631499N00901819EA0000000595
B1305035631490N00901678EA0000000610
B1305095631561N00901654EA0000000607
B1305165631542N00901793EA0000000616
B1305215631473N00901731EA0000000620
B1305265631477N00901591EA0000000631
B1305325631550N00901575EA0000000630
B1305375631548N00901684EA0000000627
B1305425631480N00901730EA0000000643
B1305485631410N00901642EA0000000651
B1305535631436N00901524EA0000000648
B1305585631499N00901552EA0000000648
B1306055631447N00901671EA0000000665
B1306105631385N00901589EA0000000674
B1306155631396N00901451EA0000000679
B1306225631479N00901455EA0000000683
B1306285631447N00901573EA0000000684
B1306335631372N00901522EA0000000696
B1306405631388N00901338EA0000000706
B1306475631462N00901392EA0000000705
B1306525631415N00901479EA0000000705
B1306575631341N00901420EA0000000725
B1307025631331N00901281EA0000000726
B1307075631391N00901223EA0000000736
B1307125631430N00901302EA0000000736
B1307185631377N00901417EA0000000729
B1307235631297N00901360EA0000000741
B1307305631290N00901158EA0000000752
B1307355631356N00901117EA0000000759
B1307405631389N00901214EA0000000760
B1307485631292N00901324EA0000000778
B1307535631243N00901221EA0000000780
B1307595631293N00901086EA0000000786
B1308045631350N00901122EA0000000797
B1308095631329N00901236EA0000000795
B1308155631240N00901238EA0000000811
B1308215631207N00901075EA0000000802
B1308265631263N00900976EA0000000810
B1308315631316N00901031EA0000000820
B1308365631298N00901146EA0000000819
B1308425631204N00901168EA0000000823
B1308475631148N00901048EA0000000821
B1308525631158N00900905EA0000000824
B1308575631220N00900846EA0000000812
B1309025631287N00900911EA0000000815
B1309095631237N00901024EA0000000828
B1309145631186N00900903EA0000000825
B1309195631230N00900788EA0000000843
B1309245631284N00900838EA0000000830
B1309325631205N00900992EA0000000844
B1309375631135N00900917EA0000000836
B1309425631152N00900764EA0000000844
B1309475631217N00900744EA0000000853
B1309525631231N00900863EA0000000840
B1309575631149N00900913EA0000000846
B1310025631088N00900787EA0000000850
B1310085631117N00900607EA0000000849
B1310135631192N00900595EA0000000851
B1310195631209N00900739EA0000000851
B1310255631114N00900785EA0000000861
B1310305631060N00900660EA0000000867
B1310355631090N00900528EA0000000866
B1310425631177N00900577EA0000000858
B1310475631145N00900698EA0000000868
B1310525631064N00900696EA0000000880
B1310585630980N00900584EA0000000869
B1311035630908N00900472EA0000000852
B1311095630815N00900325EA0000000831
B1311175630686N00900108EA0000000807
B1311225630620N00859953EA0000000802
B1311325630487N00859637EA0000000768
B1311395630382N00859409EA0000000756
B1311485630248N00859116EA0000000753
B1311555630162N00858904EA0000000779
B1312025630181N00858707EA0000000791
B1312095630273N00858730EA0000000785
B1312165630264N00858883EA0000000789
B1312225630174N00858918EA0000000782
B1312275630089N00858887EA0000000784
B1312355629980N00858698EA0000000772
B1312415629907N00858525EA0000000770
B1312495629819N00858294EA0000000768
B1312545629764N00858151EA0000000766
B1313085629575N00857813EA0000000757
B1313135629503N00857694EA0000000763
B1313195629418N00857564EA0000000769
B1313245629412N00857433EA0000000772
B1313295629465N00857432EA0000000768
B1313345629465N00857555EA0000000758
B1313405629412N00857698EA0000000760
B1313455629331N00857712EA0000000779
B1313505629266N00857633EA0000000782
B1313565629303N00857508EA0000000774
B1314015629353N00857559EA0000000771
B1314065629343N00857687EA0000000765
B1314125629305N00857832EA0000000778
B1314175629241N00857852EA0000000791
B1314225629217N00857721EA0000000779
B1314275629277N00857650EA0000000788
B1314325629328N00857726EA0000000798
B1314385629281N00857812EA0000000794
B1314435629225N00857706EA0000000802
B1314485629259N00857580EA0000000799
B1314535629330N00857555EA0000000816
B1314595629351N00857660EA0000000809
B1315055629259N00857707EA0000000814
B1315105629198N00857624EA0000000826
B1315155629218N00857487EA0000000809
B1315235629298N00857321EA0000000835
B1315285629366N00857293EA0000000822
B1315335629400N00857385EA0000000827
B1315395629317N00857439EA0000000826
B1315445629238N00857370EA0000000832
B1315495629175N00857254EA0000000833
B1315555629118N00857090EA0000000836
B1316005629077N00856952EA0000000831
B1316065629033N00856768EA0000000821
B1316145628989N00856495EA0000000818
B1316195628967N00856317EA0000000810
B1316255628934N00856096EA0000000789
B1316315628897N00855864EA0000000774
B1316395628844N00855574EA0000000790
B1316475628739N00855373EA0000000780
B1316565628591N00855194EA0000000789
B1317015628520N00855088EA0000000795
B1317105628519N00854816EA0000000782
B1317155628505N00854659EA0000000778
B1317215628445N00854486EA0000000789
B1317275628379N00854327EA0000000801
B1317325628305N00854291EA0000000812
B1317375628272N00854392EA0000000805
B1317425628323N00854464EA0000000824
B1317485628388N00854392EA0000000830
B1317535628372N00854245EA0000000840
B1317585628297N00854199EA0000000844
B1318035628245N00854280EA0000000848
B1318115628293N00854418EA0000000860
B1318165628353N00854367EA0000000856
B1318225628372N00854183EA0000000865
B1318275628325N00854055EA0000000872
B1318325628246N00854065EA0000000863
B1318375628201N00854180EA0000000867
B1318445628166N00854342EA0000000886
B1318515628236N00854383EA0000000878
B1318565628243N00854230EA0000000876
B1319025628156N00854117EA0000000898
B1319075628088N00854158EA0000000894
B1319135628090N00854292EA0000000908
B1319195628155N00854318EA0000000901
B1319245628197N00854191EA0000000896
B1319315628198N00853949EA0000000904
B1319365628195N00853786EA0000000913
B1319425628194N00853599EA0000000899
B1319475628203N00853425EA0000000882
B1319535628214N00853241EA0000000903
B1319595628223N00853041EA0000000868
B1320045628225N00852850EA0000000878
B1320145628222N00852550EA0000000902
B1320195628192N00852400EA0000000875
B1320245628142N00852233EA0000000855
B1320385628091N00851715EA0000000865
B1320435628086N00851539EA0000000864
B1320535628131N00851210EA0000000856
B1321205628537N00850887EA0000000862
B1321265628628N00850908EA0000000860
B1321315628694N00850949EA0000000854
B1321365628729N00851060EA0000000829
B1321425628679N00851236EA0000000807
B1321565628413N00851108EA0000000783
B1322035628310N00850912EA0000000787
B1322115628208N00850696EA0000000790
B1322165628149N00850558EA0000000796
B1322215628093N00850425EA0000000803
B1322265628037N00850297EA0000000805
B1322315627986N00850166EA0000000805
B1322365627940N00850028EA0000000798
B1322425627900N00849846EA0000000792
B1322475627872N00849693EA0000000788
B1322535627836N00849511EA0000000784
B1322585627803N00849358EA0000000775
B1323035627760N00849205EA0000000775
B1323105627692N00849000EA0000000761
B1323175627606N00848791EA0000000735
B1323275627452N00848494EA0000000716
B1323325627375N00848346EA0000000712
B1323405627251N00848117EA0000000702
B1323485627126N00847908EA0000000696
B1323545627037N00847755EA0000000700
B1324025626930N00847559EA0000000707
B1324075626871N00847438EA0000000704
B1324185626735N00847166EA0000000689
B1324255626649N00846992EA0000000684
B1324325626558N00846822EA0000000680
B1324385626481N00846678EA0000000697
B1324475626457N00846468EA0000000725
B1324525626514N00846473EA0000000733
B1324585626482N00846582EA0000000726
B1325115626434N00846314EA0000000762
B1325175626475N00846413EA0000000761
B1325325626412N00846205EA0000000795
B1325385626479N00846269EA0000000795
B1325495626354N00846301EA0000000822
B1325565626403N00846128EA0000000846
B1326015626452N00846187EA0000000849
B1326195626395N00846042EA0000000884
B1326395626387N00846006EA0000000924
B1326455626383N00846122EA0000000932
B1326505626302N00846078EA0000000934
B1326585626338N00845883EA0000000954
B1327035626383N00845964EA0000000951
B1327085626352N00846072EA0000000963
B1327155626254N00845975EA0000000975
B1327205626284N00845851EA0000000984
B1327255626336N00845905EA0000000977
B1327425626270N00845842EA0000000998
B1327475626316N00845917EA0000000995
B1328035626248N00845760EA0000001027
B1328125626273N00845893EA0000001023
B1328285626213N00845624EA0000001048
B1328365626239N00845763EA0000001047
B1328415626177N00845826EA0000001058
B1328535626136N00845583EA0000001073
B1328585626195N00845588EA0000001089
B1329035626193N00845687EA0000001074
B1329225626118N00845503EA0000001105
B1329295626145N00845611EA0000001095
B1329365626058N00845703EA0000001110
B1329415625989N00845726EA0000001125
B1329515625853N00845593EA0000001132
B1329575625783N00845445EA0000001109
B1330055625666N00845236EA0000001082
B1330105625588N00845093EA0000001074
B1330165625496N00844912EA0000001073
B1330215625424N00844761EA0000001077
B1330265625360N00844629EA0000001084
B1330335625272N00844435EA0000001072
B1330395625198N00844271EA0000001069
B1330445625140N00844131EA0000001059
B1330545625017N00843848EA0000001053
B1331015624926N00843665EA0000001044
B1331085624824N00843493EA0000001038
B1331175624690N00843291EA0000001025
B1331275624539N00843067EA0000001007
B1331355624420N00842859EA0000000983
B1331405624345N00842714EA0000000971
B1331455624273N00842570EA0000000974
B1331565624115N00842253EA0000000966
B1332015624043N00842110EA0000000963
B1332075623961N00841930EA0000000965
B1332135623889N00841761EA0000000983
B1332195623818N00841629EA0000000999
B1332245623763N00841529EA0000001012
B1332315623691N00841377EA0000001007
B1332365623628N00841270EA0000001024
B1332415623564N00841174EA0000001042
B1332475623554N00841036EA0000001061
B1332525623611N00841008EA0000001066
B1332595623606N00841148EA0000001090
B1333065623497N00841155EA0000001112
B1333165623530N00840983EA0000001132
B1333225623567N00841089EA0000001167
B1333275623511N00841173EA0000001159
B1333325623426N00841148EA0000001189
B1333385623384N00841017EA0000001211
B1333445623352N00840862EA0000001226
B1333495623332N00840726EA0000001238
B1333545623310N00840590EA0000001246
B1334005623280N00840422EA0000001257
B1334055623259N00840280EA0000001270
B1334115623233N00840107EA0000001279
B1334165623206N00839963EA0000001282
B1334265623145N00839670EA0000001268
B1334345623087N00839427EA0000001260
B1334425623021N00839192EA0000001254
B1334485622975N00839016EA0000001252
B1334585622896N00838720EA0000001242
B1335035622857N00838570EA0000001239
B1335095622815N00838390EA0000001229
B1335185622740N00838113EA0000001205
B1335255622678N00837889EA0000001189
B1335315622617N00837686EA0000001167
B1335375622550N00837470EA0000001157
B1335435622483N00837256EA0000001160
B1335515622402N00836985EA0000001162
B1335595622318N00836730EA0000001156
B1336105622180N00836392EA0000001144
B1336185622065N00836170EA0000001144
B1336235621994N00836039EA0000001143
B1336295621907N00835885EA0000001137
B1336355621819N00835734EA0000001133
B1336415621728N00835585EA0000001128
B1336465621651N00835456EA0000001119
B1336515621570N00835328EA0000001115
B1336565621489N00835203EA0000001106
B1337015621409N00835076EA0000001110
B1337065621336N00834949EA0000001108
B1337135621239N00834749EA0000001100
B1337185621169N00834593EA0000001103
B1337235621105N00834447EA0000001130
B1337355621129N00834146EA0000001147
B1337405621192N00834165EA0000001151
B1337555621073N00834324EA0000001155
B1338005621011N00834216EA0000001158
B1338075620918N00834054EA0000001151
B1338175620783N00833812EA0000001142
B1338225620710N00833697EA0000001132
B1338295620595N00833543EA0000001116
B1338345620505N00833439EA0000001112
B1338415620388N00833283EA0000001106
B1338465620310N00833152EA0000001092
B1338535620191N00832976EA0000001079
B1338585620101N00832861EA0000001072
B1339035620009N00832752EA0000001065
B1339085619920N00832644EA0000001067
B1339135619835N00832546EA0000001069
B1339195619723N00832447EA0000001064
B1339255619610N00832362EA0000001063
B1339315619497N00832287EA0000001065
B1339385619363N00832263EA0000001069
B1339475619195N00832310EA0000001052
B1340025618925N00832267EA0000001028
B1340085618817N00832202EA0000001014
B1340215618811N00831848EA0000000943
B1340265618910N00831797EA0000000944
B1340345619053N00831868EA0000000940
B1340425619174N00832007EA0000000926
B1340485619263N00832119EA0000000920
B1340535619333N00832216EA0000000917
B1340585619398N00832316EA0000000930
B1341055619457N00832466EA0000000946
B1341105619490N00832577EA0000000948
B1341155619534N00832674EA0000000944
B1341205619598N00832731EA0000000937
B1341295619730N00832775EA0000000930
B1341365619820N00832762EA0000000934
B1341505620030N00832773EA0000000882
B1341555620115N00832719EA0000000884
B1342025620208N00832662EA0000000928
B1342195620442N00832678EA0000000858
B1342265620530N00832855EA0000000835
B1342335620625N00833027EA0000000821
B1342395620719N00833160EA0000000807
B1342465620821N00833318EA0000000832
B1342515620873N00833411EA0000000861
B1342565620912N00833491EA0000000874
B1343025620957N00833602EA0000000864
B1343085620976N00833753EA0000000897
B1343145620935N00833876EA0000000913
B1343205620869N00833996EA0000000915
B1343275620799N00834149EA0000000933
B1343335620728N00834243EA0000000940
B1343385620656N00834303EA0000000935
B1343465620524N00834395EA0000000939
B1343545620435N00834544EA0000000956
B1344025620349N00834683EA0000000962
B1344075620296N00834772EA0000000963
B1344125620250N00834862EA0000000971
B1344255620168N00835146EA0000000964
B1344365620170N00835382EA0000001003
B1344425620108N00835480EA0000001003
B1344535620095N00835749EA0000001019
B1344585620109N00835867EA0000001023
B1345065620105N00836056EA0000001028
B1345155620081N00836284EA0000001005
B1345205620115N00836418EA0000000996
B1345275620153N00836617EA0000000995
B1345345620180N00836810EA0000000998
B1345395620197N00836935EA0000001004
B1345465620216N00837104EA0000001002
B1345515620227N00837225EA0000000993
B1345575620242N00837384EA0000000967
B1346055620274N00837640EA0000000938
B1346125620324N00837852EA0000000934
B1346205620391N00838068EA0000000933
B1346295620454N00838310EA0000000924
B1346365620492N00838494EA0000000926
B1346455620539N00838696EA0000000940
B1346555620594N00838906EA0000000934
B1347005620616N00839019EA0000000933
B1347075620621N00839193EA0000000934
B1347145620622N00839357EA0000000942
B1347235620618N00839558EA0000000956
B1347355620605N00839813EA0000000953
B1347405620595N00839925EA0000000960
B1347495620571N00840131EA0000000961
B1347545620549N00840246EA0000000968
B1348005620520N00840372EA0000000968
B1348075620503N00840531EA0000000962
B1348155620502N00840725EA0000000955
B1348225620514N00840891EA0000000953
B1348305620543N00841076EA0000000949
B1348405620586N00841300EA0000000946
B1348485620620N00841479EA0000000946
B1348545620654N00841603EA0000000953
B1349005620687N00841721EA0000000954
B1349065620719N00841848EA0000000947
B1349115620745N00841958EA0000000943
B1349175620770N00842089EA0000000939
B1349225620793N00842206EA0000000926
B1349285620834N00842358EA0000000922
B1349345620876N00842496EA0000000930
B1349445620949N00842720EA0000000941
B1349505620991N00842850EA0000000953
B1349565621024N00842980EA0000000968
B1350015621046N00843083EA0000000979
B1350085621068N00843235EA0000000986
B1350135621080N00843352EA0000000994
B1350205621095N00843503EA0000001008
B1350265621109N00843635EA0000001014
B1350315621117N00843742EA0000001027
B1350385621129N00843892EA0000001038
B1350455621149N00844038EA0000001057
B1350515621170N00844163EA0000001071
B1351005621204N00844351EA0000001097
B1351055621228N00844456EA0000001105
B1351115621260N00844591EA0000001122
B1351165621284N00844704EA0000001135
B1351215621310N00844821EA0000001145
B1351265621343N00844956EA0000001124
B1351315621387N00845114EA0000001128
B1351365621439N00845277EA0000001129
B1351445621523N00845552EA0000001130
B1351495621572N00845735EA0000001128
B1351555621627N00845961EA0000001123
B1352015621675N00846198EA0000001120
B1352065621714N00846405EA0000001109
B1352115621754N00846618EA0000001092
B1352175621807N00846894EA0000001057
B1352225621847N00847136EA0000001046
B1352285621884N00847421EA0000001047
B1352355621917N00847729EA0000001062
B1352435621925N00848051EA0000001063
B1352535621886N00848380EA0000001092
B1353005621866N00848578EA0000001096
B1353065621859N00848748EA0000001093
B1353155621856N00849009EA0000001091
B1353245621867N00849274EA0000001088
B1353325621877N00849511EA0000001091
B1353375621884N00849657EA0000001096
B1353425621892N00849801EA0000001104
B1353485621901N00849968EA0000001112
B1353565621914N00850175EA0000001123
B1354015621923N00850305EA0000001111
B1354065621935N00850453EA0000001086
B1354165621955N00850783EA0000001076
B1354225621968N00850981EA0000001071
B1354285621980N00851175EA0000001078
B1354335621987N00851322EA0000001082
B1354445621986N00851630EA0000001083
B1354495621981N00851769EA0000001076
B1354555621973N00851937EA0000001065
B1355015621965N00852109EA0000001055
B1355095621962N00852336EA0000001049
B1355155621959N00852501EA0000001054
B1355205621956N00852633EA0000001044
B1355295621958N00852882EA0000001034
B1355355621961N00853047EA0000001028
B1355445621962N00853295EA0000001017
B1355515621961N00853490EA0000001014
B1355565621961N00853624EA0000001012
B1356015621959N00853758EA0000001007
B1356075621957N00853919EA0000001004
B1356165621953N00854164EA0000000995
B1356215621950N00854301EA0000000984
B1356265621956N00854460EA0000000962
B1356315621966N00854630EA0000000959
B1356365621983N00854792EA0000000970
B1356435622007N00854990EA0000000979
B1356485622026N00855126EA0000000976
B1356545622055N00855286EA0000000977
B1357005622084N00855441EA0000000975
B1357065622112N00855605EA0000000970
B1357115622138N00855742EA0000000966
B1357185622187N00855930EA0000000963
B1357285622263N00856195EA0000000963
B1357355622316N00856387EA0000000967
B1357405622354N00856515EA0000000975
B1357455622390N00856635EA0000000986
B1357525622437N00856787EA0000000992
B1357585622478N00856919EA0000000994
B1358035622512N00857028EA0000000997
B1358085622544N00857139EA0000001001
B1358135622564N00857250EA0000001021
B1358195622544N00857357EA0000001032
B1358245622527N00857467EA0000001017
B1358295622548N00857604EA0000001007
B1358355622583N00857764EA0000001015
B1358405622617N00857895EA0000001011
B1358455622655N00858016EA0000001034
B1358515622692N00858152EA0000001035
B1358565622717N00858269EA0000001038
B1359025622741N00858412EA0000001034
B1359095622767N00858578EA0000001033
B1359175622789N00858773EA0000001032
B1359225622805N00858893EA0000001028
B1359315622840N00859115EA0000001018
B1359405622877N00859338EA0000001014
B1359465622903N00859486EA0000001010
B1359515622925N00859606EA0000001008
B1359585622952N00859778EA0000001002
B1400035622971N00859902EA0000000999
B1400085622991N00900026EA0000000994
B1400145623017N00900170EA0000000989
B1400205623045N00900308EA0000000983
B1400255623070N00900422EA0000000975
B1400305623097N00900536EA0000000970
B1400355623123N00900651EA0000000966
B1400405623151N00900767EA0000000956
B1400495623203N00900985EA0000000943
B1400555623237N00901130EA0000000932
B1401015623270N00901283EA0000000928
B1401075623303N00901432EA0000000927
B1401125623330N00901561EA0000000922
B1401175623353N00901690EA0000000917
B1401225623375N00901829EA0000000903
B1401275623395N00901976EA0000000899
B1401335623416N00902154EA0000000896
B1401385623434N00902303EA0000000888
B1401435623454N00902454EA0000000879
B1401495623482N00902636EA0000000873
B1401545623507N00902777EA0000000877
B1401595623532N00902914EA0000000864
B1402055623564N00903087EA0000000849
B1402115623610N00903256EA0000000838
B1402165623673N00903376EA0000000816
B1402225623757N00903526EA0000000801
B1402275623813N00903658EA0000000820
B1402335623865N00903813EA0000000825
B1402395623906N00903979EA0000000809
B1402445623928N00904135EA0000000791
B1402495623946N00904300EA0000000796
B1402545623959N00904440EA0000000820
B1402595623962N00904556EA0000000832
B1403045623922N00904628EA0000000843
B1403105623853N00904538EA0000000842
B1403155623849N00904373EA0000000856
B1403205623893N00904250EA0000000853
B1403255623960N00904260EA0000000850
B1403305623980N00904360EA0000000845
B1403355623984N00904481EA0000000845
B1403405623976N00904590EA0000000864
B1403465623950N00904713EA0000000863
B1403515623930N00904828EA0000000855
B1403595623918N00905028EA0000000847
B1404055623922N00905177EA0000000839
B1404105623926N00905308EA0000000837
B1404175623941N00905490EA0000000830
B1404225623955N00905611EA0000000826
B1404275623969N00905743EA0000000806
B1404325623999N00905882EA0000000800
B1404375624039N00906019EA0000000792
B1404435624081N00906189EA0000000788
B1404495624109N00906363EA0000000802
B1404575624092N00906546EA0000000830
B1405045624014N00906446EA0000000821
B1405105624021N00906248EA0000000828
B1405165624081N00906095EA0000000828
B1405215624163N00906065EA0000000842
B1405265624238N00906103EA0000000846
B1405335624257N00906229EA0000000870
B1405405624176N00906177EA0000000869
B1405545624300N00905942EA0000000890
B1406025624280N00906076EA0000000899
B1406145624280N00905833EA0000000913
B1406215624370N00905858EA0000000913
B1406345624283N00905817EA0000000927
B1406395624351N00905735EA0000000932
B1406445624401N00905819EA0000000938
B1406545624299N00905826EA0000000954
B1407005624308N00905657EA0000000966
B1407055624380N00905619EA0000000972
B1407105624419N00905710EA0000000970
B1407155624381N00905797EA0000000977
B1407225624308N00905692EA0000000992
B1407275624344N00905567EA0000000998
B1407325624418N00905579EA0000000999
B1407385624414N00905703EA0000001004
B1407435624347N00905686EA0000001016
B1407485624331N00905547EA0000001022
B1407535624388N00905449EA0000001034
B1407585624449N00905495EA0000001035
B1408035624429N00905595EA0000001036
B1408085624362N00905581EA0000001052
B1408135624333N00905461EA0000001062
B1408185624391N00905378EA0000001058
B1408235624442N00905462EA0000001054
B1408285624404N00905550EA0000001066
B1408335624341N00905492EA0000001077
B1408385624343N00905346EA0000001082
B1408435624407N00905276EA0000001093
B1408485624463N00905338EA0000001090
B1408545624439N00905473EA0000001094
B1408595624382N00905522EA0000001111
B1409055624318N00905428EA0000001111
B1409105624339N00905286EA0000001113
B1409155624412N00905259EA0000001126
B1409205624465N00905332EA0000001129
B1409255624476N00905460EA0000001132
B1409305624454N00905580EA0000001136
B1409355624448N00905713EA0000001120
B1409415624469N00905900EA0000001093
B1409475624497N00906097EA0000001075
B1409525624521N00906273EA0000001062
B1409575624549N00906451EA0000001059
B1410025624579N00906625EA0000001062
B1410075624609N00906780EA0000001069
B1410125624633N00906928EA0000001067
B1410175624655N00907077EA0000001059
B1410245624690N00907292EA0000001044
B1410315624737N00907506EA0000001034
B1410375624779N00907693EA0000001033
B1410425624812N00907834EA0000001038
B1410505624862N00908046EA0000001029
B1410555624917N00908155EA0000001015
B1411035625053N00908274EA0000000991
B1411105625188N00908340EA0000000986
B1411195625367N00908388EA0000000975
B1411315625605N00908482EA0000000953
B1411375625725N00908512EA0000000938
B1411425625833N00908511EA0000000914
B1411505626004N00908603EA0000000891
B1411575626145N00908707EA0000000885
B1412025626235N00908781EA0000000889
B1412075626321N00908859EA0000000876
B1412145626443N00908976EA0000000867
B1412205626559N00909037EA0000000863
B1412275626697N00909084EA0000000852
B1412335626804N00909116EA0000000866
B1412415626929N00909137EA0000000867
B1412495627041N00909156EA0000000878
B1412545627110N00909176EA0000000866
B1413055627296N00909183EA0000000849
B1413135627447N00909200EA0000000816
B1413185627545N00909212EA0000000842
B1413255627658N00909205EA0000000854
B1413315627760N00909198EA0000000824
B1413465628070N00909237EA0000000809
B1414105628523N00909343EA0000000789
B1414165628634N00909372EA0000000782
B1414265628827N00909410EA0000000766
B1414345628985N00909440EA0000000756
B1414445629189N00909462EA0000000744
B1414515629332N00909481EA0000000739
B1414575629451N00909498EA0000000741
B1415045629580N00909515EA0000000743
B1415095629669N00909523EA0000000743
B1415155629772N00909528EA0000000741
B1415225629890N00909533EA0000000739
B1415295630013N00909541EA0000000716
B1415345630107N00909547EA0000000716
B1415415630227N00909552EA0000000721
B1415485630344N00909571EA0000000707
B1415535630431N00909572EA0000000716
B1416015630560N00909583EA0000000714
B1416065630637N00909603EA0000000710
B1416165630797N00909624EA0000000699
B1416255630947N00909641EA0000000691
B1416345631095N00909663EA0000000687
B1416395631173N00909677EA0000000699
B1416455631259N00909684EA0000000697
B1416505631340N00909683EA0000000688
B1416565631434N00909684EA0000000688
B1417015631511N00909690EA0000000681
B1417065631588N00909701EA0000000673
B1417135631705N00909717EA0000000655
B1417215631852N00909730EA0000000639
B1417265631944N00909743EA0000000638
B1417315632032N00909757EA0000000637
B1417365632120N00909772EA0000000633
B1417445632263N00909794EA0000000627
B1417495632351N00909808EA0000000627
B1417565632470N00909817EA0000000620
B1418065632639N00909826EA0000000611
B1418125632736N00909841EA0000000610
B1418195632847N00909857EA0000000600
B1418255632946N00909868EA0000000591
B1418315633045N00909883EA0000000587
B1418365633124N00909899EA0000000585
B1418435633235N00909922EA0000000574
B1418495633335N00909933EA0000000565
B1418545633421N00909944EA0000000556
B1419015633541N00909959EA0000000551
B1419105633693N00909971EA0000000545
B1419165633792N00909975EA0000000543
B1419225633891N00909974EA0000000534
B1419335634076N00909962EA0000000521
B1419385634159N00909972EA0000000518
B1419455634274N00909992EA0000000512
B1419505634352N00910002EA0000000510
B1419595634500N00910022EA0000000493
B1420055634601N00910042EA0000000489
B1420115634699N00910058EA0000000483
B1420175634800N00910074EA0000000471
B1420235634908N00910085EA0000000467
B1420325635066N00910114EA0000000464
B1420375635154N00910137EA0000000467
B1420455635283N00910185EA0000000483
B1420505635356N00910230EA0000000480
B1420555635436N00910264EA0000000468
B1421015635537N00910199EA0000000473
B1421075635586N00910023EA0000000472
B1421125635636N00909879EA0000000471
B1421195635748N00909783EA0000000475
B1421245635827N00909791EA0000000474
B1421295635854N00909892EA0000000485
B1421345635838N00909997EA0000000487
B1421395635801N00910067EA0000000495
B1421445635744N00910028EA0000000495
B1421495635727N00909888EA0000000495
B1421575635832N00909771EA0000000496
B1422025635900N00909835EA0000000495
B1422075635937N00909945EA0000000500
B1422145635935N00910105EA0000000512
B1422195635882N00910158EA0000000520
B1422245635834N00910063EA0000000525
B1422295635853N00909919EA0000000536
B1422355635932N00909882EA0000000531
B1422405635943N00909984EA0000000536
B1422455635907N00910060EA0000000548
B1422515635851N00910150EA0000000542
B1422565635799N00910054EA0000000554
B1423015635827N00909911EA0000000550
B1423085635901N00909963EA0000000542
B1423145635862N00910087EA0000000555
B1423195635832N00910187EA0000000555
B1423245635899N00910182EA0000000561
B1423295635900N00910024EA0000000575
B1423345635828N00909993EA0000000577
B1423395635824N00910092EA0000000594
B1423475635912N00909981EA0000000601
B1423525635861N00909871EA0000000604
B1423595635825N00909978EA0000000616
B1424055635904N00909959EA0000000628
B1424105635903N00909813EA0000000632
B1424155635832N00909784EA0000000621
B1424215635817N00909902EA0000000648
B1424285635907N00909881EA0000000642
B1424335635919N00909719EA0000000663
B1424385635865N00909624EA0000000660
B1424435635800N00909669EA0000000656
B1424495635788N00909784EA0000000661
B1424545635856N00909866EA0000000648
B1424595635915N00909949EA0000000673
B1425065635979N00910053EA0000000678
B1425155636054N00910197EA0000000679
B1425225636083N00910340EA0000000684
B1425305636084N00910514EA0000000684
B1425355636053N00910592EA0000000699
B1425405635990N00910533EA0000000692
B1425455635988N00910375EA0000000698
B1425505636053N00910309EA0000000690
B1425575636149N00910398EA0000000690
B1426025636200N00910468EA0000000710
B1426085636219N00910583EA0000000713
B1426135636158N00910611EA0000000713
B1426235636162N00910353EA0000000713
B1426285636226N00910370EA0000000736
B1426335636230N00910461EA0000000723
B1426385636161N00910449EA0000000722
B1426435636122N00910314EA0000000728
B1426485636143N00910166EA0000000733
B1426535636202N00910173EA0000000735
B1426585636168N00910263EA0000000734
B1427045636091N00910192EA0000000756
B1427095636125N00910068EA0000000747
B1427145636161N00910135EA0000000754
B1427215636081N00910074EA0000000759
B1427265636128N00909972EA0000000766
B1427315636148N00910054EA0000000759
B1427385636058N00910131EA0000000774
B1427435636002N00910040EA0000000768
B1427495636052N00909884EA0000000770
B1427545636118N00909889EA0000000790
B1427595636155N00909969EA0000000789
B1428065636121N00910109EA0000000802
B1428125636036N00910087EA0000000798
B1428175635996N00909948EA0000000800
B1428225636009N00909796EA0000000804
B1428295636054N00909594EA0000000813
B1428345636063N00909434EA0000000819
B1428405636111N00909283EA0000000844
B1428465636163N00909345EA0000000848
B1428535636084N00909391EA0000000850
B1428585636026N00909280EA0000000864
B1429035636040N00909131EA0000000872
B1429085636115N00909086EA0000000879
B1429135636152N00909176EA0000000897
B1429195636096N00909271EA0000000898
B1429245636014N00909211EA0000000901
B1429295635990N00909037EA0000000913
B1429345636045N00908909EA0000000926
B1429395636120N00908925EA0000000940
B1429445636126N00909033EA0000000956
B1429505636041N00909059EA0000000956
B1429565636005N00908871EA0000000975
B1430015636064N00908756EA0000000991
B1430065636137N00908778EA0000001004
B1430115636151N00908885EA0000001022
B1430165636093N00908946EA0000001024
B1430215636014N00908877EA0000001029
B1430275636012N00908674EA0000001047
B1430325636085N00908595EA0000001066
B1430375636144N00908659EA0000001083
B1430455636198N00908828EA0000001089
B1430505636262N00908904EA0000001088
B1430565636346N00908983EA0000001097
B1431015636408N00909059EA0000001098
B1431085636497N00909176EA0000001088
B1431145636591N00909253EA0000001088
B1431215636701N00909340EA0000001089
B1431275636794N00909403EA0000001090
B1431345636898N00909484EA0000001091
B1431435637026N00909597EA0000001081
B1431495637110N00909679EA0000001068
B1431575637235N00909785EA0000001063
B1432075637392N00909902EA0000001056
B1432155637519N00909995EA0000001041
B1432205637602N00910043EA0000001039
B1432265637699N00910087EA0000001035
B1432315637783N00910122EA0000001032
B1432375637882N00910164EA0000001033
B1432425637962N00910202EA0000001031
B1432515638107N00910287EA0000001023
B1432575638200N00910347EA0000001022
B1433045638308N00910415EA0000001016
B1433135638440N00910495EA0000001023
B1433185638508N00910538EA0000001020
B1433235638577N00910586EA0000001017
B1433295638660N00910645EA0000001014
B1433365638755N00910719EA0000001011
B1433415638821N00910775EA0000001006
B1433495638930N00910856EA0000001004
B1433545638998N00910905EA0000001001
B1434005639080N00910968EA0000000997
B1434075639178N00911042EA0000000993
B1434125639247N00911090EA0000000991
B1434185639330N00911155EA0000000986
B1434235639399N00911213EA0000000983
B1434355639561N00911354EA0000000976
B1434455639698N00911479EA0000000965
B1434505639770N00911539EA0000000960
B1434555639840N00911604EA0000000956
B1435025639937N00911695EA0000000951
B1435115640065N00911808EA0000000940
B1435225640222N00911955EA0000000932
B1435275640291N00912019EA0000000929
B1435325640357N00912090EA0000000926
B1435375640420N00912168EA0000000921
B1435435640499N00912250EA0000000918
B1435485640567N00912311EA0000000911
B1435555640668N00912406EA0000000896
B1436045640809N00912522EA0000000886
B1436105640912N00912556EA0000000888
B1436235641117N00912598EA0000000878
B1436325641258N00912681EA0000000868
B1436395641365N00912752EA0000000861
B1436445641438N00912814EA0000000862
B1436515641535N00912904EA0000000861
B1437015641662N00913000EA0000000887
B1437095641766N00913071EA0000000884
B1437145641828N00913130EA0000000883
B1437195641890N00913190EA0000000891
B1437275641986N00913295EA0000000885
B1437355642088N00913395EA0000000886
B1437405642149N00913451EA0000000884
B1437475642235N00913524EA0000000879
B1437525642295N00913579EA0000000877
B1437595642376N00913652EA0000000883
B1438075642466N00913726EA0000000887
B1438135642535N00913791EA0000000874
B1438195642610N00913866EA0000000868
B1438325642770N00914058EA0000000830
B1438375642848N00914149EA0000000816
B1438485643027N00914346EA0000000805
B1438585643178N00914539EA0000000804
B1439035643246N00914631EA0000000803
B1439235643441N00915039EA0000000833
B1439285643380N00915071EA0000000828
B1439365643339N00914873EA0000000840
B1439445643447N00914797EA0000000850
B1439555643478N00914957EA0000000857
B1440045643384N00915047EA0000000856
B1440095643335N00915138EA0000000854
B1440155643296N00915252EA0000000867
B1440205643267N00915344EA0000000868
B1440275643227N00915480EA0000000887
B1440345643177N00915608EA0000000897
B1440415643131N00915731EA0000000913
B1440495643074N00915874EA0000000911
B1440555643044N00916004EA0000000913
B1441015643016N00916124EA0000000911
B1441065642988N00916228EA0000000914
B1441125642944N00916341EA0000000919
B1441195642903N00916470EA0000000921
B1441265642878N00916604EA0000000944
B1441335642862N00916745EA0000000952
B1441395642853N00916883EA0000000959
B1441445642849N00917004EA0000000968
B1441525642842N00917196EA0000000970
B1441575642840N00917303EA0000000979
B1442075642841N00917515EA0000000978
B1442145642841N00917677EA0000000961
B1442195642837N00917812EA0000000947
B1442265642837N00918002EA0000000953
B1442325642841N00918155EA0000000952
B1442385642847N00918312EA0000000949
B1442435642854N00918438EA0000000964
B1442505642857N00918594EA0000000980
B1442565642843N00918709EA0000000985
B1443015642831N00918816EA0000000991
B1443115642832N00919024EA0000001013
B1443195642854N00919194EA0000001019
B1443275642893N00919374EA0000001025
B1443345642931N00919522EA0000001014
B1443395642970N00919639EA0000000994
B1443455643050N00919764EA0000000998
B1443525643135N00919897EA0000001012
B1443585643205N00920016EA0000001005
B1444045643277N00920137EA0000001002
B1444095643335N00920240EA0000000998
B1444145643391N00920347EA0000000994
B1444195643450N00920453EA0000000989
B1444355643587N00920827EA0000000996
B1444415643634N00920962EA0000000993
B1444475643685N00921094EA0000000988
B1444545643742N00921248EA0000000983
B1444595643783N00921359EA0000000979
B1445045643821N00921472EA0000000974
B1445125643892N00921654EA0000000961
B1445185643945N00921791EA0000000953
B1445245644000N00921932EA0000000940
B1445295644044N00922052EA0000000933
B1445355644100N00922197EA0000000920
B1445405644147N00922323EA0000000901
B1445495644245N00922582EA0000000867
B1446105644475N00923132EA0000000869
B1446195644561N00923337EA0000000854
B1446255644619N00923474EA0000000832
B1446335644714N00923674EA0000000804
B1446405644808N00923835EA0000000800
B1446465644888N00923933EA0000000849
B1446515644936N00923998EA0000000855
B1446585645005N00924121EA0000000863
B1447035645052N00924205EA0000000869
B1447355645336N00924791EA0000000872
B1447465645433N00925012EA0000000882
B1447525645477N00925128EA0000000891
B1447575645503N00925226EA0000000893
B1448025645521N00925332EA0000000895
B1448105645548N00925503EA0000000889
B1448225645606N00925772EA0000000864
B1448275645632N00925903EA0000000857
B1448335645664N00926057EA0000000849
B1448415645699N00926281EA0000000822
B1448465645723N00926435EA0000000805
B1448525645748N00926638EA0000000797
B1448575645763N00926800EA0000000803
B1449035645781N00926982EA0000000805
B1449085645794N00927128EA0000000802
B1449135645810N00927271EA0000000793
B1449195645835N00927452EA0000000777
B1449305645890N00927793EA0000000767
B1449385645925N00928026EA0000000774
B1449445645954N00928188EA0000000773
B1449515645993N00928366EA0000000772
B1449585646029N00928540EA0000000768
B1450035646054N00928661EA0000000764
B1450145646111N00928923EA0000000756
B1450245646172N00929146EA0000000749
B1450325646221N00929322EA0000000748
B1450375646248N00929431EA0000000745
B1450425646274N00929539EA0000000741
B1450485646304N00929666EA0000000733
B1450535646332N00929772EA0000000724
B1450595646365N00929903EA0000000719
B1451055646398N00930033EA0000000711
B1451125646436N00930200EA0000000699
B1451185646469N00930343EA0000000692
B1451235646502N00930454EA0000000687
B1451295646545N00930576EA0000000691
B1451345646588N00930673EA0000000687
B1451415646667N00930795EA0000000684
B1451465646709N00930900EA0000000686
B1451515646701N00931018EA0000000689
B1451575646694N00931160EA0000000681
B1452035646703N00931313EA0000000672
B1452115646724N00931523EA0000000673
B1452195646744N00931726EA0000000663
B1452245646754N00931859EA0000000656
B1452315646771N00932049EA0000000634
B1452375646840N00932195EA0000000605
B1452425646918N00932310EA0000000592
B1452495646991N00932518EA0000000594
B1452585647021N00932768EA0000000614
B1453115647048N00933075EA0000000616
B1453185647065N00933241EA0000000613
B1453275647087N00933452EA0000000617
B1453325647098N00933566EA0000000610
B1453395647112N00933737EA0000000598
B1453455647121N00933886EA0000000595
B1453515647131N00934045EA0000000588
B1454015647152N00934302EA0000000589
B1454105647168N00934524EA0000000584
B1454155647178N00934641EA0000000582
B1454285647198N00934964EA0000000547
B1454355647212N00935159EA0000000547
B1454405647226N00935289EA0000000558
B1454455647239N00935392EA0000000566
B1454535647256N00935564EA0000000535
B1454585647261N00935692EA0000000540
B1455035647263N00935820EA0000000531
B1455105647272N00936010EA0000000534
B1455205647285N00936223EA0000000552
B1455265647315N00936338EA0000000539
B1455485647277N00936823EA0000000516
B1456295647199N00937776EA0000000507
B1456365647177N00937924EA0000000501
B1456505647137N00938229EA0000000481
B1456555647122N00938349EA0000000468
B1457015647102N00938499EA0000000459
B1457095647088N00938698EA0000000442
B1457165647076N00938885EA0000000432
B1457225647069N00939051EA0000000428
B1457325647059N00939322EA0000000421
B1457375647054N00939455EA0000000423
B1457435647046N00939603EA0000000422
B1457485647057N00939723EA0000000409
B1457595647241N00939803EA0000000381
B1458055647360N00939793EA0000000374
B1458125647496N00939786EA0000000365
B1458195647634N00939797EA0000000354
B1458285647808N00939777EA0000000348
B1458355647939N00939681EA0000000341
B1458445648095N00939526EA0000000333
B1458495648177N00939433EA0000000327
B1459015648368N00939214EA0000000325
B1459085648478N00939088EA0000000325
B1459165648605N00938946EA0000000326
B1459235648712N00938822EA0000000330
B1459315648834N00938734EA0000000356
B1459365648856N00938803EA0000000355
B1459435648768N00938781EA0000000347
B1459565648813N00938411EA0000000345
B1500025648908N00938302EA0000000354
B1500075648972N00938328EA0000000371
B1500125648956N00938420EA0000000364
B1500205648844N00938312EA0000000380
B1500255648844N00938135EA0000000400
B1500315648916N00938037EA0000000396
B1500375648944N00938145EA0000000390
B1500445648848N00938141EA0000000406
B1501125649008N00937542EA0000000436
B1501215649060N00937658EA0000000447
B1501405648985N00937309EA0000000446
B1501455649053N00937292EA0000000454
B1501525649048N00937416EA0000000447
B1501595648945N00937362EA0000000458
B1502105648990N00937087EA0000000461
B1502155649047N00937126EA0000000465
B1502205649038N00937223EA0000000460
B1502375648892N00936964EA0000000466
B1502425648962N00936869EA0000000474
B1502475649022N00936884EA0000000488
B1502525649015N00936976EA0000000474
B1502575648949N00937026EA0000000483
B1503025648883N00936961EA0000000492
B1503075648867N00936806EA0000000479
B1503125648923N00936681EA0000000488
B1503175648985N00936684EA0000000497
B1503225648996N00936779EA0000000489
B1503275648946N00936863EA0000000494
B1503325648874N00936838EA0000000507
B1503435648891N00936524EA0000000497
B1503495648984N00936493EA0000000507
B1503565649027N00936606EA0000000511
B1504015648967N00936667EA0000000511
B1504075648884N00936585EA0000000525
B1504155648927N00936375EA0000000523
B1504205648989N00936393EA0000000527
B1504255649030N00936482EA0000000512
B1504315649100N00936574EA0000000508
B1504385649133N00936724EA0000000505
B1504435649067N00936815EA0000000503
B1504495648971N00936850EA0000000531
B1504545648923N00936753EA0000000526
B1505045649018N00936543EA0000000541
B1505105649013N00936648EA0000000531
B1505155648926N00936636EA0000000531
B1505205648869N00936520EA0000000559
B1505285648936N00936359EA0000000554
B1505335648950N00936452EA0000000563
B1505385648884N00936448EA0000000570
B1505445648856N00936278EA0000000582
B1505495648914N00936182EA0000000586
B1505575648947N00936298EA0000000576
B1506025648870N00936321EA0000000586
B1506105648829N00936126EA0000000605
B1506155648899N00936057EA0000000604
B1506205648953N00936131EA0000000611
B1506285648885N00936258EA0000000611
B1506335648814N00936215EA0000000636
B1506475648896N00935948EA0000000656
B1506525648919N00936038EA0000000666
B1506575648870N00936098EA0000000673
B1507025648802N00936042EA0000000683
B1507145648851N00935749EA0000000695
B1507235648927N00935867EA0000000713
B1507285648871N00935926EA0000000701
B1507355648844N00936067EA0000000719
B1507405648912N00936064EA0000000730
B1507455648956N00935930EA0000000720
B1507525648918N00935705EA0000000702
B1507595648911N00935420EA0000000671
B1508045648944N00935207EA0000000672
B1508095648991N00935021EA0000000687
B1508155649047N00934851EA0000000706
B1508295649216N00934595EA0000000729
B1508365649322N00934532EA0000000720
B1508435649435N00934505EA0000000719
B1508525649582N00934501EA0000000698
B1509015649737N00934509EA0000000688
B1509065649814N00934420EA0000000679
B1509115649836N00934248EA0000000662
B1509175649772N00934025EA0000000639
B1509235649704N00933791EA0000000634
B1509315649625N00933494EA0000000643
B1509375649564N00933275EA0000000635
B1509425649513N00933091EA0000000644
B1509475649473N00932934EA0000000659
B1509535649432N00932744EA0000000637
B1509595649384N00932521EA0000000603
B1510055649321N00932272EA0000000580
B1510135649238N00931922EA0000000583
B1510185649204N00931731EA0000000625
B1510255649176N00931476EA0000000593
B1510315649134N00931231EA0000000579
B1510365649099N00931034EA0000000582
B1510425649058N00930806EA0000000583
B1510495649007N00930547EA0000000590
B1510565648961N00930309EA0000000592
B1511015648929N00930139EA0000000589
B1511095648874N00929868EA0000000579
B1511165648822N00929622EA0000000571
B1511225648783N00929402EA0000000573
B1511305648729N00929123EA0000000571
B1511405648663N00928762EA0000000565
B1511455648631N00928582EA0000000562
B1511525648588N00928329EA0000000566
B1511585648559N00928123EA0000000587
B1512065648519N00927852EA0000000597
B1512115648463N00927734EA0000000595
B1512165648398N00927607EA0000000582
B1512235648397N00927369EA0000000589
B1512295648409N00927147EA0000000571
B1512355648407N00926917EA0000000564
B1512405648398N00926725EA0000000554
B1512465648376N00926491EA0000000550
B1512525648327N00926294EA0000000571
B1512575648289N00926143EA0000000575
B1513035648239N00925966EA0000000575
B1513085648184N00925836EA0000000586
B1513135648107N00925793EA0000000584
B1513185648063N00925884EA0000000581
B1513235648095N00925977EA0000000596
B1513315648204N00925978EA0000000609
B1513375648286N00925896EA0000000617
B1513425648337N00925787EA0000000612
B1513495648347N00925559EA0000000609
B1513545648316N00925403EA0000000600
B1513595648263N00925245EA0000000585
B1514055648203N00925054EA0000000609
B1514115648154N00924889EA0000000622
B1514185648098N00924703EA0000000624
B1514235648058N00924567EA0000000619
B1514285648017N00924429EA0000000625
B1514395647925N00924144EA0000000607
B1514445647880N00924004EA0000000628
B1514565647788N00923693EA0000000632
B1515045647727N00923473EA0000000632
B1515095647687N00923336EA0000000629
B1515155647632N00923174EA0000000624
B1515205647595N00923027EA0000000617
B1515255647567N00922869EA0000000620
B1515305647539N00922707EA0000000616
B1515355647510N00922553EA0000000629
B1515405647482N00922410EA0000000630
B1515455647450N00922272EA0000000624
B1515515647408N00922090EA0000000610
B1515585647354N00921868EA0000000611
B1516045647313N00921680EA0000000624
B1516095647289N00921527EA0000000627
B1516155647339N00921388EA0000000617
B1516225647408N00921474EA0000000607
B1516285647431N00921599EA0000000601
B1516345647447N00921738EA0000000593
B1516395647468N00921853EA0000000593
B1516445647468N00921965EA0000000598
B1516505647455N00922102EA0000000589
B1516555647445N00922223EA0000000583
B1517015647453N00922380EA0000000584
B1517075647474N00922534EA0000000597
B1517125647491N00922656EA0000000598
B1517185647512N00922812EA0000000581
B1517235647524N00922952EA0000000582
B1517295647533N00923107EA0000000586
B1517355647539N00923267EA0000000581
B1517415647550N00923423EA0000000581
B1517465647559N00923554EA0000000565
B1517515647577N00923698EA0000000547
B1517575647641N00923844EA0000000528
B1518025647705N00923963EA0000000521
B1518075647769N00924078EA0000000524
B1518125647825N00924166EA0000000554
B1518195647879N00924292EA0000000569
B1518245647902N00924390EA0000000579
B1518295647927N00924479EA0000000602
B1518365647963N00924598EA0000000618
B1518425647979N00924702EA0000000631
B1518475647919N00924726EA0000000628
B1518535647893N00924561EA0000000644
B1518585647951N00924464EA0000000664
B1519045648000N00924514EA0000000666
B1519125647903N00924583EA0000000676
B1519175647839N00924503EA0000000688
B1519225647855N00924357EA0000000695
B1519275647921N00924340EA0000000707
B1519325647920N00924434EA0000000728
B1519375647851N00924440EA0000000733
B1519445647831N00924244EA0000000748
B1519495647901N00924194EA0000000752
B1519565647937N00924322EA0000000781
B1520015647895N00924391EA0000000787
B1520065647824N00924331EA0000000816
B1520115647809N00924201EA0000000817
B1520165647872N00924127EA0000000819
B1520215647907N00924204EA0000000836
B1520275647899N00924318EA0000000848
B1520335647853N00924419EA0000000855
B1520395647769N00924428EA0000000856
B1520445647730N00924295EA0000000853
B1520495647782N00924178EA0000000843
B1520545647861N00924140EA0000000872
B1521015647914N00924216EA0000000886
B1521065647851N00924241EA0000000881
B1521125647772N00924135EA0000000901
B1521175647756N00923995EA0000000908
B1521225647807N00923898EA0000000911
B1521305647860N00923994EA0000000933
B1521375647773N00924031EA0000000929
B1521435647683N00924018EA0000000930
B1521485647663N00924127EA0000000924
B1521555647705N00924270EA0000000933
B1522005647733N00924375EA0000000939
B1522085647773N00924537EA0000000974
B1522145647801N00924647EA0000000985
B1522205647827N00924762EA0000000993
B1522265647847N00924875EA0000000993
B1522335647876N00925024EA0000000967
B1522405647911N00925207EA0000000945
B1522505647964N00925508EA0000000920
B1522595648022N00925792EA0000000911
B1523055648061N00925983EA0000000902
B1523125648104N00926197EA0000000902
B1523175648131N00926348EA0000000895
B1523255648171N00926591EA0000000900
B1523305648191N00926726EA0000000909
B1523355648210N00926852EA0000000908
B1523405648227N00926974EA0000000908
B1523475648253N00927152EA0000000898
B1523535648279N00927304EA0000000899
B1523595648298N00927447EA0000000893
B1524045648314N00927581EA0000000878
B1524095648330N00927718EA0000000894
B1524165648342N00927868EA0000000922
B1524215648356N00927967EA0000000922
B1524265648379N00928063EA0000000932
B1524315648407N00928146EA0000000942
B1524365648441N00928223EA0000000954
B1524425648483N00928326EA0000000961
B1524475648510N00928417EA0000000972
B1524535648543N00928534EA0000000971
B1524585648576N00928628EA0000000997
B1525035648601N00928714EA0000001003
B1525125648643N00928872EA0000001001
B1525195648679N00929000EA0000000988
B1525245648705N00929096EA0000000984
B1525295648737N00929196EA0000000975
B1525355648773N00929327EA0000000974
B1525405648798N00929419EA0000000985
B1525475648840N00929544EA0000000956
B1525535648885N00929692EA0000000932
B1525595648929N00929852EA0000000923
B1526075648994N00930069EA0000000918
B1526145649053N00930252EA0000000914
B1526245649144N00930509EA0000000913
B1526325649214N00930711EA0000000909
B1526405649277N00930907EA0000000911
B1526485649338N00931099EA0000000906
B1526575649399N00931322EA0000000900
B1527025649430N00931445EA0000000896
B1527085649466N00931598EA0000000886
B1527145649501N00931757EA0000000881
B1527225649549N00931971EA0000000872
B1527295649584N00932153EA0000000884
B1527355649611N00932294EA0000000880
B1527435649654N00932493EA0000000873
B1527505649689N00932667EA0000000871
B1527575649729N00932843EA0000000864
B1528055649779N00933045EA0000000856
B1528135649828N00933243EA0000000851
B1528185649856N00933364EA0000000852
B1528255649893N00933530EA0000000853
B1528335649945N00933710EA0000000846
B1528395649986N00933838EA0000000847
B1528445650019N00933932EA0000000852
B1528575650089N00934197EA0000000834
B1529065650132N00934395EA0000000834
B1529125650159N00934527EA0000000837
B1529175650183N00934636EA0000000839
B1529255650223N00934803EA0000000852
B1529315650244N00934925EA0000000869
B1529385650270N00935061EA0000000871
B1529455650298N00935230EA0000000839
B1529525650321N00935425EA0000000846
B1529585650342N00935578EA0000000854
B1530045650364N00935710EA0000000852
B1530115650387N00935876EA0000000838
B1530175650408N00936028EA0000000849
B1530225650423N00936152EA0000000843
B1530275650432N00936281EA0000000836
B1530355650442N00936480EA0000000842
B1530415650456N00936626EA0000000849
B1530465650464N00936739EA0000000850
B1530515650470N00936855EA0000000841
B1530575650487N00937005EA0000000835
B1531035650513N00937153EA0000000830
B1531085650530N00937278EA0000000829
B1531135650545N00937407EA0000000821
B1531195650559N00937563EA0000000815
B1531245650570N00937693EA0000000814
B1531295650581N00937812EA0000000809
B1531345650592N00937936EA0000000796
B1531405650620N00938084EA0000000793
B1531455650650N00938206EA0000000773
B1531505650670N00938348EA0000000764
B1531565650687N00938514EA0000000760
B1532055650714N00938735EA0000000760
B1532125650744N00938897EA0000000751
B1532205650784N00939083EA0000000745
B1532265650806N00939222EA0000000731
B1532315650822N00939351EA0000000717
B1532385650918N00939422EA0000000675
B1532435650954N00939214EA0000000664
B1532495650912N00938948EA0000000656
B1532555650875N00938691EA0000000653
B1533015650839N00938435EA0000000641
B1533065650792N00938242EA0000000638
B1533125650707N00938066EA0000000633
B1533215650541N00937872EA0000000583
B1533265650433N00937787EA0000000574
B1533325650310N00937663EA0000000568
B1533385650198N00937505EA0000000565
B1533435650112N00937363EA0000000572
B1533515650047N00937076EA0000000603
B1533585650003N00936833EA0000000598
B1534045649951N00936622EA0000000601
B1534105649909N00936410EA0000000615
B1534155649880N00936240EA0000000611
B1534205649850N00936070EA0000000605
B1534275649809N00935835EA0000000602
B1534325649773N00935667EA0000000583
B1534395649712N00935406EA0000000563
B1534465649672N00935119EA0000000545
B1534515649668N00934907EA0000000544
B1535015649682N00934498EA0000000539
B1535085649692N00934220EA0000000537
B1535145649697N00933983EA0000000529
B1535215649697N00933700EA0000000514
B1535275649704N00933451EA0000000496
B1535345649760N00933179EA0000000489
B1535395649818N00933015EA0000000490
B1535445649897N00932913EA0000000505
B1535515650007N00932796EA0000000523
B1535595650122N00932667EA0000000526
B1536055650205N00932537EA0000000519
B1536105650267N00932401EA0000000514
B1536185650357N00932167EA0000000511
B1536255650448N00931955EA0000000485
B1536345650568N00931632EA0000000462
B1536425650674N00931292EA0000000423
B1536515650803N00930883EA0000000403
B1536595650929N00930517EA0000000362
B1537095651074N00930021EA0000000353
B1537165651160N00929680EA0000000362
B1537215651216N00929444EA0000000351
B1537265651275N00929211EA0000000346
B1537345651363N00928840EA0000000339
B1537395651410N00928603EA0000000341
B1537495651495N00928136EA0000000347
B1537545651537N00927902EA0000000343
B1537595651574N00927689EA0000000370
B1538065651619N00927452EA0000000384
B1538145651671N00927196EA0000000371
B1538205651716N00926993EA0000000357
B1538265651758N00926779EA0000000342
B1538315651774N00926580EA0000000339
B1538365651771N00926382EA0000000353
B1538465651763N00926015EA0000000357
B1538515651735N00925834EA0000000360
B1538575651667N00925652EA0000000354
B1539035651575N00925506EA0000000352
B1539085651496N00925403EA0000000353
B1539145651392N00925345EA0000000347
B1539195651305N00925319EA0000000341
B1539245651224N00925341EA0000000326
B1539315651159N00925481EA0000000292
B1539385651126N00925675EA0000000262
B1539435651105N00925813EA0000000245
B1539505651068N00926004EA0000000214
B1539555651044N00926144EA0000000192
B1540005651022N00926283EA0000000165
B1540055651001N00926425EA0000000140
B1540115650969N00926600EA0000000108
B1540185650938N00926817EA0000000061
B1540245650909N00927001EA0000000037
B1540295650886N00927137EA0000000032
B1540345650865N00927251EA0000000029
B1540395650850N00927344EA0000000030
B1540495650827N00927476EA0000000030
