AOGNOGN
HFDTE010725
HFFXA050
HFPLTPILOTINCHARGE:
HFGTYGLIDERTYPE:ASK-21
HFGIDGLIDERID:OY-XKI
HFDTM100GPSDATUM:WGS-1984
HFRFWFIRMWAREVERSION:
HFRHWHARDWAREVERSION:
HFFTYFRTYPE:OGN-FLIGHTBOOK
HFGPSGENERIC
HFPRSPRESSALTSENSOR:
HFCIDCOMPETITIONID:KI
B1519335553136N01213340EA0000000017
B1519395553126N01213479EA0000000089
B1519465553107N01213653EA0000000196
B1519515553098N01213800EA0000000272
B1519575553082N01213977EA0000000318
B1520025553057N01214091EA0000000313
B1520085552989N01214125EA0000000310
B1520155552912N01214110EA0000000312
B1520205552870N01214050EA0000000306
B1520265552847N01213938EA0000000303
B1520335552829N01213795EA0000000295
B1520425552795N01213608EA0000000291
B1520475552747N01213555EA0000000289
B1520535552680N01213589EA0000000284
B1521005552620N01213703EA0000000273
B1521055552581N01213797EA0000000268
B1521105552529N01213834EA0000000264
B1521175552478N01213734EA0000000254
B1521225552483N01213633EA0000000248
B1521275552549N01213591EA0000000240
B1521325552610N01213674EA0000000230
B1521385552637N01213826EA0000000228
B1521445552597N01213906EA0000000225
B1521495552581N01213819EA0000000214
B1521555552648N01213722EA0000000207
B1522015552701N01213611EA0000000199
B1522085552737N01213453EA0000000185
B1522185552774N01213206EA0000000166
B1522235552792N01213082EA0000000158
B1522315552825N01212879EA0000000153
B1522365552862N01212760EA0000000142
B1522445552976N01212635EA0000000128
B1522495553048N01212566EA0000000125
B1522545553128N01212557EA0000000118
B1522595553200N01212605EA0000000100
B1523045553203N01212724EA0000000087
B1523095553187N01212842EA0000000062
B1523155553167N01212984EA0000000034
B1523215553150N01213127EA0000000015
B1523265553141N01213218EA0000000015
