AOGNOGN
HFDTE010725
HFFXA050
HFPLTPILOTINCHARGE:
HFGTYGLIDERTYPE:
HFGIDGLIDERID:
HFDTM100GPSDATUM:WGS-1984
HFRFWFIRMWAREVERSION:
HFRHWHARDWAREVERSION:
HFFTYFRTYPE:OGN-FLIGHTBOOK
HFGPSGENERIC
HFPRSPRESSALTSENSOR:
HFCIDCOMPETITIONID:
B1536005553122N01213368EA0000000020
B1536005553122N01213368EA0000000020
B1536055553118N01213493EA0000000024
B1536105553104N01213633EA0000000042
B1536165553087N01213799EA0000000071
B1536215553074N01213938EA0000000094
B1536265553063N01214079EA0000000113
B1536315553072N01214221EA0000000135
B1536375553138N01214354EA0000000151
B1536445553242N01214486EA0000000166
B1536495553316N01214598EA0000000181
B1536555553405N01214732EA0000000203
B1537005553483N01214839EA0000000216
B1537065553594N01214932EA0000000232
B1537125553714N01215013EA0000000245
B1537175553820N01215077EA0000000252
B1537265554024N01215191EA0000000269
B1537315554140N01215260EA0000000283
B1537365554254N01215336EA0000000300
B1537445554436N01215449EA0000000325
B1537535554637N01215585EA0000000349
B1538135555097N01215958EA0000000393
B1538255555379N01216192EA0000000405
B1538345555594N01216392EA0000000415
B1539285556904N01217872EA0000000462
B1539335557022N01218028EA0000000464
B1539395557162N01218228EA0000000471
B1539445557267N01218416EA0000000477
B1539495557341N01218640EA0000000486
B1539565557402N01218982EA0000000486
B1540035557439N01219337EA0000000494
B1540095557465N01219640EA0000000497
B1540145557500N01219895EA0000000504
B1540255557600N01220449EA0000000517
B1540335557708N01220820EA0000000527
B1540445557883N01221306EA0000000534
B1540565558067N01221846EA0000000538
B1541075558228N01222361EA0000000535
B1541125558303N01222599EA0000000533
B1541185558397N01222886EA0000000526
B1541235558476N01223128EA0000000523
B1541325558611N01223578EA0000000522
B1541415558705N01224052EA0000000530
B1541495558759N01224486EA0000000543
B1541555558792N01224808EA0000000554
B1542015558826N01225127EA0000000552
B1542075558861N01225444EA0000000547
B1542145558894N01225810EA0000000547
B1542205558915N01226118EA0000000542
B1542255558932N01226375EA0000000536
B1542315558952N01226682EA0000000528
B1542415558983N01227195EA0000000516
B1542465559001N01227452EA0000000512
B1542525559022N01227756EA0000000513
B1543005559058N01228152EA0000000510
B1543055559084N01228397EA0000000498
B1543135559126N01228801EA0000000482
B1543185559147N01229056EA0000000475
B1543265559172N01229463EA0000000465
B1543315559174N01229713EA0000000462
B1543415559163N01230212EA0000000452
B1543475559160N01230508EA0000000449
B1543525559171N01230752EA0000000452
B1543585559210N01231029EA0000000457
B1544055559278N01231333EA0000000461
B1544155559384N01231763EA0000000454
B1544215559445N01232017EA0000000459
B1544275559467N01232276EA0000000459
B1544355559549N01232599EA0000000461
B1544415559647N01232804EA0000000465
B1544465559714N01232985EA0000000472
B1544515559730N01233188EA0000000477
B1544565559706N01233383EA0000000478
B1545015559721N01233590EA0000000474
B1545075559800N01233819EA0000000467
B1545165559983N01234089EA0000000466
B1545215600087N01234231EA0000000470
B1545265600190N01234371EA0000000473
B1545365600378N01234680EA0000000476
B1545425600483N01234884EA0000000475
B1545485600589N01235096EA0000000471
B1545565600731N01235383EA0000000472
B1546065600913N01235731EA0000000473
B1546185601153N01236119EA0000000471
B1546255601304N01236317EA0000000477
B1546355601518N01236588EA0000000481
B1546435601686N01236810EA0000000481
B1546485601790N01236952EA0000000482
B1546555601954N01237108EA0000000478
B1547015602112N01237183EA0000000470
B1547105602366N01237197EA0000000452
B1547155602507N01237151EA0000000447
B1547205602643N01237069EA0000000446
B1547255602774N01236982EA0000000450
B1547385603096N01236734EA0000000457
B1547485603335N01236537EA0000000454
B1547535603460N01236450EA0000000451
B1548015603670N01236338EA0000000442
B1548085603864N01236267EA0000000431
B1548135604008N01236236EA0000000422
B1548215604244N01236189EA0000000403
B1548275604426N01236152EA0000000390
B1548365604703N01236099EA0000000371
B1548475605044N01236018EA0000000352
B1548555605292N01235953EA0000000343
B1551175608810N01233296EA0000000397
B1551275609078N01233380EA0000000394
B1551355609281N01233538EA0000000398
B1551445609489N01233757EA0000000405
B1551525609668N01233967EA0000000407
B1552005609845N01234185EA0000000407
B1552065609977N01234353EA0000000409
B1552265610407N01234922EA0000000408
B1552315610510N01235066EA0000000404
B1552395610673N01235283EA0000000403
B1552525610943N01235617EA0000000382
B1552585611061N01235775EA0000000372
B1553045611169N01235940EA0000000363
B1553105611278N01236089EA0000000352
B1553355611658N01236084EA0000000304
B1553425611612N01235883EA0000000273
B1840065604234N01231520EA0000000304
B1840115604166N01231404EA0000000303
B1840205604044N01231191EA0000000301
B1840265603964N01231045EA0000000302
B1840385603804N01230756EA0000000301
B1840435603735N01230641EA0000000299
B1840525603611N01230436EA0000000300
B1840585603534N01230303EA0000000307
B1841045603461N01230173EA0000000311
B1841105603389N01230046EA0000000313
B1841165603318N01229918EA0000000316
B1841215603258N01229809EA0000000318
B1841265603199N01229700EA0000000319
B1841315603138N01229585EA0000000319
B1841365603077N01229469EA0000000317
B1841435602989N01229298EA0000000315
B1841505602896N01229128EA0000000311
B1841565602811N01228979EA0000000306
B1842015602735N01228858EA0000000303
B1842075602640N01228717EA0000000304
B1842155602516N01228526EA0000000307
B1842215602423N01228388EA0000000311
B1842275602330N01228248EA0000000313
B1842335602236N01228111EA0000000313
B1842385602157N01227995EA0000000311
B1842445602059N01227856EA0000000309
B1842495601977N01227738EA0000000306
B1842575601837N01227554EA0000000298
B1843075601660N01227312EA0000000295
B1843185601471N01227033EA0000000295
B1843265601337N01226834EA0000000300
B1843315601251N01226721EA0000000299
B1843365601166N01226600EA0000000297
B1843435601049N01226423EA0000000293
B1843525600905N01226177EA0000000292
B1843575600829N01226033EA0000000290
B1844045600730N01225813EA0000000285
B1844095600661N01225652EA0000000282
B1844145600573N01225526EA0000000276
B1844195600468N01225454EA0000000272
B1844255600340N01225382EA0000000274
B1844315600215N01225313EA0000000278
B1844405600043N01225217EA0000000295
B1844485559898N01225133EA0000000301
B1844565559753N01225065EA0000000305
B1845065559572N01225008EA0000000311
B1845135559445N01224964EA0000000309
B1845205559318N01224893EA0000000308
B1845265559215N01224803EA0000000309
B1845325559113N01224711EA0000000311
B1845445558906N01224541EA0000000314
B1845505558800N01224461EA0000000313
B1845565558696N01224366EA0000000311
B1846025558613N01224219EA0000000313
B1846075558583N01224044EA0000000311
B1846135558596N01223806EA0000000304
B1846195558669N01223582EA0000000298
B1846245558775N01223450EA0000000302
B1846325558969N01223468EA0000000325
B1846385559010N01223690EA0000000323
B1846435558936N01223798EA0000000324
B1846485558842N01223811EA0000000326
B1846535558749N01223781EA0000000329
B1846595558647N01223696EA0000000333
B1847055558548N01223597EA0000000335
B1847105558465N01223510EA0000000337
B1847155558381N01223423EA0000000337
B1847235558244N01223283EA0000000338
B1847285558160N01223197EA0000000345
B1847335558077N01223116EA0000000348
B1847385557994N01223038EA0000000352
B1847455557884N01222919EA0000000360
B1847515557798N01222803EA0000000364
B1847565557729N01222696EA0000000362
B1848045557616N01222509EA0000000354
B1848115557517N01222326EA0000000348
B1848185557418N01222136EA0000000351
B1848245557330N01221992EA0000000360
B1848355557167N01221724EA0000000359
B1848425557065N01221544EA0000000360
B1848495556964N01221365EA0000000364
B1848585556831N01221133EA0000000359
B1849125556626N01220753EA0000000357
B1849225556478N01220465EA0000000346
B1849295556366N01220269EA0000000346
B1849355556274N01220100EA0000000347
B1849405556200N01219952EA0000000345
B1849495556065N01219706EA0000000354
B1849565555974N01219497EA0000000353
B1850025555911N01219294EA0000000350
B1850075555861N01219116EA0000000346
B1850125555817N01218930EA0000000342
B1850175555771N01218739EA0000000333
B1850245555708N01218460EA0000000326
B1850315555675N01218163EA0000000335
B1850365555693N01217953EA0000000349
B1850415555754N01217771EA0000000359
B1850465555850N01217636EA0000000364
B1850515555973N01217576EA0000000364
B1850595556171N01217688EA0000000354
B1851045556251N01217880EA0000000339
B1851095556270N01218110EA0000000339
B1851145556225N01218291EA0000000349
B1851195556135N01218364EA0000000342
B1851255556019N01218318EA0000000337
B1851305555929N01218237EA0000000333
B1851375555805N01218112EA0000000327
B1851455555660N01217979EA0000000325
B1851545555501N01217833EA0000000321
B1851595555415N01217742EA0000000318
B1852135555176N01217473EA0000000304
B1852185555096N01217357EA0000000304
B1852235555026N01217229EA0000000305
B1852305554934N01217042EA0000000306
B1852375554844N01216859EA0000000305
B1852435554770N01216699EA0000000303
B1852525554658N01216456EA0000000295
B1852575554594N01216318EA0000000286
B1853035554514N01216146EA0000000276
B1853185554321N01215707EA0000000262
B1853245554247N01215538EA0000000251
B1853325554124N01215353EA0000000234
B1853405553998N01215179EA0000000221
B1853515553844N01214911EA0000000209
B1853575553772N01214756EA0000000201
B1854025553718N01214625EA0000000192
B1854075553652N01214522EA0000000181
B1854165553510N01214427EA0000000169
B1854215553450N01214330EA0000000166
B1854265553428N01214183EA0000000160
B1854325553454N01213988EA0000000153
B1854375553477N01213830EA0000000153
B1854425553487N01213671EA0000000146
B1854485553484N01213477EA0000000141
B1854545553476N01213284EA0000000137
B1855015553459N01213059EA0000000128
B1855095553415N01212814EA0000000128
B1855155553362N01212686EA0000000135
B1855225553288N01212617EA0000000125
B1855295553217N01212618EA0000000111
B1855355553188N01212723EA0000000090
B1855415553176N01212861EA0000000074
B1855475553160N01212994EA0000000058
B1855565553135N01213201EA0000000033
B1856035553122N01213364EA0000000020
B1856135553100N01213554EA0000000018
