AOGNOGN
HFDTE300625
HFFXA050
HFPLTPILOTINCHARGE:
HFGTYGLIDERTYPE:WT9 Dynamic
HFGIDGLIDERID:OY-9397
HFDTM100GPSDATUM:WGS-1984
HFRFWFIRMWAREVERSION:
HFRHWHARDWAREVERSION:
HFFTYFRTYPE:OGN-FLIGHTBOOK
HFGPSGENERIC
HFPRSPRESSALTSENSOR:
HFCIDCOMPETITIONID:
B1714255527151N01138799EA0000000036
B1714255527151N01138799EA0000000036
B1714305527150N01138700EA0000000036
B1714395527149N01138479EA0000000044
B1714495527150N01138217EA0000000066
B1714555527154N01138061EA0000000075
B1715025527155N01137865EA0000000084
B1715095527154N01137667EA0000000102
B1715155527143N01137500EA0000000118
B1715225527113N01137305EA0000000132
B1716105526889N01136048EA0000000222
B1716185526790N01135862EA0000000241
B1716275526673N01135669EA0000000263
B1716345526571N01135546EA0000000281
B1716435526417N01135490EA0000000300
B1716555526199N01135559EA0000000322
B1717025526078N01135633EA0000000343
B1717085525981N01135714EA0000000353
B1717155525873N01135847EA0000000365
B1717205525824N01135985EA0000000373
B1717255525818N01136141EA0000000382
B1717325525881N01136306EA0000000393
B1717375525954N01136346EA0000000401
B1717425526025N01136303EA0000000406
B1717495526119N01136196EA0000000414
B1717545526201N01136193EA0000000418
B1717595526275N01136275EA0000000428
B1718075526320N01136509EA0000000448
B1718125526292N01136668EA0000000459
B1718175526232N01136801EA0000000471
B1718235526166N01136970EA0000000489
B1718315526161N01137230EA0000000500
B1718375526186N01137427EA0000000504
B1718425526217N01137583EA0000000514
B1718475526277N01137690EA0000000523
B1718575526432N01137783EA0000000530
B1719035526527N01137845EA0000000534
B1719115526650N01137938EA0000000548
B1719165526707N01138071EA0000000507
B1719225526712N01138330EA0000000451
B1719275526709N01138557EA0000000410
B1719325526700N01138788EA0000000366
B1719385526681N01139070EA0000000311
B1719435526665N01139309EA0000000259
B1719485526673N01139548EA0000000215
B1719535526731N01139745EA0000000186
B1719585526827N01139866EA0000000153
B1720055526982N01139891EA0000000116
B1720105527079N01139816EA0000000106
B1720155527138N01139717EA0000000118
B1720215527143N01139558EA0000000098
B1720295527130N01139344EA0000000062
B1733345527153N01138065EA0000000088
B1733515527151N01137583EA0000000113
B1733585527118N01137385EA0000000131
B1734065527083N01137158EA0000000147
B1734125527085N01136987EA0000000157
B1735005527248N01135655EA0000000244
B1735065527304N01135528EA0000000258
B1735115527360N01135442EA0000000266
B1735195527467N01135358EA0000000274
B1735245527541N01135338EA0000000281
B1735295527616N01135348EA0000000287
B1735375527739N01135412EA0000000298
B1735425527817N01135464EA0000000308
B1735505527937N01135576EA0000000326
B1736025528089N01135812EA0000000350
B1736105528167N01136007EA0000000364
B1736155528208N01136141EA0000000371
B1736225528261N01136330EA0000000381
B1736315528331N01136575EA0000000391
B1736365528374N01136708EA0000000395
B1736415528418N01136842EA0000000401
B1736465528461N01136977EA0000000410
B1736575528553N01137285EA0000000433
B1737025528580N01137436EA0000000445
B1737075528593N01137595EA0000000449
B1737195528605N01137990EA0000000462
B1737325528601N01138425EA0000000487
B1737455528608N01138857EA0000000517
B1737505528602N01139025EA0000000527
B1737575528590N01139253EA0000000540
B1738025528576N01139415EA0000000549
B1738115528542N01139702EA0000000557
B1738185528503N01139927EA0000000566
B1738265528456N01140179EA0000000578
B1738325528419N01140367EA0000000584
B1738455528313N01140770EA0000000599
B1739315527721N01141941EA0000000683
B1739385527628N01142104EA0000000694
B1739465527522N01142289EA0000000706
B1739515527458N01142408EA0000000715
B1739565527402N01142534EA0000000722
B1740445527727N01143467EA0000000795
B1740535527842N01143377EA0000000808
B1740595527904N01143273EA0000000815
B1741055527959N01143154EA0000000820
B1741115528015N01143028EA0000000824
B1741175528073N01142899EA0000000832
B1741225528122N01142795EA0000000844
B1741275528167N01142693EA0000000855
B1741325528212N01142593EA0000000865
B1741395528269N01142450EA0000000877
B1741505528350N01142205EA0000000891
B1742025528442N01141933EA0000000916
B1742075528480N01141821EA0000000924
B1742235528607N01141455EA0000000940
B1742295528656N01141317EA0000000950
B1742385528728N01141119EA0000000963
B1742445528780N01140992EA0000000971
B1742575528889N01140715EA0000000990
B1743045528936N01140549EA0000000999
B1743095528962N01140422EA0000001007
B1743285529051N01139942EA0000001044
B1743385529088N01139688EA0000001063
B1743435529099N01139560EA0000001071
B1743555529118N01139246EA0000001088
B1744005529120N01139116EA0000001099
B1744055529102N01138986EA0000001108
B1744105529065N01138863EA0000001114
B1744175528994N01138704EA0000001123
B1744235528922N01138575EA0000001129
B1744285528863N01138463EA0000001136
B1744335528807N01138349EA0000001144
B1744405528728N01138190EA0000001156
B1744465528653N01138059EA0000001167
B1744525528576N01137931EA0000001176
B1744585528498N01137800EA0000001185
B1745035528435N01137689EA0000001193
B1745085528371N01137581EA0000001202
B1745215528157N01137438EA0000001228
B1745275528049N01137483EA0000001231
B1745325527963N01137577EA0000001226
B1745385527878N01137746EA0000001221
B1745435527796N01137917EA0000001173
B1745485527690N01138110EA0000001114
B1745535527572N01138305EA0000001063
B1745585527450N01138489EA0000001008
B1746035527321N01138657EA0000000942
B1746085527182N01138808EA0000000876
B1746135527042N01138954EA0000000809
B1746185526901N01139094EA0000000743
B1746235526756N01139207EA0000000681
B1746285526603N01139197EA0000000622
B1747235526872N01139468EA0000000172
B1747285526949N01139521EA0000000141
B1747345527043N01139562EA0000000130
B1747395527114N01139547EA0000000101
B1747445527156N01139435EA0000000072
B1747515527141N01139237EA0000000048
B1747565527136N01139106EA0000000042
B1748095527135N01138807EA0000000035
B1748145527133N01138721EA0000000035
