AOGNOGN
HFDTE300625
HFFXA050
HFPLTPILOTINCHARGE:
HFGTYGLIDERTYPE:ASK-21
HFGIDGLIDERID:OY-XPL
HFDTM100GPSDATUM:WGS-1984
HFRFWFIRMWAREVERSION:
HFRHWHARDWAREVERSION:
HFFTYFRTYPE:OGN-FLIGHTBOOK
HFGPSGENERIC
HFPRSPRESSALTSENSOR:
HFCIDCOMPETITIONID:PL
B1733345527152N01138115EA0000000084
B1733375527153N01138038EA0000000088
B1733445527153N01137839EA0000000094
B1733495527154N01137693EA0000000104
B1733575527132N01137460EA0000000123
B1734065527085N01137209EA0000000142
B1735005527235N01135698EA0000000237
B1735075527295N01135546EA0000000254
B1735125527349N01135455EA0000000262
B1735195527440N01135373EA0000000270
B1735245527513N01135345EA0000000277
B1735325527634N01135359EA0000000289
B1735425527790N01135450EA0000000305
B1735475527866N01135509EA0000000314
B1735525527938N01135587EA0000000326
B1736025528066N01135781EA0000000346
B1736075528118N01135896EA0000000355
B1736125528165N01136021EA0000000362
B1736195528221N01136208EA0000000374
B1736255528266N01136372EA0000000381
B1736325528320N01136564EA0000000388
B1736385528372N01136724EA0000000393
B1736485528459N01136994EA0000000410
B1736535528504N01137131EA0000000421
B1737005528559N01137329EA0000000437
B1737105528591N01137644EA0000000450
B1737175528601N01137874EA0000000458
B1737235528600N01138075EA0000000465
B1737345528598N01138442EA0000000489
B1737405528603N01138640EA0000000505
B1737465528606N01138840EA0000000516
B1737525528598N01139040EA0000000528
B1737585528588N01139235EA0000000538
B1738055528569N01139460EA0000000551
B1738125528542N01139685EA0000000556
B1738185528509N01139878EA0000000564
B1738255528470N01140099EA0000000574
B1738325528428N01140319EA0000000585
B1738415528363N01140604EA0000000593
B1739315527741N01141904EA0000000683
B1739375527662N01142045EA0000000691
B1739425527595N01142160EA0000000700
B1739495527503N01142321EA0000000710
B1739565527417N01142490EA0000000721
B1740445527699N01143477EA0000000791
B1740505527783N01143444EA0000000802
B1740555527844N01143378EA0000000809
B1741075527961N01143152EA0000000822
B1741295528168N01142692EA0000000857
B1741495528327N01142270EA0000000890
B1742065528456N01141885EA0000000921
B1742165528534N01141659EA0000000932
B1742375528703N01141179EA0000000962
B1742425528744N01141072EA0000000968
B1742495528806N01140927EA0000000978
B1742545528848N01140822EA0000000985
B1743015528904N01140667EA0000000996
B1743065528935N01140545EA0000001002
B1743125528966N01140392EA0000001012
B1743215529008N01140164EA0000001029
B1743265529032N01140039EA0000001040
B1743345529066N01139838EA0000001055
B1743405529086N01139686EA0000001065
B1743455529097N01139558EA0000001073
B1743545529111N01139322EA0000001084
B1744005529119N01139166EA0000001098
B1744175529010N01138745EA0000001123
B1744295528867N01138484EA0000001136
B1744345528810N01138370EA0000001144
B1744395528755N01138255EA0000001153
B1744475528658N01138078EA0000001166
B1744525528593N01137971EA0000001173
B1744575528528N01137862EA0000001182
B1745085528388N01137620EA0000001200
B1745255528111N01137449EA0000001230
B1745345527952N01137591EA0000001226
B1745395527878N01137717EA0000001235
B1745465527778N01137850EA0000001238
B1745535527694N01137993EA0000001235
B1745595527635N01138142EA0000001225
B1746045527608N01138288EA0000001212
B1746095527585N01138468EA0000001158
B1746165527611N01138710EA0000001182
B1746245527732N01138851EA0000001089
B1747235527494N01139289EA0000000911
B1747285527481N01139170EA0000000781
B1747335527468N01139067EA0000000885
B1747385527447N01139216EA0000000827
B1747435527447N01139427EA0000000719
B1747485527441N01139668EA0000000762
B1747555527478N01139689EA0000000789
B1748005527482N01139547EA0000000656
B1748055527464N01139347EA0000000719
B1748135527438N01139048EA0000000615
B1748185527429N01138807EA0000000626
B1748235527394N01138787EA0000000729
B1748295527358N01138863EA0000000580
B1748345527343N01139106EA0000000604
B1748395527367N01139222EA0000000672
B1748465527428N01139172EA0000000656
B1748515527435N01139070EA0000000652
B1748565527428N01138932EA0000000521
B1749025527411N01138812EA0000000611
B1749075527402N01138951EA0000000515
B1749125527391N01139183EA0000000487
B1749195527402N01139338EA0000000575
B1749245527425N01139461EA0000000546
B1749295527377N01139552EA0000000559
B1749365527374N01139418EA0000000513
B1749415527427N01139330EA0000000535
B1749495527462N01139167EA0000000533
B1749545527464N01139058EA0000000529
B1749595527505N01138992EA0000000516
B1750075527598N01139067EA0000000517
B1750125527627N01139167EA0000000511
B1750195527630N01139349EA0000000496
B1750295527588N01139643EA0000000477
B1750345527536N01139774EA0000000461
B1750395527437N01139770EA0000000357
B1750445527392N01139517EA0000000242
B1750495527383N01139311EA0000000364
B1750545527367N01139284EA0000000428
B1751015527410N01139174EA0000000292
B1751065527430N01138995EA0000000342
B1751125527449N01138837EA0000000362
B1751175527478N01138726EA0000000344
B1751225527533N01138622EA0000000335
B1752095527136N01139615EA0000000159
B1752145527113N01139431EA0000000117
B1752195527125N01139250EA0000000053
B1752275527128N01138987EA0000000034
