AOGNOGN
HFDTE300625
HFFXA050
HFPLTPILOTINCHARGE:
HFGTYGLIDERTYPE:ASK-21
HFGIDGLIDERID:OY-XPL
HFDTM100GPSDATUM:WGS-1984
HFRFWFIRMWAREVERSION:
HFRHWHARDWAREVERSION:
HFFTYFRTYPE:OGN-FLIGHTBOOK
HFGPSGENERIC
HFPRSPRESSALTSENSOR:
HFCIDCOMPETITIONID:PL
B1558285527152N01138850EA0000000034
B1558285527152N01138850EA0000000034
B1558445527150N01138452EA0000000051
B1558505527148N01138294EA0000000064
B1558555527146N01138160EA0000000074
B1559035527145N01137936EA0000000092
B1559135527148N01137648EA0000000115
B1559225527130N01137387EA0000000134
B1559275527107N01137243EA0000000147
B1559385527094N01136930EA0000000177
B1559445527098N01136757EA0000000195
B1559525527104N01136531EA0000000218
B1600015527120N01136268EA0000000232
B1600065527121N01136120EA0000000238
B1600125527104N01135945EA0000000245
B1600185527055N01135792EA0000000255
B1600245526979N01135673EA0000000259
B1600295526903N01135603EA0000000274
B1600355526811N01135534EA0000000289
B1600405526732N01135479EA0000000297
B1600455526650N01135439EA0000000304
B1600525526530N01135420EA0000000320
B1601015526376N01135469EA0000000336
B1601085526263N01135553EA0000000346
B1601145526174N01135654EA0000000354
B1601205526099N01135793EA0000000355
B1601275526027N01135978EA0000000363
B1601345525966N01136169EA0000000380
B1601455525892N01136487EA0000000405
B1601535525875N01136733EA0000000417
B1601595525863N01136917EA0000000425
B1602105525867N01137252EA0000000431
B1602175525883N01137461EA0000000441
B1602245525925N01137653EA0000000459
B1603185526263N01137140EA0000000514
B1603265526271N01136952EA0000000513
B1603325526303N01136841EA0000000519
B1603375526359N01136867EA0000000520
B1603435526352N01136997EA0000000522
B1603495526266N01136996EA0000000517
B1603545526234N01136888EA0000000517
B1604005526251N01136751EA0000000516
B1604065526319N01136714EA0000000512
B1604115526339N01136825EA0000000509
B1604165526280N01136896EA0000000511
B1604235526221N01136774EA0000000513
B1604285526264N01136709EA0000000515
B1604335526310N01136786EA0000000508
B1604405526253N01136900EA0000000511
B1604455526211N01136822EA0000000505
B1604505526249N01136753EA0000000504
B1604575526317N01136859EA0000000500
B1605025526325N01136993EA0000000511
B1605075526304N01137110EA0000000522
B1605145526232N01137040EA0000000528
B1605195526277N01136974EA0000000531
B1605245526319N01137057EA0000000538
B1605315526247N01137151EA0000000554
B1605365526213N01137052EA0000000557
B1605425526265N01136955EA0000000559
B1605485526331N01136876EA0000000555
B1605555526415N01136777EA0000000548
B1606015526483N01136702EA0000000547
B1606065526544N01136692EA0000000542
B1606115526586N01136779EA0000000535
B1606165526591N01136910EA0000000540
B1606235526590N01137095EA0000000548
B1606315526588N01137304EA0000000556
B1606365526587N01137437EA0000000559
B1606415526585N01137571EA0000000559
B1606485526577N01137766EA0000000545
B1606585526551N01138048EA0000000532
B1607435526161N01138857EA0000000488
B1607515526112N01138697EA0000000474
B1607585526078N01138546EA0000000462
B1608065526046N01138366EA0000000451
B1608145526022N01138176EA0000000447
B1608235525993N01137964EA0000000440
B1608285525981N01137842EA0000000439
B1608335526001N01137740EA0000000448
B1608395526064N01137690EA0000000448
B1608485526175N01137649EA0000000452
B1608545526249N01137619EA0000000451
B1609005526324N01137585EA0000000457
B1609055526382N01137556EA0000000462
B1609105526442N01137520EA0000000465
B1609155526480N01137437EA0000000467
B1609225526416N01137319EA0000000470
B1609275526353N01137391EA0000000478
B1609325526363N01137515EA0000000478
B1609395526419N01137666EA0000000478
B1609445526461N01137776EA0000000476
B1609495526503N01137884EA0000000474
B1609575526576N01138059EA0000000459
B1610025526620N01138183EA0000000461
B1610085526670N01138327EA0000000455
B1610135526734N01138357EA0000000456
B1610195526782N01138261EA0000000446
B1610245526749N01138145EA0000000438
B1610315526629N01138142EA0000000429
B1610375526519N01138188EA0000000419
B1610475526336N01138255EA0000000414
B1610525526249N01138267EA0000000407
B1610575526170N01138236EA0000000396
B1611045526107N01138092EA0000000386
B1611095526113N01137973EA0000000386
B1611175526169N01137802EA0000000386
B1611235526217N01137665EA0000000383
B1611305526275N01137494EA0000000381
B1611385526331N01137314EA0000000385
B1611435526368N01137209EA0000000387
B1611485526411N01137115EA0000000391
B1611555526495N01137137EA0000000393
B1612005526511N01137260EA0000000388
B1612065526498N01137432EA0000000374
B1612175526473N01137764EA0000000361
B1612225526462N01137912EA0000000359
B1612285526407N01138050EA0000000353
B1613145526364N01137975EA0000000307
B1613245526416N01138207EA0000000289
B1613355526467N01138480EA0000000279
B1613405526487N01138606EA0000000278
B1613465526511N01138757EA0000000276
B1613535526538N01138931EA0000000265
B1613585526558N01139048EA0000000247
B1614035526583N01139164EA0000000223
B1614105526629N01139321EA0000000190
B1614155526675N01139412EA0000000183
B1614215526748N01139459EA0000000175
B1614275526822N01139503EA0000000151
B1614335526902N01139523EA0000000143
B1614405526991N01139528EA0000000134
B1614475527081N01139523EA0000000127
B1614535527125N01139436EA0000000120
B1615005527124N01139284EA0000000092
B1615115527124N01139029EA0000000046
B1615235527126N01138791EA0000000035
