AOGNOGN
HFDTE190625
HFFXA050
HFPLTPILOTINCHARGE:
HFGTYGLIDERTYPE:ASK-21
HFGIDGLIDERID:OY-XMF
HFDTM100GPSDATUM:WGS-1984
HFRFWFIRMWAREVERSION:
HFRHWHARDWAREVERSION:
HFFTYFRTYPE:OGN-FLIGHTBOOK
HFGPSGENERIC
HFPRSPRESSALTSENSOR:
HFCIDCOMPETITIONID:X1
B1454285650751N00927806EA0000000076
B1454285650751N00927806EA0000000076
B1454335650762N00927731EA0000000157
B1454395650766N00927623EA0000000258
B1454445650775N00927531EA0000000338
B1454495650790N00927443EA0000000400
B1454545650811N00927355EA0000000451
B1455015650841N00927211EA0000000493
B1455085650872N00927055EA0000000515
B1455155650909N00926941EA0000000543
B1455235650953N00926858EA0000000558
B1455295650988N00926799EA0000000567
B1455355651026N00926739EA0000000570
B1455425651070N00926660EA0000000580
B1455475651104N00926601EA0000000571
B1455525651142N00926542EA0000000568
B1455595651192N00926453EA0000000570
B1456105651264N00926326EA0000000578
B1456195651325N00926215EA0000000574
B1456265651378N00926131EA0000000565
B1456355651451N00926039EA0000000580
B1456435651517N00925963EA0000000591
B1456495651574N00925932EA0000000594
B1456545651632N00925999EA0000000592
B1457005651651N00926194EA0000000586
B1457055651595N00926338EA0000000585
B1457105651510N00926371EA0000000576
B1457175651450N00926248EA0000000578
B1457275651466N00926031EA0000000579
B1457345651491N00925884EA0000000588
B1457395651543N00925853EA0000000602
B1457445651598N00925945EA0000000605
B1457495651592N00926120EA0000000614
B1457545651519N00926230EA0000000618
B1457595651446N00926200EA0000000619
B1458045651432N00926102EA0000000622
B1458095651471N00926036EA0000000628
B1458145651529N00926063EA0000000634
B1458195651566N00926195EA0000000628
B1458255651528N00926398EA0000000624
B1458315651431N00926450EA0000000630
B1458365651379N00926372EA0000000638
B1458425651387N00926259EA0000000647
B1458475651437N00926240EA0000000639
B1458525651486N00926344EA0000000630
B1458595651447N00926575EA0000000630
B1459045651362N00926611EA0000000631
B1459095651312N00926518EA0000000627
B1459165651322N00926363EA0000000621
B1459235651361N00926248EA0000000622
B1459285651405N00926182EA0000000625
B1459345651466N00926121EA0000000632
B1459415651543N00926073EA0000000636
B1459465651601N00926038EA0000000635
B1459515651663N00926002EA0000000637
B1459595651766N00925945EA0000000641
B1500065651861N00925897EA0000000643
B1500115651926N00925864EA0000000648
B1500175651996N00925830EA0000000653
B1500245652080N00925788EA0000000642
B1500295652123N00925719EA0000000637
B1500355652124N00925604EA0000000638
B1500405652093N00925511EA0000000626
B1500495651960N00925471EA0000000628
B1500545651878N00925481EA0000000625
B1501005651792N00925430EA0000000627
B1501065651753N00925317EA0000000628
B1501145651777N00925192EA0000000622
B1501195651822N00925150EA0000000618
B1501255651887N00925135EA0000000626
B1501315651954N00925128EA0000000629
B1501385652044N00925127EA0000000632
B1501435652115N00925149EA0000000625
B1501485652169N00925258EA0000000628
B1501535652173N00925431EA0000000613
B1502025652044N00925612EA0000000603
B1502085651967N00925536EA0000000586
B1502135651934N00925429EA0000000587
B1502195651915N00925329EA0000000599
B1502245651925N00925245EA0000000590
B1502295651970N00925192EA0000000589
B1502375652072N00925231EA0000000582
B1502435652143N00925351EA0000000574
B1502525652223N00925607EA0000000563
B1503015652275N00925908EA0000000550
B1503085652269N00926175EA0000000535
B1503135652241N00926371EA0000000522
B1503205652190N00926642EA0000000509
B1503265652141N00926877EA0000000478
B1503325652066N00927127EA0000000445
B1503375651993N00927318EA0000000455
B1503425651926N00927484EA0000000443
B1503475651866N00927647EA0000000414
B1503525651807N00927815EA0000000399
B1504005651713N00928096EA0000000368
B1504075651632N00928371EA0000000332
B1504125651572N00928571EA0000000322
B1504215651474N00928923EA0000000315
B1504265651412N00929119EA0000000313
B1504315651321N00929260EA0000000328
B1504385651183N00929422EA0000000321
B1504435651079N00929527EA0000000312
B1504485650968N00929583EA0000000302
B1504565650790N00929644EA0000000284
B1505035650632N00929689EA0000000275
B1505085650537N00929637EA0000000273
B1505135650489N00929517EA0000000268
B1505185650491N00929382EA0000000261
B1505305650530N00929058EA0000000207
B1505375650563N00928893EA0000000172
B1505435650588N00928750EA0000000142
B1505485650609N00928624EA0000000117
B1505535650632N00928501EA0000000098
B1506005650661N00928345EA0000000067
B1506095650691N00928159EA0000000039
B1506155650707N00928052EA0000000033
