AOGNOGN
HFDTE190625
HFFXA050
HFPLTPILOTINCHARGE:
HFGTYGLIDERTYPE:Arcus M
HFGIDGLIDERID:D-KFMW
HFDTM100GPSDATUM:WGS-1984
HFRFWFIRMWAREVERSION:
HFRHWHARDWAREVERSION:
HFFTYFRTYPE:OGN-FLIGHTBOOK
HFGPSGENERIC
HFPRSPRESSALTSENSOR:
HFCIDCOMPETITIONID:2W
B1016135650745N00927971EA0000000025
B1016175650757N00927901EA0000000025
B1016225650774N00927791EA0000000029
B1016275650793N00927675EA0000000042
B1016345650809N00927528EA0000000066
B1016395650814N00927432EA0000000081
B1016475650816N00927279EA0000000087
B1016525650829N00927187EA0000000108
B1016595650842N00927073EA0000000129
B1017045650848N00926993EA0000000140
B1017135650871N00926852EA0000000165
B1017225650897N00926718EA0000000182
B1017275650922N00926645EA0000000188
B1017375651011N00926588EA0000000220
B1017425651062N00926578EA0000000232
B1017475651118N00926595EA0000000245
B1017555651207N00926707EA0000000264
B1018005651260N00926801EA0000000273
B1018065651324N00926919EA0000000284
B1018115651375N00927028EA0000000290
B1018215651454N00927312EA0000000317
B1018265651468N00927480EA0000000349
B1018315651439N00927641EA0000000379
B1018385651322N00927801EA0000000409
B1018435651235N00927779EA0000000429
B1018485651198N00927694EA0000000441
B1018555651254N00927650EA0000000451
B1019005651299N00927778EA0000000482
B1019055651273N00927960EA0000000510
B1019135651124N00928032EA0000000552
B1019185651084N00927932EA0000000569
B1019235651122N00927879EA0000000583
B1019295651166N00928040EA0000000613
B1019345651096N00928181EA0000000650
B1019395651009N00928136EA0000000661
B1019465651048N00928033EA0000000695
B1019515651082N00928168EA0000000721
B1019565651022N00928330EA0000000751
B1020025650910N00928310EA0000000783
B1020075650887N00928188EA0000000795
B1020125650936N00928132EA0000000817
B1020195651010N00928245EA0000000828
B1020245650995N00928436EA0000000843
B1020295650911N00928574EA0000000876
B1020365650777N00928534EA0000000909
B1020415650743N00928402EA0000000921
B1020475650750N00928260EA0000000924
B1020535650754N00928122EA0000000913
B1020585650758N00928019EA0000000912
B1021055650768N00927869EA0000000896
B1021105650782N00927755EA0000000888
B1021185650801N00927588EA0000000886
B1021275650825N00927416EA0000000878
B1021345650835N00927280EA0000000877
B1021445650853N00927095EA0000000879
B1021525650863N00926945EA0000000861
B1021585650866N00926827EA0000000865
B1022035650864N00926737EA0000000858
B1022115650863N00926575EA0000000869
B1022185650857N00926434EA0000000860
B1022265650855N00926264EA0000000863
B1022355650840N00926082EA0000000863
B1022445650823N00925896EA0000000857
B1022525650804N00925734EA0000000861
B1022575650789N00925639EA0000000858
B1023055650778N00925478EA0000000834
B1023105650774N00925369EA0000000826
B1023155650777N00925265EA0000000826
B1023215650804N00925170EA0000000825
B1023265650842N00925117EA0000000817
B1023325650901N00925086EA0000000803
B1023385650973N00925091EA0000000790
B1023435651032N00925160EA0000000786
B1023495651076N00925328EA0000000779
B1023545651077N00925515EA0000000779
B1024005651029N00925733EA0000000784
B1024065650948N00925926EA0000000796
B1024135650845N00926133EA0000000811
B1024205650714N00926275EA0000000818
B1024255650614N00926278EA0000000829
B1024305650555N00926197EA0000000831
B1024355650559N00926105EA0000000818
B1024405650611N00926089EA0000000801
B1024455650662N00926194EA0000000794
B1024515650678N00926406EA0000000811
B1024565650701N00926561EA0000000812
B1025015650757N00926631EA0000000810
B1025085650809N00926553EA0000000807
B1025135650798N00926452EA0000000819
B1025195650772N00926339EA0000000835
B1025265650747N00926206EA0000000829
B1025315650735N00926094EA0000000820
B1025385650723N00925932EA0000000824
B1025445650713N00925797EA0000000829
B1025495650711N00925695EA0000000825
B1025555650714N00925575EA0000000814
B1026035650724N00925393EA0000000786
B1026095650736N00925250EA0000000783
B1026165650756N00925098EA0000000781
B1026215650770N00924985EA0000000767
B1026305650799N00924773EA0000000760
B1026375650832N00924629EA0000000769
B1026425650861N00924544EA0000000760
B1026495650901N00924403EA0000000756
B1026545650925N00924303EA0000000765
B1027015650954N00924166EA0000000772
B1027065650977N00924075EA0000000760
B1027155651052N00923921EA0000000739
B1027235651153N00923853EA0000000714
B1027305651249N00923796EA0000000706
B1027375651340N00923748EA0000000689
B1027435651413N00923710EA0000000694
B1027485651468N00923669EA0000000680
B1027535651525N00923610EA0000000671
B1027585651573N00923528EA0000000667
B1028055651619N00923385EA0000000676
B1028105651636N00923284EA0000000692
B1028185651656N00923154EA0000000708
B1028235651666N00923070EA0000000717
B1028325651688N00922911EA0000000725
B1028385651704N00922821EA0000000726
B1028455651721N00922683EA0000000727
B1028505651732N00922603EA0000000734
B1028565651751N00922488EA0000000704
B1029085651805N00922225EA0000000681
B1029145651836N00922096EA0000000668
B1029225651883N00921925EA0000000658
B1029275651912N00921819EA0000000670
B1029335651939N00921708EA0000000693
B1029395651959N00921600EA0000000692
B1029445651982N00921503EA0000000685
B1029495652004N00921420EA0000000707
B1029565652038N00921319EA0000000699
B1030025652071N00921212EA0000000683
B1030075652101N00921103EA0000000685
B1030135652132N00920980EA0000000708
B1030205652166N00920858EA0000000711
B1030255652218N00920888EA0000000713
B1030305652241N00921055EA0000000702
B1030355652182N00921225EA0000000698
B1030475652005N00921096EA0000000690
B1030555651967N00920911EA0000000671
B1031055651965N00920666EA0000000679
B1031115651977N00920549EA0000000683
B1031165651997N00920458EA0000000676
B1031215652023N00920360EA0000000659
B1031295652096N00920221EA0000000640
B1031445652242N00920006EA0000000630
B1031525652312N00919872EA0000000642
B1031575652351N00919796EA0000000655
B1032025652411N00919807EA0000000663
B1032095652397N00920037EA0000000658
B1032145652298N00920090EA0000000646
B1032195652253N00919983EA0000000642
B1032345652290N00919702EA0000000668
B1032395652339N00919798EA0000000649
B1032465652286N00920033EA0000000661
B1032515652187N00920083EA0000000655
B1032565652097N00920062EA0000000677
B1033025652003N00920018EA0000000657
B1033075651953N00919922EA0000000642
B1033145652016N00919886EA0000000622
B1033205652027N00920098EA0000000620
B1033265651963N00920322EA0000000628
B1033325651899N00920530EA0000000642
B1033385651837N00920731EA0000000648
B1033455651767N00920951EA0000000651
B1033535651689N00921216EA0000000654
B1033585651647N00921374EA0000000652
B1034075651566N00921688EA0000000636
B1034125651523N00921866EA0000000627
B1034185651471N00922084EA0000000617
B1034245651417N00922291EA0000000616
B1034305651361N00922496EA0000000617
B1034355651313N00922677EA0000000606
B1034445651235N00922993EA0000000629
B1034495651188N00923149EA0000000624
B1034555651092N00923253EA0000000632
B1035015651024N00923168EA0000000617
B1035065651052N00923097EA0000000619
B1035115651104N00923160EA0000000614
B1035185651100N00923398EA0000000617
B1035255651011N00923607EA0000000623
B1035315650939N00923797EA0000000624
B1035375650865N00923982EA0000000630
B1035425650799N00924134EA0000000629
B1035475650708N00924197EA0000000628
B1035525650637N00924126EA0000000637
B1035575650616N00924028EA0000000641
B1036025650669N00924017EA0000000639
B1036095650709N00924207EA0000000635
B1036165650652N00924457EA0000000635
B1036215650592N00924618EA0000000640
B1036265650532N00924758EA0000000649
B1036315650454N00924866EA0000000641
B1036365650373N00924959EA0000000655
B1036435650253N00925033EA0000000645
B1036485650159N00925100EA0000000640
B1036535650082N00925226EA0000000656
B1037005649998N00925429EA0000000653
B1037075649927N00925658EA0000000652
B1037125649873N00925809EA0000000658
B1037175649784N00925871EA0000000657
B1037225649716N00925801EA0000000660
B1037275649715N00925702EA0000000664
B1037345649783N00925680EA0000000664
B1037395649836N00925774EA0000000656
B1037445649859N00925937EA0000000650
B1037515649830N00926198EA0000000636
B1037575649780N00926416EA0000000644
B1038045649716N00926652EA0000000641
B1038105649664N00926851EA0000000633
B1038195649604N00927164EA0000000629
B1038255649568N00927379EA0000000625
B1038305649533N00927558EA0000000633
B1038355649493N00927720EA0000000643
B1038425649368N00927837EA0000000643
B1038475649283N00927813EA0000000640
B1038535649240N00927698EA0000000643
B1038595649254N00927601EA0000000631
B1039045649309N00927593EA0000000625
B1039095649363N00927686EA0000000626
B1039165649370N00927924EA0000000641
B1039215649350N00928091EA0000000641
B1039265649325N00928271EA0000000651
B1039325649240N00928427EA0000000636
B1039375649146N00928423EA0000000633
B1039425649108N00928327EA0000000629
B1039495649144N00928238EA0000000633
B1039555649192N00928221EA0000000636
B1040035649274N00928278EA0000000645
B1040095649336N00928362EA0000000638
B1040145649387N00928452EA0000000638
B1040195649439N00928551EA0000000631
B1040255649514N00928632EA0000000617
B1040335649623N00928683EA0000000620
B1040405649716N00928702EA0000000606
B1040465649803N00928702EA0000000582
B1040575649974N00928696EA0000000575
B1041045650071N00928703EA0000000579
B1041095650139N00928714EA0000000568
B1041145650212N00928720EA0000000558
B1041205650296N00928721EA0000000564
B1041275650380N00928726EA0000000581
B1041335650446N00928718EA0000000582
B1041415650523N00928703EA0000000599
B1041485650586N00928675EA0000000600
B1041535650624N00928639EA0000000597
B1042005650654N00928524EA0000000578
B1042055650650N00928416EA0000000583
B1042105650645N00928309EA0000000589
B1042165650631N00928192EA0000000620
B1042225650645N00928102EA0000000600
B1042275650701N00928172EA0000000595
B1042325650683N00928346EA0000000596
B1042395650554N00928450EA0000000613
B1042445650461N00928462EA0000000619
B1042495650403N00928390EA0000000613
B1042565650379N00928278EA0000000614
B1043015650375N00928187EA0000000618
B1043085650372N00928084EA0000000636
B1043135650370N00928002EA0000000635
B1043195650364N00927894EA0000000639
B1043275650356N00927747EA0000000645
B1043325650347N00927672EA0000000656
B1043395650333N00927557EA0000000631
B1043485650303N00927377EA0000000609
B1043555650272N00927226EA0000000602
B1044005650245N00927120EA0000000603
B1044065650215N00926996EA0000000594
B1044155650167N00926784EA0000000579
B1044215650141N00926640EA0000000571
B1044285650117N00926474EA0000000560
B1044355650090N00926311EA0000000550
B1044405650064N00926198EA0000000546
B1044475650029N00926036EA0000000520
B1044525650001N00925900EA0000000502
B1045025649943N00925614EA0000000492
B1045125649894N00925336EA0000000490
B1045185649871N00925189EA0000000522
B1045235649851N00925084EA0000000539
B1045295649828N00924971EA0000000559
B1045345649870N00924962EA0000000553
B1045395649894N00925123EA0000000558
B1045465649797N00925280EA0000000584
B1045515649721N00925247EA0000000578
B1045575649665N00925142EA0000000578
B1046025649681N00925066EA0000000569
B1046075649742N00925100EA0000000554
B1046135649771N00925302EA0000000567
B1046195649713N00925512EA0000000590
B1046245649642N00925619EA0000000596
B1046295649566N00925576EA0000000587
B1046365649560N00925461EA0000000604
B1046425649576N00925389EA0000000582
B1046485649602N00925290EA0000000563
B1046535649623N00925213EA0000000569
B1046595649651N00925123EA0000000566
B1047075649682N00924998EA0000000558
B1047125649701N00924912EA0000000567
B1047195649707N00924808EA0000000588
B1047275649712N00924686EA0000000595
B1047345649721N00924579EA0000000583
B1047405649738N00924481EA0000000598
B1047465649747N00924400EA0000000617
B1047535649764N00924301EA0000000610
B1047585649779N00924231EA0000000608
B1048045649801N00924145EA0000000605
B1048195649808N00923907EA0000000582
B1048255649804N00923789EA0000000584
B1048325649810N00923666EA0000000615
B1048385649822N00923569EA0000000639
B1048435649852N00923505EA0000000639
B1048485649913N00923575EA0000000649
B1048535649900N00923759EA0000000658
B1049005649777N00923841EA0000000684
B1049055649735N00923758EA0000000702
B1049105649766N00923684EA0000000710
B1049155649827N00923738EA0000000721
B1049205649844N00923910EA0000000729
B1049265649770N00924100EA0000000738
B1049315649675N00924133EA0000000750
B1049365649621N00924043EA0000000767
B1049435649661N00923944EA0000000786
B1049485649721N00924018EA0000000795
B1049535649734N00924199EA0000000802
B1050005649635N00924409EA0000000822
B1050055649544N00924428EA0000000845
B1050105649483N00924355EA0000000852
B1050175649498N00924212EA0000000861
B1050225649557N00924206EA0000000885
B1050275649607N00924302EA0000000894
B1050345649604N00924552EA0000000892
B1050395649538N00924709EA0000000900
B1050445649454N00924833EA0000000924
B1050515649337N00924916EA0000000933
B1050565649265N00924858EA0000000940
B1051025649246N00924732EA0000000952
B1051085649300N00924686EA0000000959
B1051145649362N00924811EA0000000976
B1051195649362N00924986EA0000000982
B1051255649278N00925169EA0000000987
B1051305649183N00925177EA0000000995
B1051355649131N00925079EA0000001002
B1051425649137N00924934EA0000001020
B1051475649155N00924850EA0000001026
B1051525649174N00924761EA0000001013
B1052005649206N00924600EA0000000991
B1052075649243N00924438EA0000000976
B1052165649298N00924227EA0000000958
B1052285649365N00923945EA0000000955
B1052375649416N00923742EA0000000946
B1052425649448N00923635EA0000000943
B1052515649507N00923448EA0000000933
B1052565649542N00923349EA0000000930
B1053055649602N00923160EA0000000920
B1053115649643N00923033EA0000000921
B1053175649678N00922919EA0000000928
B1053235649713N00922806EA0000000917
B1053315649757N00922646EA0000000912
B1053415649810N00922436EA0000000902
B1053465649839N00922331EA0000000894
B1053575649901N00922094EA0000000881
B1054025649931N00921986EA0000000878
B1054085649969N00921860EA0000000874
B1054145650005N00921734EA0000000869
B1054225650050N00921568EA0000000867
B1054285650089N00921459EA0000000866
B1054375650148N00921311EA0000000870
B1054435650183N00921230EA0000000871
B1054485650216N00921163EA0000000862
B1054555650260N00921060EA0000000858
B1055005650290N00920992EA0000000875
B1055055650314N00920940EA0000000883
B1055115650353N00920876EA0000000866
B1055185650400N00920770EA0000000853
B1055235650437N00920684EA0000000852
B1055295650472N00920615EA0000000870
B1055345650508N00920556EA0000000851
B1055405650554N00920478EA0000000847
B1055465650591N00920387EA0000000831
B1055565650633N00920187EA0000000816
B1056025650668N00920084EA0000000816
B1056075650702N00920005EA0000000807
B1056145650750N00919897EA0000000801
B1056215650796N00919783EA0000000794
B1056305650832N00919638EA0000000791
B1056385650843N00919476EA0000000780
B1056475650837N00919286EA0000000782
B1056535650830N00919155EA0000000775
B1056585650823N00919050EA0000000777
B1057045650815N00918936EA0000000769
B1057125650806N00918781EA0000000754
B1057185650781N00918654EA0000000756
B1057385650737N00918322EA0000000808
B1057555650760N00918057EA0000000784
B1058025650792N00917938EA0000000776
B1058145650862N00917735EA0000000776
B1058235650906N00917624EA0000000804
B1058295650930N00917558EA0000000800
B1058355650958N00917478EA0000000803
B1100325650880N00915440EA0000000781
B1100375650779N00915447EA0000000778
B1100445650643N00915585EA0000000771
B1100525650547N00915857EA0000000767
B1100585650515N00916087EA0000000748
B1101065650486N00916435EA0000000712
B1101115650469N00916664EA0000000705
B1101185650478N00916966EA0000000699
B1101325650511N00917511EA0000000716
B1101375650520N00917682EA0000000740
B1101465650536N00917962EA0000000750
B1101545650540N00918240EA0000000738
B1102005650539N00918447EA0000000752
B1102055650534N00918614EA0000000746
B1102105650516N00918793EA0000000745
B1102185650453N00919082EA0000000731
B1102235650398N00919266EA0000000723
B1102295650324N00919476EA0000000735
B1102345650255N00919611EA0000000756
B1102435650134N00919838EA0000000766
B1102495650049N00919995EA0000000775
B1102545649979N00920129EA0000000776
B1103015649882N00920322EA0000000787
B1103075649799N00920494EA0000000794
B1103135649722N00920662EA0000000809
B1103195649645N00920839EA0000000800
B1103245649584N00920992EA0000000812
B1103295649523N00921146EA0000000803
B1103345649483N00921318EA0000000800
B1103395649472N00921506EA0000000788
B1103465649483N00921777EA0000000791
B1103515649494N00921956EA0000000812
B1103595649514N00922212EA0000000814
B1104045649532N00922382EA0000000793
B1104135649588N00922717EA0000000764
B1104205649626N00922971EA0000000757
B1104255649650N00923151EA0000000743
B1104305649677N00923331EA0000000734
B1104365649707N00923548EA0000000728
B1104425649734N00923767EA0000000736
B1104475649750N00923925EA0000000775
B1104525649756N00924066EA0000000777
B1104595649742N00924299EA0000000774
B1105045649715N00924475EA0000000770
B1105105649658N00924676EA0000000802
B1105165649595N00924865EA0000000808
B1105245649505N00925120EA0000000808
B1105325649414N00925374EA0000000839
B1105385649352N00925562EA0000000849
B1105435649340N00925726EA0000000844
B1105495649383N00925877EA0000000838
B1105545649437N00925910EA0000000832
B1105595649472N00925864EA0000000826
B1106065649474N00925750EA0000000819
B1106125649461N00925625EA0000000810
B1106195649432N00925469EA0000000805
B1106285649402N00925270EA0000000805
B1106335649392N00925166EA0000000823
B1106405649371N00925035EA0000000830
B1106485649341N00924873EA0000000847
B1106575649326N00924708EA0000000880
B1107055649355N00924596EA0000000870
B1107145649372N00924452EA0000000857
B1107205649384N00924355EA0000000844
B1107315649428N00924164EA0000000818
B1107385649490N00924096EA0000000820
B1107445649555N00924048EA0000000804
B1107505649626N00923991EA0000000800
B1107555649686N00923947EA0000000797
B1108025649757N00923864EA0000000787
B1108115649839N00923743EA0000000776
B1108165649886N00923674EA0000000754
B1108225649955N00923569EA0000000747
B1108285650002N00923478EA0000000777
B1108335650033N00923421EA0000000781
B1108395650074N00923349EA0000000786
B1108465650116N00923277EA0000000788
B1108515650155N00923224EA0000000794
B1108565650194N00923180EA0000000816
B1109025650234N00923141EA0000000813
B1109095650298N00923076EA0000000805
B1109165650368N00923032EA0000000807
B1109225650429N00923000EA0000000788
B1109275650483N00922966EA0000000791
B1109325650531N00922938EA0000000800
B1109415650613N00922888EA0000000782
B1109475650675N00922851EA0000000784
B1109535650733N00922809EA0000000779
B1110005650807N00922746EA0000000762
B1110075650876N00922681EA0000000777
B1110135650930N00922624EA0000000784
B1110215651000N00922537EA0000000768
B1110265651047N00922477EA0000000765
B1110315651095N00922416EA0000000772
B1110395651160N00922335EA0000000805
B1110465651211N00922270EA0000000799
B1110525651261N00922202EA0000000787
B1110585651313N00922125EA0000000769
B1111055651368N00922049EA0000000780
B1111135651425N00921965EA0000000788
B1111235651494N00921843EA0000000783
B1111305651539N00921757EA0000000770
B1111355651578N00921681EA0000000758
B1111425651631N00921585EA0000000750
B1111515651699N00921467EA0000000768
B1111585651741N00921388EA0000000761
B1112095651811N00921260EA0000000774
B1112155651847N00921195EA0000000763
B1112225651892N00921111EA0000000772
B1112295651939N00921030EA0000000765
B1112395652009N00920917EA0000000765
B1112445652049N00920876EA0000000742
B1112495652111N00920902EA0000000735
B1112555652174N00921042EA0000000727
B1113025652231N00921268EA0000000720
B1113105652290N00921511EA0000000717
B1113175652347N00921728EA0000000700
B1113245652407N00921952EA0000000693
B1113305652423N00922171EA0000000703
B1113375652383N00922425EA0000000703
B1113445652330N00922668EA0000000707
B1113515652270N00922908EA0000000684
B1113575652220N00923108EA0000000719
B1114035652174N00923287EA0000000712
B1114085652133N00923462EA0000000697
B1114145652080N00923678EA0000000696
B1114235652005N00924008EA0000000683
B1114285651961N00924188EA0000000707
B1114355651906N00924415EA0000000714
B1114405651860N00924589EA0000000712
B1114465651807N00924790EA0000000717
B1114535651746N00925016EA0000000712
B1115005651682N00925256EA0000000707
B1115065651631N00925458EA0000000715
B1115125651581N00925656EA0000000707
B1115195651509N00925888EA0000000696
B1115275651417N00926150EA0000000684
B1115335651339N00926353EA0000000664
B1115405651252N00926596EA0000000669
B1115455651187N00926764EA0000000673
B1115505651127N00926927EA0000000708
B1115555651120N00927090EA0000000709
B1116005651179N00927181EA0000000700
B1116055651221N00927124EA0000000705
B1116115651191N00927005EA0000000702
B1116175651129N00926916EA0000000714
B1116235651031N00926888EA0000000707
B1116285650939N00926974EA0000000708
B1116345650872N00927167EA0000000707
B1116405650840N00927381EA0000000725
B1116455650789N00927518EA0000000724
B1116515650709N00927472EA0000000714
B1116585650779N00927423EA0000000716
B1117035650842N00927427EA0000000723
B1117085650904N00927464EA0000000725
B1117135650927N00927613EA0000000733
B1117185650863N00927753EA0000000729
B1117255650774N00927684EA0000000736
B1117305650810N00927599EA0000000749
B1117355650869N00927644EA0000000764
B1117425650827N00927839EA0000000749
B1117475650764N00927775EA0000000758
B1117535650810N00927684EA0000000777
B1117595650884N00927683EA0000000776
B1118045650896N00927852EA0000000774
B1118105650794N00927938EA0000000764
B1118165650791N00927830EA0000000764
B1118225650846N00927764EA0000000760
B1118275650873N00927680EA0000000756
B1118335650865N00927560EA0000000757
B1118385650823N00927471EA0000000749
B1118455650710N00927413EA0000000741
B1118505650617N00927439EA0000000740
B1118555650522N00927504EA0000000742
B1119005650436N00927499EA0000000734
B1119065650364N00927400EA0000000730
B1119145650325N00927229EA0000000710
B1119205650299N00927091EA0000000699
B1119265650277N00926964EA0000000702
B1119325650255N00926833EA0000000680
B1119375650242N00926721EA0000000689
B1119455650221N00926552EA0000000679
B1119505650210N00926441EA0000000698
B1119575650219N00926337EA0000000702
B1120025650277N00926383EA0000000690
B1120075650275N00926555EA0000000689
B1120145650154N00926690EA0000000682
B1120195650056N00926726EA0000000689
B1120255649948N00926750EA0000000704
B1120315649851N00926728EA0000000700
B1120365649798N00926642EA0000000687
B1120415649788N00926538EA0000000695
B1120505649790N00926386EA0000000703
B1120555649815N00926309EA0000000715
B1121015649844N00926239EA0000000725
B1121075649877N00926161EA0000000720
B1121135649915N00926089EA0000000732
B1121225649974N00925995EA0000000730
B1121285650016N00925925EA0000000724
B1121355650062N00925816EA0000000722
B1121415650093N00925740EA0000000727
B1121485650129N00925633EA0000000695
B1121535650156N00925547EA0000000702
B1121585650175N00925470EA0000000696
B1122045650189N00925354EA0000000673
B1122105650187N00925212EA0000000646
B1122175650190N00925065EA0000000658
B1122255650197N00924894EA0000000636
B1122305650200N00924780EA0000000635
B1122355650207N00924675EA0000000639
B1122405650224N00924582EA0000000640
B1122475650248N00924464EA0000000666
B1122535650262N00924393EA0000000675
B1122595650286N00924305EA0000000680
B1123055650309N00924226EA0000000699
B1123115650329N00924151EA0000000698
B1123215650376N00924003EA0000000696
B1123285650413N00923899EA0000000708
B1123345650435N00923805EA0000000721
B1123405650453N00923724EA0000000731
B1123455650471N00923651EA0000000740
B1123555650508N00923544EA0000000756
B1124015650535N00923463EA0000000739
B1124065650558N00923379EA0000000726
B1124135650589N00923257EA0000000721
B1124185650607N00923171EA0000000703
B1124265650630N00923001EA0000000697
B1124325650645N00922881EA0000000717
B1124385650654N00922797EA0000000719
B1124435650666N00922712EA0000000726
B1124485650674N00922637EA0000000747
B1124535650678N00922567EA0000000743
B1124595650686N00922472EA0000000746
B1125065650700N00922371EA0000000764
B1125115650710N00922300EA0000000777
B1125195650744N00922180EA0000000795
B1125245650802N00922230EA0000000800
B1125295650806N00922409EA0000000793
B1125365650697N00922563EA0000000804
B1125425650596N00922526EA0000000827
B1125475650518N00922489EA0000000841
B1125535650482N00922375EA0000000831
B1125585650499N00922282EA0000000850
B1126055650514N00922173EA0000000867
B1126105650525N00922087EA0000000877
B1126195650552N00921936EA0000000894
B1126285650581N00921799EA0000000880
B1126345650605N00921699EA0000000888
B1126395650629N00921634EA0000000890
B1126445650653N00921562EA0000000891
B1126505650679N00921487EA0000000902
B1126575650707N00921393EA0000000905
B1127025650728N00921320EA0000000918
B1127075650748N00921251EA0000000924
B1127135650768N00921169EA0000000929
B1127185650783N00921104EA0000000935
B1127235650798N00921029EA0000000932
B1127295650836N00920957EA0000000951
B1127365650883N00920875EA0000000942
B1127425650921N00920805EA0000000950
B1127485650958N00920739EA0000000949
B1127535650986N00920674EA0000000941
B1127585651017N00920601EA0000000942
B1128035651042N00920518EA0000000939
B1128095651068N00920420EA0000000940
B1128165651104N00920320EA0000000936
B1128215651133N00920247EA0000000929
B1128275651168N00920152EA0000000924
B1128325651205N00920087EA0000000930
B1128375651238N00920035EA0000000933
B1128435651282N00919968EA0000000907
B1128495651322N00919867EA0000000901
B1128545651351N00919780EA0000000903
B1129075651417N00919570EA0000000927
B1129175651467N00919441EA0000000921
B1129245651497N00919336EA0000000915
B1129345651556N00919209EA0000000926
B1129405651592N00919148EA0000000931
B1129475651645N00919064EA0000000915
B1129525651678N00919009EA0000000949
B1129575651702N00918977EA0000000942
B1130025651739N00918919EA0000000928
B1130085651783N00918838EA0000000955
B1130145651811N00918772EA0000000964
B1130195651834N00918710EA0000000946
B1130255651863N00918598EA0000000944
B1130335651895N00918466EA0000000969
B1130385651916N00918396EA0000000965
B1130555651990N00918137EA0000000987
B1131025652019N00918049EA0000000972
B1131085652053N00917949EA0000000979
B1131165652094N00917828EA0000000953
B1131245652146N00917674EA0000000961
B1131305652169N00917581EA0000000972
B1131365652194N00917478EA0000000971
B1131435652210N00917361EA0000001002
B1131505652216N00917238EA0000000986
B1131595652218N00917052EA0000000993
B1132075652229N00916916EA0000001021
B1132155652254N00916798EA0000001009
B1132275652362N00916614EA0000000984
B1132325652420N00916536EA0000000971
B1132425652530N00916365EA0000000964
B1132475652585N00916284EA0000000960
B1132535652648N00916188EA0000000956
B1133015652738N00916075EA0000000951
B1133215652970N00915829EA0000000935
B1133285653039N00915731EA0000000935
B1134065653353N00915163EA0000000921
B1134565653672N00914545EA0000000895
B1136235653892N00913589EA0000000852
B1137215653256N00915744EA0000000800
B1137295653150N00916016EA0000000794
B1137485652878N00916624EA0000000801
B1137545652797N00916780EA0000000816
B1138035652675N00917023EA0000000816
B1138095652589N00917205EA0000000787
B1138145652519N00917374EA0000000812
B1138195652461N00917514EA0000000834
B1138245652398N00917670EA0000000834
B1138295652336N00917815EA0000000836
B1138365652247N00918022EA0000000818
B1138435652163N00918233EA0000000815
B1138495652086N00918415EA0000000813
B1138555652005N00918580EA0000000827
B1139015651920N00918752EA0000000811
B1139125651768N00919094EA0000000817
B1139185651678N00919284EA0000000789
B1139235651604N00919458EA0000000792
B1139285651538N00919622EA0000000794
B1139395651392N00919973EA0000000786
B1139445651329N00920127EA0000000784
B1139495651269N00920286EA0000000776
B1139585651162N00920578EA0000000765
B1140035651103N00920740EA0000000756
B1140085651044N00920910EA0000000748
B1140185650932N00921240EA0000000739
B1140275650807N00921523EA0000000749
B1140355650703N00921758EA0000000762
B1140415650626N00921929EA0000000753
B1140475650550N00922098EA0000000764
B1140525650488N00922241EA0000000763
B1140595650403N00922443EA0000000788
B1141045650339N00922578EA0000000790
B1141095650252N00922644EA0000000808
B1141145650176N00922609EA0000000817
B1141195650146N00922518EA0000000823
B1141265650198N00922467EA0000000816
B1141315650252N00922566EA0000000811
B1141385650259N00922821EA0000000831
B1141435650236N00923001EA0000000836
B1141485650153N00923097EA0000000835
B1141535650114N00922994EA0000000839
B1142015650193N00923115EA0000000863
B1142075650113N00923276EA0000000862
B1142125650048N00923198EA0000000879
B1142175650082N00923132EA0000000891
B1142225650139N00923241EA0000000898
B1142275650118N00923423EA0000000907
B1142345649999N00923479EA0000000915
B1142395649966N00923378EA0000000930
B1142445650010N00923331EA0000000941
B1142515650074N00923505EA0000000956
B1142565650028N00923676EA0000000953
B1143015649936N00923699EA0000000956
B1143095649919N00923545EA0000000994
B1143145649979N00923567EA0000001003
B1143195650018N00923720EA0000001005
B1143255649958N00923926EA0000001014
B1143305649863N00923947EA0000001017
B1143355649819N00923837EA0000001030
B1143425649894N00923772EA0000001044
B1143475649970N00923881EA0000001045
B1143525650045N00924040EA0000001037
B1143595650140N00924283EA0000001043
B1144055650212N00924489EA0000001030
B1144135650305N00924784EA0000001018
B1144185650366N00924971EA0000001014
B1144245650429N00925185EA0000001019
B1144325650513N00925469EA0000001006
B1144375650579N00925622EA0000001007
B1144425650651N00925747EA0000001005
B1144495650758N00925919EA0000000992
B1144545650840N00926022EA0000000986
B1145005650932N00926081EA0000001006
B1145065651016N00926110EA0000000999
B1145125651092N00926132EA0000001019
B1145175651144N00926146EA0000001011
B1145235651214N00926148EA0000001002
B1145325651324N00926139EA0000001001
B1145375651386N00926125EA0000001000
B1145425651450N00926098EA0000001004
B1145485651512N00926057EA0000001015
B1145545651563N00926007EA0000001014
B1145595651602N00925955EA0000000999
B1146055651652N00925867EA0000000997
B1146105651695N00925782EA0000000994
B1146165651739N00925688EA0000001005
B1146215651771N00925618EA0000000991
B1146285651819N00925503EA0000000987
B1146345651852N00925416EA0000000993
B1146435651905N00925285EA0000001012
B1146485651930N00925222EA0000001007
B1146535651961N00925147EA0000000998
B1146585651991N00925061EA0000000987
B1147055652042N00924928EA0000000971
B1147105652085N00924838EA0000000972
B1147155652130N00924768EA0000000981
B1147225652197N00924685EA0000000982
B1147275652242N00924642EA0000000995
B1147325652285N00924604EA0000000986
B1147395652355N00924521EA0000000955
B1147485652470N00924403EA0000000943
B1147575652592N00924282EA0000000929
B1148035652673N00924199EA0000000934
B1148095652741N00924134EA0000000938
B1148155652802N00924081EA0000000930
B1148235652885N00924016EA0000000928
B1148305652951N00923968EA0000000941
B1149035653178N00923427EA0000000884
B1149095653182N00923268EA0000000881
B1149295653200N00922822EA0000000880
B1149395653206N00922564EA0000000857
B1149485653192N00922324EA0000000845
B1150085653169N00921775EA0000000829
B1150175653165N00921549EA0000000831
B1150225653161N00921423EA0000000838
B1150295653149N00921289EA0000000862
B1150395653144N00921084EA0000000855
B1150535653146N00920782EA0000000837
B1151025653135N00920554EA0000000814
B1151105653064N00920340EA0000000811
B1151155653014N00920217EA0000000825
B1151265652918N00919987EA0000000806
B1151435652781N00919613EA0000000800
B1151505652733N00919457EA0000000802
B1151555652702N00919358EA0000000825
B1152195652576N00918902EA0000000818
B1152275652559N00918748EA0000000833
B1152325652560N00918654EA0000000819
B1153205652879N00917984EA0000000816
B1153355652864N00917712EA0000000816
B1153425652775N00917611EA0000000806
B1153485652665N00917607EA0000000801
B1153555652524N00917720EA0000000771
B1154005652446N00917890EA0000000771
B1154095652372N00918251EA0000000766
B1154145652350N00918442EA0000000792
B1154205652318N00918651EA0000000783
B1154265652287N00918880EA0000000773
B1154365652233N00919259EA0000000768
B1154495652160N00919725EA0000000787
B1154555652125N00919945EA0000000789
B1155005652086N00920121EA0000000790
B1155075652021N00920363EA0000000785
B1155135651954N00920568EA0000000790
B1155195651888N00920764EA0000000803
B1155255651821N00920946EA0000000811
B1155315651751N00921138EA0000000812
B1155365651693N00921302EA0000000814
B1155435651607N00921530EA0000000802
B1155515651502N00921801EA0000000792
B1155595651415N00922066EA0000000792
B1156055651344N00922273EA0000000756
B1156115651281N00922512EA0000000752
B1156175651225N00922748EA0000000757
B1156225651185N00922931EA0000000781
B1156285651142N00923123EA0000000796
B1156355651080N00923358EA0000000784
B1156425651018N00923601EA0000000785
B1156485650967N00923812EA0000000788
B1156595650877N00924202EA0000000791
B1157075650775N00924440EA0000000793
B1157165650660N00924715EA0000000784
B1157235650561N00924932EA0000000774
B1157285650499N00925095EA0000000783
B1157375650406N00925379EA0000000780
B1157455650322N00925651EA0000000778
B1157505650265N00925810EA0000000770
B1157565650165N00925943EA0000000763
B1158025650070N00926084EA0000000757
B1158075649987N00926218EA0000000751
B1158145649857N00926313EA0000000763
B1158195649771N00926324EA0000000768
B1158255649752N00926224EA0000000759
B1158315649826N00926224EA0000000766
B1158365649882N00926318EA0000000781
B1158415649863N00926495EA0000000763
B1158465649772N00926526EA0000000762
B1158515649751N00926412EA0000000758
B1158575649772N00926295EA0000000780
B1159045649799N00926181EA0000000780
B1159105649827N00926075EA0000000792
B1159155649846N00926001EA0000000813
B1159245649881N00925873EA0000000824
B1159315649911N00925770EA0000000822
B1159405649943N00925645EA0000000839
B1159495649981N00925520EA0000000836
B1159545650007N00925452EA0000000837
B1159595650033N00925385EA0000000849
B1200055650047N00925296EA0000000868
B1200135650070N00925178EA0000000882
B1200195650091N00925093EA0000000886
B1200275650128N00924983EA0000000886
B1200345650171N00924887EA0000000880
B1200405650204N00924794EA0000000861
B1200465650213N00924659EA0000000850
B1200525650217N00924526EA0000000850
B1200575650216N00924411EA0000000845
B1201035650215N00924306EA0000000876
B1201085650224N00924232EA0000000872
B1201135650241N00924146EA0000000876
B1201195650257N00924042EA0000000892
B1201245650267N00923962EA0000000894
B1201315650288N00923836EA0000000877
B1201365650314N00923730EA0000000852
B1201435650383N00923621EA0000000855
B1201525650476N00923534EA0000000844
B1201585650542N00923486EA0000000849
B1202045650606N00923469EA0000000856
B1202105650671N00923457EA0000000854
B1202155650727N00923446EA0000000850
B1202215650795N00923432EA0000000849
B1202345650927N00923431EA0000000885
B1202395650983N00923545EA0000000897
B1202445650938N00923716EA0000000891
B1202495650862N00923685EA0000000894
B1202555650917N00923635EA0000000912
B1203015650911N00923843EA0000000902
B1203065650826N00923837EA0000000906
B1203125650833N00923712EA0000000939
B1203175650897N00923726EA0000000953
B1203225650938N00923892EA0000000947
B1203295650827N00924088EA0000000931
B1203345650764N00923983EA0000000932
B1203405650792N00923825EA0000000942
B1203465650840N00923669EA0000000933
B1203515650888N00923538EA0000000934
B1203575650957N00923384EA0000000925
B1204025651008N00923250EA0000000913
B1204095651077N00923042EA0000000896
B1204165651154N00922840EA0000000894
B1204235651233N00922627EA0000000906
B1204315651312N00922411EA0000000937
B1204365651358N00922294EA0000000940
B1204425651415N00922156EA0000000945
B1204495651486N00922000EA0000000963
B1204555651552N00921870EA0000000962
B1205015651617N00921747EA0000000957
B1205075651682N00921619EA0000000944
B1205165651777N00921429EA0000000980
B1205225651832N00921321EA0000000981
B1205275651878N00921227EA0000000977
B1205325651917N00921140EA0000000987
B1205385651962N00921047EA0000001003
B1205445652009N00920968EA0000001007
B1205495652048N00920897EA0000001001
B1206035652153N00920663EA0000000980
B1206095652214N00920556EA0000000967
B1206155652277N00920452EA0000000959
B1206215652341N00920344EA0000000966
B1206295652415N00920253EA0000001000
B1206365652461N00920174EA0000000983
B1206415652498N00920081EA0000000965
B1206495652500N00919882EA0000000965
B1206575652469N00919680EA0000000961
B1207045652453N00919509EA0000000959
B1207115652449N00919342EA0000000958
B1207325652451N00918842EA0000000943
B1207505652466N00918477EA0000000980
B1207555652473N00918388EA0000000975
B1208005652480N00918287EA0000000957
B1208075652488N00918129EA0000000947
B1208145652495N00917960EA0000000914
B1208215652502N00917762EA0000000897
B1208305652528N00917515EA0000000888
B1208405652560N00917237EA0000000884
B1208465652592N00917089EA0000000884
B1208525652652N00916998EA0000000879
B1208575652727N00916988EA0000000877
B1209025652805N00917072EA0000000872
B1209105652875N00917362EA0000000878
B1209195652824N00917749EA0000000871
B1209275652698N00918025EA0000000867
B1209355652573N00918303EA0000000858
B1209435652450N00918592EA0000000850
B1209555652266N00919033EA0000000837
B1210005652192N00919214EA0000000828
B1210085652078N00919508EA0000000814
B1210165651961N00919798EA0000000805
B1210215651901N00919996EA0000000808
B1210275651877N00920251EA0000000820
B1210325651884N00920448EA0000000820
B1210395651905N00920726EA0000000807
B1210465651934N00921010EA0000000799
B1210515651964N00921206EA0000000791
B1210565651988N00921408EA0000000785
B1211025652004N00921655EA0000000780
B1211095652002N00921962EA0000000759
B1211145651964N00922186EA0000000742
B1211195651895N00922388EA0000000719
B1211255651791N00922604EA0000000690
B1211325651666N00922851EA0000000657
B1211405651527N00923141EA0000000621
B1211465651427N00923355EA0000000597
B1211515651344N00923535EA0000000574
B1211575651247N00923754EA0000000553
B1212035651151N00923964EA0000000557
B1212095651058N00924173EA0000000552
B1212145650986N00924345EA0000000550
B1212235650855N00924657EA0000000533
B1212315650735N00924917EA0000000532
B1212365650661N00925080EA0000000540
B1212425650581N00925271EA0000000552
B1212485650506N00925445EA0000000553
B1212555650413N00925658EA0000000542
B1213015650338N00925841EA0000000540
B1213085650252N00926070EA0000000533
B1213175650129N00926352EA0000000515
B1213225650060N00926499EA0000000508
B1213285649973N00926678EA0000000497
B1213345649886N00926849EA0000000493
B1213395649799N00926969EA0000000485
B1213445649697N00927023EA0000000495
B1213505649607N00927000EA0000000522
B1213565649561N00926899EA0000000526
B1214015649584N00926831EA0000000540
B1214065649639N00926885EA0000000546
B1214135649623N00927123EA0000000556
B1214185649532N00927183EA0000000561
B1214235649480N00927103EA0000000577
B1214305649520N00927013EA0000000576
B1214355649584N00927093EA0000000592
B1214405649600N00927265EA0000000608
B1214475649511N00927479EA0000000608
B1214525649421N00927473EA0000000619
B1214575649383N00927376EA0000000629
B1215045649425N00927287EA0000000641
B1215095649487N00927351EA0000000653
B1215145649508N00927517EA0000000668
B1215215649420N00927731EA0000000673
B1215265649331N00927733EA0000000678
B1215315649290N00927644EA0000000685
B1215385649332N00927562EA0000000698
B1215435649394N00927628EA0000000705
B1215485649408N00927805EA0000000715
B1215555649306N00928015EA0000000721
B1216005649217N00928005EA0000000732
B1216055649175N00927918EA0000000740
B1216125649212N00927821EA0000000742
B1216175649277N00927872EA0000000754
B1216225649306N00928032EA0000000779
B1216295649244N00928287EA0000000758
B1216355649122N00928381EA0000000783
B1216405649033N00928387EA0000000787
B1216465648965N00928305EA0000000799
B1216515648959N00928217EA0000000794
B1216595649010N00928133EA0000000798
B1217055649065N00928090EA0000000799
B1217105649116N00928051EA0000000806
B1217155649159N00928011EA0000000830
B1217215649200N00927976EA0000000832
B1217265649241N00927930EA0000000832
B1217365649301N00927832EA0000000835
B1217435649340N00927732EA0000000797
B1217485649367N00927648EA0000000793
B1217535649392N00927571EA0000000786
B1218005649425N00927461EA0000000782
B1218065649444N00927356EA0000000766
B1218135649467N00927213EA0000000753
B1218205649496N00927081EA0000000756
B1218275649525N00926960EA0000000751
B1218345649556N00926822EA0000000745
B1218395649572N00926750EA0000000770
B1218445649587N00926690EA0000000758
B1218525649614N00926558EA0000000761
B1218575649645N00926500EA0000000759
B1219075649726N00926407EA0000000748
B1219125649766N00926354EA0000000746
B1219205649818N00926254EA0000000733
B1219265649848N00926162EA0000000722
B1219325649856N00926048EA0000000732
B1219455649855N00925831EA0000000733
B1219525649863N00925706EA0000000732
B1219575649868N00925606EA0000000736
B1220035649866N00925493EA0000000752
B1220095649864N00925392EA0000000749
B1220155649866N00925280EA0000000741
B1220215649875N00925148EA0000000731
B1220265649884N00925033EA0000000728
B1220325649915N00924907EA0000000726
B1220375649946N00924817EA0000000728
B1220435649980N00924739EA0000000747
B1220505650017N00924674EA0000000753
B1220555650052N00924641EA0000000746
B1221005650093N00924596EA0000000733
B1221065650140N00924519EA0000000722
B1221135650192N00924420EA0000000718
B1221185650226N00924341EA0000000714
B1221255650261N00924229EA0000000717
B1221305650282N00924162EA0000000701
B1221385650316N00924013EA0000000686
B1221435650330N00923905EA0000000690
B1221525650343N00923753EA0000000709
B1222085650337N00923476EA0000000752
B1222135650392N00923463EA0000000763
B1222185650445N00923568EA0000000773
B1222255650419N00923819EA0000000756
B1222305650329N00923930EA0000000769
B1222375650210N00923910EA0000000790
B1222425650140N00923867EA0000000804
B1222475650100N00923786EA0000000805
B1222535650109N00923687EA0000000808
B1222595650146N00923618EA0000000818
B1223045650181N00923562EA0000000827
B1223095650223N00923504EA0000000844
B1223165650281N00923438EA0000000856
B1223265650358N00923324EA0000000844
B1223325650397N00923239EA0000000834
B1223385650420N00923136EA0000000825
B1223435650443N00923038EA0000000815
B1223495650485N00922948EA0000000826
B1223555650530N00922885EA0000000825
B1224075650640N00922756EA0000000811
B1224135650692N00922685EA0000000817
B1224235650777N00922562EA0000000788
B1224295650823N00922467EA0000000800
B1224345650843N00922386EA0000000809
B1224405650865N00922280EA0000000824
B1224475650888N00922169EA0000000840
B1224525650909N00922083EA0000000838
B1224575650932N00921996EA0000000838
B1225035650959N00921896EA0000000842
B1225105650982N00921785EA0000000862
B1225165651004N00921699EA0000000863
B1225225651026N00921605EA0000000873
B1225275651045N00921528EA0000000871
B1225365651086N00921377EA0000000866
B1225445651143N00921269EA0000000884
B1225505651189N00921204EA0000000898
B1225585651250N00921120EA0000000917
B1226055651303N00921046EA0000000922
B1226125651353N00920957EA0000000923
B1226175651383N00920887EA0000000920
B1226225651425N00920839EA0000000914
B1226275651467N00920784EA0000000921
B1226345651523N00920710EA0000000933
B1226395651561N00920649EA0000000952
B1226445651589N00920600EA0000000973
B1226495651621N00920546EA0000000945
B1226585651713N00920352EA0000000922
B1227055651793N00920188EA0000000933
B1227105651848N00920068EA0000000939
B1227155651904N00919941EA0000000924
B1227265652031N00919664EA0000000914
B1227315652096N00919522EA0000000909
B1227365652166N00919399EA0000000928
B1227415652239N00919326EA0000000941
B1227475652332N00919258EA0000000945
B1227535652424N00919206EA0000000949
B1227585652501N00919192EA0000000953
B1228045652585N00919170EA0000000950
B1228115652681N00919116EA0000000935
B1228175652759N00919053EA0000000929
B1228225652821N00918993EA0000000921
B1228275652877N00918913EA0000000916
B1228345652910N00918750EA0000000916
B1228425652934N00918551EA0000000902
B1228585653002N00918157EA0000000884
B1229085653042N00917905EA0000000874
B1229155653074N00917732EA0000000866
B1229255653133N00917487EA0000000852
B1229305653168N00917378EA0000000851
B1229415653255N00917140EA0000000832
B1229465653282N00917015EA0000000829
B1229515653293N00916881EA0000000822
B1229565653298N00916739EA0000000813
B1230065653314N00916481EA0000000822
B1230135653320N00916318EA0000000816
B1230205653328N00916161EA0000000823
B1231115653533N00915421EA0000000785
B1231195653559N00915738EA0000000788
B1231275653469N00916049EA0000000782
B1231355653355N00916327EA0000000782
B1231445653220N00916634EA0000000771
B1231535653098N00916960EA0000000768
B1231585653027N00917144EA0000000769
B1232035652953N00917318EA0000000762
B1232105652842N00917556EA0000000765
B1232185652715N00917811EA0000000771
B1232235652637N00917957EA0000000795
B1232285652562N00918072EA0000000803
B1232355652446N00918253EA0000000797
B1232405652368N00918388EA0000000801
B1232475652259N00918574EA0000000793
B1232525652181N00918705EA0000000785
B1233025652014N00919011EA0000000774
B1233105651885N00919263EA0000000768
B1233155651798N00919415EA0000000761
B1233235651661N00919662EA0000000747
B1233295651576N00919866EA0000000741
B1233355651500N00920080EA0000000733
B1233445651384N00920418EA0000000743
B1233505651305N00920613EA0000000756
B1233555651242N00920770EA0000000756
B1234015651166N00920962EA0000000751
B1234065651101N00921136EA0000000742
B1234125651026N00921351EA0000000739
B1234185650952N00921566EA0000000732
B1234245650879N00921788EA0000000728
B1234305650802N00922005EA0000000739
B1234425650655N00922404EA0000000751
B1234515650555N00922695EA0000000729
B1234595650486N00922992EA0000000723
B1235085650448N00923321EA0000000747
B1235135650447N00923489EA0000000762
B1235185650495N00923598EA0000000761
B1235255650554N00923544EA0000000788
B1235305650523N00923451EA0000000794
B1235355650443N00923429EA0000000812
B1235425650331N00923576EA0000000828
B1235475650295N00923747EA0000000829
B1235525650307N00923925EA0000000819
B1235595650380N00924096EA0000000841
B1236045650442N00924174EA0000000847
B1236095650504N00924180EA0000000842
B1236165650536N00924054EA0000000846
B1236215650497N00923956EA0000000861
B1236265650416N00923921EA0000000888
B1236325650309N00923993EA0000000908
B1236375650234N00924136EA0000000918
B1236425650204N00924323EA0000000931
B1236505650229N00924642EA0000000932
B1236575650260N00924949EA0000000935
B1237065650301N00925348EA0000000936
B1237135650336N00925658EA0000000933
B1237195650401N00925862EA0000000953
B1237255650472N00926016EA0000000954
B1237305650535N00926132EA0000000939
B1237355650602N00926237EA0000000933
B1237405650666N00926342EA0000000932
B1237475650754N00926491EA0000000928
B1237535650834N00926616EA0000000913
B1238005650928N00926763EA0000000910
B1238105651059N00926975EA0000000892
B1238165651136N00927113EA0000000888
B1238215651204N00927229EA0000000886
B1238275651281N00927372EA0000000884
B1238325651338N00927520EA0000000878
B1238385651386N00927714EA0000000898
B1238445651426N00927908EA0000000885
B1238525651480N00928180EA0000000892
B1238585651517N00928377EA0000000885
B1239055651594N00928539EA0000000875
B1239105651663N00928585EA0000000871
B1239165651742N00928580EA0000000868
B1239225651818N00928554EA0000000862
B1239275651883N00928535EA0000000860
B1239345651977N00928503EA0000000857
B1239395652039N00928481EA0000000866
B1239465652121N00928442EA0000000858
B1239525652185N00928401EA0000000863
B1239585652249N00928375EA0000000855
B1240035652306N00928359EA0000000842
B1240105652387N00928318EA0000000822
B1240165652464N00928293EA0000000834
B1240235652548N00928278EA0000000844
B1240305652627N00928274EA0000000845
B1240405652746N00928239EA0000000877
B1240475652824N00928217EA0000000875
B1240525652877N00928198EA0000000884
B1241045653003N00928131EA0000000857
B1241105653054N00928039EA0000000849
B1241155653069N00927930EA0000000845
B1241235653074N00927755EA0000000858
B1241395653074N00927440EA0000000877
B1241445653078N00927354EA0000000875
B1241515653082N00927218EA0000000852
B1241575653082N00927087EA0000000875
B1242035653074N00926986EA0000000887
B1242145653066N00926778EA0000000907
B1242255653071N00926589EA0000000901
B1242315653091N00926488EA0000000909
B1242365653119N00926423EA0000000905
B1242425653160N00926326EA0000000874
B1242485653213N00926224EA0000000886
B1243075653353N00925977EA0000000935
B1243145653403N00925870EA0000000934
B1243195653439N00925785EA0000000941
B1243255653482N00925672EA0000000912
B1243335653555N00925455EA0000000892
B1243445653659N00925173EA0000000905
B1243575653754N00924885EA0000000895
B1244215653928N00924274EA0000000870
B1244385653950N00923789EA0000000856
B1244445653911N00923615EA0000000847
B1245055653742N00923046EA0000000839
B1245155653622N00922834EA0000000835
B1245205653559N00922731EA0000000831
B1245285653467N00922572EA0000000830
B1245365653377N00922410EA0000000817
B1245445653264N00922269EA0000000809
B1245555653089N00922087EA0000000791
B1246015652979N00922018EA0000000787
B1246095652839N00921911EA0000000780
B1246165652720N00921807EA0000000772
B1246215652636N00921729EA0000000764
B1246265652552N00921649EA0000000762
B1246325652453N00921562EA0000000761
B1246405652319N00921455EA0000000755
B1246495652174N00921334EA0000000746
B1247005652005N00921177EA0000000747
B1247065651919N00921091EA0000000756
B1247125651831N00921004EA0000000758
B1247175651771N00920933EA0000000762
B1247255651709N00920787EA0000000741
B1247345651695N00920618EA0000000728
B1247405651721N00920520EA0000000724
B1247455651747N00920460EA0000000721
B1247525651802N00920387EA0000000714
B1247585651836N00920307EA0000000740
B1248035651855N00920257EA0000000741
B1248105651899N00920172EA0000000708
B1248155651944N00920091EA0000000706
B1248215651983N00920004EA0000000741
B1248285652023N00919930EA0000000741
B1248335652052N00919872EA0000000748
B1248425652107N00919768EA0000000745
B1248475652135N00919696EA0000000743
B1248565652190N00919554EA0000000740
B1249025652233N00919475EA0000000749
B1249105652290N00919366EA0000000756
B1249275652402N00919110EA0000000751
B1249325652435N00919023EA0000000743
B1249395652503N00918934EA0000000741
B1249505652630N00918838EA0000000738
B1249565652708N00918858EA0000000736
B1250025652782N00918985EA0000000730
B1250075652822N00919153EA0000000724
B1250125652827N00919350EA0000000718
B1250195652782N00919620EA0000000717
B1250255652739N00919850EA0000000705
B1250315652686N00920086EA0000000686
B1250365652621N00920262EA0000000674
B1250415652546N00920432EA0000000659
B1250505652406N00920743EA0000000642
B1250575652297N00920989EA0000000641
B1251025652216N00921165EA0000000638
B1251085652119N00921378EA0000000635
B1251145652028N00921595EA0000000644
B1251195651949N00921764EA0000000643
B1251245651868N00921933EA0000000636
B1251325651737N00922211EA0000000647
B1251385651633N00922422EA0000000642
B1251445651523N00922627EA0000000647
B1251495651428N00922797EA0000000643
B1251545651333N00922971EA0000000641
B1252015651211N00923196EA0000000669
B1252095651071N00923429EA0000000665
B1252175650925N00923669EA0000000665
B1252225650835N00923814EA0000000664
B1252285650724N00923979EA0000000649
B1252355650595N00924173EA0000000647
B1252415650490N00924320EA0000000645
B1252475650377N00924475EA0000000645
B1252535650262N00924614EA0000000660
B1253045650038N00924843EA0000000657
B1253105649910N00924962EA0000000646
B1253175649762N00925081EA0000000654
B1253235649632N00925119EA0000000654
B1253315649482N00925064EA0000000651
B1253365649423N00924963EA0000000639
B1253475649435N00924702EA0000000628
B1253525649492N00924624EA0000000626
B1253595649592N00924577EA0000000615
B1254045649664N00924578EA0000000590
B1254115649775N00924595EA0000000569
B1254165649853N00924610EA0000000549
B1254235649965N00924634EA0000000493
B1254285650040N00924654EA0000000472
B1254345650130N00924693EA0000000439
B1254405650223N00924794EA0000000408
B1254455650280N00924938EA0000000390
B1254505650310N00925117EA0000000363
B1254555650309N00925322EA0000000338
B1255035650251N00925643EA0000000320
B1255085650199N00925838EA0000000319
B1255135650145N00926041EA0000000316
B1255205650065N00926313EA0000000324
B1255265649991N00926550EA0000000312
B1255315649932N00926752EA0000000294
B1255365649876N00926956EA0000000284
B1255435649794N00927233EA0000000279
B1255505649713N00927506EA0000000262
B1255565649684N00927756EA0000000252
B1256075649689N00928206EA0000000240
B1256125649721N00928383EA0000000232
B1256195649815N00928520EA0000000218
B1256245649887N00928591EA0000000209
B1256315649993N00928647EA0000000202
B1256365650070N00928689EA0000000198
B1256445650197N00928775EA0000000199
B1256535650344N00928911EA0000000202
B1256585650418N00928981EA0000000202
B1257035650491N00929015EA0000000195
B1257105650569N00928941EA0000000176
B1257165650608N00928824EA0000000165
B1257215650631N00928714EA0000000144
B1257275650656N00928580EA0000000129
B1257335650680N00928446EA0000000105
B1257395650703N00928305EA0000000080
B1257455650724N00928169EA0000000052
B1257525650755N00927995EA0000000033
B1257585650780N00927861EA0000000026
B1258045650799N00927748EA0000000025
