AOGNOGN
HFDTE210625
HFFXA050
HFPLTPILOTINCHARGE:
HFGTYGLIDERTYPE:LS-4
HFGIDGLIDERID:OY-PNX
HFDTM100GPSDATUM:WGS-1984
HFRFWFIRMWAREVERSION:
HFRHWHARDWAREVERSION:
HFFTYFRTYPE:OGN-FLIGHTBOOK
HFGPSGENERIC
HFPRSPRESSALTSENSOR:
HFCIDCOMPETITIONID:5M
B1224395554449N00927165EA0000000094
B1224395554449N00927165EA0000000094
B1224465554472N00927014EA0000000094
B1224525554492N00926870EA0000000105
B1224575554507N00926753EA0000000118
B1225035554527N00926617EA0000000132
B1225085554551N00926513EA0000000145
B1225145554589N00926390EA0000000160
B1225195554632N00926298EA0000000181
B1225245554685N00926214EA0000000191
B1225295554740N00926138EA0000000207
B1225345554796N00926075EA0000000222
B1225435554900N00925984EA0000000242
B1225495554973N00925925EA0000000243
B1225555555045N00925865EA0000000248
B1226005555102N00925809EA0000000258
B1226085555197N00925720EA0000000264
B1226155555272N00925626EA0000000269
B1226265555336N00925414EA0000000277
B1226325555335N00925286EA0000000286
B1226395555310N00925139EA0000000297
B1226445555281N00925038EA0000000302
B1226505555226N00924930EA0000000303
B1226555555163N00924857EA0000000303
B1227025555067N00924792EA0000000321
B1227075554997N00924748EA0000000327
B1227165554865N00924675EA0000000330
B1227255554738N00924605EA0000000342
B1227315554655N00924553EA0000000344
B1227375554577N00924489EA0000000347
B1227425554529N00924409EA0000000352
B1227505554496N00924249EA0000000357
B1227565554509N00924128EA0000000365
B1228035554570N00924023EA0000000375
B1228085554635N00923978EA0000000377
B1228145554727N00923989EA0000000390
B1228195554801N00924060EA0000000396
B1228255554867N00924213EA0000000399
B1228305554891N00924383EA0000000398
B1228365554874N00924585EA0000000407
B1228445554803N00924811EA0000000410
B1228495554740N00924926EA0000000409
B1228565554642N00925041EA0000000420
B1229015554570N00925103EA0000000423
B1229085554467N00925181EA0000000419
B1229135554393N00925228EA0000000427
B1229185554321N00925272EA0000000445
B1229245554234N00925281EA0000000461
B1229295554167N00925245EA0000000480
B1229345554111N00925177EA0000000494
B1229415554080N00925036EA0000000515
B1229475554108N00924922EA0000000528
B1229535554178N00924866EA0000000538
B1229585554248N00924844EA0000000542
B1230055554288N00924734EA0000000540
B1230105554331N00924665EA0000000535
B1230155554402N00924640EA0000000524
B1230255554571N00924642EA0000000503
B1230355554732N00924604EA0000000500
B1230405554810N00924591EA0000000499
B1230455554891N00924596EA0000000492
B1230505554973N00924628EA0000000482
B1230565555066N00924722EA0000000470
B1231025555145N00924862EA0000000469
B1231075555205N00924985EA0000000471
B1231155555295N00925196EA0000000460
B1231205555334N00925353EA0000000452
B1231265555350N00925562EA0000000451
B1231345555355N00925836EA0000000450
B1231425555349N00926112EA0000000449
B1231505555341N00926379EA0000000446
B1231595555340N00926681EA0000000433
B1232065555334N00926913EA0000000432
B1232115555340N00927078EA0000000421
B1232165555402N00927134EA0000000413
B1232225555416N00927034EA0000000397
B1232295555346N00926942EA0000000388
B1232345555294N00926873EA0000000388
B1232405555233N00926784EA0000000388
B1232455555196N00926713EA0000000388
B1232525555211N00926590EA0000000369
B1232575555224N00926494EA0000000360
B1233025555238N00926398EA0000000356
B1233085555254N00926290EA0000000356
B1233135555267N00926197EA0000000348
B1233195555297N00926091EA0000000339
B1233245555351N00926048EA0000000328
B1233295555383N00926182EA0000000318
B1233385555325N00926473EA0000000303
B1233435555281N00926620EA0000000313
B1233495555229N00926784EA0000000312
B1233545555185N00926923EA0000000302
B1233595555140N00927065EA0000000292
B1234045555100N00927220EA0000000283
B1234105555057N00927417EA0000000272
B1234165555019N00927622EA0000000264
B1234215554989N00927796EA0000000256
B1234265554956N00927964EA0000000249
B1234315554890N00928075EA0000000240
B1234415554731N00928213EA0000000222
B1234475554632N00928286EA0000000217
B1234525554556N00928273EA0000000219
B1235025554417N00928195EA0000000207
B1235075554366N00928122EA0000000206
B1235135554368N00928004EA0000000196
B1235185554375N00927913EA0000000178
B1235265554394N00927752EA0000000154
B1235315554406N00927647EA0000000139
B1235365554419N00927546EA0000000117
B1235435554436N00927392EA0000000097
B1235505554449N00927275EA0000000094
