AOGNOGN
HFDTE210625
HFFXA050
HFPLTPILOTINCHARGE:
HFGTYGLIDERTYPE:ASK-21
HFGIDGLIDERID:OY-XNX
HFDTM100GPSDATUM:WGS-1984
HFRFWFIRMWAREVERSION:
HFRHWHARDWAREVERSION:
HFFTYFRTYPE:OGN-FLIGHTBOOK
HFGPSGENERIC
HFPRSPRESSALTSENSOR:
HFCIDCOMPETITIONID:NX
B0941095554445N00927241EA0000000092
B0941135554455N00927174EA0000000091
B0941195554472N00927053EA0000000094
B0941245554485N00926943EA0000000100
B0941325554509N00926771EA0000000114
B0941415554536N00926581EA0000000130
B0941475554560N00926455EA0000000136
B0941525554593N00926356EA0000000146
B0941585554646N00926256EA0000000160
B0942035554693N00926186EA0000000168
B0942085554743N00926115EA0000000170
B0942165554821N00926004EA0000000185
B0942225554881N00925914EA0000000189
B0942295554952N00925804EA0000000200
B0942345554990N00925711EA0000000203
B0942395555014N00925611EA0000000214
B0942445555023N00925509EA0000000225
B0942505555014N00925383EA0000000239
B0942555554986N00925285EA0000000252
B0943015554929N00925182EA0000000261
B0943085554858N00925078EA0000000276
B0943185554727N00924993EA0000000276
B0943315554530N00925024EA0000000285
B0944045554014N00925570EA0000000336
B0944105553930N00925717EA0000000339
B0944155553865N00925843EA0000000341
B0944295553694N00926220EA0000000341
B0944355553626N00926387EA0000000337
B0944405553571N00926528EA0000000335
B0944505553473N00926814EA0000000342
B0944565553414N00926987EA0000000346
B0945015553367N00927134EA0000000355
B0945075553319N00927321EA0000000361
B0945285553229N00928069EA0000000354
B0945345553258N00928283EA0000000354
B0945455553372N00928637EA0000000355
B0945505553440N00928775EA0000000359
B0945575553537N00928963EA0000000372
B0946285554029N00929544EA0000000352
B0946355554142N00929521EA0000000355
B0946425554225N00929417EA0000000357
B0946485554255N00929280EA0000000338
B0946535554259N00929157EA0000000325
B0946595554263N00929014EA0000000308
B0947055554279N00928882EA0000000289
B0947105554296N00928775EA0000000278
B0947175554315N00928622EA0000000260
B0947225554329N00928511EA0000000247
B0947285554342N00928374EA0000000231
B0947335554351N00928258EA0000000213
B0947395554366N00928124EA0000000195
B0947495554387N00927899EA0000000165
B0948005554412N00927652EA0000000129
B0948105554434N00927428EA0000000109
B0948165554448N00927286EA0000000112
B0948225554464N00927153EA0000000125
B0948275554482N00927050EA0000000133
B0948335554508N00926932EA0000000140
B0948405554546N00926804EA0000000149
B0948465554582N00926696EA0000000151
B0948515554613N00926602EA0000000154
B0948565554644N00926510EA0000000161
B0949025554679N00926402EA0000000170
B0949085554713N00926298EA0000000180
B0949145554762N00926205EA0000000179
B0949235554840N00926077EA0000000189
B0949285554884N00926003EA0000000186
B0949335554928N00925927EA0000000189
B0949395554984N00925841EA0000000196
B0949445555028N00925760EA0000000198
B0949525555119N00925673EA0000000225
B0949575555185N00925647EA0000000227
B0950045555277N00925614EA0000000242
B0950095555339N00925563EA0000000242
B0950205555420N00925369EA0000000244
B0950255555419N00925264EA0000000245
B0950315555395N00925144EA0000000246
B0950395555318N00925013EA0000000256
B0950455555238N00924958EA0000000274
B0950515555141N00924974EA0000000277
B0950565555060N00925050EA0000000278
B0951025554984N00925217EA0000000279
B0951075554950N00925383EA0000000293
B0951125554936N00925560EA0000000294
B0951175554926N00925739EA0000000301
B0951285554912N00926123EA0000000313
B0951345554895N00926332EA0000000315
B0951405554876N00926541EA0000000317
B0951455554879N00926702EA0000000318
B0951505554917N00926844EA0000000304
B0951565554965N00927023EA0000000291
B0952035554960N00927267EA0000000291
B0952115554932N00927552EA0000000294
B0952165554911N00927738EA0000000292
B0952225554885N00927969EA0000000291
B0952285554862N00928193EA0000000291
B0952335554832N00928364EA0000000288
B0952385554763N00928467EA0000000277
B0952435554685N00928539EA0000000268
B0952495554589N00928616EA0000000257
B0952565554483N00928599EA0000000244
B0953035554386N00928540EA0000000230
B0953085554333N00928467EA0000000220
B0953135554333N00928357EA0000000210
B0953215554352N00928181EA0000000201
B0953295554366N00928016EA0000000183
B0953365554378N00927871EA0000000170
B0953425554392N00927743EA0000000151
B0953485554405N00927615EA0000000136
B0953535554416N00927509EA0000000124
B0954005554429N00927359EA0000000100
B0954065554441N00927243EA0000000093
