AOGNOGN
HFDTE210625
HFFXA050
HFPLTPILOTINCHARGE:
HFGTYGLIDERTYPE:ASK-21
HFGIDGLIDERID:OY-XNX
HFDTM100GPSDATUM:WGS-1984
HFRFWFIRMWAREVERSION:
HFRHWHARDWAREVERSION:
HFFTYFRTYPE:OGN-FLIGHTBOOK
HFGPSGENERIC
HFPRSPRESSALTSENSOR:
HFCIDCOMPETITIONID:NX
B1434515554416N00927266EA0000000106
B1434535554423N00927223EA0000000136
B1434585554440N00927122EA0000000212
B1435035554456N00927025EA0000000287
B1435085554472N00926925EA0000000354
B1435135554489N00926824EA0000000419
B1435185554504N00926721EA0000000464
B1435235554518N00926621EA0000000495
B1435305554528N00926486EA0000000501
B1435355554534N00926397EA0000000498
B1435405554549N00926310EA0000000486
B1435465554591N00926218EA0000000469
B1435555554657N00926068EA0000000443
B1436005554701N00925986EA0000000423
B1436075554774N00925870EA0000000396
B1436145554835N00925755EA0000000393
B1436205554880N00925662EA0000000374
B1436255554920N00925581EA0000000345
B1436305554960N00925493EA0000000333
B1436355554960N00925392EA0000000322
B1436405554893N00925359EA0000000310
B1436455554817N00925449EA0000000296
B1436505554773N00925623EA0000000286
B1436585554748N00925935EA0000000278
B1437035554736N00926126EA0000000274
B1437105554719N00926388EA0000000273
B1437155554710N00926575EA0000000265
B1437225554693N00926838EA0000000255
B1437275554681N00927029EA0000000256
B1437385554675N00927422EA0000000241
B1437435554673N00927600EA0000000239
B1437485554653N00927773EA0000000227
B1437565554564N00927992EA0000000214
B1438015554489N00928078EA0000000200
B1438075554399N00928063EA0000000196
B1438125554354N00927983EA0000000183
B1438175554370N00927875EA0000000176
B1438255554404N00927701EA0000000148
B1438305554417N00927591EA0000000130
B1438365554432N00927464EA0000000108
B1438415554444N00927358EA0000000096
B1438475554455N00927254EA0000000093
