AOGNOGN
HFDTE210625
HFFXA050
HFPLTPILOTINCHARGE:
HFGTYGLIDERTYPE:ASK-21
HFGIDGLIDERID:OY-XNX
HFDTM100GPSDATUM:WGS-1984
HFRFWFIRMWAREVERSION:
HFRHWHARDWAREVERSION:
HFFTYFRTYPE:OGN-FLIGHTBOOK
HFGPSGENERIC
HFPRSPRESSALTSENSOR:
HFCIDCOMPETITIONID:NX
B1545475554410N00927313EA0000000094
B1545495554417N00927275EA0000000099
B1545525554429N00927210EA0000000137
B1545585554451N00927091EA0000000227
B1546035554463N00926989EA0000000296
B1546085554477N00926883EA0000000362
B1546135554495N00926772EA0000000418
B1546185554510N00926660EA0000000464
B1546235554521N00926554EA0000000483
B1546295554531N00926436EA0000000482
B1546345554542N00926344EA0000000480
B1546395554579N00926269EA0000000478
B1546445554646N00926251EA0000000472
B1546495554718N00926300EA0000000467
B1546575554833N00926399EA0000000460
B1547055554946N00926491EA0000000449
B1547105555021N00926548EA0000000442
B1547165555110N00926624EA0000000433
B1547215555165N00926744EA0000000432
B1547265555180N00926908EA0000000427
B1547315555145N00927058EA0000000416
B1547365555077N00927139EA0000000403
B1547415555011N00927134EA0000000396
B1547465554974N00927065EA0000000389
B1547535554985N00926945EA0000000380
B1547595555010N00926843EA0000000371
B1548045555029N00926756EA0000000361
B1548105555052N00926648EA0000000350
B1548155555072N00926557EA0000000342
B1548205555090N00926468EA0000000342
B1548275555108N00926340EA0000000332
B1548325555090N00926251EA0000000319
B1548405554988N00926193EA0000000302
B1548455554911N00926271EA0000000301
B1548515554855N00926450EA0000000284
B1548585554815N00926701EA0000000277
B1549085554766N00927057EA0000000265
B1549145554743N00927271EA0000000258
B1549205554717N00927487EA0000000253
B1549265554685N00927695EA0000000247
B1549355554583N00927952EA0000000247
B1549405554514N00928068EA0000000245
B1549455554428N00928098EA0000000235
B1549505554372N00928021EA0000000236
B1549555554376N00927904EA0000000238
B1550015554393N00927769EA0000000218
B1550085554418N00927607EA0000000178
B1550155554434N00927446EA0000000146
B1550225554451N00927275EA0000000100
B1550275554464N00927164EA0000000093
B1550345554477N00927071EA0000000093
