AOGNOGN
HFDTE210625
HFFXA050
HFPLTPILOTINCHARGE:
HFGTYGLIDERTYPE:ASK-21
HFGIDGLIDERID:OY-XNX
HFDTM100GPSDATUM:WGS-1984
HFRFWFIRMWAREVERSION:
HFRHWHARDWAREVERSION:
HFFTYFRTYPE:OGN-FLIGHTBOOK
HFGPSGENERIC
HFPRSPRESSALTSENSOR:
HFCIDCOMPETITIONID:NX
B1010595554443N00927222EA0000000092
B1011045554452N00927134EA0000000092
B1011045554452N00927134EA0000000092
B1011115554472N00926983EA0000000095
B1011175554494N00926838EA0000000103
B1011235554512N00926692EA0000000115
B1011285554530N00926576EA0000000124
B1011345554551N00926435EA0000000133
B1011395554580N00926323EA0000000144
B1011445554620N00926218EA0000000151
B1011525554697N00926095EA0000000176
B1011595554776N00926020EA0000000182
B1012045554835N00925960EA0000000185
B1012095554895N00925899EA0000000191
B1012155554964N00925828EA0000000212
B1012245555063N00925724EA0000000223
B1012315555130N00925626EA0000000236
B1012365555176N00925556EA0000000241
B1012415555223N00925494EA0000000252
B1012465555271N00925435EA0000000257
B1012535555343N00925339EA0000000252
B1013005555409N00925241EA0000000263
B1013095555485N00925098EA0000000263
B1013155555518N00924981EA0000000269
B1013205555515N00924879EA0000000286
B1013275555469N00924737EA0000000296
B1013325555419N00924646EA0000000305
B1013375555350N00924582EA0000000307
B1013445555234N00924572EA0000000323
B1013515555121N00924672EA0000000329
B1013565555059N00924804EA0000000335
B1014035555023N00925052EA0000000337
B1014085555039N00925234EA0000000339
B1014165555095N00925499EA0000000341
B1014215555135N00925652EA0000000345
B1014325555227N00926005EA0000000353
B1014375555263N00926172EA0000000355
B1014525555362N00926678EA0000000370
B1015005555412N00926948EA0000000374
B1015065555449N00927150EA0000000377
B1015145555498N00927415EA0000000386
B1015215555535N00927656EA0000000388
B1015285555563N00927897EA0000000393
B1015365555581N00928190EA0000000393
B1015435555559N00928452EA0000000399
B1015485555515N00928617EA0000000400
B1015535555453N00928746EA0000000401
B1015585555379N00928816EA0000000411
B1016035555307N00928823EA0000000414
B1016085555256N00928766EA0000000420
B1016155555235N00928633EA0000000435
B1016215555239N00928515EA0000000451
B1016265555244N00928414EA0000000458
B1016315555251N00928313EA0000000461
B1016395555252N00928139EA0000000454
B1016465555248N00927976EA0000000453
B1016575555247N00927726EA0000000468
B1017025555250N00927613EA0000000470
B1017085555254N00927476EA0000000477
B1017135555250N00927362EA0000000482
B1017195555240N00927227EA0000000484
B1017245555231N00927120EA0000000487
B1017315555218N00926967EA0000000488
B1017375555210N00926841EA0000000499
B1017455555207N00926690EA0000000515
B1017515555203N00926580EA0000000514
B1017565555168N00926515EA0000000512
B1018015555122N00926462EA0000000504
B1018075555071N00926383EA0000000487
B1018155555012N00926258EA0000000479
B1018225554981N00926130EA0000000470
B1018275554978N00926032EA0000000467
B1018325554993N00925933EA0000000462
B1018385555019N00925814EA0000000455
B1018445555048N00925696EA0000000445
B1018515555086N00925556EA0000000429
B1018565555118N00925456EA0000000420
B1019025555206N00925422EA0000000405
B1019075555283N00925514EA0000000396
B1019135555341N00925698EA0000000397
B1019205555384N00925919EA0000000410
B1019275555410N00926145EA0000000420
B1019325555424N00926316EA0000000414
B1019385555439N00926529EA0000000420
B1019465555455N00926808EA0000000428
B1019515555512N00926920EA0000000428
B1019565555530N00926838EA0000000423
B1020015555458N00926887EA0000000434
B1020065555500N00926986EA0000000419
B1020115555470N00926906EA0000000421
B1020165555397N00926876EA0000000427
B1020215555356N00926797EA0000000415
B1020265555418N00926803EA0000000377
B1020315555360N00926894EA0000000333
B1020365555365N00926739EA0000000353
B1020425555383N00926606EA0000000362
B1020485555393N00926472EA0000000367
B1020535555340N00926432EA0000000365
B1020595555294N00926603EA0000000355
B1021045555271N00926774EA0000000341
B1021125555226N00927054EA0000000325
B1021195555182N00927307EA0000000313
B1021285555131N00927623EA0000000306
B1021335555104N00927798EA0000000292
B1021385555068N00927974EA0000000288
B1021445554988N00928126EA0000000290
B1021515554884N00928266EA0000000294
B1022015554742N00928461EA0000000283
B1022065554664N00928513EA0000000274
B1022125554573N00928506EA0000000268
B1022225554424N00928477EA0000000243
B1022275554356N00928432EA0000000232
B1022345554342N00928285EA0000000227
B1022395554354N00928174EA0000000215
B1022485554374N00927965EA0000000183
B1022535554387N00927846EA0000000167
B1022595554404N00927705EA0000000147
B1023075554424N00927515EA0000000117
B1023135554440N00927372EA0000000095
B1023205554455N00927244EA0000000090
