AOGNOGN
HFDTE210625
HFFXA050
HFPLTPILOTINCHARGE:
HFGTYGLIDERTYPE:ASK-21
HFGIDGLIDERID:OY-XNX
HFDTM100GPSDATUM:WGS-1984
HFRFWFIRMWAREVERSION:
HFRHWHARDWAREVERSION:
HFFTYFRTYPE:OGN-FLIGHTBOOK
HFGPSGENERIC
HFPRSPRESSALTSENSOR:
HFCIDCOMPETITIONID:NX
B1113085554409N00927313EA0000000092
B1113105554417N00927273EA0000000095
B1113155554431N00927143EA0000000155
B1113215554443N00927007EA0000000257
B1113265554456N00926895EA0000000332
B1113315554474N00926787EA0000000404
B1113365554488N00926658EA0000000457
B1113425554516N00926486EA0000000490
B1113505554548N00926286EA0000000514
B1113555554563N00926168EA0000000518
B1114005554589N00926061EA0000000533
B1114055554652N00926035EA0000000540
B1114105554720N00926078EA0000000544
B1114165554803N00926142EA0000000535
B1114225554884N00926221EA0000000525
B1114275554954N00926282EA0000000519
B1114325555012N00926368EA0000000517
B1114375555052N00926493EA0000000507
B1114445555096N00926690EA0000000494
B1114535555158N00926955EA0000000486
B1114585555193N00927105EA0000000490
B1115045555219N00927282EA0000000488
B1115095555189N00927424EA0000000481
B1115145555119N00927449EA0000000468
B1115205555076N00927357EA0000000467
B1115255555088N00927284EA0000000467
B1115305555145N00927271EA0000000461
B1115365555212N00927374EA0000000465
B1115415555214N00927526EA0000000456
B1115465555159N00927625EA0000000455
B1115515555097N00927621EA0000000448
B1115565555068N00927548EA0000000439
B1116015555090N00927465EA0000000436
B1116065555152N00927463EA0000000434
B1116115555199N00927589EA0000000435
B1116165555185N00927747EA0000000431
B1116215555119N00927817EA0000000429
B1116265555060N00927782EA0000000428
B1116315555042N00927707EA0000000430
B1116365555077N00927654EA0000000426
B1116435555159N00927663EA0000000423
B1116505555238N00927800EA0000000409
B1116565555272N00927976EA0000000404
B1117015555245N00928120EA0000000396
B1117065555188N00928218EA0000000396
B1117115555126N00928259EA0000000392
B1117165555082N00928214EA0000000381
B1117215555082N00928131EA0000000372
B1117265555102N00928053EA0000000373
B1117315555108N00927980EA0000000380
B1117365555060N00927957EA0000000366
B1117415554999N00928046EA0000000360
B1117465554982N00928194EA0000000358
B1117515555014N00928331EA0000000343
B1117565555028N00928482EA0000000339
B1118045554975N00928696EA0000000326
B1118095554918N00928803EA0000000319
B1118145554846N00928841EA0000000313
B1118245554694N00928888EA0000000301
B1118295554621N00928916EA0000000301
B1118345554549N00928937EA0000000307
B1118395554495N00928921EA0000000322
B1118455554463N00928844EA0000000308
B1118515554431N00928771EA0000000307
B1118565554388N00928736EA0000000294
B1119025554330N00928686EA0000000278
B1119085554325N00928584EA0000000263
B1119145554339N00928464EA0000000251
B1119205554338N00928339EA0000000242
B1119265554346N00928219EA0000000217
B1119345554373N00928048EA0000000182
B1119405554384N00927920EA0000000161
B1119455554392N00927821EA0000000142
B1119535554404N00927663EA0000000120
B1119595554415N00927549EA0000000113
B1120045554425N00927449EA0000000097
B1120115554437N00927322EA0000000092
