AOGNOGN
HFDTE210625
HFFXA050
HFPLTPILOTINCHARGE:
HFGTYGLIDERTYPE:ASK-23
HFGIDGLIDERID:OY-NVX
HFDTM100GPSDATUM:WGS-1984
HFRFWFIRMWAREVERSION:
HFRHWHARDWAREVERSION:
HFFTYFRTYPE:OGN-FLIGHTBOOK
HFGPSGENERIC
HFPRSPRESSALTSENSOR:
HFCIDCOMPETITIONID:NV
B1033565554415N00927275EA0000000096
B1034015554432N00927169EA0000000156
B1034065554446N00927081EA0000000217
B1034115554462N00926988EA0000000282
B1034165554475N00926882EA0000000359
B1034215554488N00926767EA0000000425
B1034265554504N00926646EA0000000467
B1034315554520N00926539EA0000000497
B1034365554555N00926466EA0000000500
B1034415554617N00926449EA0000000501
B1034465554682N00926506EA0000000494
B1034515554722N00926627EA0000000481
B1034595554716N00926861EA0000000468
B1035055554698N00927031EA0000000465
B1035125554676N00927210EA0000000466
B1035185554653N00927360EA0000000457
B1035235554635N00927492EA0000000452
B1035295554623N00927653EA0000000453
B1035345554594N00927772EA0000000458
B1035395554538N00927826EA0000000465
B1035445554488N00927793EA0000000475
B1035495554481N00927715EA0000000481
B1035545554518N00927662EA0000000484
B1036005554590N00927691EA0000000474
B1036055554633N00927794EA0000000470
B1036105554632N00927927EA0000000471
B1036155554583N00928010EA0000000476
B1036205554522N00928007EA0000000480
B1036265554462N00927941EA0000000488
B1036315554440N00927860EA0000000496
B1036375554459N00927765EA0000000503
B1036435554486N00927678EA0000000514
B1036485554539N00927652EA0000000508
B1036535554594N00927732EA0000000505
B1036585554592N00927864EA0000000502
B1037035554542N00927925EA0000000495
B1037105554472N00927883EA0000000502
B1037155554434N00927835EA0000000508
B1037205554424N00927760EA0000000506
B1037265554463N00927683EA0000000510
B1037315554522N00927684EA0000000517
B1037375554579N00927792EA0000000519
B1037425554569N00927922EA0000000520
B1037475554521N00927990EA0000000514
B1037525554475N00927959EA0000000513
B1037595554438N00927863EA0000000514
B1038045554431N00927782EA0000000512
B1038095554447N00927701EA0000000508
B1038155554511N00927671EA0000000508
B1038205554566N00927741EA0000000512
B1038265554585N00927890EA0000000511
B1038315554545N00927985EA0000000514
B1038365554487N00928000EA0000000516
B1038415554444N00927945EA0000000506
B1038485554462N00927824EA0000000508
B1038535554493N00927746EA0000000514
B1038595554532N00927662EA0000000526
B1039045554566N00927600EA0000000518
B1039105554637N00927631EA0000000508
B1039155554658N00927769EA0000000495
B1039205554616N00927870EA0000000490
B1039265554547N00927868EA0000000490
B1039315554500N00927850EA0000000493
B1039365554470N00927789EA0000000501
B1039415554473N00927713EA0000000499
B1039465554517N00927669EA0000000490
B1039515554578N00927706EA0000000482
B1039565554609N00927820EA0000000471
B1040015554586N00927936EA0000000464
B1040065554531N00927960EA0000000451
B1040145554468N00927869EA0000000445
B1040195554460N00927794EA0000000441
B1040255554466N00927706EA0000000432
B1040315554475N00927617EA0000000421
B1040365554505N00927554EA0000000411
B1040425554578N00927552EA0000000402
B1040505554676N00927562EA0000000398
B1040575554739N00927501EA0000000401
B1041055554789N00927393EA0000000407
B1041105554786N00927308EA0000000411
B1041155554745N00927267EA0000000412
B1041205554693N00927331EA0000000405
B1041255554700N00927465EA0000000398
B1041305554758N00927540EA0000000403
B1041355554817N00927569EA0000000407
B1041405554862N00927536EA0000000406
B1041455554865N00927463EA0000000409
B1041505554825N00927413EA0000000406
B1041555554768N00927452EA0000000409
B1042005554730N00927554EA0000000406
B1042055554730N00927687EA0000000399
B1042105554783N00927778EA0000000393
B1042155554840N00927773EA0000000402
B1042205554882N00927732EA0000000405
B1042265554934N00927688EA0000000408
B1042335554994N00927645EA0000000410
B1042405555009N00927552EA0000000412
B1042455554978N00927503EA0000000406
B1042505554929N00927490EA0000000394
B1042555554880N00927464EA0000000377
B1043015554853N00927375EA0000000363
B1043075554878N00927287EA0000000362
B1043125554895N00927208EA0000000364
B1043175554860N00927150EA0000000369
B1043225554799N00927142EA0000000370
B1043275554741N00927207EA0000000379
B1043325554722N00927325EA0000000384
B1043375554750N00927443EA0000000376
B1043425554808N00927486EA0000000380
B1043475554855N00927447EA0000000385
B1043535554877N00927354EA0000000387
B1043585554874N00927270EA0000000385
B1044035554842N00927207EA0000000382
B1044085554784N00927218EA0000000387
B1044145554726N00927328EA0000000391
B1044205554681N00927460EA0000000400
B1044255554684N00927588EA0000000396
B1044305554731N00927682EA0000000399
B1044355554792N00927725EA0000000401
B1044405554845N00927697EA0000000407
B1044455554868N00927628EA0000000417
B1044505554850N00927558EA0000000410
B1044565554798N00927495EA0000000417
B1045015554738N00927504EA0000000430
B1045065554691N00927589EA0000000434
B1045125554652N00927730EA0000000430
B1045185554671N00927880EA0000000422
B1045265554766N00927971EA0000000426
B1045335554851N00927984EA0000000437
B1045385554885N00927927EA0000000440
B1045435554870N00927855EA0000000436
B1045485554827N00927804EA0000000447
B1045535554786N00927752EA0000000455
B1045585554759N00927676EA0000000466
B1046035554735N00927602EA0000000479
B1046105554705N00927506EA0000000488
B1046165554727N00927427EA0000000491
B1046215554789N00927441EA0000000494
B1046265554829N00927558EA0000000497
B1046315554812N00927693EA0000000497
B1046365554758N00927773EA0000000512
B1046435554672N00927798EA0000000512
B1046485554638N00927742EA0000000514
B1046535554655N00927670EA0000000512
B1046585554714N00927659EA0000000510
B1047045554773N00927776EA0000000523
B1047095554761N00927910EA0000000530
B1047145554714N00928004EA0000000531
B1047225554629N00927994EA0000000530
B1047275554605N00927925EA0000000523
B1047335554631N00927834EA0000000508
B1047405554680N00927744EA0000000514
B1047465554707N00927665EA0000000523
B1047545554735N00927546EA0000000524
B1047595554752N00927472EA0000000529
B1048055554772N00927379EA0000000531
B1048105554785N00927303EA0000000535
B1048155554792N00927226EA0000000533
B1048205554753N00927181EA0000000531
B1048265554684N00927209EA0000000541
B1048325554620N00927269EA0000000552
B1048375554593N00927384EA0000000550
B1048425554626N00927493EA0000000546
B1048485554690N00927478EA0000000559
B1048535554685N00927398EA0000000572
B1048585554637N00927363EA0000000586
B1049035554582N00927417EA0000000587
B1049085554555N00927540EA0000000580
B1049135554578N00927665EA0000000568
B1049185554638N00927720EA0000000566
B1049245554703N00927693EA0000000581
B1049315554760N00927623EA0000000595
B1049375554775N00927531EA0000000586
B1049425554739N00927473EA0000000585
B1049475554681N00927486EA0000000590
B1049525554635N00927582EA0000000596
B1049585554639N00927738EA0000000606
B1050035554696N00927805EA0000000616
B1050085554757N00927802EA0000000615
B1050135554795N00927742EA0000000610
B1050195554785N00927651EA0000000607
B1050245554741N00927619EA0000000608
B1050295554686N00927666EA0000000602
B1050355554666N00927824EA0000000602
B1050405554708N00927930EA0000000615
B1050455554771N00927982EA0000000608
B1050505554829N00927967EA0000000599
B1050555554867N00927907EA0000000594
B1051005554876N00927828EA0000000587
B1051075554880N00927721EA0000000582
B1051135554878N00927636EA0000000570
B1051205554858N00927540EA0000000565
B1051255554847N00927474EA0000000557
B1051315554827N00927395EA0000000545
B1051365554784N00927356EA0000000540
B1051425554718N00927357EA0000000536
B1051485554651N00927387EA0000000526
B1051535554598N00927457EA0000000516
B1051595554558N00927594EA0000000512
B1052045554561N00927730EA0000000500
B1052105554614N00927854EA0000000487
B1052165554686N00927881EA0000000478
B1052245554760N00927820EA0000000466
B1052315554802N00927738EA0000000458
B1052405554811N00927607EA0000000445
B1052465554773N00927530EA0000000436
B1052535554701N00927491EA0000000437
B1052585554653N00927478EA0000000436
B1053035554608N00927453EA0000000433
B1053095554589N00927372EA0000000440
B1053165554598N00927284EA0000000435
B1053265554657N00927185EA0000000436
B1053315554711N00927166EA0000000436
B1053365554761N00927127EA0000000438
B1053445554832N00927061EA0000000451
B1053495554862N00927017EA0000000447
B1053545554847N00926963EA0000000442
B1054005554787N00927017EA0000000439
B1054055554777N00927146EA0000000444
B1054105554809N00927269EA0000000441
B1054155554866N00927360EA0000000437
B1054205554930N00927430EA0000000428
B1054255554995N00927487EA0000000428
B1054315555062N00927569EA0000000426
B1054365555125N00927601EA0000000432
B1054425555172N00927535EA0000000447
B1054475555166N00927461EA0000000449
B1054525555123N00927418EA0000000453
B1054575555068N00927463EA0000000456
B1055025555041N00927586EA0000000461
B1055115555066N00927824EA0000000478
B1055165555119N00927894EA0000000480
B1055225555182N00927887EA0000000497
B1055275555210N00927834EA0000000489
B1055335555199N00927744EA0000000486
B1055405555147N00927668EA0000000480
B1055475555065N00927664EA0000000466
B1055535554995N00927738EA0000000457
B1055585554960N00927857EA0000000452
B1056035554965N00927999EA0000000444
B1056085554996N00928127EA0000000450
B1056135555052N00928198EA0000000468
B1056225555155N00928239EA0000000475
B1056285555211N00928197EA0000000471
B1056335555226N00928123EA0000000464
B1056385555194N00928055EA0000000453
B1056435555133N00928048EA0000000447
B1056495555056N00928062EA0000000439
B1056545554996N00928057EA0000000418
B1056595554937N00928010EA0000000410
B1057045554897N00927942EA0000000413
B1057095554867N00927866EA0000000419
B1057145554852N00927789EA0000000421
B1057195554839N00927715EA0000000419
B1057255554802N00927636EA0000000414
B1057315554750N00927569EA0000000411
B1057365554697N00927546EA0000000438
B1057415554650N00927531EA0000000440
B1057465554620N00927476EA0000000434
B1057515554641N00927416EA0000000435
B1057575554706N00927443EA0000000444
B1058035554753N00927563EA0000000465
B1058085554747N00927690EA0000000466
B1058135554692N00927752EA0000000484
B1058185554649N00927709EA0000000494
B1058235554658N00927636EA0000000495
B1058285554704N00927601EA0000000505
B1058335554756N00927654EA0000000521
B1058395554772N00927803EA0000000515
B1058445554722N00927896EA0000000523
B1058495554660N00927898EA0000000534
B1058545554611N00927853EA0000000539
B1058595554596N00927778EA0000000537
B1059045554641N00927736EA0000000540
B1059095554691N00927811EA0000000557
B1059145554679N00927942EA0000000575
B1059205554610N00927991EA0000000585
B1059255554576N00927938EA0000000586
B1059315554605N00927860EA0000000581
B1059375554676N00927879EA0000000597
B1059425554725N00927964EA0000000603
B1059475554739N00928101EA0000000601
B1059525554689N00928209EA0000000603
B1059575554622N00928204EA0000000615
B1100025554572N00928155EA0000000620
B1100075554568N00928078EA0000000614
B1100125554624N00928070EA0000000631
B1100175554670N00928145EA0000000643
B1100225554674N00928272EA0000000653
B1100275554620N00928365EA0000000661
B1100325554560N00928350EA0000000664
B1100375554546N00928273EA0000000661
B1100445554615N00928236EA0000000670
B1100495554674N00928291EA0000000677
B1100565554718N00928459EA0000000680
B1101015554673N00928572EA0000000674
B1101075554590N00928562EA0000000683
B1101125554545N00928500EA0000000687
B1101205554548N00928369EA0000000694
B1101255554582N00928306EA0000000697
B1101305554639N00928323EA0000000700
B1101385554692N00928511EA0000000700
B1101435554656N00928636EA0000000702
B1101495554579N00928698EA0000000712
B1101545554518N00928686EA0000000714
B1102015554468N00928601EA0000000707
B1102065554482N00928532EA0000000700
B1102115554529N00928510EA0000000685
B1102165554565N00928445EA0000000672
B1102225554557N00928319EA0000000665
B1102275554548N00928218EA0000000659
B1102335554539N00928106EA0000000663
B1102385554532N00928020EA0000000665
B1102445554527N00927927EA0000000667
B1102515554523N00927811EA0000000666
B1102585554542N00927693EA0000000659
B1103045554592N00927604EA0000000648
B1103105554641N00927542EA0000000664
B1103215554720N00927422EA0000000663
B1103265554748N00927363EA0000000657
B1103315554771N00927293EA0000000648
B1103375554816N00927218EA0000000641
B1103435554872N00927152EA0000000630
B1103485554919N00927093EA0000000622
B1103565554982N00926987EA0000000620
B1104015555012N00926930EA0000000621
B1104085555054N00926838EA0000000614
B1104145555085N00926754EA0000000611
B1104205555115N00926690EA0000000620
B1104255555169N00926671EA0000000607
B1104305555235N00926744EA0000000609
B1104355555251N00926874EA0000000616
B1104405555216N00926981EA0000000601
B1104455555158N00927003EA0000000589
B1104525555118N00926913EA0000000582
B1104575555110N00926834EA0000000586
B1105025555107N00926750EA0000000587
B1105085555108N00926669EA0000000610
B1105155555111N00926571EA0000000603
B1105205555150N00926511EA0000000603
B1105255555211N00926541EA0000000601
B1105305555244N00926662EA0000000608
B1105355555219N00926788EA0000000616
B1105405555162N00926844EA0000000614
B1105455555109N00926817EA0000000615
B1105505555086N00926744EA0000000619
B1105585555112N00926615EA0000000611
B1106035555163N00926568EA0000000605
B1106085555234N00926592EA0000000601
B1106135555276N00926704EA0000000602
B1106185555257N00926830EA0000000593
B1106245555189N00926890EA0000000589
B1106295555130N00926882EA0000000577
B1106355555059N00926850EA0000000563
B1106415554986N00926904EA0000000565
B1106505554882N00927010EA0000000558
B1106555554823N00927020EA0000000550
B1107005554784N00926971EA0000000545
B1107055554780N00926895EA0000000544
B1107115554794N00926813EA0000000542
B1107165554828N00926752EA0000000522
B1107215554895N00926770EA0000000513
B1107265554936N00926881EA0000000516
B1107315554933N00927017EA0000000507
B1107375554885N00927152EA0000000493
B1107425554838N00927252EA0000000490
B1107475554796N00927356EA0000000484
B1107545554747N00927518EA0000000474
B1107595554740N00927655EA0000000472
B1108045554770N00927772EA0000000469
B1108095554830N00927833EA0000000456
B1108195554967N00927871EA0000000439
B1108245555033N00927861EA0000000441
B1108335555139N00927825EA0000000445
B1108405555213N00927789EA0000000448
B1108455555260N00927750EA0000000439
B1108505555293N00927684EA0000000422
B1108595555298N00927530EA0000000409
B1109055555272N00927440EA0000000399
B1109135555223N00927329EA0000000384
B1109185555198N00927260EA0000000394
B1109245555172N00927193EA0000000386
B1109325555157N00927093EA0000000371
B1109385555182N00927011EA0000000356
B1109445555175N00926926EA0000000341
B1109495555117N00926894EA0000000339
B1109545555048N00926899EA0000000338
B1109595554983N00926882EA0000000332
B1110045554948N00926815EA0000000335
B1110105554955N00926727EA0000000331
B1110165555001N00926678EA0000000317
B1110215555053N00926724EA0000000315
B1110265555064N00926857EA0000000314
B1110325555040N00927010EA0000000328
B1110385555020N00927166EA0000000320
B1110445554990N00927328EA0000000311
B1110505554954N00927499EA0000000296
B1110565554917N00927680EA0000000294
B1111025554877N00927869EA0000000278
B1111075554839N00928030EA0000000286
B1111135554766N00928166EA0000000284
B1111235554610N00928321EA0000000275
B1111305554497N00928387EA0000000263
B1111365554418N00928347EA0000000267
B1111415554361N00928294EA0000000271
B1111465554351N00928199EA0000000265
B1111525554363N00928085EA0000000245
B1111595554380N00927943EA0000000209
B1112065554398N00927784EA0000000172
B1112145554420N00927615EA0000000135
B1112205554434N00927482EA0000000103
B1112285554451N00927300EA0000000087
B1112345554459N00927206EA0000000088
