AOGNOGN
HFDTE210625
HFFXA050
HFPLTPILOTINCHARGE:
HFGTYGLIDERTYPE:Astir CS
HFGIDGLIDERID:OY-XGL
HFDTM100GPSDATUM:WGS-1984
HFRFWFIRMWAREVERSION:
HFRHWHARDWAREVERSION:
HFFTYFRTYPE:OGN-FLIGHTBOOK
HFGPSGENERIC
HFPRSPRESSALTSENSOR:
HFCIDCOMPETITIONID:H1
B1234275554419N00927260EA0000000107
B1234305554430N00927191EA0000000152
B1234355554437N00927091EA0000000239
B1234405554445N00926995EA0000000318
B1234465554465N00926875EA0000000405
B1234515554487N00926773EA0000000456
B1234565554503N00926665EA0000000492
B1235015554512N00926559EA0000000501
B1235075554517N00926450EA0000000504
B1235125554522N00926366EA0000000500
B1235175554541N00926291EA0000000494
B1235225554595N00926270EA0000000497
B1235275554661N00926321EA0000000495
B1235325554730N00926376EA0000000485
B1235395554830N00926447EA0000000475
B1235445554896N00926533EA0000000476
B1235515554946N00926733EA0000000463
B1235565554999N00926843EA0000000455
B1236015555067N00926858EA0000000445
B1236065555109N00926792EA0000000446
B1236125555120N00926688EA0000000439
B1236195555124N00926566EA0000000430
B1236245555165N00926512EA0000000426
B1236295555226N00926584EA0000000419
B1236345555227N00926745EA0000000418
B1236395555166N00926836EA0000000411
B1236445555107N00926806EA0000000406
B1236495555094N00926725EA0000000402
B1236545555129N00926665EA0000000399
B1236595555193N00926714EA0000000390
B1237045555219N00926872EA0000000383
B1237095555178N00927004EA0000000382
B1237145555111N00927026EA0000000372
B1237195555094N00926953EA0000000367
B1237245555139N00926915EA0000000360
B1237295555197N00927003EA0000000355
B1237345555187N00927164EA0000000334
B1237395555123N00927266EA0000000328
B1237445555059N00927251EA0000000320
B1237495555032N00927166EA0000000308
B1237555555022N00927054EA0000000301
B1238005555017N00926964EA0000000289
B1238055554966N00926932EA0000000275
B1238125554889N00927118EA0000000258
B1238185554843N00927305EA0000000249
B1238255554797N00927525EA0000000240
B1238305554762N00927686EA0000000232
B1238355554729N00927850EA0000000230
B1238405554683N00928001EA0000000223
B1238465554602N00928114EA0000000222
B1238525554516N00928129EA0000000213
B1238585554441N00928083EA0000000203
B1239035554393N00928021EA0000000196
B1239085554379N00927922EA0000000178
B1239135554393N00927823EA0000000175
B1239205554409N00927691EA0000000155
B1239265554419N00927572EA0000000135
B1239315554430N00927471EA0000000118
B1239365554443N00927368EA0000000102
B1239435554454N00927236EA0000000093
B1239505554460N00927156EA0000000092
