AOGNOGN
HFDTE210625
HFFXA050
HFPLTPILOTINCHARGE:
HFGTYGLIDERTYPE:Astir CS
HFGIDGLIDERID:OY-XGL
HFDTM100GPSDATUM:WGS-1984
HFRFWFIRMWAREVERSION:
HFRHWHARDWAREVERSION:
HFFTYFRTYPE:OGN-FLIGHTBOOK
HFGPSGENERIC
HFPRSPRESSALTSENSOR:
HFCIDCOMPETITIONID:H1
B1254315554421N00927259EA0000000101
B1254365554440N00927137EA0000000168
B1254415554455N00927036EA0000000251
B1254465554477N00926941EA0000000324
B1254515554494N00926843EA0000000396
B1254565554506N00926740EA0000000447
B1255015554516N00926629EA0000000472
B1255075554525N00926506EA0000000490
B1255125554530N00926421EA0000000484
B1255185554543N00926320EA0000000480
B1255235554578N00926253EA0000000466
B1255295554663N00926296EA0000000453
B1255345554745N00926362EA0000000434
B1255415554865N00926450EA0000000430
B1255465554919N00926564EA0000000427
B1255515554917N00926724EA0000000416
B1255565554953N00926868EA0000000403
B1256015555022N00926871EA0000000383
B1256065555030N00926769EA0000000381
B1256115555025N00926684EA0000000383
B1256195555024N00926585EA0000000379
B1256255555022N00926512EA0000000366
B1256315555015N00926419EA0000000347
B1256365555047N00926353EA0000000345
B1256415555104N00926414EA0000000347
B1256465555103N00926558EA0000000359
B1256535555089N00926770EA0000000357
B1257015555055N00927035EA0000000343
B1257065555028N00927212EA0000000333
B1257165554982N00927567EA0000000316
B1257215554965N00927743EA0000000305
B1257265554944N00927912EA0000000297
B1257325554894N00928084EA0000000288
B1257395554812N00928260EA0000000275
B1257455554739N00928410EA0000000266
B1257505554667N00928478EA0000000265
B1257585554549N00928480EA0000000257
B1258035554479N00928472EA0000000266
B1258085554416N00928451EA0000000263
B1258145554373N00928358EA0000000247
B1258205554372N00928240EA0000000229
B1258255554383N00928142EA0000000225
B1258315554392N00928028EA0000000214
B1258395554401N00927868EA0000000185
B1258445554408N00927770EA0000000172
B1258495554417N00927680EA0000000147
B1258595554435N00927486EA0000000118
B1259045554444N00927385EA0000000104
B1259135554461N00927217EA0000000090
B1259185554469N00927144EA0000000090
