AOGNOGN
HFDTE210625
HFFXA050
HFPLTPILOTINCHARGE:
HFGTYGLIDERTYPE:Astir CS
HFGIDGLIDERID:OY-XGL
HFDTM100GPSDATUM:WGS-1984
HFRFWFIRMWAREVERSION:
HFRHWHARDWAREVERSION:
HFFTYFRTYPE:OGN-FLIGHTBOOK
HFGPSGENERIC
HFPRSPRESSALTSENSOR:
HFCIDCOMPETITIONID:H1
B1337585554425N00927238EA0000000100
B1337595554430N00927215EA0000000106
B1338045554452N00927106EA0000000169
B1338095554472N00927009EA0000000229
B1338145554492N00926907EA0000000284
B1338195554510N00926798EA0000000336
B1338245554523N00926684EA0000000386
B1338315554531N00926522EA0000000421
B1338385554536N00926394EA0000000424
B1338455554560N00926283EA0000000426
B1338505554595N00926216EA0000000425
B1338555554657N00926196EA0000000427
B1339045554782N00926283EA0000000434
B1339095554828N00926406EA0000000441
B1339145554803N00926540EA0000000440
B1339195554747N00926525EA0000000438
B1339245554767N00926450EA0000000447
B1339295554831N00926472EA0000000454
B1339355554913N00926544EA0000000444
B1339405554981N00926615EA0000000438
B1339465555005N00926784EA0000000425
B1339515554946N00926867EA0000000417
B1339585554881N00926792EA0000000413
B1340035554850N00926714EA0000000415
B1340085554841N00926633EA0000000423
B1340135554886N00926596EA0000000424
B1340185554937N00926701EA0000000403
B1340235554906N00926836EA0000000395
B1340295554832N00926859EA0000000389
B1340345554785N00926801EA0000000390
B1340395554785N00926721EA0000000391
B1340445554833N00926672EA0000000393
B1340495554891N00926633EA0000000375
B1340545554880N00926568EA0000000369
B1340595554815N00926647EA0000000350
B1341045554797N00926818EA0000000351
B1341095554817N00926965EA0000000370
B1341145554879N00927000EA0000000365
B1341195554890N00926935EA0000000350
B1341245554828N00926940EA0000000342
B1341305554798N00927101EA0000000347
B1341355554859N00927171EA0000000358
B1341405554899N00927128EA0000000346
B1341455554868N00927073EA0000000338
B1341505554828N00927019EA0000000327
B1341555554839N00926950EA0000000322
B1342005554896N00926946EA0000000307
B1342055554941N00926912EA0000000298
B1342115554899N00926852EA0000000287
B1342165554841N00926885EA0000000282
B1342215554806N00927013EA0000000264
B1342285554773N00927223EA0000000245
B1342335554760N00927382EA0000000247
B1342405554757N00927593EA0000000262
B1342525554758N00927973EA0000000265
B1342585554761N00928172EA0000000272
B1343035554757N00928335EA0000000278
B1343085554732N00928488EA0000000280
B1343135554680N00928602EA0000000282
B1343185554612N00928667EA0000000269
B1343265554492N00928724EA0000000264
B1343325554418N00928695EA0000000251
B1343385554349N00928642EA0000000243
B1343435554309N00928570EA0000000237
B1343485554316N00928473EA0000000229
B1343545554329N00928352EA0000000214
B1343595554337N00928247EA0000000211
B1344065554349N00928109EA0000000205
B1344125554361N00927994EA0000000197
B1344205554381N00927831EA0000000169
B1344275554401N00927673EA0000000147
B1344335554415N00927538EA0000000135
B1344395554424N00927419EA0000000118
B1344455554429N00927300EA0000000096
B1344525554443N00927166EA0000000085
