AOGNOGN
HFDTE210625
HFFXA050
HFPLTPILOTINCHARGE:
HFGTYGLIDERTYPE:Astir CS
HFGIDGLIDERID:OY-XGL
HFDTM100GPSDATUM:WGS-1984
HFRFWFIRMWAREVERSION:
HFRHWHARDWAREVERSION:
HFFTYFRTYPE:OGN-FLIGHTBOOK
HFGPSGENERIC
HFPRSPRESSALTSENSOR:
HFCIDCOMPETITIONID:H1
B1312125554419N00927272EA0000000098
B1312145554429N00927227EA0000000117
B1312195554447N00927128EA0000000203
B1312245554463N00927038EA0000000267
B1312295554476N00926942EA0000000332
B1312345554489N00926845EA0000000393
B1312395554503N00926740EA0000000436
B1312455554516N00926612EA0000000467
B1312505554527N00926523EA0000000477
B1312555554538N00926452EA0000000468
B1313005554556N00926368EA0000000451
B1313055554586N00926282EA0000000449
B1313105554643N00926256EA0000000456
B1313155554706N00926305EA0000000450
B1313225554799N00926383EA0000000444
B1313305554893N00926543EA0000000441
B1313365554954N00926686EA0000000426
B1313415554961N00926838EA0000000422
B1313465554901N00926906EA0000000419
B1313515554867N00926838EA0000000416
B1313575554895N00926747EA0000000406
B1314025554923N00926673EA0000000397
B1314085554960N00926582EA0000000406
B1314145554999N00926498EA0000000412
B1314205555063N00926474EA0000000413
B1314255555117N00926554EA0000000407
B1314315555124N00926732EA0000000397
B1314365555137N00926875EA0000000387
B1314415555197N00926898EA0000000360
B1314465555185N00926799EA0000000363
B1314515555124N00926753EA0000000363
B1314565555063N00926817EA0000000367
B1315025555024N00926994EA0000000352
B1315085554992N00927181EA0000000353
B1315145554965N00927357EA0000000351
B1315205554931N00927537EA0000000348
B1315265554897N00927727EA0000000338
B1315315554872N00927886EA0000000327
B1315395554836N00928141EA0000000310
B1315445554789N00928266EA0000000305
B1315505554716N00928398EA0000000282
B1315575554617N00928542EA0000000270
B1316035554528N00928632EA0000000272
B1316095554440N00928642EA0000000265
B1316145554373N00928625EA0000000258
B1316195554341N00928546EA0000000246
B1316245554346N00928434EA0000000236
B1316295554353N00928327EA0000000237
B1316355554363N00928206EA0000000225
B1316415554373N00928093EA0000000208
B1316475554387N00927973EA0000000199
B1316525554400N00927872EA0000000188
B1316585554411N00927764EA0000000169
B1317035554415N00927671EA0000000147
B1317085554425N00927577EA0000000129
B1317185554444N00927386EA0000000098
B1317265554459N00927235EA0000000089
B1317335554468N00927144EA0000000089
