AOGNOGN
HFDTE210625
HFFXA050
HFPLTPILOTINCHARGE:
HFGTYGLIDERTYPE:ASK-13
HFGIDGLIDERID:D-1355
HFDTM100GPSDATUM:WGS-1984
HFRFWFIRMWAREVERSION:
HFRHWHARDWAREVERSION:
HFFTYFRTYPE:OGN-FLIGHTBOOK
HFGPSGENERIC
HFPRSPRESSALTSENSOR:
HFCIDCOMPETITIONID:D-1
B1124215554418N00927258EA0000000109
B1124415554422N00926924EA0000000384
B1125165554454N00926300EA0000000450
B1125225554500N00926222EA0000000437
B1125335554627N00926147EA0000000413
B1125395554715N00926182EA0000000401
B1125445554782N00926273EA0000000399
B1125505554847N00926415EA0000000411
B1125565554925N00926460EA0000000419
B1126015554952N00926383EA0000000421
B1126065554905N00926333EA0000000419
B1126115554843N00926408EA0000000415
B1126165554822N00926565EA0000000413
B1126215554860N00926705EA0000000416
B1126275554942N00926772EA0000000422
B1126325554985N00926712EA0000000425
B1126375554958N00926634EA0000000420
B1126425554890N00926645EA0000000425
B1126485554833N00926790EA0000000432
B1126535554857N00926946EA0000000431
B1127005554960N00926999EA0000000433
B1127055555003N00926915EA0000000432
B1127105554975N00926826EA0000000435
B1127155554906N00926829EA0000000441
B1127205554849N00926936EA0000000441
B1127255554848N00927100EA0000000440
B1127305554909N00927206EA0000000441
B1127365554998N00927189EA0000000451
B1127415555034N00927119EA0000000448
B1127465555001N00927044EA0000000437
B1127525554925N00927111EA0000000447
B1127575554915N00927260EA0000000453
B1128025554978N00927355EA0000000459
B1128085555055N00927311EA0000000458
B1128135555046N00927211EA0000000446
B1128185554980N00927171EA0000000436
B1128245554899N00927272EA0000000442
B1128305554877N00927467EA0000000447
B1128355554889N00927637EA0000000457
B1128405554863N00927782EA0000000470
B1128455554800N00927847EA0000000470
B1128505554740N00927818EA0000000472
B1128565554721N00927713EA0000000459
B1129015554756N00927630EA0000000446
B1129075554835N00927597EA0000000445
B1129125554904N00927674EA0000000440
B1129185554932N00927862EA0000000446
B1129235554880N00927993EA0000000442
B1129285554802N00928017EA0000000448
B1129365554737N00927914EA0000000439
B1129425554748N00927800EA0000000430
B1129475554780N00927718EA0000000434
B1129525554822N00927651EA0000000439
B1130005554904N00927589EA0000000447
B1130105555000N00927499EA0000000446
B1130165555044N00927428EA0000000440
B1130235555088N00927329EA0000000426
B1130365555155N00927120EA0000000401
B1130415555181N00927033EA0000000409
B1130465555210N00926953EA0000000417
B1130535555276N00926881EA0000000412
B1130585555344N00926936EA0000000401
B1131045555360N00927123EA0000000392
B1131115555267N00927255EA0000000376
B1131175555174N00927244EA0000000376
B1131225555111N00927199EA0000000382
B1131275555057N00927149EA0000000375
B1131345554998N00927046EA0000000363
B1131415554982N00926913EA0000000356
B1131465554989N00926820EA0000000357
B1131525555016N00926716EA0000000356
B1132065555144N00926525EA0000000333
B1132115555209N00926482EA0000000320
B1132165555284N00926484EA0000000306
B1132215555356N00926564EA0000000296
B1132265555398N00926706EA0000000291
B1132315555381N00926870EA0000000279
B1132485555102N00927093EA0000000252
B1132535555026N00927110EA0000000245
B1133015554898N00927146EA0000000229
B1133065554846N00927278EA0000000229
B1133125554824N00927478EA0000000235
B1133185554811N00927686EA0000000224
B1133235554758N00927810EA0000000224
B1133285554687N00927893EA0000000220
B1133345554600N00927997EA0000000209
B1133395554524N00928039EA0000000198
B1133445554458N00927994EA0000000185
B1133495554400N00927925EA0000000172
B1133545554403N00927812EA0000000161
B1134005554412N00927676EA0000000141
B1134055554422N00927567EA0000000124
B1134105554431N00927466EA0000000110
B1134165554441N00927366EA0000000097
