AOGNOGN
HFDTE210625
HFFXA050
HFPLTPILOTINCHARGE:
HFGTYGLIDERTYPE:ASK-13
HFGIDGLIDERID:D-1355
HFDTM100GPSDATUM:WGS-1984
HFRFWFIRMWAREVERSION:
HFRHWHARDWAREVERSION:
HFFTYFRTYPE:OGN-FLIGHTBOOK
HFGPSGENERIC
HFPRSPRESSALTSENSOR:
HFCIDCOMPETITIONID:D-1
B0849405554421N00927253EA0000000099
B0849405554421N00927253EA0000000099
B0849455554438N00927147EA0000000161
B0849505554456N00927069EA0000000236
B0849555554477N00926989EA0000000314
B0850005554495N00926905EA0000000379
B0850085554523N00926760EA0000000456
B0850165554541N00926586EA0000000497
B0850225554548N00926482EA0000000518
B0850385554593N00926270EA0000000505
B0850435554646N00926272EA0000000494
B0850505554727N00926352EA0000000489
B0850565554794N00926423EA0000000483
B0851015554852N00926492EA0000000478
B0851075554924N00926551EA0000000477
B0851125554987N00926577EA0000000477
B0851175555048N00926580EA0000000470
B0851225555078N00926527EA0000000467
B0851275555042N00926476EA0000000462
B0851365554952N00926605EA0000000453
B0851425554959N00926765EA0000000457
B0851495555005N00926930EA0000000451
B0851555555078N00926981EA0000000443
B0852025555127N00926891EA0000000445
B0852105555157N00926769EA0000000440
B0852155555156N00926688EA0000000442
B0852205555105N00926667EA0000000432
B0852255555053N00926762EA0000000436
B0852305555053N00926899EA0000000428
B0852355555100N00927012EA0000000418
B0852405555166N00927046EA0000000429
B0852465555193N00926976EA0000000426
B0852565555085N00927016EA0000000432
B0853015555082N00927155EA0000000429
B0853065555131N00927259EA0000000424
B0853125555199N00927270EA0000000427
B0853175555203N00927192EA0000000418
B0853255555111N00927214EA0000000424
B0853305555093N00927356EA0000000407
B0853355555141N00927480EA0000000411
B0853405555203N00927541EA0000000412
B0853455555258N00927548EA0000000408
B0853505555266N00927471EA0000000398
B0853555555219N00927423EA0000000397
B0854015555164N00927373EA0000000395
B0854065555124N00927314EA0000000386
B0854125555161N00927234EA0000000379
B0854175555226N00927290EA0000000377
B0854225555246N00927433EA0000000358
B0854275555204N00927558EA0000000351
B0854325555141N00927555EA0000000348
B0854395555071N00927473EA0000000344
B0854445555032N00927411EA0000000350
B0854515555074N00927337EA0000000345
B0854565555134N00927395EA0000000344
B0855015555131N00927538EA0000000334
B0855065555069N00927595EA0000000343
B0855115555032N00927534EA0000000336
B0855165555075N00927479EA0000000335
B0855215555131N00927566EA0000000330
B0855265555114N00927705EA0000000330
B0855325555038N00927728EA0000000326
B0855385555026N00927620EA0000000334
B0855435555078N00927584EA0000000328
B0855485555131N00927709EA0000000317
B0855535555089N00927840EA0000000324
B0855585555033N00927811EA0000000325
B0856035555054N00927724EA0000000324
B0856085555117N00927762EA0000000329
B0856135555127N00927907EA0000000315
B0856185555065N00927979EA0000000327
B0856245555019N00927917EA0000000318
B0856295555062N00927856EA0000000319
B0856345555122N00927910EA0000000317
B0856405555125N00928082EA0000000313
B0856455555064N00928122EA0000000317
B0856505555050N00928039EA0000000309
B0856565555122N00928063EA0000000308
B0857015555135N00928200EA0000000301
B0857075555063N00928261EA0000000309
B0857125555038N00928196EA0000000303
B0857185555072N00928115EA0000000300
B0857235555124N00928096EA0000000303
B0857285555177N00928173EA0000000281
B0857335555150N00928312EA0000000264
B0857445555013N00928333EA0000000264
B0857515554927N00928367EA0000000250
B0857575554851N00928350EA0000000228
B0858165554675N00928152EA0000000220
B0858225554611N00928111EA0000000212
B0858325554498N00928048EA0000000211
B0858385554439N00928013EA0000000204
B0858435554393N00927970EA0000000197
B0858505554386N00927856EA0000000187
B0858575554410N00927734EA0000000160
B0859025554415N00927643EA0000000141
B0859085554431N00927549EA0000000119
B0859165554440N00927412EA0000000089
