AOGNOGN
HFDTE210625
HFFXA050
HFPLTPILOTINCHARGE:
HFGTYGLIDERTYPE:Duo Discus xlt
HFGIDGLIDERID:OY-HXD
HFDTM100GPSDATUM:WGS-1984
HFRFWFIRMWAREVERSION:
HFRHWHARDWAREVERSION:
HFFTYFRTYPE:OGN-FLIGHTBOOK
HFGPSGENERIC
HFPRSPRESSALTSENSOR:
HFCIDCOMPETITIONID:HD
B1056085554421N00927227EA0000000103
B1056095554426N00927200EA0000000115
B1056145554453N00927089EA0000000209
B1056195554481N00926987EA0000000288
B1056255554513N00926845EA0000000370
B1056315554542N00926690EA0000000436
B1056365554558N00926548EA0000000458
B1056415554574N00926397EA0000000475
B1056475554610N00926268EA0000000494
B1056525554623N00926170EA0000000498
B1056575554560N00926132EA0000000501
B1057025554498N00926250EA0000000502
B1057075554512N00926414EA0000000500
B1057125554584N00926485EA0000000496
B1057185554654N00926413EA0000000500
B1057235554723N00926396EA0000000496
B1057315554843N00926464EA0000000499
B1057385554950N00926446EA0000000479
B1057445555047N00926492EA0000000479
B1057505555141N00926572EA0000000481
B1057565555230N00926639EA0000000480
B1058015555302N00926680EA0000000473
B1058085555405N00926708EA0000000462
B1058135555474N00926786EA0000000455
B1058185555503N00926949EA0000000452
B1058235555472N00927113EA0000000448
B1058295555397N00927272EA0000000433
B1058355555310N00927382EA0000000427
B1058425555209N00927498EA0000000421
B1058485555127N00927593EA0000000429
B1058535555066N00927571EA0000000415
B1058585555033N00927469EA0000000406
B1059035555001N00927378EA0000000412
B1059085554932N00927366EA0000000406
B1059135554862N00927467EA0000000398
B1059185554815N00927620EA0000000397
B1059265554735N00927848EA0000000399
B1059315554680N00927972EA0000000417
B1059365554616N00927978EA0000000423
B1059415554613N00927886EA0000000419
B1059465554679N00927866EA0000000430
B1059525554742N00927996EA0000000446
B1059575554707N00928136EA0000000452
B1100025554638N00928144EA0000000461
B1100085554646N00928038EA0000000458
B1100135554720N00928050EA0000000472
B1100185554756N00928190EA0000000477
B1100235554706N00928326EA0000000485
B1100295554634N00928282EA0000000491
B1100355554677N00928187EA0000000495
B1100405554746N00928256EA0000000506
B1100455554745N00928418EA0000000510
B1100505554677N00928504EA0000000519
B1100565554625N00928431EA0000000524
B1101025554688N00928360EA0000000524
B1101075554752N00928443EA0000000534
B1101125554745N00928605EA0000000530
B1101175554669N00928669EA0000000537
B1101235554624N00928577EA0000000539
B1101285554673N00928504EA0000000543
B1101335554744N00928533EA0000000549
B1101385554758N00928689EA0000000543
B1101435554690N00928783EA0000000548
B1101485554618N00928766EA0000000552
B1101535554552N00928736EA0000000556
B1102075554458N00928526EA0000000546
B1102125554488N00928448EA0000000533
B1102175554557N00928431EA0000000522
B1102245554661N00928426EA0000000521
B1102295554724N00928394EA0000000532
B1102345554747N00928316EA0000000542
B1102395554683N00928296EA0000000542
B1102465554638N00928497EA0000000552
B1102515554703N00928565EA0000000556
B1102565554721N00928478EA0000000569
B1103015554652N00928482EA0000000571
B1103065554624N00928635EA0000000571
B1103115554684N00928730EA0000000577
B1103195554701N00928618EA0000000590
B1103245554627N00928684EA0000000592
B1103305554646N00928851EA0000000596
B1103365554717N00928813EA0000000600
B1103415554678N00928745EA0000000604
B1103465554611N00928836EA0000000606
B1103515554633N00928982EA0000000612
B1103565554701N00928990EA0000000607
B1104015554727N00928898EA0000000613
B1104065554677N00928840EA0000000617
B1104115554611N00928935EA0000000621
B1104165554624N00929090EA0000000618
B1104245554707N00929058EA0000000626
B1104295554664N00928990EA0000000627
B1104345554597N00929060EA0000000626
B1104405554607N00929241EA0000000621
B1104455554677N00929263EA0000000621
B1104505554699N00929173EA0000000620
B1105025554650N00928948EA0000000628
B1105085554731N00928952EA0000000616
B1105135554755N00929106EA0000000605
B1105185554691N00929201EA0000000594
B1105235554610N00929184EA0000000599
B1105285554538N00929154EA0000000607
B1105415554439N00928962EA0000000603
B1105465554447N00928855EA0000000600
B1105555554423N00928672EA0000000610
B1106065554331N00928817EA0000000622
B1106125554404N00928859EA0000000627
B1106175554404N00928768EA0000000629
B1106235554331N00928714EA0000000636
B1106285554259N00928750EA0000000635
B1106385554237N00929043EA0000000625
B1106435554307N00929106EA0000000624
B1106485554358N00929057EA0000000628
B1106545554385N00928951EA0000000623
B1107095554464N00928682EA0000000620
B1107145554518N00928611EA0000000615
B1107235554606N00928475EA0000000620
B1107315554679N00928349EA0000000616
B1107365554732N00928281EA0000000612
B1107415554796N00928220EA0000000597
B1107475554882N00928123EA0000000551
B1107535554984N00927986EA0000000518
B1107585555072N00927856EA0000000502
B1108035555151N00927716EA0000000527
B1108095555207N00927590EA0000000574
B1108145555249N00927488EA0000000552
B1108205555264N00927361EA0000000560
B1108255555233N00927280EA0000000550
B1108305555183N00927205EA0000000530
B1108355555112N00927123EA0000000496
B1108405555054N00927039EA0000000523
B1108455554979N00927026EA0000000525
B1108505554907N00927125EA0000000521
B1108565554882N00927326EA0000000525
B1109025554897N00927527EA0000000522
B1109095554934N00927751EA0000000515
B1109155555001N00927909EA0000000505
B1109205555077N00927988EA0000000499
B1109265555162N00927987EA0000000498
B1109345555235N00927872EA0000000490
B1109405555252N00927755EA0000000476
B1109455555218N00927670EA0000000470
B1109505555143N00927678EA0000000459
B1109575555036N00927807EA0000000449
B1110045554940N00927961EA0000000445
B1110105554865N00928099EA0000000445
B1110155554799N00928194EA0000000439
B1110225554698N00928292EA0000000428
B1110275554623N00928332EA0000000423
B1110325554549N00928343EA0000000424
B1110395554447N00928351EA0000000440
B1110525554410N00928148EA0000000439
B1110585554472N00928055EA0000000445
B1111055554543N00927959EA0000000430
B1111105554600N00927883EA0000000417
B1111205554729N00927763EA0000000404
B1111255554789N00927696EA0000000403
B1111345554886N00927569EA0000000397
B1111415554963N00927483EA0000000397
B1112015555150N00927210EA0000000390
B1112085555173N00927086EA0000000384
B1112155555127N00926975EA0000000391
B1112205555058N00926952EA0000000390
B1112255554988N00927027EA0000000386
B1112305554955N00927180EA0000000382
B1112355554977N00927341EA0000000372
B1112405555043N00927431EA0000000370
B1112515555148N00927321EA0000000370
B1112565555170N00927235EA0000000365
B1113035555186N00927108EA0000000358
B1113095555180N00926988EA0000000342
B1113145555144N00926906EA0000000330
B1113195555073N00926881EA0000000324
B1113245555006N00926970EA0000000327
B1113305554982N00927168EA0000000313
B1113375554962N00927423EA0000000306
B1113425554941N00927611EA0000000305
B1113485554898N00927833EA0000000298
B1113575554808N00928141EA0000000308
B1114025554736N00928268EA0000000305
B1114095554612N00928386EA0000000282
B1114145554521N00928435EA0000000268
B1114195554435N00928432EA0000000266
B1114255554353N00928370EA0000000259
B1114325554343N00928208EA0000000241
B1114405554358N00928013EA0000000205
B1114455554369N00927887EA0000000182
B1114505554384N00927758EA0000000162
B1114555554397N00927628EA0000000142
B1115065554426N00927355EA0000000103
B1115135554443N00927200EA0000000093
B1115215554466N00927098EA0000000093
