AOGNOGN
HFDTE280625
HFFXA050
HFPLTPILOTINCHARGE:
HFGTYGLIDERTYPE:ASK-23
HFGIDGLIDERID:OY-RKX
HFDTM100GPSDATUM:WGS-1984
HFRFWFIRMWAREVERSION:
HFRHWHARDWAREVERSION:
HFFTYFRTYPE:OGN-FLIGHTBOOK
HFGPSGENERIC
HFPRSPRESSALTSENSOR:
HFCIDCOMPETITIONID:RK
B1016045515087N01204055EA0000000177
B1016045515087N01204055EA0000000177
B1016095515076N01203987EA0000000283
B1016145515063N01203896EA0000000381
B1016205515062N01203760EA0000000456
B1016255515057N01203636EA0000000492
B1016325515043N01203465EA0000000510
B1016375515035N01203375EA0000000534
B1016435515029N01203302EA0000000540
B1016495515024N01203245EA0000000540
B1016555515018N01203195EA0000000536
B1017005515010N01203151EA0000000530
B1017115514982N01203064EA0000000516
B1017185514962N01203017EA0000000512
B1017245514952N01202977EA0000000509
B1017315514960N01202924EA0000000497
B1017415514978N01202846EA0000000488
B1017495515016N01202785EA0000000482
B1017545515049N01202749EA0000000474
B1017595515085N01202716EA0000000472
B1018075515150N01202666EA0000000459
B1018125515186N01202636EA0000000456
B1018225515238N01202549EA0000000454
B1018275515262N01202505EA0000000456
B1018345515257N01202446EA0000000450
B1018395515219N01202438EA0000000443
B1018445515167N01202488EA0000000431
B1018505515111N01202599EA0000000427
B1018575515074N01202772EA0000000439
B1019025515075N01202923EA0000000439
B1019085515124N01203094EA0000000426
B1019165515243N01203206EA0000000425
B1019215515303N01203191EA0000000429
B1019265515325N01203131EA0000000429
B1019315515311N01203088EA0000000427
B1019365515273N01203104EA0000000426
B1019425515220N01203182EA0000000421
B1019475515187N01203292EA0000000424
B1019525515185N01203438EA0000000421
B1019585515230N01203617EA0000000413
B1020045515302N01203761EA0000000416
B1020095515368N01203819EA0000000419
B1020145515427N01203809EA0000000410
B1020195515463N01203758EA0000000420
B1020255515465N01203690EA0000000414
B1020315515418N01203691EA0000000407
B1020375515368N01203785EA0000000403
B1020425515346N01203917EA0000000406
B1020475515371N01204068EA0000000394
B1020535515446N01204207EA0000000399
B1020585515507N01204294EA0000000402
B1021035515527N01204429EA0000000398
B1021085515499N01204547EA0000000382
B1021135515456N01204590EA0000000373
B1021195515421N01204574EA0000000359
B1021255515411N01204522EA0000000355
B1021325515417N01204451EA0000000349
B1021405515416N01204369EA0000000341
B1021465515399N01204311EA0000000331
B1021535515369N01204250EA0000000326
B1021595515338N01204192EA0000000320
B1022045515315N01204139EA0000000318
B1022095515297N01204076EA0000000319
B1022165515284N01203981EA0000000324
B1022215515262N01203928EA0000000322
B1022265515218N01203909EA0000000320
B1022325515184N01203847EA0000000326
B1022405515150N01203758EA0000000324
B1022455515141N01203691EA0000000320
B1022535515142N01203586EA0000000321
B1022585515147N01203526EA0000000319
B1023035515150N01203465EA0000000318
B1023085515156N01203401EA0000000312
B1023135515166N01203331EA0000000301
B1023185515177N01203264EA0000000297
B1023245515191N01203178EA0000000302
B1023335515210N01203057EA0000000302
B1023385515209N01203002EA0000000302
B1023435515176N01202980EA0000000298
B1023505515104N01203043EA0000000289
B1023565515041N01203112EA0000000284
B1024015514982N01203163EA0000000278
B1024075514913N01203259EA0000000282
B1024125514880N01203381EA0000000280
B1024195514844N01203576EA0000000263
B1024255514803N01203729EA0000000251
B1024305514780N01203865EA0000000249
B1024355514768N01204009EA0000000242
B1024415514766N01204195EA0000000231
B1024485514776N01204417EA0000000230
B1024535514798N01204576EA0000000228
B1024585514838N01204721EA0000000220
B1025035514903N01204832EA0000000206
B1025095514996N01204858EA0000000192
B1025175515110N01204835EA0000000179
B1025255515230N01204808EA0000000177
B1025325515326N01204773EA0000000167
B1025375515336N01204699EA0000000155
B1025445515302N01204589EA0000000132
B1025505515279N01204491EA0000000114
B1025585515246N01204357EA0000000097
B1026045515220N01204250EA0000000082
B1026145515179N01204080EA0000000061
B1026205515152N01203979EA0000000049
B1026255515130N01203895EA0000000042
B1026305515107N01203813EA0000000038
B1026375515073N01203716EA0000000035
