AOGNOGN
HFDTE280625
HFFXA050
HFPLTPILOTINCHARGE:
HFGTYGLIDERTYPE:ASK-21
HFGIDGLIDERID:OY-XKO
HFDTM100GPSDATUM:WGS-1984
HFRFWFIRMWAREVERSION:
HFRHWHARDWAREVERSION:
HFFTYFRTYPE:OGN-FLIGHTBOOK
HFGPSGENERIC
HFPRSPRESSALTSENSOR:
HFCIDCOMPETITIONID:R2
B0847355515101N01204213EA0000000041
B0851245515098N01204102EA0000000086
B0851265515096N01204065EA0000000128
B0851315515093N01203978EA0000000231
B0851365515086N01203893EA0000000314
B0851415515074N01203805EA0000000384
B0851475515056N01203689EA0000000452
B0851525515040N01203584EA0000000487
B0851575515027N01203477EA0000000487
B0852035514998N01203339EA0000000461
B0852085514970N01203220EA0000000462
B0852135514905N01203163EA0000000466
B0852195514809N01203251EA0000000456
B0852245514761N01203434EA0000000447
B0852305514741N01203681EA0000000448
B0852355514736N01203873EA0000000447
B0852435514734N01204185EA0000000430
B0852495514737N01204413EA0000000430
B0852555514792N01204607EA0000000419
B0853005514883N01204667EA0000000421
B0853075515000N01204648EA0000000416
B0853135515082N01204574EA0000000413
B0853185515129N01204488EA0000000405
B0853245515149N01204384EA0000000411
B0853295515159N01204310EA0000000409
B0853355515165N01204215EA0000000392
B0853415515158N01204112EA0000000388
B0853465515150N01204035EA0000000395
B0853535515141N01203927EA0000000381
B0853585515128N01203856EA0000000380
B0854035515135N01203786EA0000000377
B0854085515178N01203716EA0000000369
B0854145515238N01203639EA0000000361
B0854215515315N01203546EA0000000357
B0854295515384N01203424EA0000000358
B0854355515415N01203331EA0000000364
B0854435515417N01203230EA0000000363
B0854505515383N01203159EA0000000344
B0854565515429N01203076EA0000000319
B0855015515522N01203165EA0000000317
B0855065515546N01203366EA0000000309
B0855125515537N01203590EA0000000318
B0855205515532N01203882EA0000000313
B0855255515535N01204063EA0000000312
B0855315515550N01204269EA0000000323
B0855365515600N01204408EA0000000310
B0855415515666N01204380EA0000000303
B0855475515661N01204277EA0000000304
B0855545515601N01204196EA0000000303
B0856035515544N01204085EA0000000302
B0856085515515N01204027EA0000000292
B0856135515461N01204043EA0000000289
B0856205515413N01204215EA0000000271
B0856275515446N01204461EA0000000248
B0856335515491N01204682EA0000000240
B0856395515497N01204913EA0000000229
B0856455515444N01205103EA0000000229
B0856555515310N01205304EA0000000221
