AOGNOGN
HFDTE210625
HFFXA050
HFPLTPILOTINCHARGE:
HFGTYGLIDERTYPE:ASK-21
HFGIDGLIDERID:OY-XPC
HFDTM100GPSDATUM:WGS-1984
HFRFWFIRMWAREVERSION:
HFRHWHARDWAREVERSION:
HFFTYFRTYPE:OGN-FLIGHTBOOK
HFGPSGENERIC
HFPRSPRESSALTSENSOR:
HFCIDCOMPETITIONID:PC
B1410515600726N00901291EA0000000062
B1410535600719N00901247EA0000000106
B1410585600703N00901154EA0000000216
B1411035600692N00901079EA0000000245
B1411085600654N00901012EA0000000225
B1411135600586N00901072EA0000000219
B1411185600542N00901223EA0000000212
B1411235600539N00901392EA0000000215
B1411285600598N00901500EA0000000217
B1411335600673N00901488EA0000000205
B1411425600691N00901302EA0000000136
B1411475600676N00901182EA0000000088
B1411535600659N00901029EA0000000043
B1411585600645N00900914EA0000000035
B1412035600637N00900839EA0000000038
