AOGNOGN
HFDTE210625
HFFXA050
HFPLTPILOTINCHARGE:
HFGTYGLIDERTYPE:ASK-21
HFGIDGLIDERID:OY-XPC
HFDTM100GPSDATUM:WGS-1984
HFRFWFIRMWAREVERSION:
HFRHWHARDWAREVERSION:
HFFTYFRTYPE:OGN-FLIGHTBOOK
HFGPSGENERIC
HFPRSPRESSALTSENSOR:
HFCIDCOMPETITIONID:PC
B1325305600731N00901303EA0000000052
B1325315600728N00901277EA0000000065
B1325365600707N00901162EA0000000185
B1325415600689N00901053EA0000000292
B1325465600679N00900939EA0000000379
B1325515600668N00900819EA0000000442
B1325565600655N00900691EA0000000487
B1326025600638N00900538EA0000000519
B1326075600625N00900417EA0000000530
B1326135600593N00900312EA0000000544
B1326185600595N00900233EA0000000550
B1326235600652N00900213EA0000000537
B1326285600717N00900294EA0000000530
B1326335600753N00900433EA0000000525
B1326385600744N00900577EA0000000528
B1326435600698N00900665EA0000000528
B1326485600646N00900660EA0000000525
B1326545600621N00900571EA0000000528
B1327005600643N00900480EA0000000524
B1327055600705N00900479EA0000000519
B1327105600765N00900577EA0000000512
B1327155600779N00900724EA0000000501
B1327205600732N00900828EA0000000497
B1327255600674N00900811EA0000000500
B1327305600664N00900722EA0000000500
B1327355600719N00900680EA0000000502
B1327405600781N00900762EA0000000497
B1327455600790N00900912EA0000000489
B1327505600738N00901005EA0000000493
B1327555600680N00900986EA0000000491
B1328035600655N00900856EA0000000492
B1328095600680N00900756EA0000000484
B1328145600683N00900660EA0000000487
B1328205600669N00900562EA0000000507
B1328275600661N00900471EA0000000494
B1328325600657N00900387EA0000000498
B1328405600653N00900263EA0000000498
B1328465600652N00900165EA0000000490
B1328525600655N00900056EA0000000481
B1328585600659N00859946EA0000000477
B1329045600664N00859844EA0000000482
B1329115600670N00859743EA0000000481
B1329165600678N00859675EA0000000475
B1329215600686N00859601EA0000000467
B1329265600678N00859530EA0000000465
B1329315600634N00859528EA0000000464
B1329365600595N00859640EA0000000458
B1329455600603N00859910EA0000000457
B1329505600615N00900063EA0000000452
B1329555600631N00900220EA0000000455
B1330005600646N00900374EA0000000453
B1330085600673N00900621EA0000000447
B1330145600697N00900804EA0000000442
B1330195600707N00900953EA0000000443
B1330245600668N00901061EA0000000443
B1330295600609N00901059EA0000000436
B1330395600591N00900885EA0000000425
B1330445600594N00900797EA0000000422
B1330525600594N00900649EA0000000412
B1330585600591N00900533EA0000000412
B1331035600586N00900448EA0000000422
B1331125600578N00900304EA0000000427
B1331225600567N00900148EA0000000438
B1331305600556N00900021EA0000000443
B1331405600545N00859861EA0000000434
B1331455600587N00859805EA0000000431
B1331505600656N00859856EA0000000432
B1331585600712N00900083EA0000000428
B1332065600750N00900325EA0000000429
B1332125600774N00900504EA0000000421
B1332175600796N00900659EA0000000412
B1332235600810N00900846EA0000000408
B1332285600769N00900960EA0000000401
B1332335600710N00900961EA0000000396
B1332385600683N00900887EA0000000389
B1332525600659N00900659EA0000000387
B1332585600649N00900567EA0000000385
B1333045600640N00900474EA0000000381
B1333125600625N00900347EA0000000375
B1333195600613N00900238EA0000000381
B1333265600601N00900138EA0000000377
B1333315600590N00900062EA0000000371
B1333365600577N00859984EA0000000363
B1333415600544N00859924EA0000000356
B1333465600481N00859924EA0000000347
B1333515600417N00900012EA0000000340
B1333575600371N00900185EA0000000347
B1334035600340N00900367EA0000000357
B1334085600315N00900517EA0000000356
B1334155600284N00900732EA0000000338
B1334225600280N00900959EA0000000326
B1334285600364N00901021EA0000000305
B1334335600401N00900930EA0000000299
B1334415600399N00900769EA0000000299
B1334475600391N00900663EA0000000305
B1334565600360N00900526EA0000000314
B1335015600339N00900452EA0000000315
B1335075600314N00900366EA0000000321
B1335125600286N00900301EA0000000315
B1335175600229N00900293EA0000000309
B1335225600175N00900401EA0000000297
B1335285600164N00900601EA0000000286
B1335355600179N00900838EA0000000281
B1335415600198N00901034EA0000000276
B1335475600219N00901230EA0000000266
B1335535600245N00901426EA0000000258
B1335585600304N00901534EA0000000252
B1336035600370N00901515EA0000000239
B1336085600383N00901419EA0000000229
B1336145600318N00901396EA0000000222
B1336195600274N00901522EA0000000210
B1336245600279N00901694EA0000000203
B1336315600306N00901928EA0000000192
B1336365600336N00902091EA0000000185
B1336415600394N00902221EA0000000177
B1336475600489N00902279EA0000000168
B1336535600585N00902266EA0000000158
B1336585600664N00902232EA0000000152
B1337045600754N00902163EA0000000147
B1337095600788N00902058EA0000000150
B1337145600776N00901938EA0000000130
B1337195600762N00901814EA0000000105
B1337275600747N00901621EA0000000063
B1337345600737N00901457EA0000000038
B1337405600731N00901375EA0000000039
