AOGNOGN
HFDTE200825
HFFXA050
HFPLTPILOTINCHARGE:
HFGTYGLIDERTYPE:ASG-29E
HFGIDGLIDERID:D-KRBB
HFDTM100GPSDATUM:WGS-1984
HFRFWFIRMWAREVERSION:
HFRHWHARDWAREVERSION:
HFFTYFRTYPE:OGN-FLIGHTBOOK
HFGPSGENERIC
HFPRSPRESSALTSENSOR:
HFCIDCOMPETITIONID:BP
B1029545600591N00900538EA0000000041
B1029575600597N00900584EA0000000040
B1030025600608N00900687EA0000000040
B1030085600629N00900844EA0000000041
B1030135600649N00900998EA0000000043
B1030195600677N00901187EA0000000066
B1030245600701N00901333EA0000000086
B1030295600727N00901473EA0000000098
B1030345600759N00901609EA0000000108
B1030405600797N00901784EA0000000115
B1030475600846N00901993EA0000000135
B1030535600885N00902170EA0000000149
B1030595600927N00902343EA0000000157
B1031045600963N00902488EA0000000167
B1031135601028N00902747EA0000000197
B1031195601079N00902922EA0000000215
B1031255601126N00903108EA0000000237
B1031305601162N00903265EA0000000250
B1031355601198N00903424EA0000000267
B1031425601246N00903642EA0000000290
B1031475601287N00903796EA0000000304
B1031535601333N00903983EA0000000331
B1031585601369N00904129EA0000000359
B1032055601418N00904309EA0000000395
B1032115601461N00904466EA0000000407
B1032165601499N00904598EA0000000419
B1032235601547N00904784EA0000000435
B1032285601580N00904913EA0000000449
B1032335601610N00905049EA0000000454
B1032405601643N00905248EA0000000473
B1032465601671N00905416EA0000000492
B1032545601710N00905630EA0000000520
B1032595601726N00905758EA0000000528
B1033045601689N00905865EA0000000538
B1033095601616N00905909EA0000000550
B1033145601536N00905873EA0000000560
B1033195601476N00905776EA0000000564
B1033245601470N00905646EA0000000561
B1033295601520N00905582EA0000000578
B1033345601568N00905610EA0000000581
B1033395601578N00905717EA0000000573
B1033445601527N00905822EA0000000577
B1033495601443N00905837EA0000000590
B1033545601367N00905754EA0000000595
B1033595601318N00905613EA0000000597
B1034045601330N00905471EA0000000605
B1034095601392N00905415EA0000000609
B1034145601450N00905458EA0000000626
B1034195601459N00905565EA0000000631
B1034245601392N00905641EA0000000636
B1034295601306N00905593EA0000000644
B1034345601261N00905458EA0000000659
B1034395601275N00905333EA0000000662
B1034445601335N00905278EA0000000670
B1034505601397N00905327EA0000000675
B1034555601392N00905442EA0000000676
B1035005601320N00905523EA0000000689
B1035055601232N00905498EA0000000698
B1035105601189N00905368EA0000000705
B1035155601221N00905256EA0000000709
B1035215601288N00905274EA0000000724
B1035265601305N00905370EA0000000729
B1035315601268N00905481EA0000000733
B1035365601194N00905545EA0000000742
B1035415601119N00905481EA0000000764
B1035465601098N00905337EA0000000766
B1035515601141N00905234EA0000000776
B1035565601205N00905244EA0000000774
B1036015601244N00905352EA0000000772
B1036065601219N00905482EA0000000785
B1036115601144N00905541EA0000000798
B1036165601064N00905482EA0000000802
B1036215601047N00905332EA0000000809
B1036265601093N00905229EA0000000821
B1036315601160N00905217EA0000000829
B1036365601203N00905295EA0000000830
B1036415601160N00905384EA0000000845
B1036465601085N00905398EA0000000854
B1036515601021N00905316EA0000000861
B1036565601046N00905192EA0000000868
B1037015601107N00905129EA0000000877
B1037065601175N00905136EA0000000880
B1037115601188N00905239EA0000000883
B1037165601139N00905338EA0000000888
B1037215601058N00905356EA0000000893
B1037265601001N00905241EA0000000898
B1037315601028N00905101EA0000000910
B1037375601110N00905059EA0000000911
B1037425601147N00905159EA0000000918
B1037475601121N00905274EA0000000923
B1037525601047N00905300EA0000000928
B1037575600984N00905197EA0000000933
B1038025600980N00905050EA0000000945
B1038095601033N00904877EA0000000957
B1038185601122N00904695EA0000000973
B1038245601186N00904561EA0000000980
B1038295601234N00904437EA0000000985
B1038355601290N00904281EA0000000988
B1038425601340N00904083EA0000001005
B1038485601354N00903920EA0000001013
B1038535601355N00903781EA0000001004
B1038585601318N00903648EA0000000993
B1039035601239N00903545EA0000000965
B1039105601091N00903466EA0000000939
B1039155600982N00903456EA0000000939
B1039205600880N00903487EA0000000933
B1039255600779N00903505EA0000000935
B1039305600679N00903522EA0000000928
B1039355600574N00903517EA0000000923
B1039415600450N00903450EA0000000926
B1039465600360N00903354EA0000000926
B1039525600276N00903199EA0000000923
B1039585600219N00903011EA0000000916
B1040035600186N00902840EA0000000914
B1040095600170N00902626EA0000000908
B1040155600167N00902416EA0000000907
B1040225600183N00902184EA0000000909
B1040285600234N00902032EA0000000909
B1040355600328N00901925EA0000000903
B1040405600401N00901909EA0000000907
B1040475600490N00901972EA0000000909
B1040525600540N00902061EA0000000914
B1040585600588N00902183EA0000000916
B1041035600605N00902309EA0000000928
B1041115600576N00902508EA0000000941
B1041165600576N00902624EA0000000943
B1041215600625N00902696EA0000000940
B1041265600701N00902678EA0000000944
B1041315600756N00902580EA0000000957
B1041375600769N00902410EA0000000950
B1041435600730N00902233EA0000000938
B1041485600669N00902120EA0000000940
B1041535600594N00902062EA0000000947
B1041585600520N00902039EA0000000960
B1042045600430N00902013EA0000000967
B1042095600357N00901927EA0000000973
B1042155600328N00901755EA0000000974
B1042205600368N00901626EA0000000973
B1042255600440N00901574EA0000000975
B1042305600504N00901625EA0000000983
B1042375600543N00901779EA0000000984
B1042435600539N00901931EA0000000978
B1042485600515N00902060EA0000000958
B1042535600502N00902220EA0000000921
B1043025600501N00902463EA0000000959
B1043075600492N00902572EA0000000968
B1043125600485N00902685EA0000000959
B1043185600485N00902832EA0000000965
B1043255600485N00902985EA0000000982
B1043355600483N00903200EA0000001002
B1043415600480N00903328EA0000001012
B1043465600475N00903439EA0000001019
B1043515600473N00903549EA0000001020
B1043565600478N00903650EA0000001020
B1044035600490N00903788EA0000001013
B1044095600501N00903901EA0000001013
B1044145600514N00903989EA0000001001
B1044205600542N00904092EA0000000979
B1044255600576N00904183EA0000000951
B1044315600618N00904316EA0000000943
B1044365600649N00904393EA0000000949
B1044425600700N00904476EA0000000937
B1044475600727N00904582EA0000000933
B1044525600708N00904694EA0000000938
B1044575600649N00904750EA0000000946
B1045025600569N00904730EA0000000944
B1045105600455N00904549EA0000000936
B1045165600371N00904395EA0000000931
B1045225600288N00904260EA0000000941
B1045295600189N00904149EA0000000941
B1045345600120N00904062EA0000000936
B1045405600060N00903880EA0000000909
B1045455600022N00903687EA0000000906
B1045515559992N00903459EA0000000931
B1045565559992N00903296EA0000000959
B1046015600042N00903196EA0000000968
B1046065600111N00903229EA0000000985
B1046115600122N00903337EA0000001001
B1046165600058N00903384EA0000001006
B1046215559997N00903286EA0000001017
B1046265559995N00903138EA0000001027
B1046315600045N00903038EA0000001041
B1046365600102N00903047EA0000001057
B1046425600117N00903157EA0000001042
B1046475600068N00903263EA0000001049
B1046525559994N00903304EA0000001065
B1046575559916N00903263EA0000001076
B1047025559873N00903142EA0000001085
B1047075559890N00903001EA0000001093
B1047125559957N00902941EA0000001100
B1047175600017N00903004EA0000001106
B1047225600020N00903127EA0000001121
B1047275559977N00903229EA0000001133
B1047325559902N00903254EA0000001145
B1047385559829N00903132EA0000001150
B1047435559834N00902976EA0000001162
B1047485559899N00902877EA0000001165
B1047545559982N00902935EA0000001185
B1047595559998N00903054EA0000001194
B1048045559957N00903171EA0000001191
B1048095559872N00903222EA0000001190
B1048145559784N00903168EA0000001215
B1048195559731N00903037EA0000001227
B1048245559728N00902886EA0000001244
B1048295559775N00902771EA0000001252
B1048345559849N00902753EA0000001255
B1048395559897N00902850EA0000001258
B1048445559879N00902976EA0000001273
B1048495559807N00903035EA0000001286
B1048545559724N00903002EA0000001307
B1048595559668N00902882EA0000001318
B1049045559679N00902733EA0000001332
B1049095559742N00902666EA0000001351
B1049145559806N00902701EA0000001357
B1049195559835N00902801EA0000001363
B1049245559813N00902912EA0000001368
B1049305559738N00903002EA0000001384
B1049355559658N00903006EA0000001384
B1049405559582N00902942EA0000001386
B1049455559536N00902820EA0000001395
B1049505559532N00902680EA0000001405
B1049555559567N00902560EA0000001413
B1050005559632N00902503EA0000001416
B1050055559693N00902545EA0000001433
B1050105559709N00902639EA0000001438
B1050155559670N00902744EA0000001435
B1050205559591N00902789EA0000001452
B1050265559495N00902756EA0000001469
B1050315559433N00902660EA0000001474
B1050375559405N00902485EA0000001472
B1050425559420N00902331EA0000001466
B1050475559474N00902217EA0000001458
B1050525559552N00902172EA0000001460
B1050585559642N00902218EA0000001469
B1051035559693N00902304EA0000001481
B1051085559703N00902407EA0000001489
B1051145559649N00902504EA0000001488
B1051195559564N00902499EA0000001489
B1051255559466N00902389EA0000001493
B1051305559406N00902251EA0000001501
B1051365559357N00902058EA0000001502
B1051425559317N00901834EA0000001471
B1051475559282N00901612EA0000001437
B1051545559221N00901273EA0000001411
B1052015559150N00900928EA0000001386
B1052065559093N00900680EA0000001376
B1052115559030N00900438EA0000001388
B1052175558942N00900169EA0000001401
B1052235558849N00859924EA0000001397
B1052295558742N00859697EA0000001373
B1052355558621N00859473EA0000001350
B1052435558457N00859168EA0000001339
B1052545558241N00858773EA0000001337
B1052595558143N00858598EA0000001328
B1053055558026N00858382EA0000001317
B1053155557830N00858021EA0000001293
B1053245557650N00857704EA0000001277
B1053325557492N00857424EA0000001265
B1053405557336N00857150EA0000001256
B1053555557046N00856684EA0000001247
B1054065556832N00856375EA0000001222
B1054365556269N00855392EA0000001155
B1054555555925N00854763EA0000001101
B1055065555720N00854381EA0000001086
B1055115555628N00854224EA0000001112
B1055195555501N00854015EA0000001145
B1055385555252N00853495EA0000001144
B1055435555187N00853341EA0000001136
B1055495555142N00853121EA0000001119
B1055545555145N00852925EA0000001102
B1055595555189N00852741EA0000001079
B1056055555271N00852547EA0000001060
B1056105555334N00852368EA0000001049
B1056155555388N00852168EA0000001046
B1056205555440N00851963EA0000001036
B1056265555507N00851733EA0000001058
B1056315555557N00851552EA0000001076
B1056365555601N00851387EA0000001103
B1056425555666N00851242EA0000001124
B1056475555730N00851239EA0000001127
B1056525555748N00851323EA0000001120
B1056585555690N00851403EA0000001115
B1057055555577N00851373EA0000001138
B1057105555501N00851312EA0000001147
B1057155555455N00851183EA0000001148
B1057215555491N00851017EA0000001139
B1057265555568N00850971EA0000001139
B1057315555624N00851057EA0000001147
B1057385555637N00851220EA0000001152
B1057435555579N00851301EA0000001161
B1057505555472N00851231EA0000001165
B1057555555450N00851079EA0000001171
B1058005555491N00850955EA0000001177
B1058055555562N00850931EA0000001188
B1058105555623N00850956EA0000001197
B1058175555685N00851051EA0000001197
B1058225555686N00851151EA0000001188
B1058285555633N00851246EA0000001191
B1058335555571N00851302EA0000001187
B1058405555481N00851390EA0000001177
B1058475555389N00851515EA0000001152
B1058525555313N00851610EA0000001139
B1058575555212N00851658EA0000001121
B1059065554992N00851665EA0000001084
B1059125554835N00851638EA0000001059
B1059185554674N00851592EA0000001043
B1059235554542N00851535EA0000001034
B1059345554257N00851391EA0000001010
B1059395554130N00851324EA0000000999
B1059445554003N00851253EA0000000988
B1059515553823N00851158EA0000000966
B1100005553588N00851013EA0000000939
B1100065553429N00850922EA0000000929
B1100135553249N00850883EA0000000926
B1100185553125N00850896EA0000000916
B1100265552937N00850979EA0000000898
B1100315552828N00851059EA0000000889
B1100365552729N00851165EA0000000877
B1100425552638N00851332EA0000000872
B1100495552532N00851511EA0000000866
B1100555552415N00851587EA0000000859
B1101105552099N00851302EA0000000815
B1101155552045N00851092EA0000000807
B1101225552020N00850768EA0000000791
B1101305551997N00850399EA0000000778
B1101355551969N00850180EA0000000777
B1101425551921N00849888EA0000000769
B1101475551881N00849690EA0000000767
B1101545551820N00849437EA0000000759
B1102005551757N00849242EA0000000748
B1102085551666N00848994EA0000000731
B1102145551596N00848816EA0000000723
B1102205551525N00848637EA0000000711
B1102315551392N00848313EA0000000690
B1102395551293N00848093EA0000000675
B1102485551178N00847846EA0000000661
B1102565551062N00847629EA0000000659
B1103015550991N00847497EA0000000661
B1103095550877N00847289EA0000000654
B1103145550819N00847130EA0000000660
B1103195550764N00846969EA0000000677
B1103255550705N00846796EA0000000684
B1103355550620N00846502EA0000000683
B1103415550567N00846332EA0000000682
B1103525550514N00846000EA0000000679
B1103575550529N00845851EA0000000680
B1104025550576N00845737EA0000000683
B1104085550655N00845651EA0000000690
B1104135550724N00845598EA0000000703
B1104185550777N00845494EA0000000725
B1104295550747N00845197EA0000000740
B1104345550667N00845161EA0000000748
B1104415550590N00845278EA0000000750
B1104465550603N00845390EA0000000772
B1104515550660N00845447EA0000000774
B1104565550736N00845402EA0000000787
B1105015550783N00845268EA0000000797
B1105105550726N00845035EA0000000801
B1105155550643N00845035EA0000000799
B1105215550588N00845151EA0000000822
B1105265550582N00845258EA0000000836
B1105315550623N00845335EA0000000845
B1105365550692N00845320EA0000000847
B1105415550743N00845211EA0000000857
B1105525550688N00844925EA0000000847
B1105575550604N00844911EA0000000853
B1106025550539N00844991EA0000000862
B1106075550510N00845110EA0000000877
B1106125550523N00845223EA0000000886
B1106185550595N00845271EA0000000889
B1106235550663N00845194EA0000000886
B1106285550695N00845044EA0000000892
B1106405550611N00844715EA0000000903
B1106475550491N00844677EA0000000899
B1106525550423N00844763EA0000000914
B1106585550396N00844909EA0000000933
B1107035550417N00845010EA0000000946
B1107085550479N00845041EA0000000945
B1107135550547N00844966EA0000000947
B1107205550579N00844742EA0000000949
B1107315550481N00844445EA0000000973
B1107375550407N00844510EA0000000980
B1107435550424N00844651EA0000000982
B1107485550488N00844727EA0000000984
B1107565550611N00844643EA0000000990
B1108025550645N00844458EA0000000987
B1108265550318N00843804EA0000000946
B1108345550160N00843797EA0000000970
B1108395550085N00843847EA0000000972
B1108445550023N00843944EA0000000965
B1108495549971N00844077EA0000000967
B1108555549930N00844244EA0000000995
B1109005549934N00844361EA0000001010
B1109055549988N00844419EA0000001007
B1109115550067N00844342EA0000001009
B1109165550109N00844217EA0000001012
B1110095549500N00842796EA0000000973
B1110185549285N00842775EA0000000951
B1110255549120N00842786EA0000000965
B1110345548932N00842783EA0000000977
B1110425548767N00842768EA0000000985
B1110535548521N00842732EA0000000955
B1110595548376N00842708EA0000000943
B1111075548179N00842656EA0000000938
B1111145548004N00842619EA0000000925
B1111195547882N00842590EA0000000917
B1111255547743N00842568EA0000000914
B1111315547609N00842546EA0000000905
B1111415547382N00842530EA0000000884
B1111475547246N00842526EA0000000877
B1111555547066N00842514EA0000000853
B1112025546903N00842519EA0000000835
B1112085546766N00842521EA0000000832
B1112165546588N00842539EA0000000818
B1112265546361N00842572EA0000000800
B1112335546200N00842597EA0000000808
B1112385546090N00842606EA0000000838
B1112455545966N00842602EA0000000881
B1112505545884N00842591EA0000000903
B1113035545680N00842553EA0000000926
B1113105545562N00842536EA0000000931
B1113205545387N00842528EA0000000917
B1113275545250N00842545EA0000000895
B1113325545149N00842567EA0000000878
B1113375545036N00842599EA0000000851
B1113435544886N00842646EA0000000835
B1113515544679N00842716EA0000000809
B1113565544545N00842764EA0000000790
B1114035544359N00842828EA0000000787
B1114105544186N00842885EA0000000786
B1114205543962N00842974EA0000000774
B1114265543834N00843052EA0000000766
B1114315543730N00843122EA0000000756
B1114365543626N00843198EA0000000750
B1114425543498N00843275EA0000000765
B1115265542696N00843352EA0000000836
B1115335542564N00843408EA0000000800
B1115415542400N00843544EA0000000756
B1115465542303N00843661EA0000000747
B1115555542141N00843899EA0000000743
B1116035542002N00844105EA0000000737
B1116125541833N00844332EA0000000715
B1116195541693N00844506EA0000000703
B1116275541532N00844689EA0000000707
B1116355541387N00844857EA0000000707
B1116405541294N00844965EA0000000698
B1116475541166N00845127EA0000000704
B1116525541076N00845237EA0000000711
B1116585540969N00845354EA0000000723
B1117125540715N00845460EA0000000725
B1117195540565N00845435EA0000000709
B1117245540456N00845391EA0000000704
B1117315540303N00845319EA0000000695
B1117545539763N00845009EA0000000630
B1118015539592N00844883EA0000000626
B1118125539342N00844627EA0000000600
B1118245539112N00844267EA0000000579
B1118295539023N00844114EA0000000579
B1118415538818N00843735EA0000000560
B1118585538616N00843030EA0000000551
B1119035538556N00842859EA0000000590
B1119125538415N00842820EA0000000616
B1119175538381N00842915EA0000000617
B1119225538384N00843020EA0000000601
B1119275538415N00843127EA0000000587
B1119325538463N00843224EA0000000597
B1119375538516N00843305EA0000000619
B1119425538582N00843337EA0000000623
B1119485538669N00843298EA0000000617
B1119565538753N00843097EA0000000606
B1120095538698N00842697EA0000000615
B1120175538568N00842539EA0000000627
B1120265538400N00842482EA0000000642
B1120315538322N00842528EA0000000649
B1120365538286N00842627EA0000000644
B1120495538379N00842795EA0000000648
B1120565538460N00842698EA0000000656
B1121115538352N00842310EA0000000662
B1121225538170N00842364EA0000000653
B1121285538125N00842503EA0000000656
B1121445538255N00842705EA0000000678
B1121515538336N00842635EA0000000695
B1122035538328N00842330EA0000000711
B1122085538253N00842272EA0000000712
B1122145538171N00842319EA0000000714
B1122265538203N00842509EA0000000726
B1122325538277N00842476EA0000000738
B1122425538333N00842224EA0000000748
B1124175537946N00838777EA0000000750
B1124225538025N00838680EA0000000735
B1124295538157N00838703EA0000000729
B1124355538262N00838775EA0000000739
B1125035538239N00838818EA0000000809
B1125145538375N00838836EA0000000821
B1125375538233N00838736EA0000000846
B1125505538361N00838789EA0000000859
B1126095538163N00838661EA0000000874
B1126175538229N00838472EA0000000887
B1126315538248N00838672EA0000000897
B1126485538166N00838331EA0000000911
B1127235538227N00838191EA0000000945
B1127285538260N00838280EA0000000950
B1127355538207N00838407EA0000000942
B1127545538063N00838061EA0000000966
B1128005538144N00838023EA0000000975
B1128205538021N00838012EA0000000991
B1128275538081N00837847EA0000000992
B1128365538167N00837945EA0000001002
B1128555538005N00837861EA0000001011
B1129095538138N00837823EA0000001018
B1129335537931N00837810EA0000001046
B1129385537982N00837731EA0000001051
B1129435538029N00837801EA0000001058
B1129595537877N00837752EA0000001094
B1130045537920N00837635EA0000001100
B1130095537987N00837655EA0000001107
B1130315537876N00837582EA0000001158
B1130445537989N00837687EA0000001181
B1130585537830N00837631EA0000001228
B1131035537860N00837504EA0000001238
B1131115537961N00837532EA0000001244
B1131355537817N00837523EA0000001320
B1131405537889N00837481EA0000001332
B1132055537747N00837442EA0000001396
B1132155537867N00837319EA0000001418
B1132205537883N00837425EA0000001431
B1132325537747N00837339EA0000001457
B1132375537770N00837192EA0000001464
B1132435537852N00837135EA0000001469
B1132505537901N00837262EA0000001486
B1133055537737N00837126EA0000001507
B1133105537776N00836967EA0000001507
B1133165537872N00836912EA0000001511
B1133225537940N00837013EA0000001521
B1133275537937N00837138EA0000001532
B1133435537725N00837086EA0000001559
B1133485537759N00836934EA0000001561
B1133545537849N00836907EA0000001564
B1134045537834N00837090EA0000001587
B1134155537728N00836855EA0000001597
B1134205537758N00836694EA0000001597
B1134375537971N00836596EA0000001603
B1134435538067N00836577EA0000001566
B1134565538312N00836336EA0000001523
B1135025538414N00836198EA0000001545
B1135075538492N00836092EA0000001548
B1135125538573N00835988EA0000001543
B1135175538660N00835886EA0000001541
B1135235538776N00835793EA0000001553
B1135305538919N00835707EA0000001542
B1135385539093N00835589EA0000001511
B1135435539204N00835504EA0000001508
B1135485539309N00835415EA0000001502
B1135545539436N00835307EA0000001495
B1136015539587N00835183EA0000001486
B1136095539753N00835040EA0000001486
B1136175539907N00834889EA0000001493
B1136245540036N00834761EA0000001494
B1136335540203N00834598EA0000001476
B1136385540298N00834497EA0000001465
B1136445540417N00834377EA0000001457
B1136505540533N00834271EA0000001456
B1137015540740N00834070EA0000001450
B1137075540854N00833968EA0000001443
B1137155541013N00833819EA0000001427
B1137235541170N00833662EA0000001420
B1137285541264N00833562EA0000001417
B1137405541492N00833313EA0000001393
B1137465541604N00833204EA0000001391
B1137545541758N00833066EA0000001373
B1137595541853N00832973EA0000001364
B1138065541987N00832827EA0000001344
B1138145542141N00832643EA0000001332
B1138195542239N00832546EA0000001328
B1138285542428N00832536EA0000001324
B1138355542577N00832572EA0000001311
B1138405542654N00832686EA0000001313
B1138455542680N00832856EA0000001305
B1138505542675N00833037EA0000001302
B1138565542662N00833244EA0000001328
B1139025542646N00833413EA0000001342
B1139075542636N00833537EA0000001341
B1139145542565N00833656EA0000001338
B1139435542096N00833330EA0000001367
B1139515542093N00833073EA0000001353
B1139585542126N00832833EA0000001339
B1140055542180N00832590EA0000001338
B1140125542236N00832367EA0000001371
B1140175542295N00832276EA0000001379
B1140225542359N00832312EA0000001373
B1140445542169N00832140EA0000001398
B1140505542246N00832032EA0000001396
B1140565542297N00832138EA0000001394
B1141035542221N00832269EA0000001404
B1141145542083N00832044EA0000001417
B1141195542119N00831897EA0000001417
B1141255542207N00831884EA0000001413
B1141315542233N00832026EA0000001404
B1141385542131N00832108EA0000001421
B1141585541924N00831584EA0000001434
B1142535541706N00829652EA0000001434
B1142595541731N00829470EA0000001441
B1143065541760N00829253EA0000001442
B1143185541831N00828895EA0000001470
B1143265541940N00828874EA0000001498
B1143325541953N00829006EA0000001505
B1143515541789N00828671EA0000001523
B1143565541830N00828541EA0000001533
B1144015541901N00828493EA0000001543
B1144065541963N00828548EA0000001556
B1144285541856N00828417EA0000001591
B1144365541975N00828433EA0000001602
B1145055541857N00828191EA0000001620
B1145115541936N00828064EA0000001633
B1145165542006N00828098EA0000001632
B1145385541885N00827946EA0000001634
B1145465542002N00827791EA0000001628
B1145535542148N00827718EA0000001592
B1145585542264N00827716EA0000001582
B1146065542432N00827852EA0000001545
B1146125542526N00828052EA0000001529
B1146185542593N00828275EA0000001519
B1146235542649N00828467EA0000001504
B1146295542709N00828681EA0000001517
B1146375542779N00828956EA0000001506
B1146435542830N00829161EA0000001503
B1147015542968N00829762EA0000001482
B1147065543011N00829924EA0000001471
B1147165543091N00830266EA0000001448
B1147235543143N00830520EA0000001438
B1147325543203N00830836EA0000001428
B1147405543259N00831111EA0000001419
B1147485543316N00831382EA0000001416
B1147545543367N00831582EA0000001399
B1148025543481N00831786EA0000001401
B1148085543603N00831856EA0000001388
B1148135543713N00831898EA0000001377
B1148195543845N00831955EA0000001385
B1148295544053N00832075EA0000001396
B1148375544210N00832190EA0000001396
B1148425544306N00832256EA0000001410
B1148485544413N00832336EA0000001433
B1148565544551N00832431EA0000001436
B1149025544663N00832482EA0000001413
B1149095544813N00832543EA0000001380
B1149145544926N00832598EA0000001377
B1149265545186N00832703EA0000001381
B1149325545308N00832741EA0000001385
B1149375545405N00832764EA0000001391
B1149465545578N00832811EA0000001384
B1149535545715N00832884EA0000001372
B1150035545911N00833032EA0000001371
B1150085546002N00833113EA0000001394
B1150145546082N00833229EA0000001403
B1150365545903N00833259EA0000001350
B1150415545954N00833101EA0000001333
B1150475546063N00833020EA0000001327
B1150525546157N00832970EA0000001316
B1150585546261N00832975EA0000001310
B1151045546320N00833115EA0000001279
B1151125546357N00833377EA0000001256
B1151205546364N00833643EA0000001241
B1151255546357N00833806EA0000001238
B1151315546350N00834003EA0000001233
B1151365546352N00834173EA0000001222
B1151415546360N00834348EA0000001214
B1151485546373N00834601EA0000001208
B1151535546375N00834779EA0000001219
B1151585546391N00834944EA0000001221
B1152105546516N00835237EA0000001247
B1152195546635N00835201EA0000001273
B1152325546560N00834893EA0000001250
B1152375546483N00834939EA0000001254
B1152445546427N00835073EA0000001266
B1152525546400N00835251EA0000001271
B1152585546381N00835395EA0000001269
B1153055546407N00835556EA0000001273
B1153135546503N00835690EA0000001271
B1153185546579N00835724EA0000001282
B1153235546661N00835712EA0000001279
B1153305546767N00835594EA0000001286
B1153515546691N00835071EA0000001309
B1153565546628N00835138EA0000001300
B1154045546639N00835330EA0000001293
B1154095546712N00835405EA0000001281
B1154145546800N00835461EA0000001295
B1154195546873N00835531EA0000001310
B1154255546881N00835670EA0000001310
B1154345546766N00835610EA0000001288
B1154395546802N00835449EA0000001283
B1154455546896N00835339EA0000001286
B1154515547006N00835315EA0000001258
B1154595547166N00835407EA0000001227
B1155045547261N00835505EA0000001218
B1155105547372N00835634EA0000001207
B1155155547457N00835761EA0000001194
B1155205547558N00835841EA0000001185
B1155265547696N00835876EA0000001169
B1155325547834N00835885EA0000001177
B1155415548032N00835892EA0000001153
B1155485548192N00835916EA0000001128
B1155565548361N00835994EA0000001139
B1156035548491N00836089EA0000001133
B1156105548611N00836207EA0000001130
B1156155548694N00836298EA0000001121
B1156225548815N00836444EA0000001100
B1156295548942N00836600EA0000001088
B1156355549056N00836717EA0000001102
B1156425549189N00836820EA0000001127
B1156475549282N00836874EA0000001129
B1156545549417N00836940EA0000001132
B1156595549515N00836969EA0000001124
B1157045549621N00836986EA0000001104
B1157105549744N00837064EA0000001097
B1157175549871N00837193EA0000001107
B1157225549948N00837301EA0000001105
B1157285550024N00837459EA0000001098
B1157335550058N00837616EA0000001092
B1157385550102N00837756EA0000001090
B1157445550208N00837836EA0000001079
B1157505550332N00837814EA0000001086
B1157555550421N00837702EA0000001086
B1158025550499N00837434EA0000001080
B1158195550371N00836873EA0000001102
B1158245550285N00836935EA0000001088
B1158295550250N00837083EA0000001079
B1158355550269N00837273EA0000001063
B1158415550292N00837474EA0000001050
B1158485550280N00837717EA0000001058
B1158545550229N00837913EA0000001053
B1158595550173N00838074EA0000001060
B1159045550103N00838221EA0000001074
B1159135549942N00838378EA0000001106
B1159205549849N00838234EA0000001102
B1159255549880N00838099EA0000001104
B1159315549968N00838101EA0000001114
B1159395550025N00838269EA0000001131
B1159445549994N00838406EA0000001127
B1159575549836N00838244EA0000001115
B1200025549899N00838161EA0000001115
B1200075549954N00838256EA0000001121
B1200125549966N00838402EA0000001125
B1200175549960N00838548EA0000001126
B1200225549947N00838702EA0000001114
B1200285549910N00838875EA0000001103
B1200335549863N00839010EA0000001083
B1200385549827N00839172EA0000001055
B1200435549809N00839354EA0000001044
B1200515549801N00839640EA0000001039
B1200585549797N00839875EA0000001033
B1201095549794N00840234EA0000001014
B1201155549790N00840434EA0000001006
B1201205549790N00840605EA0000000999
B1201255549793N00840782EA0000000982
B1201305549799N00840965EA0000000979
B1201375549806N00841203EA0000000968
B1201425549806N00841390EA0000000944
B1201475549789N00841583EA0000000947
B1201535549764N00841802EA0000000944
B1201595549735N00842018EA0000000952
B1202055549719N00842235EA0000000968
B1202115549715N00842434EA0000000999
B1202255549557N00842365EA0000001013
B1202305549601N00842240EA0000001026
B1202355549668N00842234EA0000001020
B1202435549696N00842419EA0000001034
B1202505549658N00842577EA0000001042
B1202555549622N00842686EA0000001049
B1203045549600N00842900EA0000001045
B1203095549610N00843012EA0000001036
B1203155549631N00843179EA0000001014
B1203225549678N00843378EA0000001007
B1203285549734N00843558EA0000001001
B1203335549785N00843694EA0000001005
B1203385549832N00843827EA0000001006
B1203445549859N00843995EA0000001025
B1203495549855N00844132EA0000001030
B1203545549811N00844246EA0000001037
B1203595549730N00844283EA0000001041
B1204075549625N00844093EA0000001032
B1204125549627N00843904EA0000001041
B1204175549693N00843774EA0000001041
B1204225549783N00843775EA0000001041
B1204275549837N00843884EA0000001055
B1204325549831N00844030EA0000001054
B1204385549739N00844107EA0000001065
B1204465549634N00843932EA0000001065
B1204515549664N00843773EA0000001064
B1204575549763N00843723EA0000001061
B1205045549863N00843837EA0000001066
B1205105549918N00843999EA0000001067
B1205155549926N00844154EA0000001069
B1205215549903N00844338EA0000001070
B1205265549881N00844496EA0000001060
B1205315549856N00844645EA0000001070
B1205375549833N00844813EA0000001088
B1205425549831N00844950EA0000001110
B1205475549860N00845059EA0000001128
B1205525549927N00845074EA0000001127
B1205595549987N00844893EA0000001115
B1206055549919N00844735EA0000001119
B1206115549816N00844737EA0000001130
B1206165549743N00844786EA0000001156
B1206215549681N00844853EA0000001150
B1206265549663N00844969EA0000001142
B1206315549703N00845073EA0000001126
B1206375549797N00845109EA0000001120
B1206425549864N00845018EA0000001120
B1206505549817N00844797EA0000001115
B1206555549733N00844783EA0000001142
B1207005549676N00844836EA0000001152
B1207055549649N00844939EA0000001129
B1207105549667N00845087EA0000001088
B1207155549725N00845251EA0000001053
B1207245549901N00845472EA0000001043
B1207295550013N00845546EA0000001053
B1207355550134N00845604EA0000001083
B1207415550235N00845677EA0000001081
B1207465550314N00845755EA0000001068
B1207515550392N00845846EA0000001056
B1208015550546N00846027EA0000001055
B1208065550623N00846110EA0000001052
B1208135550732N00846241EA0000001034
B1208215550864N00846395EA0000001020
B1208265550958N00846464EA0000001015
B1208315551059N00846505EA0000001003
B1208375551186N00846551EA0000000980
B1208425551288N00846617EA0000000969
B1208485551402N00846717EA0000000973
B1208555551521N00846836EA0000000996
B1209015551618N00846927EA0000001018
B1209085551701N00847070EA0000001041
B1209145551757N00847208EA0000001045
B1209195551801N00847321EA0000001051
B1209275551874N00847484EA0000001050
B1209345551958N00847608EA0000001038
B1209405552031N00847724EA0000001025
B1209465552105N00847842EA0000001030
B1209535552191N00847965EA0000001021
B1210025552308N00848123EA0000001021
B1210105552392N00848294EA0000001025
B1210155552440N00848404EA0000001024
B1210215552479N00848554EA0000001014
B1210265552502N00848694EA0000001015
B1210315552523N00848834EA0000001017
B1210375552548N00848993EA0000001020
B1210445552563N00849181EA0000001019
B1210495552576N00849314EA0000001018
B1210545552602N00849443EA0000001028
B1210595552657N00849511EA0000001057
B1211045552722N00849472EA0000001063
B1211105552756N00849318EA0000001073
B1211165552690N00849177EA0000001068
B1211215552600N00849192EA0000001048
B1211265552555N00849333EA0000001062
B1211315552573N00849461EA0000001092
B1211365552624N00849523EA0000001107
B1211415552683N00849462EA0000001110
B1211515552611N00849249EA0000001128
B1211565552541N00849322EA0000001135
B1212015552543N00849452EA0000001152
B1212065552606N00849504EA0000001156
B1212115552679N00849442EA0000001152
B1212165552722N00849309EA0000001160
B1212245552678N00849071EA0000001160
B1212295552590N00849033EA0000001153
B1212345552506N00849123EA0000001136
B1212395552492N00849283EA0000001176
B1212445552521N00849403EA0000001199
B1212495552573N00849469EA0000001198
B1212545552634N00849389EA0000001198
B1213015552597N00849195EA0000001211
B1213075552505N00849163EA0000001230
B1213125552445N00849238EA0000001235
B1213175552435N00849362EA0000001243
B1213225552481N00849452EA0000001247
B1213275552553N00849419EA0000001250
B1213325552582N00849268EA0000001239
B1213375552528N00849112EA0000001232
B1213425552435N00849087EA0000001249
B1213485552349N00849164EA0000001275
B1213535552306N00849256EA0000001279
B1213585552308N00849367EA0000001269
B1214045552382N00849409EA0000001262
B1214105552436N00849263EA0000001259
B1214195552326N00849071EA0000001272
B1214255552231N00849131EA0000001280
B1214305552198N00849243EA0000001272
B1214355552208N00849361EA0000001270
B1214425552234N00849557EA0000001253
B1214475552252N00849713EA0000001251
B1214545552283N00849935EA0000001245
B1214595552307N00850088EA0000001237
B1215075552347N00850334EA0000001223
B1215125552398N00850464EA0000001209
B1215175552478N00850558EA0000001194
B1215235552590N00850646EA0000001176
B1215295552710N00850729EA0000001166
B1215365552858N00850794EA0000001155
B1215435553016N00850783EA0000001132
B1215485553133N00850776EA0000001104
B1215555553285N00850890EA0000001083
B1216005553371N00851020EA0000001072
B1216075553472N00851222EA0000001069
B1216145553575N00851414EA0000001053
B1216205553683N00851529EA0000001055
B1216275553830N00851564EA0000001055
B1216335553957N00851555EA0000001045
B1216385554068N00851535EA0000001034
B1216445554201N00851498EA0000001012
B1216525554374N00851425EA0000001006
B1216575554481N00851433EA0000000991
B1217055554651N00851511EA0000000965
B1217145554848N00851586EA0000000960
B1217215554996N00851637EA0000000964
B1217265555099N00851670EA0000000967
B1217315555204N00851706EA0000000971
B1217365555301N00851777EA0000000989
B1217415555356N00851898EA0000001024
B1217465555330N00852019EA0000001050
B1217515555247N00852051EA0000001044
B1217575555166N00851898EA0000001050
B1218025555186N00851738EA0000001063
B1218075555262N00851669EA0000001073
B1218125555325N00851742EA0000001089
B1218175555323N00851874EA0000001107
B1218225555271N00851975EA0000001108
B1218285555165N00851924EA0000001104
B1218345555135N00851727EA0000001117
B1218395555177N00851590EA0000001124
B1218455555270N00851549EA0000001138
B1218505555314N00851645EA0000001152
B1218555555287N00851763EA0000001157
B1219035555158N00851729EA0000001167
B1219085555138N00851583EA0000001175
B1219135555195N00851493EA0000001185
B1219185555252N00851546EA0000001195
B1219235555233N00851663EA0000001200
B1219285555151N00851682EA0000001207
B1219335555088N00851570EA0000001212
B1219385555095N00851419EA0000001221
B1219435555163N00851343EA0000001223
B1219485555233N00851394EA0000001233
B1219545555240N00851546EA0000001240
B1219595555170N00851620EA0000001249
B1220055555067N00851571EA0000001243
B1220105555033N00851415EA0000001252
B1220155555079N00851288EA0000001258
B1220205555155N00851284EA0000001264
B1220255555192N00851390EA0000001280
B1220305555164N00851508EA0000001289
B1220365555074N00851564EA0000001294
B1220425554987N00851459EA0000001291
B1220475554981N00851309EA0000001296
B1220525555045N00851223EA0000001294
B1220575555112N00851262EA0000001310
B1221025555131N00851376EA0000001322
B1221075555090N00851485EA0000001319
B1221125555003N00851522EA0000001314
B1221195554880N00851409EA0000001304
B1221245554838N00851259EA0000001315
B1221305554846N00851084EA0000001320
B1221355554882N00850967EA0000001318
B1221405554904N00850826EA0000001313
B1221465554921N00850659EA0000001320
B1221525554963N00850506EA0000001329
B1221585555007N00850353EA0000001339
B1222035555023N00850207EA0000001338
B1222095555010N00850016EA0000001339
B1222145554959N00849879EA0000001338
B1222195554881N00849817EA0000001348
B1222245554808N00849863EA0000001345
B1222295554774N00849987EA0000001338
B1222345554807N00850121EA0000001339
B1222415554907N00850206EA0000001354
B1222475555001N00850225EA0000001348
B1222525555090N00850243EA0000001348
B1222585555196N00850291EA0000001351
B1223035555279N00850353EA0000001370
B1223085555341N00850435EA0000001390
B1223135555334N00850546EA0000001408
B1223185555269N00850584EA0000001411
B1223245555198N00850467EA0000001418
B1223295555201N00850322EA0000001429
B1223345555250N00850222EA0000001443
B1223395555319N00850199EA0000001446
B1223445555368N00850279EA0000001454
B1223505555360N00850408EA0000001464
B1223555555306N00850475EA0000001470
B1224025555217N00850362EA0000001473
B1224075555217N00850201EA0000001475
B1224125555279N00850088EA0000001481
B1224175555360N00850090EA0000001489
B1224225555409N00850178EA0000001487
B1224275555387N00850290EA0000001478
B1224325555313N00850322EA0000001492
B1224405555209N00850177EA0000001508
B1224455555213N00850017EA0000001514
B1224505555280N00849933EA0000001527
B1224555555348N00849975EA0000001535
B1225015555356N00850105EA0000001532
B1225075555266N00850140EA0000001528
B1225125555201N00850019EA0000001542
B1225175555204N00849856EA0000001558
B1225225555270N00849764EA0000001557
B1225285555361N00849835EA0000001554
B1225335555382N00849967EA0000001550
B1225385555336N00850076EA0000001549
B1225435555254N00850119EA0000001558
B1225505555138N00850025EA0000001579
B1225555555108N00849871EA0000001597
B1226005555139N00849726EA0000001603
B1226055555216N00849672EA0000001599
B1226105555275N00849736EA0000001609
B1226155555290N00849855EA0000001594
B1226205555253N00849973EA0000001594
B1226255555174N00850018EA0000001599
B1226345555043N00849884EA0000001631
B1226395555043N00849730EA0000001640
B1226455555110N00849615EA0000001658
B1226505555179N00849627EA0000001657
B1226555555222N00849718EA0000001659
B1227005555211N00849833EA0000001652
B1227065555128N00849909EA0000001650
B1227205554946N00849636EA0000001682
B1227255554939N00849477EA0000001688
B1227305554988N00849368EA0000001700
B1227355555059N00849349EA0000001693
B1227405555120N00849422EA0000001699
B1227455555144N00849547EA0000001697
B1227505555112N00849669EA0000001694
B1227555555031N00849716EA0000001698
B1228035554913N00849552EA0000001685
B1228085554927N00849373EA0000001687
B1228135554998N00849259EA0000001697
B1228185555083N00849240EA0000001713
B1228235555155N00849299EA0000001716
B1228285555189N00849410EA0000001713
B1228335555170N00849529EA0000001700
B1228385555101N00849598EA0000001704
B1228435555016N00849584EA0000001705
B1228485554948N00849471EA0000001711
B1228545554912N00849286EA0000001720
B1229015554887N00849070EA0000001731
B1229075554871N00848888EA0000001730
B1229125554885N00848734EA0000001729
B1229195554937N00848552EA0000001747
B1229245554984N00848449EA0000001754
B1229305555050N00848342EA0000001751
B1229355555123N00848284EA0000001722
B1229415555233N00848274EA0000001701
B1229465555331N00848281EA0000001677
B1229535555477N00848302EA0000001652
B1229595555608N00848315EA0000001642
B1230045555712N00848352EA0000001625
B1230105555824N00848455EA0000001604
B1230185555956N00848661EA0000001576
B1230245556028N00848851EA0000001567
B1230315556089N00849074EA0000001555
B1230375556137N00849277EA0000001532
B1230425556176N00849456EA0000001522
B1230485556209N00849682EA0000001515
B1230535556225N00849868EA0000001526
B1230585556241N00850041EA0000001532
B1231055556228N00850296EA0000001508
B1231105556204N00850490EA0000001507
B1231175556178N00850755EA0000001515
B1231225556183N00850933EA0000001524
B1231285556214N00851122EA0000001522
B1231355556262N00851343EA0000001509
B1231415556306N00851527EA0000001509
B1231475556338N00851721EA0000001499
B1231545556386N00851939EA0000001493
B1231595556440N00852080EA0000001482
B1232075556529N00852298EA0000001476
B1232135556598N00852459EA0000001474
B1232215556696N00852658EA0000001473
B1232295556780N00852881EA0000001463
B1232365556851N00853078EA0000001456
B1232445556933N00853296EA0000001456
B1232495556994N00853417EA0000001457
B1232575557114N00853588EA0000001437
B1233045557215N00853763EA0000001440
B1233125557325N00853965EA0000001418
B1233185557401N00854149EA0000001406
B1233245557479N00854330EA0000001411
B1233305557567N00854461EA0000001418
B1233355557641N00854567EA0000001406
B1233405557685N00854721EA0000001406
B1233465557717N00854903EA0000001409
B1233515557730N00855068EA0000001394
B1233575557744N00855267EA0000001391
B1234025557776N00855427EA0000001376
B1234075557814N00855595EA0000001359
B1234125557847N00855771EA0000001357
B1234175557895N00855931EA0000001354
B1234225557963N00856075EA0000001355
B1234285558057N00856221EA0000001371
B1234345558159N00856345EA0000001381
B1234395558243N00856438EA0000001386
B1234445558315N00856568EA0000001393
B1234495558352N00856732EA0000001395
B1234545558338N00856909EA0000001396
B1234595558279N00857028EA0000001416
B1235065558163N00857025EA0000001400
B1235115558095N00856899EA0000001388
B1235175558077N00856703EA0000001407
B1235225558105N00856553EA0000001406
B1235275558177N00856459EA0000001392
B1235325558267N00856499EA0000001393
B1235375558339N00856609EA0000001373
B1235425558398N00856756EA0000001370
B1235485558495N00856879EA0000001376
B1235535558580N00856965EA0000001387
B1235585558657N00857058EA0000001401
B1236035558710N00857178EA0000001412
B1236085558742N00857322EA0000001406
B1236135558774N00857462EA0000001407
B1236185558817N00857594EA0000001410
B1236245558872N00857723EA0000001412
B1236315558954N00857851EA0000001395
B1236365559032N00857915EA0000001392
B1236425559131N00857919EA0000001400
B1236485559229N00857888EA0000001390
B1236565559360N00857880EA0000001386
B1237015559441N00857872EA0000001381
B1237075559534N00857863EA0000001370
B1237175559697N00857848EA0000001366
B1237225559769N00857789EA0000001365
B1237285559858N00857686EA0000001362
B1237375600014N00857667EA0000001364
B1237425600088N00857731EA0000001363
B1237505600187N00857874EA0000001367
B1237555600252N00857936EA0000001374
B1238015600333N00857996EA0000001369
B1238065600400N00858039EA0000001367
B1238115600467N00858090EA0000001355
B1238165600536N00858135EA0000001343
B1238215600610N00858163EA0000001334
B1238275600701N00858181EA0000001320
B1238335600793N00858150EA0000001319
B1238385600865N00858102EA0000001314
B1238435600938N00858043EA0000001305
B1238485601010N00857959EA0000001297
B1238535601081N00857864EA0000001286
B1239005601185N00857727EA0000001261
B1239065601283N00857615EA0000001239
B1239125601382N00857490EA0000001222
B1239175601467N00857381EA0000001211
B1239225601550N00857260EA0000001195
B1239275601639N00857134EA0000001186
B1239325601727N00857018EA0000001189
B1239385601834N00856894EA0000001187
B1239485602009N00856684EA0000001177
B1239535602099N00856582EA0000001171
B1239595602205N00856478EA0000001185
B1240045602293N00856438EA0000001211
B1240095602365N00856465EA0000001225
B1240145602413N00856558EA0000001224
B1240195602415N00856687EA0000001234
B1240245602355N00856786EA0000001241
B1240295602269N00856775EA0000001252
B1240345602218N00856646EA0000001255
B1240395602244N00856486EA0000001251
B1240445602315N00856390EA0000001261
B1240495602391N00856423EA0000001262
B1240545602414N00856563EA0000001267
B1240595602368N00856697EA0000001279
B1241045602277N00856729EA0000001295
B1241095602204N00856625EA0000001298
B1241145602207N00856458EA0000001308
B1241195602274N00856366EA0000001317
B1241245602347N00856410EA0000001317
B1241305602349N00856575EA0000001331
B1241355602277N00856650EA0000001344
B1241405602190N00856606EA0000001355
B1241455602145N00856460EA0000001358
B1241505602178N00856312EA0000001372
B1241555602254N00856271EA0000001377
B1242005602316N00856345EA0000001385
B1242055602316N00856476EA0000001393
B1242105602249N00856556EA0000001402
B1242155602165N00856503EA0000001418
B1242205602117N00856370EA0000001435
B1242255602127N00856220EA0000001443
B1242305602190N00856132EA0000001438
B1242355602268N00856162EA0000001446
B1242405602309N00856262EA0000001463
B1242455602305N00856383EA0000001473
B1242505602249N00856472EA0000001475
B1242555602164N00856448EA0000001479
B1243005602121N00856302EA0000001491
B1243055602155N00856155EA0000001494
B1243105602237N00856132EA0000001494
B1243155602291N00856224EA0000001509
B1243205602287N00856349EA0000001519
B1243255602224N00856433EA0000001531
B1243305602140N00856392EA0000001537
B1243355602097N00856245EA0000001546
B1243405602119N00856091EA0000001552
B1243455602193N00856014EA0000001540
B1243505602277N00856067EA0000001545
B1243555602314N00856182EA0000001570
B1244005602297N00856312EA0000001572
B1244055602228N00856394EA0000001582
B1244105602137N00856372EA0000001588
B1244155602069N00856247EA0000001594
B1244205602062N00856075EA0000001609
B1244255602116N00855952EA0000001612
B1244305602201N00855923EA0000001608
B1244355602265N00856005EA0000001617
B1244405602255N00856140EA0000001615
B1244455602177N00856208EA0000001624
B1244505602090N00856159EA0000001641
B1244555602034N00856029EA0000001644
B1245005602051N00855873EA0000001654
B1245055602124N00855800EA0000001647
B1245105602195N00855858EA0000001649
B1245155602193N00855987EA0000001646
B1245205602133N00856076EA0000001656
B1245255602054N00856100EA0000001663
B1245305601984N00856020EA0000001675
B1245355601974N00855878EA0000001691
B1245405602018N00855774EA0000001702
B1245455602079N00855710EA0000001704
B1245515602146N00855627EA0000001701
B1245565602213N00855556EA0000001687
B1246035602306N00855498EA0000001695
B1246085602366N00855451EA0000001692
B1246155602450N00855360EA0000001679
B1246205602515N00855298EA0000001669
B1246265602595N00855168EA0000001636
B1246315602650N00855007EA0000001617
B1246375602705N00854790EA0000001613
B1246425602737N00854594EA0000001595
B1246475602769N00854381EA0000001569
B1246525602793N00854150EA0000001547
B1246575602789N00853903EA0000001531
B1247035602776N00853626EA0000001556
B1247085602792N00853425EA0000001567
B1247155602876N00853215EA0000001577
B1247215602976N00853065EA0000001576
B1247275603089N00852957EA0000001584
B1247325603182N00852934EA0000001607
B1247395603286N00852983EA0000001618
B1247475603356N00853127EA0000001627
B1247525603378N00853224EA0000001625
B1247575603392N00853341EA0000001600
B1248025603428N00853484EA0000001569
B1248075603490N00853620EA0000001556
B1248125603583N00853699EA0000001533
B1248175603698N00853712EA0000001511
B1248235603840N00853646EA0000001505
B1248285603949N00853544EA0000001504
B1248355604087N00853388EA0000001522
B1248405604174N00853282EA0000001530
B1248455604257N00853182EA0000001521
B1248515604367N00853059EA0000001516
B1248565604465N00852988EA0000001520
B1249025604579N00852947EA0000001528
B1249085604687N00852955EA0000001533
B1249145604776N00853047EA0000001530
B1249225604871N00853266EA0000001524
B1249275604934N00853399EA0000001523
B1249325605021N00853456EA0000001521
B1249375605115N00853457EA0000001513
B1249455605269N00853427EA0000001485
B1249505605367N00853454EA0000001470
B1249575605484N00853593EA0000001457
B1250025605542N00853746EA0000001441
B1250075605581N00853929EA0000001418
B1250145605610N00854207EA0000001396
B1250255605612N00854656EA0000001372
B1250305605600N00854855EA0000001363
B1250355605584N00855054EA0000001355
B1250405605566N00855253EA0000001356
B1250475605553N00855523EA0000001353
B1250525605544N00855708EA0000001351
B1250595605537N00855969EA0000001337
B1251055605533N00856200EA0000001327
B1251125605508N00856467EA0000001327
B1251195605480N00856730EA0000001317
B1251245605467N00856912EA0000001310
B1251305605459N00857134EA0000001290
B1251385605438N00857446EA0000001265
B1251435605443N00857638EA0000001261
B1251485605473N00857814EA0000001249
B1251535605514N00857989EA0000001231
B1251595605568N00858202EA0000001226
B1252045605607N00858380EA0000001225
B1252095605626N00858562EA0000001233
B1252175605655N00858849EA0000001238
B1252235605664N00859070EA0000001243
B1252295605671N00859291EA0000001248
B1252345605679N00859464EA0000001263
B1252395605686N00859633EA0000001253
B1252455605699N00859854EA0000001241
B1252505605710N00900039EA0000001242
B1252595605714N00900367EA0000001236
B1253045605708N00900549EA0000001250
B1253095605702N00900717EA0000001237
B1253165605719N00900982EA0000001214
B1253225605766N00901220EA0000001193
B1253275605816N00901419EA0000001183
B1253325605865N00901611EA0000001175
B1253385605924N00901840EA0000001164
B1253445605981N00902062EA0000001162
B1253515606052N00902304EA0000001158
B1253585606114N00902541EA0000001152
B1254035606158N00902712EA0000001148
B1254085606202N00902877EA0000001139
B1254155606260N00903116EA0000001129
B1254205606301N00903283EA0000001129
B1254265606349N00903477EA0000001134
B1254325606390N00903672EA0000001126
B1254385606426N00903865EA0000001129
B1254435606457N00904022EA0000001127
B1254515606503N00904268EA0000001119
B1254585606538N00904478EA0000001112
B1255035606561N00904630EA0000001109
B1255095606596N00904817EA0000001094
B1255155606636N00905021EA0000001075
B1255265606722N00905402EA0000001054
B1255335606767N00905642EA0000001071
B1255385606790N00905806EA0000001087
B1255445606814N00906000EA0000001118
B1255495606810N00906139EA0000001137
B1255545606748N00906229EA0000001141
B1255595606662N00906191EA0000001136
B1256045606618N00906048EA0000001133
B1256095606653N00905918EA0000001134
B1256145606722N00905932EA0000001134
B1256195606767N00906013EA0000001145
B1256245606805N00906107EA0000001139
B1256295606854N00906192EA0000001150
B1256345606918N00906204EA0000001159
B1256395606967N00906114EA0000001162
B1256445606960N00905967EA0000001168
B1256495606899N00905864EA0000001176
B1256545606813N00905862EA0000001189
B1256595606754N00905967EA0000001192
B1257045606769N00906108EA0000001201
B1257095606840N00906144EA0000001215
B1257145606897N00906042EA0000001220
B1257195606885N00905886EA0000001237
B1257245606811N00905807EA0000001253
B1257305606722N00905877EA0000001265
B1257355606711N00906014EA0000001270
B1257405606768N00906087EA0000001286
B1257455606828N00906017EA0000001289
B1257505606826N00905860EA0000001303
B1257555606753N00905782EA0000001321
B1258005606670N00905821EA0000001329
B1258055606628N00905936EA0000001340
B1258115606664N00906051EA0000001353
B1258165606726N00906024EA0000001355
B1258225606751N00905856EA0000001368
B1258275606696N00905742EA0000001384
B1258325606613N00905749EA0000001387
B1258375606558N00905857EA0000001395
B1258425606563N00905981EA0000001404
B1258475606630N00906025EA0000001407
B1258525606691N00905942EA0000001429
B1258575606692N00905797EA0000001437
B1259025606631N00905690EA0000001451
B1259075606548N00905687EA0000001458
B1259125606490N00905776EA0000001465
B1259175606487N00905897EA0000001467
B1259235606562N00905951EA0000001473
B1259285606628N00905862EA0000001478
B1259335606645N00905711EA0000001492
B1259385606606N00905570EA0000001504
B1259435606530N00905505EA0000001519
B1259485606452N00905540EA0000001519
B1259545606408N00905676EA0000001531
B1300005606451N00905791EA0000001529
B1300055606522N00905774EA0000001536
B1300105606558N00905646EA0000001535
B1300155606528N00905490EA0000001540
B1300205606445N00905409EA0000001554
B1300255606358N00905441EA0000001562
B1300305606319N00905557EA0000001564
B1300355606348N00905668EA0000001574
B1300405606408N00905690EA0000001584
B1300455606461N00905615EA0000001585
B1300505606474N00905488EA0000001593
B1300555606436N00905363EA0000001593
B1301015606350N00905283EA0000001606
B1301065606275N00905315EA0000001607
B1301115606235N00905420EA0000001604
B1301165606243N00905536EA0000001604
B1301235606308N00905646EA0000001610
B1301285606372N00905695EA0000001612
B1301335606445N00905717EA0000001626
B1301385606518N00905708EA0000001631
B1301435606598N00905690EA0000001619
B1301485606657N00905783EA0000001623
B1301535606670N00905929EA0000001620
B1301595606626N00906095EA0000001625
B1302045606558N00906191EA0000001635
B1302095606470N00906225EA0000001645
B1302145606384N00906158EA0000001655
B1302195606344N00906003EA0000001658
B1302245606377N00905835EA0000001653
B1302295606460N00905730EA0000001650
B1302345606563N00905737EA0000001643
B1302395606638N00905861EA0000001642
B1302445606639N00906049EA0000001631
B1302495606564N00906191EA0000001630
B1302545606460N00906256EA0000001645
B1302595606355N00906274EA0000001665
B1303045606263N00906203EA0000001670
B1303095606235N00906033EA0000001676
B1303145606285N00905896EA0000001695
B1303195606363N00905865EA0000001707
B1303245606431N00905949EA0000001708
B1303295606446N00906111EA0000001699
B1303345606388N00906265EA0000001704
B1303395606285N00906325EA0000001707
B1303445606180N00906269EA0000001715
B1303495606105N00906133EA0000001716
B1303545606086N00905949EA0000001723
B1304005606148N00905783EA0000001733
B1304055606226N00905807EA0000001751
B1304105606241N00905953EA0000001754
B1304155606180N00906086EA0000001763
B1304205606084N00906105EA0000001774
B1304265605986N00905973EA0000001770
B1304325605962N00905749EA0000001764
B1304375606017N00905605EA0000001765
B1304425606105N00905577EA0000001771
B1304475606176N00905659EA0000001787
B1304525606201N00905791EA0000001807
B1304575606172N00905931EA0000001813
B1305025606099N00906019EA0000001826
B1305075606010N00906036EA0000001829
B1305125605924N00905966EA0000001831
B1305175605876N00905818EA0000001833
B1305225605890N00905652EA0000001826
B1305275605961N00905568EA0000001830
B1305335606053N00905635EA0000001819
B1305385606080N00905803EA0000001822
B1305435606049N00905977EA0000001833
B1305485605973N00906103EA0000001834
B1305535605868N00906126EA0000001836
B1305585605773N00906033EA0000001820
B1306035605717N00905841EA0000001798
B1306085605729N00905621EA0000001808
B1306135605792N00905469EA0000001825
B1306185605872N00905409EA0000001839
B1306235605941N00905461EA0000001845
B1306285605966N00905589EA0000001854
B1306335605939N00905728EA0000001863
B1306385605871N00905821EA0000001870
B1306445605761N00905811EA0000001879
B1306495605686N00905703EA0000001890
B1306545605664N00905541EA0000001872
B1306595605723N00905395EA0000001843
B1307045605827N00905334EA0000001831
B1307105605955N00905342EA0000001843
B1307165606074N00905362EA0000001863
B1307225606158N00905453EA0000001872
B1307275606152N00905593EA0000001845
B1307325606117N00905743EA0000001824
B1307395606097N00905969EA0000001811
B1307445606108N00906119EA0000001809
B1307505606127N00906275EA0000001807
B1307565606141N00906428EA0000001799
B1308015606148N00906561EA0000001795
B1308065606164N00906690EA0000001793
B1308115606182N00906821EA0000001789
B1308185606204N00907006EA0000001781
B1308235606221N00907131EA0000001778
B1308285606238N00907251EA0000001774
B1308355606241N00907436EA0000001759
B1308405606230N00907571EA0000001753
B1308465606216N00907729EA0000001740
B1309025606214N00908152EA0000001710
B1309085606210N00908330EA0000001690
B1309185606207N00908655EA0000001677
B1309245606209N00908865EA0000001637
B1309315606231N00909150EA0000001608
B1309365606248N00909361EA0000001596
B1309425606266N00909610EA0000001588
B1309495606290N00909890EA0000001595
B1309545606307N00910085EA0000001592
B1310025606331N00910401EA0000001578
B1310095606360N00910682EA0000001565
B1310155606384N00910922EA0000001569
B1310215606403N00911156EA0000001571
B1310265606412N00911362EA0000001561
B1310335606423N00911659EA0000001548
B1310395606435N00911908EA0000001542
B1310455606449N00912150EA0000001536
B1310525606466N00912416EA0000001542
B1310575606483N00912591EA0000001551
B1311045606511N00912821EA0000001562
B1311105606530N00913005EA0000001576
B1311155606546N00913148EA0000001583
B1311205606564N00913287EA0000001587
B1311265606583N00913446EA0000001596
B1311325606592N00913613EA0000001594
B1311375606590N00913760EA0000001597
B1311425606593N00913906EA0000001602
B1311475606604N00914060EA0000001595
B1311525606620N00914221EA0000001599
B1311575606640N00914383EA0000001623
B1312045606654N00914582EA0000001656
B1312115606666N00914779EA0000001662
B1312175606680N00914951EA0000001650
B1312255606714N00915218EA0000001620
B1312325606754N00915453EA0000001648
B1312395606793N00915686EA0000001656
B1312455606822N00915883EA0000001662
B1312505606842N00916048EA0000001665
B1312585606870N00916307EA0000001687
B1313075606888N00916606EA0000001680
B1313195606886N00917037EA0000001651
B1313275606880N00917367EA0000001597
B1313355606888N00917718EA0000001583
B1313415606901N00917974EA0000001563
B1313465606896N00918197EA0000001554
B1313515606874N00918418EA0000001550
B1313565606849N00918633EA0000001558
B1314035606813N00918915EA0000001565
B1314085606790N00919102EA0000001566
B1314155606785N00919362EA0000001551
B1314205606795N00919552EA0000001533
B1314265606815N00919778EA0000001516
B1314325606845N00919997EA0000001497
B1314385606879N00920226EA0000001475
B1314445606897N00920464EA0000001462
B1314505606889N00920710EA0000001436
B1314565606865N00920966EA0000001417
B1315025606844N00921217EA0000001406
B1315075606826N00921425EA0000001397
B1315135606772N00921674EA0000001381
B1315185606698N00921877EA0000001363
B1315235606627N00922090EA0000001355
B1315285606599N00922322EA0000001350
B1315345606624N00922574EA0000001356
B1315395606658N00922772EA0000001350
B1315445606694N00922964EA0000001346
B1315505606741N00923178EA0000001338
B1315555606786N00923358EA0000001320
B1316015606840N00923581EA0000001311
B1316075606893N00923789EA0000001316
B1316155606970N00924051EA0000001305
B1316205607017N00924218EA0000001292
B1316255607048N00924405EA0000001286
B1316315607063N00924638EA0000001290
B1316395607058N00924950EA0000001308
B1316445607039N00925140EA0000001311
B1316505607016N00925361EA0000001312
B1316565606997N00925574EA0000001305
B1317015606996N00925755EA0000001287
B1317065607008N00925944EA0000001270
B1317115607033N00926128EA0000001271
B1317195607103N00926389EA0000001262
B1317255607160N00926602EA0000001241
B1317305607185N00926810EA0000001240
B1317355607190N00927016EA0000001253
B1317415607182N00927265EA0000001244
B1317465607168N00927472EA0000001241
B1317515607146N00927674EA0000001234
B1317575607107N00927910EA0000001232
B1318025607078N00928094EA0000001236
B1318075607050N00928274EA0000001226
B1318125607022N00928454EA0000001202
B1318205606989N00928772EA0000001175
B1318255607004N00928969EA0000001168
B1318305607060N00929140EA0000001138
B1318365607156N00929336EA0000001129
B1318415607235N00929491EA0000001127
B1318465607314N00929639EA0000001131
B1318545607434N00929873EA0000001127
B1319005607528N00930026EA0000001117
B1319055607609N00930153EA0000001111
B1319105607675N00930294EA0000001106
B1319155607723N00930447EA0000001098
B1319215607773N00930646EA0000001086
B1319265607814N00930822EA0000001095
B1319345607871N00931086EA0000001116
B1319405607906N00931261EA0000001127
B1319455607913N00931416EA0000001128
B1319515607859N00931588EA0000001135
B1319565607775N00931682EA0000001133
B1320015607673N00931716EA0000001128
B1320095607515N00931828EA0000001114
B1320155607418N00931978EA0000001100
B1320225607333N00932212EA0000001060
B1320285607287N00932445EA0000001037
B1320335607258N00932648EA0000001021
B1320385607223N00932850EA0000001012
B1320465607144N00933158EA0000001012
B1320515607103N00933345EA0000001033
B1320565607091N00933526EA0000001060
B1321025607146N00933643EA0000001079
B1321075607207N00933597EA0000001085
B1321125607216N00933462EA0000001076
B1321175607141N00933340EA0000001066
B1321225607032N00933340EA0000001086
B1321275606959N00933450EA0000001113
B1321325606957N00933587EA0000001115
B1321375607021N00933632EA0000001116
B1321425607063N00933531EA0000001124
B1321475607022N00933395EA0000001129
B1321525606931N00933344EA0000001138
B1321575606852N00933426EA0000001148
B1322025606859N00933564EA0000001157
B1322075606921N00933582EA0000001164
B1322125606945N00933461EA0000001162
B1322175606884N00933346EA0000001169
B1322225606792N00933318EA0000001180
B1322275606710N00933368EA0000001201
B1322335606680N00933497EA0000001215
B1322385606728N00933559EA0000001219
B1322435606786N00933501EA0000001216
B1322505606762N00933304EA0000001222
B1322565606665N00933226EA0000001238
B1323015606576N00933240EA0000001237
B1323065606528N00933350EA0000001236
B1323115606553N00933467EA0000001239
B1323165606618N00933481EA0000001252
B1323235606669N00933342EA0000001267
B1323285606628N00933208EA0000001269
B1323335606539N00933170EA0000001264
B1323385606477N00933278EA0000001265
B1323435606482N00933415EA0000001269
B1323485606542N00933485EA0000001269
B1323545606625N00933422EA0000001281
B1323595606644N00933274EA0000001291
B1324045606597N00933123EA0000001296
B1324095606503N00933056EA0000001308
B1324145606423N00933126EA0000001318
B1324195606406N00933257EA0000001324
B1324245606456N00933334EA0000001338
B1324305606523N00933269EA0000001352
B1324365606514N00933091EA0000001365
B1324415606434N00933012EA0000001379
B1324465606351N00933059EA0000001378
B1324515606314N00933186EA0000001388
B1324565606333N00933298EA0000001398
B1325015606385N00933349EA0000001401
B1325085606446N00933230EA0000001405
B1325145606394N00933069EA0000001431
B1325195606309N00933054EA0000001447
B1325255606252N00933168EA0000001458
B1325305606274N00933268EA0000001454
B1325355606333N00933271EA0000001460
B1325405606372N00933161EA0000001470
B1325475606309N00932978EA0000001477
B1325525606220N00932987EA0000001489
B1325585606177N00933129EA0000001498
B1326035606209N00933225EA0000001501
B1326085606275N00933229EA0000001512
B1326135606328N00933138EA0000001521
B1326195606319N00932960EA0000001536
B1326245606251N00932858EA0000001546
B1326295606164N00932859EA0000001552
B1326385606119N00933072EA0000001561
B1326435606177N00933139EA0000001580
B1326485606240N00933098EA0000001594
B1326535606265N00932970EA0000001604
B1326585606226N00932835EA0000001604
B1327035606141N00932796EA0000001618
B1327085606082N00932883EA0000001626
B1327135606087N00932996EA0000001643
B1327185606139N00933028EA0000001658
B1327235606183N00932945EA0000001665
B1327285606181N00932806EA0000001669
B1327345606124N00932662EA0000001674
B1327395606046N00932599EA0000001679
B1327445605961N00932620EA0000001685
B1327545605939N00932827EA0000001695
B1327595605994N00932859EA0000001709
B1328055606048N00932762EA0000001714
B1328105606039N00932625EA0000001714
B1328155605980N00932519EA0000001730
B1328205605903N00932490EA0000001735
B1328255605831N00932561EA0000001737
B1328365605849N00932791EA0000001751
B1328415605912N00932756EA0000001752
B1328465605951N00932635EA0000001751
B1328515605929N00932477EA0000001744
B1328565605841N00932391EA0000001757
B1329025605750N00932484EA0000001782
B1329075605750N00932612EA0000001791
B1329135605821N00932659EA0000001791
B1329185605869N00932560EA0000001793
B1329235605849N00932412EA0000001791
B1329285605762N00932349EA0000001796
B1329405605717N00932608EA0000001802
B1329455605786N00932583EA0000001813
B1329515605793N00932423EA0000001809
B1329565605711N00932355EA0000001808
B1330015605637N00932423EA0000001813
B1330065605611N00932552EA0000001790
B1330115605626N00932722EA0000001757
B1330185605681N00932978EA0000001750
B1330255605756N00933219EA0000001762
B1330315605817N00933422EA0000001758
B1330395605917N00933663EA0000001749
B1330455606003N00933828EA0000001741
B1330525606116N00934005EA0000001721
B1330585606215N00934170EA0000001705
B1331035606279N00934331EA0000001705
B1331085606327N00934508EA0000001696
B1331135606363N00934691EA0000001693
B1331185606392N00934877EA0000001691
B1331235606417N00935060EA0000001694
B1331305606459N00935311EA0000001685
B1331385606521N00935595EA0000001673
B1331435606566N00935772EA0000001672
B1331505606628N00936026EA0000001661
B1331555606673N00936204EA0000001657
B1332035606749N00936482EA0000001646
B1332085606797N00936657EA0000001639
B1332145606853N00936877EA0000001624
B1332195606897N00937070EA0000001631
B1332245606931N00937268EA0000001652
B1332305606953N00937487EA0000001667
B1332355606964N00937668EA0000001648
B1332465606982N00938110EA0000001613
B1332535607002N00938399EA0000001595
B1333035607046N00938808EA0000001572
B1333085607067N00939019EA0000001559
B1333145607094N00939273EA0000001550
B1333195607118N00939481EA0000001546
B1333245607138N00939684EA0000001551
B1333305607162N00939913EA0000001551
B1333365607191N00940135EA0000001539
B1333435607221N00940398EA0000001524
B1333505607239N00940675EA0000001501
B1333565607263N00940912EA0000001495
B1334065607298N00941300EA0000001485
B1334145607326N00941614EA0000001475
B1334205607351N00941845EA0000001471
B1334305607385N00942242EA0000001452
B1334365607409N00942468EA0000001450
B1334445607446N00942764EA0000001430
B1334495607502N00942903EA0000001427
B1334545607595N00942943EA0000001400
B1335015607738N00942875EA0000001376
B1335075607856N00942775EA0000001366
B1335125607955N00942698EA0000001369
B1335185608065N00942604EA0000001381
B1335235608155N00942532EA0000001384
B1335295608262N00942455EA0000001394
B1335365608385N00942361EA0000001410
B1335435608506N00942293EA0000001426
B1335515608639N00942271EA0000001443
B1335565608717N00942321EA0000001449
B1336015608768N00942440EA0000001469
B1336065608765N00942578EA0000001482
B1336125608668N00942629EA0000001487
B1336175608600N00942511EA0000001481
B1336225608618N00942353EA0000001492
B1336275608692N00942284EA0000001504
B1336325608771N00942318EA0000001514
B1336375608814N00942440EA0000001516
B1336425608777N00942580EA0000001519
B1336475608683N00942579EA0000001537
B1336535608615N00942438EA0000001542
B1336585608629N00942291EA0000001548
B1337035608701N00942237EA0000001555
B1337085608760N00942324EA0000001551
B1337135608749N00942480EA0000001553
B1337185608669N00942563EA0000001564
B1337235608590N00942492EA0000001573
B1337305608590N00942289EA0000001581
B1337355608665N00942233EA0000001585
B1337405608733N00942308EA0000001587
B1337455608744N00942455EA0000001596
B1337505608689N00942575EA0000001596
B1337555608604N00942548EA0000001606
B1338025608600N00942351EA0000001629
B1338075608671N00942309EA0000001633
B1338125608733N00942406EA0000001637
B1338175608719N00942563EA0000001640
B1338245608592N00942588EA0000001635
B1338295608536N00942451EA0000001654
B1338345608530N00942302EA0000001664
B1338395608591N00942228EA0000001666
B1338445608647N00942323EA0000001675
B1338505608621N00942510EA0000001686
B1338555608537N00942578EA0000001696
B1339015608442N00942485EA0000001702
B1339065608440N00942328EA0000001704
B1339115608507N00942239EA0000001711
B1339175608599N00942296EA0000001721
B1339225608634N00942450EA0000001725
B1339275608610N00942622EA0000001723
B1339325608526N00942720EA0000001719
B1339385608413N00942637EA0000001722
B1339455608425N00942423EA0000001743
B1339505608498N00942361EA0000001751
B1339555608576N00942425EA0000001761
B1340005608617N00942573EA0000001758
B1340055608579N00942724EA0000001749
B1340105608489N00942713EA0000001741
B1340155608468N00942561EA0000001741
B1340205608522N00942455EA0000001762
B1340255608594N00942433EA0000001775
B1340305608656N00942491EA0000001769
B1340365608702N00942639EA0000001747
B1340415608731N00942782EA0000001734
B1340465608756N00942923EA0000001731
B1340535608788N00943100EA0000001724
B1340595608814N00943251EA0000001717
B1341045608834N00943375EA0000001711
B1341125608871N00943572EA0000001701
B1341175608896N00943689EA0000001692
B1341245608929N00943871EA0000001666
B1341315608972N00944068EA0000001622
B1341375609034N00944269EA0000001576
B1341455609135N00944575EA0000001525
B1341505609200N00944773EA0000001515
B1341575609281N00945036EA0000001521
B1342035609340N00945242EA0000001513
B1342095609395N00945447EA0000001491
B1342145609452N00945622EA0000001473
B1342205609523N00945833EA0000001469
B1342255609584N00945999EA0000001472
B1342305609642N00946162EA0000001478
B1342355609692N00946338EA0000001471
B1342405609724N00946533EA0000001485
B1342475609760N00946792EA0000001502
B1342545609800N00947038EA0000001513
B1342595609827N00947192EA0000001519
B1343055609870N00947382EA0000001480
B1343105609920N00947564EA0000001459
B1343155609971N00947744EA0000001463
B1343205610023N00947920EA0000001453
B1343255610081N00948093EA0000001435
B1343325610169N00948335EA0000001415
B1343395610263N00948577EA0000001401
B1343445610327N00948753EA0000001405
B1343505610399N00948959EA0000001401
B1343565610474N00949170EA0000001396
B1344015610527N00949360EA0000001392
B1344065610569N00949559EA0000001411
B1344115610613N00949735EA0000001434
B1344165610659N00949893EA0000001448
B1344215610711N00950038EA0000001465
B1344265610763N00950164EA0000001489
B1344315610776N00950308EA0000001508
B1344365610716N00950408EA0000001513
B1344415610635N00950367EA0000001507
B1344465610608N00950224EA0000001504
B1344515610658N00950115EA0000001510
B1344565610737N00950115EA0000001528
B1345025610804N00950233EA0000001536
B1345075610770N00950382EA0000001556
B1345125610683N00950411EA0000001567
B1345175610628N00950300EA0000001575
B1345225610648N00950178EA0000001586
B1345275610718N00950158EA0000001584
B1345325610766N00950276EA0000001588
B1345375610745N00950435EA0000001608
B1345425610666N00950523EA0000001626
B1345485610567N00950455EA0000001626
B1345535610556N00950307EA0000001634
B1345585610610N00950212EA0000001643
B1346035610687N00950226EA0000001647
B1346085610723N00950361EA0000001659
B1346135610673N00950494EA0000001675
B1346195610570N00950472EA0000001686
B1346245610532N00950333EA0000001691
B1346295610572N00950207EA0000001697
B1346345610651N00950191EA0000001697
B1346395610711N00950303EA0000001703
B1346445610694N00950463EA0000001703
B1346495610609N00950540EA0000001714
B1346545610537N00950454EA0000001720
B1346595610563N00950321EA0000001731
B1347045610643N00950330EA0000001737
B1347105610675N00950510EA0000001746
B1347155610613N00950626EA0000001752
B1347205610537N00950569EA0000001756
B1347255610528N00950425EA0000001764
B1347305610587N00950327EA0000001766
B1347355610673N00950360EA0000001765
B1347405610716N00950507EA0000001756
B1347455610731N00950678EA0000001725
B1347505610758N00950864EA0000001700
B1347565610813N00951088EA0000001668
B1348015610872N00951279EA0000001651
B1348075610949N00951496EA0000001646
B1348125611020N00951671EA0000001631
B1348175611086N00951861EA0000001620
B1348225611141N00952061EA0000001616
B1348305611220N00952381EA0000001620
B1348365611272N00952604EA0000001629
B1348425611329N00952810EA0000001620
B1348485611393N00953011EA0000001604
B1348535611452N00953175EA0000001592
B1348595611534N00953373EA0000001572
B1349045611599N00953552EA0000001563
B1349095611660N00953742EA0000001550
B1349145611714N00953945EA0000001536
B1349195611757N00954161EA0000001532
B1349275611864N00954432EA0000001526
B1349345611966N00954657EA0000001514
B1349395612036N00954818EA0000001510
B1349445612101N00954983EA0000001498
B1349505612169N00955197EA0000001488
B1349565612232N00955401EA0000001487
B1350015612283N00955569EA0000001478
B1350075612343N00955780EA0000001468
B1350125612389N00955956EA0000001456
B1350175612441N00956137EA0000001437
B1350245612504N00956409EA0000001427
B1350325612567N00956718EA0000001426
B1350385612614N00956931EA0000001430
B1350435612656N00957098EA0000001428
B1350525612733N00957410EA0000001419
B1350575612776N00957584EA0000001405
B1351025612823N00957766EA0000001394
B1351075612834N00957974EA0000001387
B1351125612760N00958156EA0000001381
B1351175612642N00958255EA0000001375
B1351225612506N00958277EA0000001364
B1351285612339N00958264EA0000001349
B1351345612169N00958215EA0000001329
B1351395612026N00958148EA0000001330
B1351485611766N00958037EA0000001329
B1351565611534N00957944EA0000001305
B1352025611356N00957864EA0000001289
B1352075611224N00957755EA0000001296
B1352145611069N00957556EA0000001284
B1352205610950N00957360EA0000001276
B1352265610843N00957149EA0000001265
B1352315610771N00956960EA0000001259
B1352375610685N00956731EA0000001249
B1352425610604N00956555EA0000001241
B1352485610505N00956349EA0000001225
B1352545610399N00956155EA0000001230
B1353025610260N00955897EA0000001213
B1353075610177N00955743EA0000001224
B1353135610077N00955571EA0000001222
B1353185609991N00955428EA0000001237
B1353235609912N00955297EA0000001254
B1353285609840N00955155EA0000001254
B1353345609764N00954974EA0000001266
B1353395609724N00954818EA0000001275
B1353445609698N00954674EA0000001277
B1353505609614N00954568EA0000001283
B1353555609524N00954588EA0000001276
B1354005609471N00954711EA0000001263
B1354065609506N00954873EA0000001247
B1354115609598N00954895EA0000001220
B1354175609705N00954763EA0000001220
B1354225609764N00954590EA0000001211
B1354315609762N00954193EA0000001192
B1354385609707N00953890EA0000001191
B1354435609660N00953688EA0000001182
B1354565609533N00953168EA0000001159
B1355025609478N00952921EA0000001142
B1355085609420N00952666EA0000001124
B1355425609077N00951209EA0000001037
B1355555608944N00950685EA0000001049
B1356045608859N00950342EA0000001058
B1356095608843N00950151EA0000001065
B1356145608817N00949981EA0000001078
B1356195608746N00949838EA0000001077
B1356245608650N00949747EA0000001105
B1356305608543N00949731EA0000001124
B1356355608483N00949831EA0000001119
B1356405608512N00949936EA0000001129
B1356465608578N00949900EA0000001132
B1356585608573N00949603EA0000001165
B1357035608506N00949527EA0000001172
B1357085608424N00949564EA0000001179
B1357135608389N00949699EA0000001170
B1357185608436N00949802EA0000001171
B1357235608501N00949784EA0000001186
B1357305608564N00949658EA0000001193
B1357355608593N00949550EA0000001216
B1357405608602N00949426EA0000001236
B1357455608551N00949322EA0000001251
B1357505608466N00949350EA0000001253
B1357555608437N00949493EA0000001257
B1358015608500N00949597EA0000001272
B1358065608566N00949535EA0000001284
B1358125608592N00949350EA0000001298
B1358175608559N00949202EA0000001324
B1358225608470N00949160EA0000001336
B1358275608406N00949273EA0000001345
B1358325608435N00949398EA0000001356
B1358385608513N00949381EA0000001382
B1358435608531N00949264EA0000001396
B1358485608480N00949164EA0000001406
B1358545608386N00949235EA0000001410
B1358595608396N00949362EA0000001419
B1359045608463N00949373EA0000001429
B1359095608524N00949308EA0000001439
B1359145608551N00949182EA0000001452
B1359195608520N00949043EA0000001454
B1359245608422N00949019EA0000001450
B1359295608368N00949155EA0000001465
B1359345608403N00949266EA0000001480
B1359395608471N00949275EA0000001482
B1359445608535N00949211EA0000001491
B1359495608576N00949097EA0000001511
B1359545608591N00948965EA0000001518
B1359595608555N00948832EA0000001528
B1400045608472N00948795EA0000001532
B1400095608403N00948893EA0000001528
B1400145608407N00949031EA0000001534
B1400205608479N00949076EA0000001546
B1400255608532N00949008EA0000001554
B1400305608563N00948894EA0000001557
B1400385608566N00948664EA0000001552
B1400435608537N00948498EA0000001522
B1400485608486N00948315EA0000001497
B1400535608417N00948134EA0000001478
B1401035608264N00947775EA0000001456
B1401085608196N00947586EA0000001429
B1401145608157N00947322EA0000001399
B1401195608158N00947088EA0000001361
B1401265608182N00946744EA0000001341
B1401315608185N00946502EA0000001332
B1401385608188N00946164EA0000001305
B1401445608194N00945879EA0000001307
B1401495608199N00945652EA0000001313
B1401545608204N00945442EA0000001321
B1402015608228N00945165EA0000001316
B1402065608248N00944970EA0000001309
B1402125608273N00944733EA0000001295
B1402175608294N00944524EA0000001278
B1402225608306N00944309EA0000001274
B1402285608321N00944051EA0000001257
B1402335608334N00943835EA0000001244
B1402385608343N00943615EA0000001240
B1402435608340N00943401EA0000001243
B1402505608330N00943109EA0000001231
B1403025608329N00942592EA0000001214
B1403085608324N00942331EA0000001222
B1403135608287N00942126EA0000001217
B1403185608275N00941914EA0000001207
B1403245608312N00941668EA0000001193
B1403295608327N00941466EA0000001201
B1403355608281N00941219EA0000001201
B1403405608201N00941058EA0000001239
B1403455608113N00940971EA0000001272
B1403505608026N00941007EA0000001293
B1403555607995N00941141EA0000001303
B1404015608048N00941243EA0000001326
B1404065608104N00941195EA0000001322
B1404115608119N00941064EA0000001328
B1404175608084N00940894EA0000001337
B1404245607989N00940734EA0000001355
B1404295607907N00940658EA0000001365
B1404355607799N00940581EA0000001353
B1404405607740N00940447EA0000001351
B1404465607738N00940261EA0000001345
B1404515607790N00940174EA0000001342
B1404565607855N00940203EA0000001337
B1405025607895N00940357EA0000001332
B1405075607898N00940510EA0000001321
B1405125607853N00940654EA0000001316
B1405185607735N00940698EA0000001314
B1405235607641N00940625EA0000001308
B1405305607535N00940442EA0000001284
B1405405607409N00940088EA0000001239
B1405465607356N00939845EA0000001226
B1405515607314N00939648EA0000001235
B1405565607278N00939454EA0000001254
B1406025607240N00939231EA0000001279
B1406075607214N00939062EA0000001295
B1406125607248N00938955EA0000001316
B1406185607301N00939042EA0000001301
B1406235607253N00939189EA0000001308
B1406295607136N00939244EA0000001321
B1406345607046N00939177EA0000001329
B1406405607003N00939012EA0000001332
B1406455607040N00938908EA0000001340
B1406505607100N00938931EA0000001337
B1406555607111N00939071EA0000001334
B1407005607029N00939174EA0000001342
B1407055606924N00939174EA0000001354
B1407125606828N00939026EA0000001368
B1407175606862N00938904EA0000001382
B1407225606924N00938936EA0000001389
B1407275606918N00939087EA0000001391
B1407325606828N00939182EA0000001391
B1407385606724N00939081EA0000001411
B1407445606727N00938894EA0000001419
B1407495606795N00938844EA0000001427
B1407545606840N00938952EA0000001432
B1407595606804N00939104EA0000001444
B1408085606644N00939088EA0000001458
B1408145606645N00938910EA0000001470
B1408195606711N00938879EA0000001471
B1408255606743N00939029EA0000001475
B1408315606650N00939154EA0000001482
B1408365606564N00939076EA0000001495
B1408425606573N00938909EA0000001502
B1408475606637N00938924EA0000001513
B1408525606650N00939060EA0000001507
B1408575606575N00939177EA0000001511
B1409035606462N00939130EA0000001526
B1409105606431N00938936EA0000001540
B1409155606489N00938894EA0000001554
B1409205606521N00938993EA0000001557
B1409255606468N00939112EA0000001548
B1409305606368N00939097EA0000001552
B1409375606282N00938924EA0000001576
B1409435606224N00938739EA0000001563
B1409485606164N00938568EA0000001556
B1409575606049N00938241EA0000001549
B1410035605962N00938017EA0000001545
B1410105605852N00937755EA0000001526
B1410155605798N00937544EA0000001510
B1410205605780N00937318EA0000001496
B1410255605785N00937097EA0000001494
B1410345605798N00936732EA0000001492
B1410395605797N00936537EA0000001485
B1410445605788N00936336EA0000001471
B1410505605774N00936085EA0000001456
B1410555605755N00935873EA0000001466
B1411035605734N00935559EA0000001492
B1411095605718N00935336EA0000001498
B1411145605707N00935147EA0000001480
B1411195605693N00934934EA0000001454
B1411245605673N00934703EA0000001435
B1411305605651N00934423EA0000001425
B1411355605633N00934184EA0000001412
B1411415605605N00933892EA0000001399
B1411465605572N00933647EA0000001398
B1411515605531N00933402EA0000001401
B1411565605491N00933166EA0000001431
B1412045605432N00932830EA0000001442
B1412105605378N00932575EA0000001420
B1412175605306N00932272EA0000001423
B1412225605251N00932068EA0000001405
B1412275605185N00931856EA0000001382
B1412325605107N00931636EA0000001379
B1412385605012N00931393EA0000001402
B1412445604911N00931157EA0000001381
B1412505604803N00930900EA0000001360
B1412555604710N00930677EA0000001361
B1413015604601N00930410EA0000001372
B1413075604496N00930139EA0000001379
B1413155604369N00929769EA0000001374
B1413215604283N00929496EA0000001371
B1413275604204N00929222EA0000001346
B1413335604134N00928933EA0000001343
B1413385604088N00928693EA0000001347
B1413445604059N00928394EA0000001336
B1413515604016N00928039EA0000001330
B1413565603981N00927787EA0000001326
B1414015603942N00927540EA0000001313
B1414085603886N00927198EA0000001286
B1414145603840N00926895EA0000001266
B1414205603791N00926582EA0000001246
B1414255603740N00926324EA0000001237
B1414305603691N00926069EA0000001235
B1414355603649N00925815EA0000001222
B1414425603606N00925454EA0000001225
B1414475603587N00925192EA0000001204
B1414535603583N00924870EA0000001198
B1415015603571N00924463EA0000001204
B1415065603562N00924221EA0000001195
B1415125603545N00923931EA0000001176
B1415175603523N00923686EA0000001162
B1415225603496N00923439EA0000001148
B1415275603467N00923192EA0000001128
B1415325603439N00922943EA0000001120
B1415395603418N00922601EA0000001117
B1415445603413N00922360EA0000001115
B1415525603424N00921984EA0000001114
B1415575603436N00921745EA0000001093
B1416025603455N00921499EA0000001092
B1416085603483N00921212EA0000001119
B1416135603502N00920980EA0000001153
B1416225603506N00920548EA0000001155
B1416275603496N00920298EA0000001148
B1416325603472N00920046EA0000001129
B1416385603435N00919740EA0000001111
B1416455603395N00919380EA0000001080
B1416505603360N00919118EA0000001063
B1416555603328N00918857EA0000001070
B1417005603299N00918610EA0000001082
B1417065603268N00918334EA0000001080
B1417115603245N00918101EA0000001070
B1417165603220N00917867EA0000001065
B1417215603190N00917631EA0000001040
B1417265603160N00917377EA0000001009
B1417315603128N00917119EA0000000999
B1417365603091N00916864EA0000000982
B1417425603038N00916563EA0000000970
B1417485602988N00916268EA0000000959
B1417565602927N00915873EA0000000931
B1418035602874N00915522EA0000000906
B1418085602833N00915274EA0000000902
B1418135602786N00915034EA0000000908
B1418185602734N00914803EA0000000928
B1418235602675N00914579EA0000000936
B1418285602613N00914367EA0000000960
B1418335602556N00914160EA0000000975
B1418395602482N00913916EA0000000985
B1418445602414N00913714EA0000000973
B1418505602333N00913453EA0000000953
B1418555602269N00913225EA0000000937
B1419025602189N00912891EA0000000924
B1419085602133N00912595EA0000000903
B1419135602085N00912348EA0000000878
B1419195602026N00912045EA0000000852
B1419245601980N00911793EA0000000840
B1419305601923N00911498EA0000000825
B1419355601867N00911253EA0000000797
B1419405601813N00910989EA0000000775
B1419455601770N00910715EA0000000802
B1419505601736N00910457EA0000000820
B1419565601711N00910158EA0000000819
B1420035601685N00909795EA0000000796
B1420155601648N00909165EA0000000776
B1420225601624N00908809EA0000000753
B1420275601603N00908548EA0000000718
B1420325601577N00908277EA0000000687
B1420385601540N00907951EA0000000667
B1420445601497N00907630EA0000000651
B1420505601450N00907310EA0000000638
B1420595601364N00906841EA0000000621
B1421055601299N00906538EA0000000607
B1421125601227N00906183EA0000000592
B1421185601170N00905871EA0000000568
B1421235601129N00905597EA0000000549
B1421305601076N00905200EA0000000522
B1421355601040N00904914EA0000000499
B1421415600986N00904572EA0000000488
B1421465600933N00904299EA0000000484
B1421515600875N00904042EA0000000487
B1421565600811N00903805EA0000000480
B1422025600723N00903546EA0000000490
B1422085600624N00903343EA0000000512
B1422145600531N00903189EA0000000528
B1422205600438N00903069EA0000000526
B1422265600340N00902959EA0000000510
B1422325600240N00902840EA0000000495
B1422375600168N00902716EA0000000492
B1422425600127N00902567EA0000000500
B1422475600127N00902411EA0000000506
B1422535600181N00902262EA0000000506
B1422595600258N00902167EA0000000509
B1423045600328N00902108EA0000000503
B1423095600403N00902078EA0000000501
B1423145600477N00902072EA0000000502
B1423215600572N00902108EA0000000499
B1423275600645N00902183EA0000000484
B1423325600699N00902274EA0000000476
B1423385600748N00902402EA0000000477
B1423435600774N00902521EA0000000475
B1423495600785N00902683EA0000000470
B1423545600792N00902824EA0000000463
B1423595600808N00902986EA0000000451
B1424065600854N00903209EA0000000469
B1424135600896N00903421EA0000000485
B1424185600907N00903572EA0000000484
B1424235600888N00903722EA0000000482
B1424305600833N00903945EA0000000473
B1424355600787N00904098EA0000000482
B1424425600718N00904295EA0000000483
B1424475600661N00904427EA0000000492
B1424525600590N00904528EA0000000495
B1424595600485N00904657EA0000000487
B1425055600399N00904773EA0000000484
B1425105600317N00904839EA0000000497
B1425165600212N00904840EA0000000511
B1425215600129N00904785EA0000000513
B1425265600051N00904684EA0000000504
B1425315559976N00904555EA0000000500
B1425365559906N00904421EA0000000495
B1425435559825N00904215EA0000000492
B1425495559784N00904024EA0000000492
B1425545559766N00903857EA0000000486
B1426005559752N00903641EA0000000467
B1426055559749N00903461EA0000000455
B1426105559756N00903279EA0000000444
B1426155559786N00903112EA0000000447
B1426215559843N00902964EA0000000445
B1426275559907N00902834EA0000000433
B1426345559979N00902656EA0000000420
B1426395600021N00902510EA0000000424
B1426445600049N00902355EA0000000424
B1426495600067N00902189EA0000000418
B1426555600082N00901976EA0000000398
B1427035600084N00901689EA0000000393
B1427085600077N00901524EA0000000389
B1427145600059N00901332EA0000000375
B1427215600039N00901104EA0000000363
B1427275600019N00900911EA0000000356
B1427345600013N00900691EA0000000352
B1427395600030N00900543EA0000000349
B1427445600065N00900408EA0000000346
B1427495600113N00900274EA0000000335
B1427555600175N00900111EA0000000331
B1428005600215N00859964EA0000000335
B1428055600213N00859811EA0000000341
B1428105600162N00859696EA0000000343
B1428185600026N00859645EA0000000343
B1428255559905N00859697EA0000000344
B1428305559839N00859784EA0000000346
B1428355559787N00859902EA0000000330
B1428425559749N00900111EA0000000306
B1428495559744N00900335EA0000000305
B1428545559738N00900488EA0000000314
B1429015559728N00900686EA0000000317
B1429075559719N00900856EA0000000313
B1429145559716N00901046EA0000000313
B1429205559714N00901203EA0000000307
B1429305559724N00901454EA0000000287
B1429365559753N00901584EA0000000278
B1429465559858N00901698EA0000000254
B1429515559923N00901728EA0000000249
B1429565559990N00901748EA0000000235
B1430025600072N00901690EA0000000223
B1430095600114N00901512EA0000000219
B1430155600108N00901337EA0000000212
B1430205600089N00901183EA0000000205
B1430275600059N00900956EA0000000197
B1430345600031N00900735EA0000000189
B1430415600015N00900505EA0000000175
B1430465600018N00900349EA0000000182
B1430535600045N00900158EA0000000177
B1430585600074N00900022EA0000000169
B1431055600112N00859832EA0000000165
B1431115600168N00859695EA0000000159
B1431165600238N00859622EA0000000151
B1431235600358N00859581EA0000000148
B1431285600442N00859609EA0000000141
B1431335600506N00859714EA0000000140
B1431385600531N00859850EA0000000134
B1431455600544N00900039EA0000000110
B1431515600553N00900206EA0000000091
B1431565600560N00900337EA0000000073
B1432015600569N00900463EA0000000055
B1432085600581N00900633EA0000000041
B1432175600591N00900828EA0000000037
B1432235600597N00900933EA0000000036
