AOGNOGN
HFDTE200825
HFFXA050
HFPLTPILOTINCHARGE:
HFGTYGLIDERTYPE:PA-25 Pawnee
HFGIDGLIDERID:LN-EIC
HFDTM100GPSDATUM:WGS-1984
HFRFWFIRMWAREVERSION:
HFRHWHARDWAREVERSION:
HFFTYFRTYPE:OGN-FLIGHTBOOK
HFGPSGENERIC
HFPRSPRESSALTSENSOR:
HFCIDCOMPETITIONID:IC
B1159365600629N00900698EA0000000044
B1159365600629N00900698EA0000000044
B1159425600644N00900819EA0000000045
B1159485600661N00900965EA0000000057
B1159565600688N00901168EA0000000082
B1200015600709N00901292EA0000000096
B1200075600726N00901455EA0000000109
B1200145600727N00901648EA0000000137
B1200205600734N00901802EA0000000154
B1200265600743N00901954EA0000000174
B1200315600747N00902079EA0000000189
B1200365600726N00902208EA0000000203
B1200425600660N00902327EA0000000224
B1200475600576N00902377EA0000000234
B1200525600481N00902355EA0000000246
B1200575600391N00902272EA0000000266
B1201025600313N00902159EA0000000286
B1201085600227N00902015EA0000000314
B1201145600146N00901875EA0000000338
B1201195600075N00901762EA0000000356
B1201255559991N00901631EA0000000371
B1201305559923N00901522EA0000000380
B1201355559855N00901407EA0000000380
B1201455559715N00901155EA0000000373
B1201525559616N00900972EA0000000371
B1201595559513N00900793EA0000000370
B1202045559442N00900668EA0000000368
B1202095559368N00900540EA0000000369
B1202165559267N00900358EA0000000373
B1202245559150N00900148EA0000000376
B1202295559073N00900018EA0000000378
B1202345558993N00859891EA0000000397
B1202405558904N00859746EA0000000432
B1202465558814N00859603EA0000000450
B1202515558730N00859484EA0000000466
B1202565558642N00859366EA0000000499
B1203025558547N00859241EA0000000538
B1203075558486N00859088EA0000000529
B1203125558488N00858860EA0000000491
B1203175558563N00858660EA0000000459
B1203225558684N00858566EA0000000439
B1203275558811N00858582EA0000000416
B1203325558927N00858663EA0000000397
B1203395559066N00858815EA0000000372
B1203455559179N00858951EA0000000352
B1203525559311N00859111EA0000000330
B1203575559406N00859227EA0000000310
B1204035559519N00859366EA0000000287
B1204085559613N00859469EA0000000265
B1204135559705N00859571EA0000000246
B1204185559796N00859678EA0000000227
B1204265559939N00859856EA0000000206
B1204315600030N00859948EA0000000193
B1204365600113N00900030EA0000000189
B1204415600191N00900086EA0000000182
B1204465600269N00900122EA0000000155
B1204555600400N00900212EA0000000109
B1205055600513N00900422EA0000000078
B1205105600559N00900545EA0000000062
B1205155600600N00900673EA0000000049
B1205235600639N00900881EA0000000039
B1205285600652N00901001EA0000000039
B1205345600662N00901119EA0000000039
