AOGNOGN
HFDTE200825
HFFXA050
HFPLTPILOTINCHARGE:
HFGTYGLIDERTYPE:Discus 2t
HFGIDGLIDERID:OY-XUP
HFDTM100GPSDATUM:WGS-1984
HFRFWFIRMWAREVERSION:
HFRHWHARDWAREVERSION:
HFFTYFRTYPE:OGN-FLIGHTBOOK
HFGPSGENERIC
HFPRSPRESSALTSENSOR:
HFCIDCOMPETITIONID:AA
B0959065600613N00900552EA0000000039
B0959095600619N00900604EA0000000038
B0959165600635N00900768EA0000000039
B0959225600649N00900944EA0000000043
B0959285600667N00901141EA0000000049
B0959335600680N00901306EA0000000063
B0959385600696N00901465EA0000000080
B0959445600713N00901647EA0000000101
B0959535600784N00901883EA0000000120
B1000015600896N00902030EA0000000142
B1000125601059N00902210EA0000000171
B1000215601202N00902370EA0000000202
B1000265601281N00902449EA0000000226
B1000325601365N00902544EA0000000243
B1000385601450N00902638EA0000000252
B1000465601566N00902760EA0000000273
B1000515601641N00902836EA0000000285
B1000565601717N00902916EA0000000295
B1001015601794N00902991EA0000000304
B1001075601883N00903080EA0000000318
B1001145601985N00903188EA0000000328
B1001195602059N00903264EA0000000339
B1001275602178N00903390EA0000000362
B1001335602266N00903488EA0000000370
B1001395602348N00903592EA0000000388
B1001445602419N00903673EA0000000400
B1001495602488N00903753EA0000000426
B1001555602578N00903827EA0000000450
B1002015602668N00903884EA0000000478
B1002095602786N00903929EA0000000502
B1002145602853N00903933EA0000000509
B1002195602913N00903908EA0000000502
B1002255602987N00903852EA0000000497
B1002305603041N00903785EA0000000494
B1002365603087N00903654EA0000000481
B1002435603100N00903451EA0000000465
B1002485603075N00903298EA0000000462
B1002545602995N00903179EA0000000458
B1003045602829N00903111EA0000000444
B1003105602727N00903116EA0000000433
B1003165602624N00903129EA0000000423
B1003265602451N00903128EA0000000409
B1003365602276N00903143EA0000000405
B1003415602191N00903165EA0000000403
B1003515602026N00903223EA0000000417
B1003565601955N00903260EA0000000434
B1004015601940N00903357EA0000000432
B1004065601982N00903421EA0000000431
B1004115602046N00903383EA0000000437
B1004165602073N00903247EA0000000445
B1004215602067N00903094EA0000000451
B1004265602014N00902967EA0000000456
B1004315601935N00902915EA0000000461
B1004365601863N00902946EA0000000467
B1004425601827N00903061EA0000000472
B1004475601872N00903128EA0000000471
B1004525601940N00903090EA0000000473
B1004575601985N00902962EA0000000485
B1005025601971N00902808EA0000000498
B1005075601904N00902715EA0000000502
B1005125601829N00902727EA0000000507
B1005175601790N00902815EA0000000511
B1005225601801N00902910EA0000000515
B1005275601857N00902941EA0000000518
B1005325601919N00902880EA0000000528
B1005375601937N00902742EA0000000535
B1005425601873N00902641EA0000000537
B1005475601803N00902691EA0000000541
B1005525601814N00902790EA0000000550
B1005575601878N00902771EA0000000557
B1006025601897N00902642EA0000000568
B1006075601844N00902529EA0000000567
B1006125601764N00902539EA0000000568
B1006175601730N00902644EA0000000570
B1006225601762N00902743EA0000000573
B1006275601833N00902727EA0000000587
B1006325601855N00902585EA0000000602
B1006375601797N00902467EA0000000603
B1006425601711N00902471EA0000000609
B1006475601657N00902555EA0000000621
B1006525601653N00902662EA0000000625
B1006575601698N00902728EA0000000633
B1007025601762N00902713EA0000000638
B1007075601808N00902606EA0000000653
B1007125601795N00902464EA0000000662
B1007175601716N00902429EA0000000659
B1007225601688N00902531EA0000000671
B1007285601746N00902574EA0000000677
B1007335601799N00902475EA0000000690
B1007385601777N00902334EA0000000699
B1007435601698N00902281EA0000000701
B1007485601645N00902356EA0000000706
B1007535601672N00902444EA0000000704
B1007585601745N00902407EA0000000712
B1008035601777N00902269EA0000000727
B1008085601737N00902123EA0000000731
B1008135601651N00902063EA0000000730
B1008185601574N00902115EA0000000735
B1008245601537N00902247EA0000000744
B1008315601508N00902393EA0000000753
B1008385601518N00902536EA0000000747
B1008435601553N00902619EA0000000744
B1008485601584N00902708EA0000000749
B1008535601618N00902791EA0000000752
B1008595601675N00902868EA0000000754
B1009045601726N00902924EA0000000762
B1009095601776N00902978EA0000000770
B1009145601820N00902891EA0000000777
B1009195601756N00902806EA0000000776
B1009245601737N00902922EA0000000775
B1009305601800N00902855EA0000000801
B1009355601744N00902752EA0000000810
B1009405601693N00902840EA0000000812
B1009455601751N00902877EA0000000819
B1009505601757N00902740EA0000000836
B1009555601676N00902699EA0000000840
B1010005601651N00902814EA0000000853
B1010055601712N00902826EA0000000858
B1010105601731N00902689EA0000000872
B1010155601673N00902577EA0000000875
B1010215601587N00902642EA0000000884
B1010265601608N00902743EA0000000901
B1010315601662N00902685EA0000000908
B1010365601641N00902542EA0000000919
B1010425601549N00902539EA0000000922
B1010485601541N00902672EA0000000942
B1010535601595N00902691EA0000000956
B1010585601632N00902584EA0000000968
B1011035601588N00902452EA0000000979
B1011085601507N00902449EA0000000990
B1011145601476N00902570EA0000000994
B1011205601536N00902616EA0000001009
B1011255601570N00902504EA0000001019
B1011305601526N00902363EA0000001031
B1011355601446N00902345EA0000001048
B1011415601420N00902471EA0000001045
B1011465601481N00902495EA0000001046
B1011515601511N00902365EA0000001052
B1011575601433N00902212EA0000001073
B1012025601356N00902236EA0000001092
B1012075601345N00902345EA0000001091
B1012125601397N00902370EA0000001105
B1012175601432N00902259EA0000001109
B1012225601383N00902135EA0000001120
B1012275601304N00902128EA0000001131
B1012335601274N00902246EA0000001133
B1012385601315N00902307EA0000001146
B1012435601375N00902306EA0000001146
B1012485601418N00902383EA0000001141
B1012535601417N00902511EA0000001140
B1012585601410N00902645EA0000001127
B1013035601394N00902804EA0000001112
B1013085601374N00902971EA0000001126
B1013145601345N00903144EA0000001139
B1013195601319N00903276EA0000001133
B1013245601287N00903396EA0000001129
B1013305601249N00903533EA0000001127
B1013355601216N00903638EA0000001126
B1013415601182N00903765EA0000001124
B1013465601158N00903890EA0000001103
B1013515601136N00904052EA0000001070
B1013575601106N00904253EA0000001091
B1014025601085N00904385EA0000001108
B1014095601066N00904544EA0000001120
B1014145601056N00904662EA0000001125
B1014195601043N00904784EA0000001133
B1014275601025N00904976EA0000001140
B1014325601015N00905095EA0000001144
B1014375601006N00905201EA0000001141
B1014445600991N00905340EA0000001122
B1014505600974N00905461EA0000001107
B1014555600955N00905562EA0000001095
B1015025600916N00905705EA0000001073
B1015085600873N00905827EA0000001052
B1015155600792N00905977EA0000001033
B1015205600732N00906079EA0000001029
B1015265600657N00906194EA0000001034
B1015315600597N00906282EA0000001041
B1015365600544N00906369EA0000001038
B1015455600475N00906559EA0000001038
B1015515600452N00906680EA0000001048
B1015575600433N00906797EA0000001049
B1016035600420N00906919EA0000001047
B1016085600420N00907026EA0000001034
B1016135600443N00907147EA0000001027
B1016185600463N00907265EA0000001018
B1016245600433N00907416EA0000000996
B1016295600389N00907545EA0000000987
B1016345600357N00907668EA0000000988
B1016425600316N00907857EA0000000981
B1016495600287N00908010EA0000000977
B1016545600278N00908122EA0000000975
B1017005600283N00908250EA0000000996
B1017055600278N00908350EA0000001000
B1017125600262N00908499EA0000001018
B1017175600257N00908603EA0000001017
B1017225600297N00908672EA0000001007
B1017275600358N00908632EA0000000997
B1017325600390N00908502EA0000000985
B1017375600377N00908351EA0000000990
B1017425600347N00908206EA0000000999
B1017475600307N00908076EA0000001007
B1017525600227N00908044EA0000001007
B1017575600171N00908131EA0000001012
B1018025600146N00908250EA0000001026
B1018075600137N00908358EA0000001028
B1018125600190N00908398EA0000001017
B1018175600251N00908305EA0000001027
B1018235600276N00908107EA0000001027
B1018285600279N00907917EA0000001022
B1018335600273N00907713EA0000001023
B1018395600268N00907467EA0000001017
B1018455600267N00907218EA0000001003
B1018505600262N00907014EA0000000995
B1018555600253N00906820EA0000000989
B1019015600231N00906595EA0000000971
B1019065600204N00906399EA0000000952
B1019115600175N00906206EA0000000955
B1019165600142N00906033EA0000000968
B1019225600099N00905852EA0000000974
B1019275600025N00905764EA0000000975
B1019325559949N00905812EA0000000986
B1019385559970N00905939EA0000000980
B1019435600034N00905888EA0000000980
B1019485600036N00905741EA0000000989
B1019535559972N00905645EA0000000989
B1019595559869N00905619EA0000000994
B1020055559774N00905538EA0000000998
B1020125559670N00905384EA0000001015
B1020175559606N00905263EA0000001025
B1020225559522N00905264EA0000001021
B1020275559517N00905386EA0000001023
B1020325559587N00905386EA0000001024
B1020375559654N00905310EA0000001037
B1020435559684N00905139EA0000001048
B1020485559611N00905033EA0000001045
B1020535559543N00905106EA0000001048
B1020585559575N00905210EA0000001043
B1021035559652N00905185EA0000001063
B1021085559675N00905050EA0000001077
B1021145559585N00905011EA0000001058
B1021195559593N00905126EA0000001068
B1021245559669N00905144EA0000001070
B1021305559685N00904949EA0000001083
B1021375559578N00904930EA0000001089
B1021425559594N00905034EA0000001099
B1021475559660N00904978EA0000001100
B1021525559661N00904827EA0000001104
B1021575559590N00904746EA0000001105
B1022025559518N00904801EA0000001102
B1022075559498N00904919EA0000001110
B1022125559549N00904994EA0000001127
B1022175559619N00904974EA0000001136
B1022225559610N00904822EA0000001116
B1022275559535N00904676EA0000001111
B1022345559431N00904459EA0000001100
B1022405559346N00904259EA0000001097
B1022455559271N00904090EA0000001098
B1022515559193N00903885EA0000001112
B1022585559122N00903663EA0000001130
B1023035559057N00903548EA0000001124
B1023085558987N00903578EA0000001124
B1023135558987N00903669EA0000001114
B1023185559049N00903683EA0000001104
B1023235559106N00903586EA0000001106
B1023295559120N00903396EA0000001099
B1023345559074N00903260EA0000001094
B1023425558956N00903118EA0000001082
B1023475558875N00903032EA0000001088
B1023535558780N00902927EA0000001100
B1023585558714N00902816EA0000001108
B1024065558654N00902569EA0000001107
B1024115558600N00902437EA0000001125
B1024165558524N00902367EA0000001141
B1024215558448N00902392EA0000001149
B1024265558415N00902498EA0000001153
B1024315558450N00902578EA0000001161
B1024365558504N00902532EA0000001171
B1024425558500N00902359EA0000001164
B1024485558415N00902230EA0000001181
B1024535558331N00902224EA0000001193
B1024585558280N00902310EA0000001195
B1025035558290N00902412EA0000001194
B1025085558342N00902435EA0000001205
B1025135558389N00902372EA0000001218
B1025185558403N00902244EA0000001210
B1025235558351N00902115EA0000001215
B1025285558268N00902092EA0000001228
B1025345558205N00902188EA0000001233
B1025395558207N00902289EA0000001233
B1025445558251N00902341EA0000001237
B1025515558325N00902289EA0000001238
B1025575558365N00902148EA0000001238
B1026025558384N00901984EA0000001209
B1026075558396N00901780EA0000001218
B1026145558399N00901508EA0000001241
B1026235558395N00901217EA0000001279
B1026285558336N00901110EA0000001275
B1026345558251N00901187EA0000001273
B1026395558268N00901298EA0000001271
B1026445558337N00901291EA0000001272
B1026495558393N00901199EA0000001281
B1026545558436N00901076EA0000001280
B1026595558467N00900933EA0000001285
B1027045558482N00900781EA0000001293
B1027105558481N00900602EA0000001298
B1027185558475N00900369EA0000001286
B1027255558467N00900159EA0000001287
B1027315558461N00859980EA0000001284
B1027375558458N00859800EA0000001294
B1027435558456N00859632EA0000001306
B1027515558450N00859401EA0000001298
B1027575558445N00859218EA0000001289
B1028055558429N00858962EA0000001322
B1028105558411N00858815EA0000001329
B1028155558395N00858667EA0000001325
B1028225558368N00858450EA0000001321
B1028285558332N00858271EA0000001339
B1028355558288N00858078EA0000001339
B1028425558235N00857891EA0000001335
B1028475558194N00857752EA0000001340
B1028525558150N00857618EA0000001349
B1028585558082N00857484EA0000001348
B1029035558019N00857388EA0000001341
B1029095557939N00857278EA0000001327
B1029155557856N00857173EA0000001317
B1029215557773N00857067EA0000001316
B1029305557641N00856956EA0000001328
B1029375557541N00856943EA0000001329
B1029455557445N00857017EA0000001321
B1029505557406N00857102EA0000001316
B1029555557388N00857204EA0000001313
B1030015557382N00857327EA0000001316
B1030075557384N00857446EA0000001324
B1030205557391N00857699EA0000001329
B1030255557404N00857798EA0000001322
B1030315557421N00857912EA0000001321
B1030395557454N00858057EA0000001300
B1030455557474N00858174EA0000001288
B1030515557493N00858288EA0000001274
B1030595557508N00858441EA0000001252
B1031045557516N00858542EA0000001241
B1031105557515N00858666EA0000001239
B1031165557515N00858785EA0000001224
B1031245557523N00858947EA0000001207
B1031305557531N00859070EA0000001193
B1031365557535N00859200EA0000001189
B1031425557544N00859327EA0000001181
B1031475557550N00859435EA0000001169
B1031545557560N00859595EA0000001160
B1032025557570N00859786EA0000001151
B1032115557588N00900006EA0000001146
B1032185557599N00900181EA0000001147
B1032265557623N00900371EA0000001150
B1032315557641N00900488EA0000001147
B1032365557659N00900605EA0000001149
B1032425557680N00900742EA0000001158
B1032475557701N00900845EA0000001167
B1032545557738N00900991EA0000001172
B1032595557763N00901102EA0000001183
B1033055557788N00901219EA0000001218
B1033105557834N00901249EA0000001217
B1033155557886N00901158EA0000001226
B1033205557868N00901019EA0000001237
B1033255557793N00900942EA0000001248
B1033305557707N00900940EA0000001259
B1033355557657N00901031EA0000001270
B1033405557681N00901121EA0000001283
B1033485557747N00900995EA0000001289
B1033535557696N00900874EA0000001284
B1034015557560N00900899EA0000001304
B1034065557493N00900964EA0000001309
B1034115557466N00901071EA0000001312
B1034165557486N00901159EA0000001313
B1034225557541N00901229EA0000001307
B1034275557601N00901237EA0000001296
B1034335557657N00901109EA0000001304
B1034405557689N00900912EA0000001322
B1034465557713N00900747EA0000001336
B1034515557736N00900608EA0000001337
B1034575557766N00900440EA0000001353
B1035035557791N00900262EA0000001354
B1035095557806N00900071EA0000001350
B1035145557812N00859908EA0000001360
B1035195557817N00859751EA0000001372
B1035265557814N00859543EA0000001380
B1035315557802N00859388EA0000001367
B1035385557784N00859164EA0000001350
B1035455557777N00858956EA0000001348
B1035505557774N00858810EA0000001346
B1036005557774N00858519EA0000001332
B1036055557770N00858372EA0000001325
B1036165557769N00858040EA0000001324
B1036215557764N00857896EA0000001331
B1036265557760N00857745EA0000001325
B1036355557747N00857466EA0000001312
B1036405557739N00857309EA0000001311
B1036455557728N00857155EA0000001310
B1036545557687N00856869EA0000001301
B1037005557662N00856670EA0000001314
B1037065557644N00856486EA0000001336
B1037115557597N00856373EA0000001343
B1037165557529N00856407EA0000001339
B1037215557532N00856529EA0000001345
B1037265557595N00856583EA0000001360
B1037315557661N00856605EA0000001372
B1037365557716N00856509EA0000001369
B1037415557688N00856351EA0000001377
B1037465557612N00856316EA0000001395
B1037515557582N00856406EA0000001404
B1037565557637N00856448EA0000001399
B1038025557692N00856306EA0000001413
B1038075557667N00856163EA0000001421
B1038125557599N00856092EA0000001428
B1038185557539N00856165EA0000001438
B1038235557565N00856259EA0000001450
B1038285557630N00856239EA0000001454
B1038345557668N00856081EA0000001459
B1038395557623N00855960EA0000001460
B1038445557556N00855976EA0000001465
B1038505557551N00856102EA0000001469
B1038555557621N00856117EA0000001472
B1039005557672N00855999EA0000001481
B1039055557653N00855855EA0000001483
B1039105557585N00855807EA0000001488
B1039155557538N00855876EA0000001491
B1039205557563N00855973EA0000001496
B1039255557634N00855969EA0000001502
B1039305557676N00855847EA0000001503
B1039355557641N00855711EA0000001491
B1039405557567N00855697EA0000001499
B1039455557528N00855779EA0000001501
B1039505557555N00855873EA0000001505
B1039555557623N00855858EA0000001505
B1040005557660N00855729EA0000001505
B1040065557617N00855569EA0000001497
B1040115557548N00855481EA0000001496
B1040175557457N00855449EA0000001504
B1040225557388N00855488EA0000001503
B1040295557326N00855609EA0000001497
B1040345557310N00855719EA0000001493
B1040415557330N00855875EA0000001486
B1040485557397N00855971EA0000001492
B1040535557462N00855970EA0000001487
B1040585557522N00855887EA0000001480
B1041045557558N00855717EA0000001469
B1041095557582N00855558EA0000001458
B1041145557602N00855386EA0000001450
B1041205557622N00855173EA0000001438
B1041265557622N00854949EA0000001431
B1041315557615N00854770EA0000001441
B1041375557609N00854574EA0000001449
B1041435557604N00854390EA0000001446
B1041485557592N00854229EA0000001430
B1041545557578N00854021EA0000001425
B1041595557565N00853848EA0000001422
B1042045557550N00853679EA0000001420
B1042125557526N00853412EA0000001414
B1042195557504N00853185EA0000001405
B1042245557489N00853023EA0000001398
B1042295557481N00852859EA0000001386
B1042365557471N00852611EA0000001367
B1042425557453N00852395EA0000001360
B1042485557436N00852176EA0000001345
B1042555557418N00851914EA0000001334
B1043015557419N00851690EA0000001326
B1043075557435N00851475EA0000001310
B1043155557467N00851181EA0000001281
B1043235557505N00850877EA0000001261
B1043285557539N00850687EA0000001247
B1043335557573N00850494EA0000001239
B1043385557608N00850308EA0000001232
B1043455557660N00850053EA0000001219
B1043515557705N00849844EA0000001209
B1044005557797N00849565EA0000001205
B1044055557852N00849418EA0000001198
B1044105557908N00849270EA0000001190
B1044155557965N00849118EA0000001178
B1044205558024N00848961EA0000001163
B1044265558094N00848769EA0000001169
B1044315558144N00848626EA0000001199
B1044375558188N00848478EA0000001204
B1044425558169N00848325EA0000001199
B1044475558096N00848254EA0000001203
B1044535558024N00848341EA0000001190
B1044595558028N00848483EA0000001193
B1045055558060N00848604EA0000001193
B1045115558113N00848701EA0000001195
B1045175558176N00848771EA0000001183
B1045225558240N00848751EA0000001174
B1045275558293N00848646EA0000001165
B1045335558342N00848492EA0000001164
B1045405558388N00848300EA0000001191
B1045455558391N00848156EA0000001195
B1045505558309N00848116EA0000001196
B1045555558290N00848226EA0000001198
B1046005558362N00848274EA0000001200
B1046065558456N00848294EA0000001219
B1046115558518N00848200EA0000001214
B1046165558498N00848018EA0000001227
B1046225558504N00847813EA0000001242
B1046295558545N00847600EA0000001253
B1046355558586N00847418EA0000001235
B1046415558631N00847228EA0000001226
B1046505558692N00846930EA0000001205
B1046575558738N00846671EA0000001173
B1047025558767N00846469EA0000001156
B1047095558798N00846176EA0000001146
B1047145558815N00845964EA0000001138
B1047205558833N00845708EA0000001138
B1047255558850N00845494EA0000001129
B1047305558867N00845277EA0000001130
B1047385558890N00844941EA0000001142
B1047435558902N00844761EA0000001161
B1047545558930N00844407EA0000001104
B1047595558947N00844204EA0000001098
B1048055558967N00843961EA0000001116
B1048105558978N00843788EA0000001157
B1048155558991N00843637EA0000001170
B1048225559003N00843409EA0000001185
B1048305559005N00843145EA0000001216
B1048385559004N00842900EA0000001241
B1048455558998N00842677EA0000001238
B1048505558994N00842513EA0000001251
B1048585558984N00842255EA0000001268
B1049045558975N00842063EA0000001274
B1049105558969N00841872EA0000001287
B1049215558952N00841518EA0000001292
B1049275558935N00841319EA0000001278
B1049345558908N00841077EA0000001273
B1049395558881N00840900EA0000001264
B1049495558824N00840551EA0000001272
B1049545558795N00840384EA0000001268
B1050005558760N00840182EA0000001257
B1050055558727N00840018EA0000001255
B1050145558673N00839724EA0000001253
B1050215558699N00839489EA0000001247
B1050265558742N00839328EA0000001257
B1050325558800N00839141EA0000001251
B1050405558883N00838881EA0000001233
B1050505558986N00838520EA0000001212
B1050575559052N00838275EA0000001213
B1051035559098N00838071EA0000001218
B1051095559142N00837884EA0000001219
B1051145559174N00837724EA0000001203
B1051225559228N00837446EA0000001186
B1051285559271N00837238EA0000001173
B1051385559336N00836887EA0000001168
B1051435559365N00836712EA0000001160
B1051495559393N00836498EA0000001163
B1051545559421N00836321EA0000001158
B1052005559460N00836112EA0000001179
B1052085559500N00835881EA0000001224
B1052155559472N00835664EA0000001232
B1052275559503N00835289EA0000001243
B1052335559548N00835119EA0000001247
B1052395559616N00834981EA0000001242
B1052455559669N00834829EA0000001242
B1052505559659N00834689EA0000001245
B1052555559603N00834600EA0000001236
B1053025559501N00834596EA0000001221
B1053115559373N00834678EA0000001225
B1053165559303N00834736EA0000001233
B1053485559023N00835338EA0000001212
B1053565558992N00835510EA0000001213
B1054045558993N00835680EA0000001208
B1054095559032N00835751EA0000001205
B1054215559181N00835591EA0000001183
B1054275559234N00835425EA0000001190
B1054345559293N00835228EA0000001195
B1054415559347N00835035EA0000001204
B1054465559386N00834911EA0000001207
B1054545559436N00834687EA0000001200
B1055025559414N00834432EA0000001197
B1055085559353N00834260EA0000001199
B1055135559294N00834135EA0000001203
B1055185559235N00834017EA0000001201
B1055245559162N00833880EA0000001189
B1055315559063N00833709EA0000001171
B1055395558945N00833487EA0000001154
B1055455558854N00833318EA0000001152
B1055545558744N00833098EA0000001187
B1055595558670N00833033EA0000001171
B1056055558588N00833109EA0000001181
B1056115558609N00833242EA0000001193
B1056195558727N00833214EA0000001200
B1056245558757N00833052EA0000001204
B1056295558713N00832902EA0000001199
B1056345558625N00832869EA0000001198
B1056405558555N00832983EA0000001205
B1056455558555N00833102EA0000001225
B1056515558584N00833230EA0000001232
B1056585558632N00833362EA0000001245
B1057035558670N00833445EA0000001236
B1057085558723N00833508EA0000001229
B1057145558801N00833541EA0000001230
B1057235558889N00833359EA0000001230
B1057315558866N00833103EA0000001217
B1057375558812N00832925EA0000001198
B1057425558752N00832795EA0000001189
B1057485558678N00832660EA0000001194
B1057555558587N00832506EA0000001188
B1058025558499N00832338EA0000001193
B1058085558428N00832202EA0000001192
B1058145558353N00832064EA0000001181
B1058195558291N00831947EA0000001184
B1058245558223N00831849EA0000001184
B1058315558114N00831781EA0000001186
B1058365558041N00831797EA0000001188
B1058465557984N00831986EA0000001162
B1058525558009N00832113EA0000001151
B1058575558033N00832220EA0000001144
B1059035558069N00832345EA0000001136
B1059115558130N00832498EA0000001132
B1059225558287N00832578EA0000001108
B1059285558395N00832560EA0000001092
B1059355558528N00832511EA0000001082
B1059435558678N00832436EA0000001082
B1059495558788N00832383EA0000001074
B1059545558878N00832338EA0000001073
B1059595558968N00832298EA0000001071
B1100045559060N00832258EA0000001064
B1100165559281N00832143EA0000001040
B1100215559372N00832092EA0000001030
B1100475559823N00831812EA0000001020
B1101025600080N00831662EA0000000986
B1101115600237N00831550EA0000000967
B1101185600358N00831459EA0000000956
B1101235600443N00831381EA0000000942
B1101315600579N00831255EA0000000934
B1101385600683N00831148EA0000000943
B1101435600750N00831076EA0000000949
B1101505600840N00830982EA0000000958
B1101575600922N00830864EA0000000952
B1102025600960N00830733EA0000000947
B1102075600979N00830578EA0000000951
B1102125600982N00830426EA0000000960
B1102215600970N00830162EA0000000964
B1102285600928N00829971EA0000000953
B1102365600866N00829767EA0000000968
B1102415600831N00829644EA0000000963
B1102475600772N00829508EA0000000946
B1102535600688N00829396EA0000000943
B1102585600620N00829324EA0000000949
B1103045600530N00829240EA0000000950
B1103105600437N00829198EA0000000965
B1103155600366N00829203EA0000000963
B1103205600322N00829278EA0000000961
B1103255600327N00829368EA0000000952
B1103305600381N00829411EA0000000950
B1103355600444N00829362EA0000000953
B1103405600498N00829267EA0000000953
B1103465600566N00829171EA0000000965
B1103515600619N00829094EA0000000975
B1103565600630N00828958EA0000000962
B1104015600563N00828841EA0000000966
B1104065600492N00828873EA0000000981
B1104115600477N00828971EA0000000987
B1104165600516N00829031EA0000000996
B1104215600574N00829003EA0000001000
B1104265600597N00828872EA0000000992
B1104315600548N00828743EA0000000996
B1104365600475N00828755EA0000001003
B1104435600473N00828881EA0000001014
B1104485600534N00828876EA0000001016
B1104535600569N00828762EA0000001014
B1104585600538N00828624EA0000001006
B1105055600429N00828609EA0000001011
B1105115600340N00828634EA0000001024
B1105165600274N00828669EA0000001027
B1105215600235N00828755EA0000001026
B1105275600234N00828876EA0000001024
B1105325600260N00828963EA0000001021
B1105385600322N00829035EA0000001020
B1105435600389N00829051EA0000001018
B1105485600460N00829022EA0000001010
B1105535600531N00828958EA0000001011
B1106005600621N00828845EA0000001019
B1106055600683N00828769EA0000001030
B1106105600743N00828739EA0000001033
B1106155600768N00828856EA0000001019
B1106205600708N00828946EA0000001034
B1106265600615N00828898EA0000001041
B1106325600573N00828721EA0000001037
B1106385600631N00828578EA0000001053
B1106435600697N00828595EA0000001062
B1106485600728N00828702EA0000001065
B1106575600634N00828863EA0000001065
B1107085600530N00828594EA0000001065
B1107135600590N00828465EA0000001062
B1107185600673N00828460EA0000001076
B1107265600767N00828577EA0000001087
B1107385600631N00828701EA0000001103
B1107435600581N00828557EA0000001099
B1107505600625N00828351EA0000001115
B1107555600693N00828294EA0000001120
B1108015600775N00828331EA0000001128
B1108065600829N00828388EA0000001142
B1108115600867N00828467EA0000001132
B1108325600634N00828505EA0000001109
B1108435600653N00828167EA0000001118
B1108555600712N00827812EA0000001108
B1109095600828N00827458EA0000001108
B1109155600917N00827391EA0000001106
B1109225601028N00827374EA0000001100
B1109275601106N00827382EA0000001098
B1109325601187N00827397EA0000001090
B1109375601268N00827419EA0000001086
B1109425601351N00827442EA0000001081
B1109495601465N00827471EA0000001077
B1109575601593N00827495EA0000001064
B1110025601673N00827510EA0000001055
B1110085601770N00827525EA0000001049
B1110135601848N00827542EA0000001047
B1110195601941N00827563EA0000001044
B1110245602014N00827576EA0000001040
B1110315602115N00827593EA0000001023
B1110405602238N00827630EA0000000998
B1110475602330N00827677EA0000000985
B1110535602413N00827721EA0000000982
B1111005602505N00827786EA0000000989
B1111075602595N00827868EA0000001001
B1111145602683N00827849EA0000001006
B1111195602686N00827694EA0000001009
B1111245602623N00827580EA0000001023
B1111295602549N00827620EA0000001032
B1111345602557N00827735EA0000001045
B1111405602633N00827705EA0000001050
B1111455602626N00827561EA0000001063
B1111505602550N00827529EA0000001078
B1111555602522N00827639EA0000001079
B1112015602594N00827682EA0000001087
B1112075602617N00827520EA0000001101
B1112315602583N00827414EA0000001147
B1112575602534N00827295EA0000001206
B1113025602466N00827213EA0000001219
B1113095602375N00827291EA0000001238
B1113145602389N00827394EA0000001244
B1113215602467N00827320EA0000001240
B1113285602450N00827099EA0000001260
B1113335602396N00826983EA0000001266
B1113385602320N00827029EA0000001272
B1113515602378N00826962EA0000001286
B1113585602274N00826977EA0000001300
B1114055602333N00827063EA0000001304
B1114115602368N00826921EA0000001318
B1114165602306N00826819EA0000001326
B1114215602244N00826885EA0000001330
B1114275602288N00826965EA0000001332
B1114345602310N00826783EA0000001338
B1114395602226N00826720EA0000001345
B1114455602172N00826846EA0000001353
B1114525602247N00826882EA0000001355
B1114575602292N00826773EA0000001369
B1115045602324N00826594EA0000001380
B1115095602269N00826477EA0000001383
B1115165602179N00826549EA0000001395
B1115235602240N00826614EA0000001403
B1115285602252N00826478EA0000001403
B1115335602175N00826393EA0000001407
B1115395602088N00826445EA0000001424
B1115575602173N00826583EA0000001410
B1116055602221N00826379EA0000001418
B1116135602239N00826150EA0000001420
B1116215602305N00825947EA0000001413
B1116325602471N00825803EA0000001397
B1116565602858N00825610EA0000001383
B1117055603011N00825552EA0000001389
B1117165603204N00825455EA0000001421
B1117315603311N00825122EA0000001422
B1117375603232N00824994EA0000001426
B1117425603154N00824933EA0000001435
B1117475603076N00824881EA0000001441
B1117575602953N00824976EA0000001434
B1118025602944N00825088EA0000001444
B1118085602970N00825206EA0000001456
B1118135603028N00825243EA0000001460
B1118185603091N00825179EA0000001463
B1118245603127N00825018EA0000001480
B1118295603116N00824872EA0000001492
B1118365603022N00824751EA0000001479
B1118445602921N00824839EA0000001477
B1118505602888N00824969EA0000001495
B1118555602861N00825060EA0000001496
B1119005602872N00825157EA0000001489
B1119065602936N00825220EA0000001484
B1119115603006N00825202EA0000001492
B1119165603072N00825169EA0000001506
B1119225603145N00825088EA0000001515
B1119275603160N00824941EA0000001517
B1119325603116N00824821EA0000001516
B1119385603029N00824772EA0000001520
B1119455602929N00824677EA0000001523
B1119525602828N00824553EA0000001521
B1119575602759N00824447EA0000001529
B1120025602699N00824330EA0000001535
B1120105602610N00824146EA0000001533
B1120175602508N00824055EA0000001540
B1120245602406N00824052EA0000001547
B1120345602303N00824183EA0000001545
B1120395602277N00824274EA0000001549
B1120475602304N00824411EA0000001541
B1120535602353N00824485EA0000001528
B1120595602421N00824526EA0000001531
B1121065602506N00824552EA0000001528
B1121165602631N00824532EA0000001527
B1121265602726N00824362EA0000001501
B1121345602695N00824117EA0000001492
B1121405602658N00823942EA0000001488
B1121475602612N00823753EA0000001488
B1121575602513N00823512EA0000001468
B1122025602437N00823459EA0000001464
B1122075602359N00823478EA0000001458
B1122155602284N00823630EA0000001456
B1122315602142N00823994EA0000001442
B1122415602020N00824218EA0000001447
B1123035601765N00824791EA0000001419
B1123085601765N00824938EA0000001420
B1123165601800N00825169EA0000001408
B1123245601846N00825403EA0000001414
B1123315601894N00825607EA0000001403
B1123365601931N00825742EA0000001402
B1123435601979N00825932EA0000001393
B1123505602025N00826132EA0000001384
B1123555602045N00826287EA0000001377
B1124045602021N00826582EA0000001376
B1124105602000N00826778EA0000001375
B1124155601985N00826939EA0000001373
B1124215601964N00827129EA0000001364
B1124265601944N00827287EA0000001353
B1124315601928N00827448EA0000001343
B1124365601918N00827606EA0000001341
B1124435601907N00827815EA0000001330
B1124495601910N00827997EA0000001312
B1124545601896N00828150EA0000001307
B1125015601870N00828353EA0000001298
B1125155601824N00828725EA0000001278
B1125225601802N00828930EA0000001263
B1125285601793N00829120EA0000001265
B1125335601792N00829261EA0000001264
B1125385601775N00829389EA0000001254
B1125485601730N00829653EA0000001237
B1125575601690N00829887EA0000001233
B1126025601670N00830004EA0000001241
B1126075601652N00830102EA0000001268
B1126125601662N00830190EA0000001260
B1126215601784N00830080EA0000001256
B1126275601763N00829885EA0000001252
B1126325601695N00829774EA0000001250
B1126375601615N00829752EA0000001250
B1126455601570N00829900EA0000001244
B1126505601625N00829980EA0000001250
B1126575601729N00830040EA0000001250
B1127025601806N00830071EA0000001251
B1127115601955N00830116EA0000001238
B1127175602059N00830129EA0000001238
B1127225602147N00830123EA0000001240
B1127275602232N00830110EA0000001238
B1127325602316N00830095EA0000001226
B1127415602462N00830052EA0000001225
B1128175602997N00829668EA0000001202
B1128265603124N00829698EA0000001200
B1128345603200N00829840EA0000001187
B1128475603097N00830056EA0000001162
B1129025602887N00829741EA0000001168
B1129085602818N00829591EA0000001169
B1129155602744N00829425EA0000001185
B1129205602683N00829338EA0000001173
B1129375602554N00829631EA0000001157
B1129475602553N00829878EA0000001137
B1129545602517N00830060EA0000001148
B1130045602455N00830309EA0000001142
B1130135602393N00830544EA0000001127
B1130195602356N00830693EA0000001139
B1130245602325N00830799EA0000001152
B1130365602397N00830668EA0000001156
B1130415602323N00830736EA0000001155
B1130515602417N00830678EA0000001199
B1130575602331N00830632EA0000001197
B1131085602437N00830645EA0000001222
B1131135602388N00830509EA0000001229
B1131185602330N00830572EA0000001228
B1131265602430N00830600EA0000001244
B1131315602467N00830456EA0000001250
B1131365602415N00830329EA0000001253
B1131435602327N00830391EA0000001254
B1131485602344N00830491EA0000001264
B1131545602422N00830443EA0000001267
B1131595602429N00830287EA0000001266
B1132045602357N00830208EA0000001260
B1132105602303N00830312EA0000001268
B1132155602338N00830389EA0000001281
B1132225602421N00830321EA0000001271
B1132275602414N00830155EA0000001265
B1132325602345N00830072EA0000001269
B1132375602285N00830127EA0000001266
B1132455602323N00830247EA0000001272
B1132505602381N00830157EA0000001264
B1132555602365N00830005EA0000001265
B1133015602277N00829915EA0000001253
B1133065602197N00829917EA0000001251
B1133115602145N00830003EA0000001252
B1133205602117N00830206EA0000001266
B1133305602102N00830441EA0000001273
B1133355602094N00830554EA0000001265
B1133425602060N00830722EA0000001257
B1133495602023N00830896EA0000001246
B1133545601990N00831025EA0000001243
B1134035601933N00831261EA0000001239
B1134095601893N00831417EA0000001238
B1134165601835N00831589EA0000001225
B1134215601776N00831702EA0000001216
B1134285601691N00831859EA0000001206
B1134365601597N00832051EA0000001187
B1134415601544N00832179EA0000001176
B1134525601439N00832478EA0000001165
B1134585601387N00832648EA0000001155
B1135035601345N00832796EA0000001148
B1135125601257N00833055EA0000001139
B1135195601156N00833193EA0000001140
B1135355600928N00833516EA0000001135
B1135405600857N00833611EA0000001139
B1135465600773N00833727EA0000001149
B1135545600674N00833854EA0000001173
B1135595600615N00833926EA0000001159
B1136065600526N00834049EA0000001143
B1136115600461N00834144EA0000001133
B1136185600374N00834294EA0000001120
B1136245600295N00834418EA0000001117
B1136355600152N00834636EA0000001102
B1136435600060N00834778EA0000001107
B1136495559996N00834879EA0000001114
B1136565559923N00834987EA0000001136
B1137015559889N00835088EA0000001128
B1137065559925N00835185EA0000001135
B1137115559994N00835159EA0000001138
B1137185600015N00834941EA0000001125
B1137245559936N00834781EA0000001140
B1137305559836N00834789EA0000001150
B1137355559819N00834898EA0000001149
B1137405559876N00834947EA0000001145
B1137465559930N00834787EA0000001150
B1137515559872N00834647EA0000001165
B1137565559795N00834682EA0000001165
B1138015559812N00834793EA0000001155
B1138075559910N00834762EA0000001171
B1138135559979N00834624EA0000001183
B1138185559959N00834461EA0000001191
B1138235559878N00834406EA0000001205
B1138285559829N00834482EA0000001201
B1138345559876N00834561EA0000001204
B1138395559934N00834471EA0000001214
B1138445559916N00834312EA0000001224
B1138495559838N00834259EA0000001230
B1138545559799N00834339EA0000001231
B1139015559872N00834354EA0000001232
B1139075559933N00834214EA0000001247
B1139125559947N00834063EA0000001247
B1139175559891N00833939EA0000001250
B1139235559811N00833964EA0000001251
B1139285559821N00834065EA0000001258
B1139365559918N00834048EA0000001262
B1139415559936N00833899EA0000001267
B1139465559878N00833793EA0000001272
B1139515559807N00833820EA0000001270
B1139565559776N00833915EA0000001274
B1140015559774N00834019EA0000001274
B1140075559792N00834143EA0000001269
B1140135559826N00834288EA0000001241
B1140205559876N00834482EA0000001238
B1140275559913N00834680EA0000001240
B1140345559913N00834899EA0000001238
B1140395559887N00835056EA0000001239
B1140445559840N00835210EA0000001241
B1140525559766N00835456EA0000001240
B1140585559711N00835646EA0000001229
B1141065559635N00835893EA0000001221
B1141125559585N00836091EA0000001206
B1141175559541N00836249EA0000001214
B1141305559425N00836631EA0000001214
B1141355559381N00836771EA0000001207
B1141415559330N00836941EA0000001197
B1141495559261N00837174EA0000001184
B1141545559218N00837317EA0000001178
B1142025559157N00837529EA0000001179
B1142125559079N00837779EA0000001169
B1142185559035N00837934EA0000001160
B1142265558985N00838141EA0000001180
B1142315558952N00838250EA0000001200
B1142385558911N00838399EA0000001197
B1142445558898N00838545EA0000001199
B1142505558935N00838666EA0000001198
B1142555558979N00838768EA0000001200
B1143015559016N00838885EA0000001229
B1143065559040N00838984EA0000001235
B1143135559074N00839139EA0000001236
B1143205559106N00839307EA0000001215
B1143265559122N00839461EA0000001201
B1143325559137N00839620EA0000001187
B1143385559149N00839784EA0000001175
B1143435559158N00839929EA0000001163
B1143495559169N00840109EA0000001160
B1143545559179N00840256EA0000001168
B1144025559191N00840488EA0000001180
B1144085559177N00840646EA0000001184
B1144155559109N00840809EA0000001182
B1144275558981N00841073EA0000001197
B1144335558945N00841214EA0000001211
B1144395559021N00841252EA0000001207
B1144445559040N00841111EA0000001206
B1144495558972N00841032EA0000001207
B1144545558912N00841114EA0000001213
B1144595558947N00841223EA0000001210
B1145045559021N00841179EA0000001211
B1145105559019N00841009EA0000001217
B1145155558946N00840957EA0000001223
B1145205558892N00841036EA0000001233
B1145255558894N00841149EA0000001240
B1145315558946N00841269EA0000001241
B1145365558990N00841361EA0000001245
B1145445559067N00841509EA0000001245
B1145505559119N00841602EA0000001245
B1145555559170N00841673EA0000001218
B1146005559238N00841749EA0000001191
B1146055559315N00841828EA0000001181
B1146145559468N00841939EA0000001179
B1146215559582N00842025EA0000001184
B1146265559673N00842057EA0000001184
B1146315559763N00842081EA0000001205
B1146365559836N00842107EA0000001225
B1146445559950N00842170EA0000001216
B1146505600043N00842230EA0000001206
B1146565600137N00842307EA0000001182
B1147055600287N00842454EA0000001151
B1147125600408N00842560EA0000001146
B1147195600528N00842669EA0000001132
B1147265600648N00842778EA0000001127
B1147315600734N00842844EA0000001121
B1147365600819N00842915EA0000001110
B1147425600920N00843000EA0000001107
B1147495601032N00843100EA0000001100
B1147545601109N00843177EA0000001087
B1148005601200N00843273EA0000001075
B1148055601276N00843352EA0000001060
B1148115601371N00843455EA0000001042
B1148185601486N00843567EA0000001021
B1148265601619N00843700EA0000001007
B1148325601719N00843798EA0000000998
B1148375601803N00843879EA0000000994
B1148425601885N00843959EA0000000989
B1148485601986N00844048EA0000000977
B1148545602087N00844140EA0000000958
B1148595602173N00844220EA0000000946
B1149045602257N00844297EA0000000943
B1149105602354N00844385EA0000000941
B1149195602496N00844495EA0000000925
B1149245602572N00844547EA0000000922
B1149295602649N00844591EA0000000910
B1149365602760N00844648EA0000000902
B1149425602858N00844682EA0000000903
B1149475602937N00844703EA0000000912
B1149535603026N00844722EA0000000931
B1149585603088N00844744EA0000000938
B1150045603161N00844719EA0000000940
B1150105603196N00844576EA0000000928
B1150155603155N00844436EA0000000922
B1150205603106N00844315EA0000000920
B1150265603044N00844172EA0000000919
B1150315602989N00844066EA0000000926
B1150375602908N00843970EA0000000925
B1150425602831N00843921EA0000000926
B1150495602721N00843878EA0000000926
B1150555602624N00843864EA0000000931
B1151015602530N00843855EA0000000927
B1151075602438N00843850EA0000000922
B1151145602396N00843973EA0000000907
B1151195602431N00844063EA0000000899
B1151245602481N00844134EA0000000886
B1151315602561N00844230EA0000000873
B1151365602618N00844297EA0000000867
B1151415602679N00844359EA0000000862
B1151485602769N00844426EA0000000856
B1151555602853N00844501EA0000000857
B1152025602938N00844582EA0000000856
B1152095603021N00844659EA0000000864
B1152145603077N00844729EA0000000863
B1152205603142N00844827EA0000000875
B1152295603239N00844916EA0000000900
B1152345603275N00844802EA0000000898
B1152395603228N00844684EA0000000896
B1152445603143N00844693EA0000000901
B1152505603063N00844764EA0000000919
B1152555603079N00844880EA0000000918
B1153005603150N00844865EA0000000941
B1153055603154N00844730EA0000000944
B1153105603073N00844685EA0000000950
B1153155603023N00844781EA0000000965
B1153205603050N00844888EA0000000972
B1153255603117N00844875EA0000000985
B1153315603130N00844712EA0000000992
B1153365603058N00844630EA0000001005
B1153415602995N00844691EA0000001016
B1153465603010N00844808EA0000001016
B1153525603086N00844796EA0000001042
B1153575603098N00844666EA0000001040
B1154025603040N00844558EA0000001053
B1154075602971N00844573EA0000001072
B1154125602947N00844677EA0000001064
B1154195603022N00844731EA0000001084
B1154245603044N00844605EA0000001086
B1154295602987N00844503EA0000001102
B1154345602919N00844542EA0000001111
B1154435602973N00844676EA0000001125
B1154485603009N00844565EA0000001125
B1154535602963N00844435EA0000001137
B1154585602890N00844415EA0000001154
B1155035602847N00844507EA0000001148
B1155085602876N00844608EA0000001153
B1155135602941N00844607EA0000001160
B1155185602973N00844486EA0000001164
B1155235602928N00844364EA0000001175
B1155295602838N00844371EA0000001187
B1155355602813N00844498EA0000001191
B1155415602871N00844570EA0000001199
B1155465602923N00844496EA0000001200
B1155515602919N00844359EA0000001204
B1155565602852N00844278EA0000001208
B1156025602774N00844349EA0000001218
B1156085602788N00844475EA0000001222
B1156135602850N00844475EA0000001220
B1156195602877N00844323EA0000001227
B1156245602827N00844212EA0000001230
B1156315602711N00844185EA0000001239
B1156375602627N00844236EA0000001233
B1156425602596N00844359EA0000001226
B1156475602590N00844500EA0000001220
B1156535602592N00844689EA0000001218
B1156585602590N00844856EA0000001221
B1157035602587N00845033EA0000001221
B1157145602585N00845449EA0000001197
B1157215602588N00845713EA0000001187
B1157275602592N00845943EA0000001183
B1157355602599N00846245EA0000001177
B1157405602604N00846431EA0000001167
B1157485602621N00846743EA0000001148
B1157565602640N00847052EA0000001157
B1158015602651N00847237EA0000001165
B1158065602663N00847416EA0000001170
B1158125602679N00847625EA0000001166
B1158185602693N00847836EA0000001167
B1158255602714N00848086EA0000001173
B1158305602723N00848265EA0000001178
B1158355602733N00848445EA0000001179
B1158415602741N00848662EA0000001175
B1158505602744N00849001EA0000001158
B1158565602742N00849226EA0000001149
B1159015602739N00849412EA0000001145
B1159065602740N00849591EA0000001145
B1159135602745N00849827EA0000001149
B1159245602760N00850179EA0000001148
B1159305602773N00850371EA0000001139
B1159355602796N00850533EA0000001125
B1159405602824N00850701EA0000001115
B1159465602862N00850900EA0000001110
B1159515602897N00851060EA0000001103
B1159565602934N00851221EA0000001087
B1200025602987N00851418EA0000001072
B1200085603046N00851615EA0000001080
B1200135603092N00851771EA0000001094
B1200185603137N00851920EA0000001099
B1200255603201N00852138EA0000001096
B1200305603246N00852291EA0000001113
B1200355603273N00852402EA0000001167
B1200415603298N00852515EA0000001162
B1200475603329N00852672EA0000001158
B1200555603368N00852897EA0000001177
B1201005603403N00853023EA0000001184
B1201055603474N00853028EA0000001192
B1201105603511N00852917EA0000001200
B1201155603469N00852802EA0000001189
B1201205603387N00852782EA0000001187
B1201255603319N00852869EA0000001189
B1201305603287N00852998EA0000001194
B1201355603301N00853119EA0000001201
B1201415603326N00853254EA0000001194
B1201465603348N00853372EA0000001184
B1201515603371N00853479EA0000001183
B1201595603369N00853670EA0000001162
B1202055603347N00853830EA0000001152
B1202115603319N00853988EA0000001148
B1202165603301N00854124EA0000001141
B1202225603281N00854294EA0000001134
B1202285603263N00854470EA0000001131
B1202365603234N00854699EA0000001121
B1202415603214N00854839EA0000001121
B1202465603197N00854965EA0000001130
B1202515603179N00855087EA0000001120
B1202565603164N00855214EA0000001110
B1203045603144N00855435EA0000001093
B1203095603132N00855571EA0000001092
B1203145603122N00855699EA0000001089
B1203195603111N00855826EA0000001076
B1203255603096N00855983EA0000001064
B1203305603063N00856108EA0000001055
B1203385602975N00856287EA0000001046
B1203455602887N00856416EA0000001054
B1203505602822N00856505EA0000001047
B1203565602742N00856632EA0000001029
B1204015602675N00856732EA0000001021
B1204085602575N00856856EA0000001009
B1204155602471N00856962EA0000000998
B1204205602403N00857040EA0000000990
B1204285602301N00857181EA0000000982
B1204355602223N00857320EA0000000979
B1204425602144N00857458EA0000000973
B1204475602088N00857555EA0000000965
B1204525602037N00857660EA0000000964
B1204585602000N00857802EA0000000967
B1205045601987N00857953EA0000000969
B1205115601987N00858102EA0000000996
B1205175601987N00858226EA0000000992
B1205245601999N00858377EA0000001016
B1205305602021N00858499EA0000001021
B1205355602092N00858513EA0000001027
B1205405602143N00858409EA0000001030
B1205455602131N00858252EA0000001011
B1205505602053N00858141EA0000001023
B1205575601935N00858147EA0000001055
B1206025601880N00858226EA0000001054
B1206075601913N00858325EA0000001063
B1206125601984N00858280EA0000001072
B1206175601995N00858133EA0000001093
B1206225601929N00858054EA0000001101
B1206275601862N00858112EA0000001109
B1206325601860N00858222EA0000001116
B1206385601938N00858270EA0000001115
B1206435601997N00858170EA0000001135
B1206485601992N00858032EA0000001153
B1206535601924N00857957EA0000001160
B1206585601868N00858026EA0000001170
B1207035601892N00858126EA0000001167
B1207085601971N00858096EA0000001170
B1207135601999N00857956EA0000001192
B1207185601954N00857836EA0000001191
B1207235601877N00857843EA0000001198
B1207285601851N00857957EA0000001208
B1207335601900N00858037EA0000001212
B1207385601975N00857987EA0000001227
B1207445602004N00857824EA0000001235
B1207495601950N00857710EA0000001230
B1207545601870N00857733EA0000001230
B1207595601828N00857853EA0000001242
B1208045601843N00857973EA0000001251
B1208105601917N00858034EA0000001250
B1208155601984N00857964EA0000001257
B1208205601999N00857823EA0000001256
B1208255601946N00857712EA0000001252
B1208305601869N00857738EA0000001245
B1208355601838N00857866EA0000001251
B1208415601847N00858021EA0000001258
B1208465601866N00858149EA0000001244
B1208515601876N00858295EA0000001219
B1208565601860N00858460EA0000001201
B1209045601818N00858742EA0000001167
B1209105601787N00858972EA0000001142
B1209215601735N00859401EA0000001128
B1209265601720N00859591EA0000001123
B1209315601697N00859771EA0000001116
B1209375601668N00859973EA0000001113
B1209425601645N00900140EA0000001093
B1209495601613N00900396EA0000001061
B1209545601588N00900588EA0000001041
B1210005601561N00900815EA0000001023
B1210065601539N00901039EA0000001013
B1210125601508N00901245EA0000001010
B1210205601462N00901495EA0000001002
B1210255601437N00901654EA0000000980
B1210315601406N00901859EA0000000951
B1210375601378N00902076EA0000000927
B1210445601340N00902336EA0000000904
B1210505601306N00902570EA0000000888
B1211005601249N00902951EA0000000870
B1211055601222N00903142EA0000000867
B1211105601193N00903331EA0000000869
B1211155601163N00903515EA0000000867
B1211205601134N00903700EA0000000859
B1211265601101N00903922EA0000000859
B1211325601068N00904137EA0000000875
B1211375601040N00904296EA0000000890
B1211425601010N00904455EA0000000888
B1211485600975N00904660EA0000000885
B1211535600942N00904830EA0000000899
B1211585600912N00905006EA0000000883
B1212035600878N00905183EA0000000896
B1212095600837N00905368EA0000000911
B1212165600791N00905584EA0000000889
B1212225600756N00905782EA0000000885
B1212285600727N00905972EA0000000893
B1212385600679N00906291EA0000000898
B1212435600651N00906444EA0000000911
B1212485600631N00906589EA0000000924
B1212545600603N00906761EA0000000915
B1212595600586N00906922EA0000000908
B1213045600569N00907087EA0000000906
B1213125600543N00907348EA0000000905
B1213185600531N00907550EA0000000901
B1213245600537N00907761EA0000000888
B1213305600556N00907975EA0000000885
B1213355600582N00908140EA0000000902
B1213405600612N00908275EA0000000934
B1213455600656N00908379EA0000000943
B1213505600733N00908399EA0000000960
B1213555600789N00908291EA0000000988
B1214005600772N00908142EA0000001000
B1214055600708N00908030EA0000001007
B1214105600642N00907926EA0000001022
B1214155600562N00907925EA0000001042
B1214215600532N00908072EA0000001052
B1214265600582N00908147EA0000001071
B1214315600642N00908101EA0000001089
B1214365600649N00907965EA0000001106
B1214425600568N00907851EA0000001124
B1214485600472N00907791EA0000001135
B1214535600391N00907829EA0000001144
B1214585600368N00907948EA0000001159
B1215035600420N00908019EA0000001174
B1215085600484N00907957EA0000001190
B1215135600484N00907825EA0000001209
B1215185600414N00907758EA0000001210
B1215235600340N00907828EA0000001222
B1215295600345N00907968EA0000001254
B1215345600402N00908013EA0000001259
B1215395600454N00907920EA0000001280
B1215445600430N00907793EA0000001297
B1215495600352N00907770EA0000001297
B1215545600301N00907878EA0000001316
B1215595600322N00907987EA0000001328
B1216045600391N00908001EA0000001340
B1216115600427N00907832EA0000001363
B1216175600363N00907699EA0000001384
B1216225600288N00907644EA0000001390
B1216275600205N00907659EA0000001409
B1216325600155N00907747EA0000001429
B1216375600161N00907855EA0000001439
B1216425600218N00907900EA0000001447
B1216475600278N00907826EA0000001461
B1216525600283N00907677EA0000001473
B1216575600217N00907573EA0000001491
B1217025600134N00907586EA0000001509
B1217085600106N00907723EA0000001521
B1217145600176N00907766EA0000001528
B1217195600217N00907644EA0000001540
B1217245600179N00907504EA0000001557
B1217295600100N00907443EA0000001572
B1217345600029N00907503EA0000001583
B1217395600008N00907619EA0000001594
B1217445600052N00907697EA0000001593
B1217495600119N00907650EA0000001603
B1217545600138N00907515EA0000001615
B1217595600091N00907390EA0000001626
B1218045600017N00907337EA0000001636
B1218095559944N00907373EA0000001639
B1218145559903N00907478EA0000001646
B1218195559919N00907584EA0000001648
B1218245559982N00907605EA0000001650
B1218295600032N00907511EA0000001660
B1218345600036N00907371EA0000001671
B1218405559989N00907217EA0000001679
B1218455559919N00907135EA0000001680
B1218505559835N00907135EA0000001686
B1218555559766N00907202EA0000001692
B1219005559735N00907314EA0000001696
B1219055559764N00907411EA0000001694
B1219105559828N00907402EA0000001696
B1219155559864N00907285EA0000001698
B1219205559836N00907139EA0000001697
B1219255559760N00907057EA0000001706
B1219325559653N00907114EA0000001711
B1219375559631N00907226EA0000001717
B1219425559669N00907303EA0000001715
B1219475559729N00907283EA0000001716
B1219525559765N00907173EA0000001711
B1219575559748N00907025EA0000001715
B1220025559695N00906903EA0000001719
B1220075559614N00906852EA0000001715
B1220145559490N00906882EA0000001720
B1220195559405N00906911EA0000001724
B1220255559315N00906983EA0000001722
B1220305559244N00907053EA0000001706
B1220365559162N00907163EA0000001690
B1220425559090N00907277EA0000001692
B1220475559037N00907377EA0000001681
B1220525559004N00907507EA0000001671
B1220595558987N00907706EA0000001656
B1221095558985N00908002EA0000001637
B1221155558988N00908191EA0000001620
B1221205558991N00908356EA0000001605
B1221265558999N00908562EA0000001589
B1221315559020N00908733EA0000001583
B1221365559046N00908904EA0000001577
B1221445559076N00909183EA0000001562
B1221495559097N00909360EA0000001548
B1221555559128N00909570EA0000001553
B1222015559160N00909792EA0000001521
B1222065559184N00909991EA0000001505
B1222125559216N00910233EA0000001483
B1222175559239N00910442EA0000001468
B1222235559265N00910686EA0000001462
B1222295559285N00910935EA0000001447
B1222345559296N00911152EA0000001432
B1222405559316N00911416EA0000001423
B1222465559336N00911680EA0000001414
B1222525559358N00911950EA0000001397
B1222585559372N00912225EA0000001388
B1223035559382N00912455EA0000001381
B1223105559393N00912771EA0000001385
B1223155559385N00912993EA0000001379
B1223215559369N00913253EA0000001367
B1223295559354N00913603EA0000001352
B1223395559353N00914042EA0000001326
B1223475559354N00914381EA0000001329
B1223545559351N00914658EA0000001312
B1224015559361N00914942EA0000001288
B1224075559389N00915178EA0000001288
B1224125559415N00915364EA0000001281
B1224185559447N00915584EA0000001269
B1224235559475N00915765EA0000001260
B1224295559511N00915982EA0000001242
B1224345559538N00916172EA0000001220
B1224395559557N00916373EA0000001209
B1224445559569N00916579EA0000001195
B1224505559579N00916831EA0000001184
B1224565559587N00917080EA0000001168
B1225015559597N00917290EA0000001152
B1225065559613N00917500EA0000001140
B1225125559635N00917754EA0000001118
B1225195559659N00918047EA0000001113
B1225265559645N00918334EA0000001099
B1225345559611N00918659EA0000001098
B1225425559582N00918963EA0000001107
B1225475559567N00919148EA0000001095
B1225525559554N00919340EA0000001082
B1225595559524N00919615EA0000001081
B1226045559508N00919813EA0000001076
B1226095559489N00920013EA0000001064
B1226145559465N00920222EA0000001048
B1226195559437N00920441EA0000001038
B1226255559406N00920706EA0000001051
B1226315559377N00920967EA0000001040
B1226365559352N00921184EA0000001041
B1226415559331N00921394EA0000001043
B1226515559291N00921811EA0000001029
B1226575559267N00922067EA0000001022
B1227045559236N00922368EA0000001026
B1227105559207N00922621EA0000001026
B1227185559175N00922964EA0000001023
B1227235559157N00923185EA0000001016
B1227295559135N00923453EA0000001017
B1227355559107N00923709EA0000001033
B1227405559086N00923908EA0000001048
B1227455559063N00924095EA0000001058
B1227525559042N00924348EA0000001056
B1227595559022N00924601EA0000001056
B1228045559003N00924778EA0000001059
B1228115558984N00925023EA0000001068
B1228185558969N00925251EA0000001074
B1228235558968N00925417EA0000001079
B1228295558973N00925590EA0000001097
B1228345558979N00925739EA0000001087
B1228395558988N00925887EA0000001099
B1228465558998N00926092EA0000001097
B1228535559018N00926309EA0000001085
B1228585559035N00926458EA0000001076
B1229035559054N00926608EA0000001075
B1229085559063N00926760EA0000001070
B1229145559074N00926949EA0000001053
B1229195559089N00927106EA0000001050
B1229255559099N00927290EA0000001048
B1229315559107N00927474EA0000001040
B1229425559133N00927831EA0000001029
B1229475559142N00927990EA0000001024
B1229535559149N00928180EA0000001009
B1229595559167N00928382EA0000000988
B1230095559187N00928737EA0000000988
B1230175559214N00929015EA0000000990
B1230235559237N00929222EA0000000980
B1230285559255N00929403EA0000000954
B1230345559277N00929622EA0000000934
B1230405559295N00929829EA0000000924
B1230465559307N00930024EA0000000906
B1230525559313N00930218EA0000000890
B1230595559312N00930427EA0000000883
B1231105559316N00930752EA0000000870
B1231165559320N00930928EA0000000867
B1231265559341N00931225EA0000000859
B1231335559356N00931431EA0000000863
B1231405559367N00931632EA0000000861
B1231485559380N00931845EA0000000860
B1231535559395N00931982EA0000000855
B1231595559429N00932124EA0000000872
B1232055559469N00932244EA0000000872
B1232115559516N00932350EA0000000870
B1232175559577N00932434EA0000000871
B1232235559642N00932506EA0000000872
B1232305559721N00932598EA0000000881
B1232355559778N00932663EA0000000897
B1232415559844N00932743EA0000000914
B1232465559905N00932728EA0000000917
B1232515559928N00932599EA0000000924
B1232565559882N00932476EA0000000929
B1233025559787N00932475EA0000000926
B1233075559755N00932587EA0000000938
B1233125559785N00932682EA0000000938
B1233175559849N00932679EA0000000943
B1233225559890N00932588EA0000000959
B1233275559889N00932463EA0000000955
B1233325559828N00932362EA0000000951
B1233375559747N00932366EA0000000955
B1233425559689N00932448EA0000000956
B1233495559679N00932617EA0000000958
B1233555559725N00932715EA0000000969
B1234005559781N00932728EA0000000967
B1234055559840N00932662EA0000000961
B1234105559876N00932531EA0000000960
B1234175559879N00932309EA0000000954
B1234245559855N00932075EA0000000938
B1234315559812N00931837EA0000000932
B1234405559742N00931561EA0000000920
B1234465559678N00931381EA0000000915
B1234515559618N00931247EA0000000922
B1234575559543N00931107EA0000000913
B1235035559454N00930975EA0000000894
B1235085559373N00930871EA0000000891
B1235175559226N00930706EA0000000916
B1235225559135N00930666EA0000000925
B1235275559051N00930726EA0000000926
B1235325559016N00930854EA0000000927
B1235375559039N00930981EA0000000930
B1235425559099N00931052EA0000000932
B1235475559169N00931022EA0000000949
B1235525559209N00930915EA0000000975
B1235575559196N00930775EA0000000980
B1236025559126N00930677EA0000000992
B1236075559041N00930709EA0000000996
B1236125559014N00930834EA0000001001
B1236175559066N00930922EA0000001001
B1236225559136N00930873EA0000001024
B1236275559147N00930722EA0000001037
B1236325559079N00930593EA0000001040
B1236375558984N00930611EA0000001056
B1236425558945N00930729EA0000001070
B1236475558974N00930849EA0000001066
B1236525559041N00930891EA0000001084
B1236585559109N00930789EA0000001101
B1237035559104N00930634EA0000001110
B1237085559033N00930527EA0000001110
B1237135558942N00930556EA0000001112
B1237195558911N00930721EA0000001121
B1237245558959N00930818EA0000001131
B1237295559034N00930799EA0000001149
B1237345559064N00930658EA0000001157
B1237395559012N00930522EA0000001167
B1237445558925N00930495EA0000001177
B1237505558858N00930617EA0000001183
B1237555558889N00930724EA0000001193
B1238005558961N00930701EA0000001209
B1238055558988N00930573EA0000001230
B1238105558948N00930441EA0000001235
B1238155558868N00930423EA0000001244
B1238205558819N00930523EA0000001249
B1238255558838N00930643EA0000001250
B1238305558908N00930694EA0000001259
B1238355558979N00930631EA0000001275
B1238405558998N00930488EA0000001272
B1238455558945N00930369EA0000001270
B1238505558861N00930372EA0000001276
B1238555558806N00930467EA0000001287
B1239015558772N00930619EA0000001291
B1239065558746N00930762EA0000001295
B1239155558722N00931033EA0000001300
B1239275558723N00931433EA0000001312
B1239345558714N00931653EA0000001333
B1239435558721N00931903EA0000001345
B1239505558731N00932098EA0000001345
B1239595558737N00932360EA0000001354
B1240055558735N00932549EA0000001349
B1240115558728N00932739EA0000001369
B1240225558736N00933085EA0000001369
B1240275558752N00933254EA0000001351
B1240335558791N00933487EA0000001308
B1240395558860N00933713EA0000001312
B1240445558932N00933885EA0000001292
B1240495559016N00934054EA0000001281
B1240545559102N00934221EA0000001295
B1241035559260N00934491EA0000001305
B1241125559417N00934746EA0000001291
B1241175559506N00934886EA0000001285
B1241235559614N00935054EA0000001301
B1241295559725N00935194EA0000001299
B1241355559840N00935338EA0000001289
B1241435559990N00935525EA0000001283
B1241495600095N00935676EA0000001274
B1241555600199N00935826EA0000001262
B1242035600331N00936022EA0000001255
B1242125600472N00936233EA0000001250
B1242175600548N00936344EA0000001251
B1242235600644N00936466EA0000001251
B1242285600729N00936551EA0000001250
B1242335600809N00936632EA0000001263
B1242395600904N00936709EA0000001272
B1242475601032N00936811EA0000001277
B1242535601128N00936885EA0000001283
B1243005601236N00936972EA0000001275
B1243055601322N00937012EA0000001279
B1243105601411N00937024EA0000001284
B1243155601497N00937017EA0000001287
B1243205601584N00936988EA0000001282
B1243265601665N00936850EA0000001279
B1243315601689N00936663EA0000001273
B1243385601668N00936378EA0000001274
B1243485601641N00935965EA0000001272
B1243535601632N00935765EA0000001264
B1243585601620N00935568EA0000001255
B1244055601600N00935290EA0000001247
B1244315601471N00934279EA0000001212
B1244365601448N00934082EA0000001212
B1244425601421N00933855EA0000001212
B1244555601349N00933385EA0000001213
B1245055601287N00933040EA0000001201
B1245105601259N00932867EA0000001198
B1245165601225N00932661EA0000001185
B1245215601200N00932484EA0000001180
B1245295601169N00932201EA0000001175
B1245345601150N00932022EA0000001178
B1245415601125N00931771EA0000001168
B1246045601034N00930955EA0000001133
B1246115601012N00930713EA0000001117
B1246195600981N00930433EA0000001100
B1246335600915N00929942EA0000001070
B1246385600898N00929774EA0000001064
B1246445600884N00929576EA0000001054
B1247035600818N00928928EA0000001025
B1247105600795N00928689EA0000001012
B1247255600740N00928150EA0000000967
B1247315600717N00927933EA0000000963
B1247365600696N00927753EA0000000950
B1247445600658N00927462EA0000000930
B1247495600629N00927275EA0000000918
B1247585600571N00926941EA0000000901
B1248045600534N00926721EA0000000898
B1248115600495N00926467EA0000000886
B1248185600457N00926212EA0000000871
B1248235600433N00926030EA0000000860
B1248285600409N00925846EA0000000849
B1248345600377N00925623EA0000000832
B1248405600346N00925397EA0000000820
B1248465600311N00925174EA0000000808
B1248525600274N00924952EA0000000800
B1248585600239N00924732EA0000000796
B1249055600197N00924481EA0000000794
B1249105600167N00924305EA0000000783
B1249155600134N00924122EA0000000775
B1249205600098N00923939EA0000000781
B1249265600054N00923728EA0000000786
B1249315600017N00923548EA0000000791
B1249365559985N00923375EA0000000807
B1249415559959N00923211EA0000000818
B1249465559932N00923042EA0000000822
B1249525559840N00922966EA0000000828
B1249585559787N00923078EA0000000816
B1250035559827N00923163EA0000000807
B1250085559903N00923158EA0000000808
B1250145559991N00923149EA0000000822
B1250195600051N00923072EA0000000831
B1250245600071N00922921EA0000000843
B1250325559961N00922781EA0000000856
B1250375559894N00922882EA0000000863
B1250425559919N00923002EA0000000860
B1250475559993N00923010EA0000000869
B1250535600082N00922955EA0000000882
B1250585600127N00922827EA0000000890
B1251035600096N00922664EA0000000905
B1251095559985N00922618EA0000000915
B1251155559938N00922774EA0000000919
B1251205600004N00922850EA0000000918
B1251265600084N00922734EA0000000939
B1251315600074N00922570EA0000000961
B1251375559981N00922470EA0000000972
B1251445559904N00922611EA0000000964
B1251495559967N00922698EA0000000963
B1251545600036N00922602EA0000000982
B1251595600008N00922444EA0000001000
B1252045559912N00922417EA0000000989
B1252105559862N00922589EA0000000996
B1252165559945N00922652EA0000001014
B1252225559997N00922489EA0000001024
B1252275559937N00922340EA0000001036
B1252325559839N00922347EA0000001045
B1252375559796N00922481EA0000001046
B1252425559845N00922581EA0000001065
B1252475559913N00922532EA0000001081
B1252535559938N00922336EA0000001093
B1252585559887N00922189EA0000001114
B1253035559796N00922153EA0000001116
B1253085559732N00922254EA0000001118
B1253135559746N00922386EA0000001123
B1253185559811N00922417EA0000001139
B1253235559858N00922306EA0000001142
B1253285559820N00922150EA0000001151
B1253345559713N00922108EA0000001163
B1253395559663N00922218EA0000001156
B1253445559700N00922332EA0000001156
B1253495559780N00922297EA0000001158
B1253545559830N00922160EA0000001178
B1253595559854N00922001EA0000001194
B1254055559881N00921790EA0000001174
B1254115559915N00921541EA0000001159
B1254165559941N00921311EA0000001135
B1254215559967N00921067EA0000001118
B1254275600006N00920763EA0000001095
B1254325600043N00920514EA0000001079
B1254395600093N00920161EA0000001054
B1254445600125N00919914EA0000001046
B1254495600157N00919671EA0000001046
B1254545600188N00919440EA0000001066
B1254595600213N00919219EA0000001069
B1255045600237N00918994EA0000001049
B1255095600268N00918758EA0000001032
B1255155600310N00918471EA0000001012
B1255205600347N00918225EA0000000989
B1255255600389N00917973EA0000000974
B1255335600459N00917563EA0000000943
B1255385600501N00917297EA0000000915
B1255445600548N00916966EA0000000885
B1255495600584N00916689EA0000000892
B1255545600619N00916420EA0000000897
B1256005600655N00916096EA0000000881
B1256055600679N00915820EA0000000863
B1256105600698N00915536EA0000000854
B1256165600715N00915200EA0000000846
B1256215600720N00914918EA0000000827
B1256265600720N00914627EA0000000797
B1256325600711N00914273EA0000000770
B1256385600699N00913914EA0000000753
B1256435600679N00913615EA0000000746
B1256495600656N00913254EA0000000737
B1256545600646N00912954EA0000000714
B1257025600644N00912473EA0000000691
B1257085600644N00912121EA0000000662
B1257145600628N00911761EA0000000631
B1257195600606N00911463EA0000000609
B1257245600581N00911173EA0000000601
B1257305600556N00910840EA0000000594
B1257395600523N00910366EA0000000570
B1257485600494N00909913EA0000000556
B1257535600476N00909670EA0000000567
B1257585600458N00909445EA0000000575
B1258055600430N00909144EA0000000584
B1258105600407N00908932EA0000000593
B1258155600386N00908737EA0000000629
B1258215600358N00908551EA0000000646
B1258265600332N00908402EA0000000630
B1258315600306N00908234EA0000000619
B1258385600274N00907986EA0000000591
B1258445600252N00907765EA0000000571
B1258495600236N00907586EA0000000578
B1258545600210N00907426EA0000000579
B1258595600178N00907259EA0000000562
B1259045600151N00907081EA0000000578
B1259115600121N00906855EA0000000587
B1259165600101N00906697EA0000000587
B1259225600077N00906505EA0000000591
B1259275600058N00906349EA0000000595
B1259355600024N00906093EA0000000578
B1259405600008N00905925EA0000000564
B1259455559988N00905752EA0000000551
B1259515559961N00905536EA0000000550
B1259585559927N00905280EA0000000543
B1300035559900N00905096EA0000000534
B1300105559864N00904831EA0000000509
B1300165559835N00904605EA0000000493
B1300225559813N00904387EA0000000494
B1300295559782N00904144EA0000000497
B1300355559754N00903937EA0000000512
B1300415559728N00903754EA0000000524
B1300465559709N00903600EA0000000512
B1300515559697N00903428EA0000000501
B1300575559678N00903212EA0000000495
B1301025559662N00903031EA0000000501
B1301075559644N00902859EA0000000510
B1301135559620N00902658EA0000000511
B1301195559600N00902455EA0000000521
B1301245559582N00902284EA0000000525
B1301305559560N00902077EA0000000523
B1301365559542N00901877EA0000000516
B1301415559529N00901706EA0000000502
B1301465559519N00901537EA0000000511
B1301525559509N00901353EA0000000515
B1301575559494N00901190EA0000000505
B1302025559480N00901021EA0000000516
B1302075559472N00900860EA0000000523
B1302125559462N00900700EA0000000511
B1302175559453N00900531EA0000000494
B1302255559432N00900260EA0000000474
B1302305559419N00900097EA0000000461
B1302365559402N00859894EA0000000442
B1302425559380N00859689EA0000000438
B1302515559343N00859388EA0000000423
B1302575559311N00859192EA0000000412
B1303025559259N00859050EA0000000412
B1303075559178N00858972EA0000000411
B1303125559091N00858972EA0000000408
B1303175559018N00859040EA0000000407
B1303225558974N00859149EA0000000406
B1303275558948N00859267EA0000000406
B1303335558936N00859414EA0000000399
B1303385558942N00859535EA0000000400
B1303435558951N00859651EA0000000399
B1303485558965N00859770EA0000000401
B1303535558987N00859884EA0000000402
B1303595559016N00900024EA0000000414
B1304065559050N00900164EA0000000426
B1304115559108N00900208EA0000000431
B1304165559167N00900123EA0000000431
B1304215559173N00859967EA0000000417
B1304265559108N00859845EA0000000403
B1304315559018N00859845EA0000000395
B1304365558968N00859950EA0000000390
B1304415558979N00900077EA0000000403
B1304465558990N00900183EA0000000423
B1304515559011N00900281EA0000000417
B1304565559084N00900252EA0000000425
B1305015559085N00900100EA0000000443
B1305065559010N00900043EA0000000442
B1305125558974N00900181EA0000000436
B1305175559032N00900242EA0000000454
B1305225559093N00900168EA0000000464
B1305275559088N00900020EA0000000453
B1305325559018N00859933EA0000000434
B1305375558948N00859996EA0000000434
B1305425558949N00900118EA0000000440
B1305475558988N00900216EA0000000454
B1305525559029N00900305EA0000000462
B1305575559098N00900299EA0000000465
B1306025559141N00900177EA0000000456
B1306075559112N00900027EA0000000441
B1306125559028N00859985EA0000000419
B1306175558967N00900079EA0000000418
B1306225558945N00900195EA0000000429
B1306275558925N00900318EA0000000433
B1306325558900N00900440EA0000000444
B1306385558880N00900583EA0000000441
B1306435558876N00900713EA0000000424
B1306485558878N00900846EA0000000415
B1306535558899N00900983EA0000000401
B1306585558927N00901103EA0000000415
B1307055558979N00901259EA0000000406
B1307115559035N00901403EA0000000406
B1307175559089N00901545EA0000000402
B1307225559139N00901665EA0000000397
B1307275559191N00901778EA0000000409
B1307325559241N00901889EA0000000415
B1307375559295N00901985EA0000000415
B1307425559359N00902076EA0000000395
B1307485559439N00902180EA0000000398
B1307565559532N00902321EA0000000383
B1308015559592N00902405EA0000000385
B1308065559666N00902467EA0000000382
B1308115559749N00902466EA0000000377
B1308165559817N00902354EA0000000386
B1308235559837N00902117EA0000000399
B1308285559817N00901937EA0000000392
B1308355559769N00901668EA0000000365
B1308405559734N00901467EA0000000359
B1308455559706N00901267EA0000000358
B1308505559684N00901077EA0000000355
B1308575559655N00900797EA0000000328
B1309055559618N00900471EA0000000325
B1309105559595N00900275EA0000000318
B1309155559584N00900078EA0000000307
B1309205559587N00859884EA0000000295
B1309255559605N00859693EA0000000281
B1309305559645N00859509EA0000000264
B1309365559716N00859315EA0000000257
B1309425559798N00859152EA0000000238
B1309485559902N00859027EA0000000217
B1309535559996N00858942EA0000000200
B1309595600117N00858922EA0000000186
B1310055600233N00858968EA0000000174
B1310105600327N00859021EA0000000165
B1310165600444N00859079EA0000000152
B1310225600549N00859183EA0000000152
B1310275600615N00859322EA0000000133
B1310325600636N00859507EA0000000117
B1310405600638N00859817EA0000000097
B1310465600633N00900047EA0000000072
B1310585600631N00900497EA0000000041
B1311045600627N00900680EA0000000041
B1311105600622N00900806EA0000000041
B1311185600607N00900918EA0000000042
