AOGNOGN
HFDTE250625
HFFXA050
HFPLTPILOTINCHARGE:
HFGTYGLIDERTYPE:
HFGIDGLIDERID:
HFDTM100GPSDATUM:WGS-1984
HFRFWFIRMWAREVERSION:
HFRHWHARDWAREVERSION:
HFFTYFRTYPE:OGN-FLIGHTBOOK
HFGPSGENERIC
HFPRSPRESSALTSENSOR:
HFCIDCOMPETITIONID:
B1713285600207N00906076EA0000000126
B1713335600200N00906045EA0000000153
B1713385600190N00906000EA0000000207
B1713435600181N00905948EA0000000248
B1713485600173N00905903EA0000000282
B1713585600159N00905811EA0000000350
B1714035600151N00905762EA0000000383
B1714085600144N00905713EA0000000415
B1714135600142N00905662EA0000000441
B1714185600139N00905608EA0000000467
B1714235600135N00905552EA0000000493
B1714285600133N00905498EA0000000512
B1714335600131N00905444EA0000000529
B1714385600126N00905389EA0000000544
B1714435600122N00905331EA0000000552
B1714485600124N00905272EA0000000553
B1714535600139N00905254EA0000000555
B1714585600164N00905249EA0000000551
B1715035600189N00905247EA0000000546
B1715135600239N00905242EA0000000531
B1715185600262N00905241EA0000000525
B1715235600281N00905236EA0000000517
B1715285600295N00905191EA0000000500
B1715345600314N00905173EA0000000501
B1715395600355N00905167EA0000000494
B1715445600386N00905179EA0000000491
B1715495600417N00905178EA0000000487
B1716345600431N00905470EA0000000440
B1716395600464N00905491EA0000000436
B1716445600497N00905506EA0000000428
B1716495600532N00905518EA0000000425
B1716545600558N00905511EA0000000420
B1716595600576N00905489EA0000000411
B1717045600585N00905469EA0000000404
B1717095600596N00905429EA0000000389
B1717145600599N00905400EA0000000390
B1717195600577N00905372EA0000000380
B1717245600537N00905443EA0000000379
B1717295600548N00905527EA0000000379
B1717395600594N00905516EA0000000370
B1717445600592N00905482EA0000000362
B1717495600574N00905446EA0000000354
B1717545600546N00905442EA0000000351
B1717595600498N00905496EA0000000340
B1718045600484N00905574EA0000000338
B1718095600498N00905661EA0000000341
B1718145600528N00905686EA0000000337
B1718195600518N00905653EA0000000340
B1718245600480N00905684EA0000000347
B1718345600503N00905811EA0000000345
B1718395600522N00905780EA0000000343
B1718445600502N00905756EA0000000349
B1718495600462N00905798EA0000000340
B1718545600466N00905869EA0000000335
B1718595600507N00905882EA0000000333
B1719045600522N00905864EA0000000333
B1719095600536N00905819EA0000000321
B1719145600526N00905788EA0000000311
B1719195600494N00905764EA0000000299
B1719245600464N00905739EA0000000290
B1719345600389N00905726EA0000000273
B1719405600375N00905809EA0000000272
B1719455600404N00905861EA0000000270
B1719505600419N00905837EA0000000264
B1719555600410N00905794EA0000000260
B1720305600296N00906101EA0000000207
B1720355600321N00906091EA0000000194
B1720405600334N00906048EA0000000188
B1720505600361N00905979EA0000000168
B1720555600393N00906027EA0000000154
B1721005600376N00906114EA0000000146
B1721105600311N00906235EA0000000114
B1721155600290N00906315EA0000000103
B1721205600261N00906306EA0000000095
B1721255600285N00906280EA0000000086
B1721305600296N00906242EA0000000074
B1730025600202N00906036EA0000000142
B1730075600192N00905964EA0000000196
B1730125600183N00905910EA0000000240
B1730175600176N00905854EA0000000290
B1730225600170N00905800EA0000000334
B1730275600164N00905747EA0000000370
B1730325600163N00905689EA0000000400
B1730375600162N00905633EA0000000428
B1730425600158N00905573EA0000000451
B1730475600156N00905510EA0000000470
B1730525600158N00905449EA0000000486
B1731025600157N00905326EA0000000505
B1731075600152N00905263EA0000000509
B1731125600163N00905224EA0000000509
B1731175600189N00905229EA0000000501
B1731225600220N00905247EA0000000493
B1731275600252N00905256EA0000000482
B1731325600284N00905254EA0000000476
B1731375600313N00905247EA0000000470
B1731425600341N00905237EA0000000467
B1731475600372N00905228EA0000000462
B1731525600395N00905220EA0000000457
B1731575600428N00905209EA0000000450
B1732025600459N00905197EA0000000446
B1732075600478N00905180EA0000000440
B1732185600520N00905127EA0000000426
B1732235600536N00905102EA0000000422
B1732285600552N00905079EA0000000417
B1732335600571N00905052EA0000000409
B1733085600668N00904858EA0000000368
B1733135600648N00904829EA0000000359
B1733185600615N00904833EA0000000358
B1733235600576N00904901EA0000000349
B1733285600547N00904990EA0000000344
B1733335600522N00905073EA0000000326
B1733385600485N00905176EA0000000324
B1733435600460N00905245EA0000000318
B1733485600422N00905368EA0000000309
B1733535600399N00905438EA0000000305
B1733585600363N00905541EA0000000296
B1734035600336N00905628EA0000000289
B1734085600316N00905733EA0000000272
B1734135600303N00905833EA0000000273
B1734185600301N00905942EA0000000259
B1734235600299N00906026EA0000000253
B1734285600308N00906128EA0000000242
B1734335600337N00906196EA0000000237
B1734435600379N00906157EA0000000235
B1734485600373N00906124EA0000000232
B1734535600339N00906146EA0000000225
B1734585600325N00906240EA0000000210
B1735035600307N00906342EA0000000200
B1735085600283N00906322EA0000000186
B1735185600332N00906273EA0000000166
B1735235600351N00906255EA0000000159
B1735285600368N00906212EA0000000144
B1735335600384N00906177EA0000000134
B1735385600360N00906163EA0000000119
B1735435600333N00906241EA0000000113
B1735485600297N00906315EA0000000103
B1735535600260N00906308EA0000000085
B1735585600254N00906255EA0000000067
B1742055600200N00906052EA0000000123
B1742105600190N00906008EA0000000155
B1742155600186N00905962EA0000000192
B1742205600183N00905912EA0000000229
B1742305600178N00905816EA0000000301
B1742355600168N00905770EA0000000333
B1742405600155N00905718EA0000000363
B1742455600149N00905664EA0000000392
B1742505600146N00905622EA0000000416
B1743005600147N00905489EA0000000464
B1743055600148N00905444EA0000000474
B1743105600146N00905372EA0000000485
B1743155600141N00905310EA0000000491
B1743205600142N00905250EA0000000492
B1743255600158N00905225EA0000000494
B1743305600192N00905196EA0000000471
B1743355600217N00905183EA0000000473
B1743405600241N00905157EA0000000462
B1743455600251N00905120EA0000000453
B1743505600247N00905077EA0000000444
B1743555600240N00905030EA0000000435
B1744055600246N00904954EA0000000415
B1744105600281N00904960EA0000000409
B1744155600310N00905037EA0000000401
B1744205600296N00905135EA0000000394
B1744255600251N00905184EA0000000380
B1744355600167N00905237EA0000000368
B1744405600115N00905267EA0000000357
B1744565559986N00905415EA0000000341
B1745015559954N00905484EA0000000338
B1745065559920N00905567EA0000000333
B1745115559886N00905648EA0000000329
B1745165559866N00905744EA0000000325
B1745265559898N00905886EA0000000328
B1745315559918N00905863EA0000000329
B1745365559916N00905825EA0000000328
B1745415559907N00905789EA0000000324
B1745465559881N00905767EA0000000321
B1745565559826N00905876EA0000000317
B1746015559848N00905958EA0000000306
B1746065559884N00905989EA0000000307
B1746115559915N00905988EA0000000300
B1746165559943N00905982EA0000000299
B1746215559969N00905967EA0000000294
B1746265559986N00905944EA0000000293
B1746365600019N00905864EA0000000284
B1746465600065N00905854EA0000000269
B1746515600087N00905949EA0000000260
B1746565600111N00906034EA0000000254
B1747015600139N00906106EA0000000246
B1747065600173N00906161EA0000000236
B1747165600249N00906235EA0000000220
B1747215600288N00906264EA0000000211
B1747265600324N00906278EA0000000205
B1747315600346N00906257EA0000000197
B1747365600359N00906219EA0000000190
B1747415600378N00906188EA0000000183
B1747465600398N00906169EA0000000175
B1747515600410N00906129EA0000000163
B1747565600401N00906085EA0000000149
B1748065600343N00906096EA0000000125
B1748125600332N00906179EA0000000112
B1748175600316N00906307EA0000000095
B1748225600267N00906317EA0000000082
B1754185600204N00905989EA0000000205
B1754235600195N00905944EA0000000243
B1754285600184N00905901EA0000000286
B1754335600173N00905861EA0000000326
B1754385600161N00905811EA0000000360
B1754435600148N00905758EA0000000391
B1754485600135N00905703EA0000000416
B1754535600128N00905649EA0000000436
B1754585600126N00905594EA0000000459
B1755035600121N00905536EA0000000478
B1755085600117N00905475EA0000000495
B1755185600119N00905367EA0000000516
B1755345600158N00905296EA0000000509
B1755395600194N00905363EA0000000505
B1755445600227N00905372EA0000000498
B1755495600245N00905335EA0000000490
B1755545600255N00905299EA0000000481
B1755595600267N00905261EA0000000471
B1756045600278N00905224EA0000000462
B1756095600288N00905197EA0000000455
B1756195600301N00905115EA0000000438
B1756245600307N00905072EA0000000430
B1756295600311N00905027EA0000000422
B1756345600316N00904983EA0000000413
B1756395600322N00904940EA0000000403
B1756445600332N00904897EA0000000397
B1756545600349N00904820EA0000000382
B1756595600355N00904780EA0000000372
B1757045600359N00904739EA0000000359
B1757095600364N00904697EA0000000350
B1757145600368N00904663EA0000000343
B1757195600379N00904609EA0000000328
B1757245600384N00904574EA0000000325
B1757295600414N00904547EA0000000304
B1757345600415N00904649EA0000000297
B1757395600385N00904734EA0000000282
B1757445600359N00904825EA0000000274
B1757495600343N00904932EA0000000262
B1757545600334N00905040EA0000000253
B1757595600329N00905147EA0000000243
B1758045600334N00905252EA0000000236
B1758145600357N00905453EA0000000218
B1758195600368N00905554EA0000000210
B1758245600379N00905659EA0000000206
B1758295600385N00905762EA0000000201
B1758345600386N00905867EA0000000197
B1758405600376N00905964EA0000000186
B1758455600359N00906053EA0000000182
B1758505600350N00906150EA0000000174
B1759255600354N00906212EA0000000132
B1759305600360N00906169EA0000000122
B1759405600306N00906192EA0000000103
B1759555600254N00906244EA0000000061
B1800005600245N00906199EA0000000054
B1800055600236N00906152EA0000000042
B1808525600211N00906082EA0000000105
B1808575600200N00906018EA0000000154
B1809025600195N00905982EA0000000182
B1809075600189N00905936EA0000000216
B1809125600184N00905888EA0000000251
B1809175600179N00905839EA0000000284
B1809225600169N00905780EA0000000319
B1809275600161N00905729EA0000000349
B1809325600155N00905677EA0000000375
B1809425600151N00905564EA0000000423
B1809475600148N00905519EA0000000442
B1809525600141N00905455EA0000000463
B1809575600139N00905394EA0000000481
B1810025600142N00905328EA0000000492
B1810075600146N00905261EA0000000502
B1810125600148N00905211EA0000000507
B1810175600184N00905192EA0000000505
B1810225600215N00905229EA0000000505
B1810285600262N00905308EA0000000477
B1810335600301N00905409EA0000000484
B1810385600341N00905466EA0000000459
B1810435600317N00905493EA0000000445
B1811235600173N00905837EA0000000330
B1811285600198N00905937EA0000000336
B1811335600190N00906011EA0000000295
B1811385600155N00906071EA0000000281
B1811435600192N00906145EA0000000271
B1811485600219N00906226EA0000000259
B1811535600260N00906291EA0000000252
B1811585600297N00906288EA0000000240
B1812035600322N00906278EA0000000236
B1812135600375N00906197EA0000000206
B1812235600387N00906109EA0000000181
B1812285600409N00906076EA0000000169
B1812385600384N00906044EA0000000153
B1812435600357N00906127EA0000000140
B1812485600345N00906230EA0000000129
B1812535600328N00906318EA0000000122
B1812585600297N00906375EA0000000111
B1813035600263N00906362EA0000000101
B1813085600274N00906312EA0000000087
B1813135600289N00906267EA0000000079
B1813185600258N00906230EA0000000064
B1813235600238N00906173EA0000000052
B1814085600227N00906101EA0000000040
B1823115600212N00906078EA0000000094
B1823165600204N00906034EA0000000128
B1823215600198N00905991EA0000000162
B1823265600191N00905941EA0000000205
B1823315600180N00905888EA0000000244
B1823415600178N00905783EA0000000312
B1823465600171N00905731EA0000000343
B1823515600166N00905681EA0000000377
B1824015600164N00905573EA0000000420
B1824065600159N00905519EA0000000439
B1824115600156N00905460EA0000000456
B1824165600155N00905398EA0000000470
B1824215600151N00905333EA0000000480
B1824315600156N00905209EA0000000487
B1824365600159N00905164EA0000000488
B1824415600137N00905129EA0000000477
B1824465600105N00905108EA0000000472
B1824515600081N00905094EA0000000466
B1824565600052N00905072EA0000000459
B1825015600027N00905044EA0000000451
B1825065600000N00905021EA0000000445
B1825115559967N00905006EA0000000435
B1825175559940N00904994EA0000000428
B1825225559895N00904963EA0000000414
B1825275559860N00904954EA0000000406
B1826075559550N00905153EA0000000374
B1826125559546N00905243EA0000000369
B1826175559578N00905305EA0000000362
B1826225559617N00905317EA0000000354
B1826275559652N00905309EA0000000353
B1826325559649N00905283EA0000000349
B1826375559616N00905300EA0000000346
B1826425559596N00905380EA0000000340
B1826525559657N00905511EA0000000325
B1827025559741N00905574EA0000000314
B1827075559795N00905627EA0000000305
B1827125559835N00905670EA0000000303
B1827175559877N00905707EA0000000293
B1827225559918N00905736EA0000000283
B1827325559999N00905814EA0000000268
B1827375600037N00905861EA0000000260
B1827425600075N00905919EA0000000252
B1827475600108N00905985EA0000000245
B1827525600141N00906051EA0000000235
B1827575600166N00906106EA0000000227
B1828025600192N00906190EA0000000216
B1828075600218N00906277EA0000000206
B1828125600254N00906326EA0000000198
B1828225600324N00906315EA0000000183
B1828275600334N00906273EA0000000175
B1828325600362N00906248EA0000000166
B1828375600364N00906213EA0000000158
B1828425600372N00906186EA0000000150
B1828475600395N00906155EA0000000140
B1828525600390N00906110EA0000000131
B1829025600360N00906111EA0000000111
B1829075600341N00906200EA0000000099
B1829125600322N00906285EA0000000094
B1829175600289N00906340EA0000000084
B1829225600262N00906312EA0000000070
