AOGNOGN
HFDTE240825
HFFXA050
HFPLTPILOTINCHARGE:
HFGTYGLIDERTYPE:Duo Discus xlt
HFGIDGLIDERID:OY-MXF
HFDTM100GPSDATUM:WGS-1984
HFRFWFIRMWAREVERSION:
HFRHWHARDWAREVERSION:
HFFTYFRTYPE:OGN-FLIGHTBOOK
HFGPSGENERIC
HFPRSPRESSALTSENSOR:
HFCIDCOMPETITIONID:MF
B1214125527185N01138907EA0000000048
B1214125527185N01138907EA0000000048
B1214195527184N01138726EA0000000174
B1214245527178N01138594EA0000000256
B1214295527171N01138455EA0000000321
B1214355527177N01138288EA0000000360
B1214415527185N01138174EA0000000408
B1215205527082N01138447EA0000000432
B1215255527150N01138512EA0000000442
B1215305527175N01138419EA0000000442
B1215365527078N01138431EA0000000458
B1215415527068N01138604EA0000000463
B1215465527138N01138637EA0000000481
B1215535527100N01138530EA0000000488
B1215585527031N01138633EA0000000490
B1216035527065N01138785EA0000000490
B1216105527150N01138725EA0000000499
B1216405527016N01138971EA0000000554
B1216455527072N01139079EA0000000561
B1216505527109N01139006EA0000000571
B1216555527043N01138970EA0000000573
B1217015527006N01139151EA0000000584
B1217065527073N01139221EA0000000594
B1217115527100N01139137EA0000000598
B1217185526994N01139153EA0000000605
B1217235526965N01139328EA0000000608
B1217285527032N01139435EA0000000619
B1217355527068N01139333EA0000000630
B1217425526956N01139397EA0000000637
B1217475526967N01139571EA0000000653
B1217525527042N01139619EA0000000656
B1217585527052N01139511EA0000000663
B1218045526955N01139574EA0000000662
B1218335526979N01139866EA0000000671
B1218385527045N01139832EA0000000674
B1218535526879N01139779EA0000000674
B1219005526892N01139989EA0000000702
B1219055526961N01139977EA0000000703
B1219105526977N01139870EA0000000697
B1219185526851N01139844EA0000000712
B1219235526815N01140020EA0000000711
B1219285526879N01140142EA0000000723
B1219375526919N01140001EA0000000727
B1219445526797N01140100EA0000000742
B1219515526836N01140336EA0000000740
B1219565526926N01140331EA0000000737
B1220455526710N01140576EA0000000808
B1220505526757N01140739EA0000000819
B1220555526836N01140745EA0000000823
B1221005526851N01140636EA0000000821
B1221055526771N01140603EA0000000827
B1221105526702N01140734EA0000000845
B1221165526729N01140934EA0000000846
B1221215526807N01140963EA0000000847
B1221345526733N01140771EA0000000859
B1221395526657N01140869EA0000000862
B1221455526660N01141072EA0000000880
B1221515526744N01141131EA0000000871
B1222145526539N01141034EA0000000876
B1222195526524N01141223EA0000000893
B1222245526587N01141319EA0000000910
B1222295526650N01141272EA0000000912
B1222345526643N01141152EA0000000931
B1222425526518N01141137EA0000000946
B1222515526439N01141455EA0000000936
B1222595526404N01141780EA0000000950
B1223085526371N01142157EA0000000954
B1223175526315N01142528EA0000000956
B1223225526242N01142701EA0000000957
B1223275526141N01142788EA0000000962
B1223325526041N01142776EA0000000954
B1223375525953N01142703EA0000000935
B1223425525890N01142584EA0000000920
B1223485525869N01142411EA0000000908
B1223585525871N01142147EA0000000907
B1224055525879N01141970EA0000000898
B1224115525887N01141813EA0000000887
B1224195525902N01141608EA0000000875
B1224255525914N01141456EA0000000869
B1224315525928N01141302EA0000000852
B1224365525940N01141163EA0000000835
B1224425525950N01140983EA0000000820
B1224485525960N01140805EA0000000814
B1224565525978N01140570EA0000000802
B1225025525992N01140406EA0000000815
B1225075526000N01140284EA0000000823
B1225135526009N01140143EA0000000810
B1225185526019N01140009EA0000000808
B1225235526024N01139876EA0000000808
B1225315526008N01139684EA0000000830
B1225435525968N01139417EA0000000825
B1225505525954N01139262EA0000000805
B1226045526017N01138969EA0000000788
B1226105526048N01138847EA0000000788
B1226245526122N01138534EA0000000779
B1226295526152N01138423EA0000000754
B1226345526171N01138286EA0000000755
B1226415526199N01138116EA0000000760
B1226495526223N01137952EA0000000764
B1226555526240N01137819EA0000000744
B1227035526276N01137633EA0000000723
B1227085526301N01137526EA0000000719
B1227145526336N01137380EA0000000692
B1227205526373N01137251EA0000000709
B1227265526404N01137125EA0000000702
B1227315526424N01137013EA0000000691
B1227375526430N01136857EA0000000691
B1227545526416N01136458EA0000000701
B1228005526329N01136420EA0000000691
B1228055526268N01136590EA0000000675
B1228105526298N01136768EA0000000666
B1228165526389N01136848EA0000000654
B1228395526333N01136918EA0000000664
B1228475526436N01136941EA0000000665
B1228535526437N01136826EA0000000672
B1228585526344N01136842EA0000000657
B1229035526294N01137020EA0000000656
B1229105526363N01137158EA0000000650
B1229155526422N01137133EA0000000657
B1229315526429N01136772EA0000000616
B1229365526413N01136640EA0000000634
B1229495526374N01136420EA0000000652
B1229565526344N01136285EA0000000655
B1230015526315N01136200EA0000000652
B1230075526294N01136089EA0000000638
B1231215526559N01134497EA0000000522
B1231335526593N01134251EA0000000517
B1231575526405N01134048EA0000000549
B1232105526484N01134139EA0000000572
B1232175526381N01134232EA0000000600
B1232275526473N01134339EA0000000607
B1232345526379N01134313EA0000000620
B1232395526355N01134489EA0000000643
B1232445526417N01134578EA0000000646
B1232515526444N01134479EA0000000661
B1232575526362N01134441EA0000000671
B1233025526302N01134559EA0000000691
B1233115526372N01134782EA0000000696
B1233175526404N01134705EA0000000711
B1233225526352N01134649EA0000000719
B1233275526274N01134701EA0000000727
B1233335526243N01134899EA0000000749
B1233465526361N01134955EA0000000764
B1233525526289N01134912EA0000000756
B1233595526210N01135110EA0000000796
B1234055526256N01135267EA0000000793
B1234165526322N01135185EA0000000810
B1234215526262N01135148EA0000000819
B1234275526172N01135240EA0000000833
B1234325526153N01135401EA0000000842
B1234385526215N01135530EA0000000841
B1234495526275N01135413EA0000000855
B1234555526200N01135376EA0000000858
B1235005526121N01135474EA0000000865
B1235065526112N01135673EA0000000877
B1235135526202N01135748EA0000000889
B1235205526224N01135642EA0000000889
B1235255526176N01135588EA0000000912
B1235315526081N01135632EA0000000897
B1235375526012N01135807EA0000000906
B1235445526046N01136018EA0000000914
B1235495526110N01136031EA0000000909
B1235575526128N01135890EA0000000918
B1236025526055N01135868EA0000000922
B1236075525983N01135988EA0000000920
B1236145526003N01136209EA0000000925
B1236195526075N01136249EA0000000925
B1236315526020N01136058EA0000000914
B1237245525216N01134988EA0000000855
B1237325525101N01134818EA0000000845
B1237425524970N01134640EA0000000885
B1237475524890N01134653EA0000000878
B1237535524856N01134841EA0000000866
B1237585524924N01134935EA0000000849
B1238035524988N01134883EA0000000849
B1238105525023N01134732EA0000000846
B1238175525021N01134581EA0000000848
B1238375524968N01134159EA0000000874
B1238485524940N01134392EA0000000874
B1238535524996N01134329EA0000000877
B1238585524993N01134222EA0000000884
B1239055524882N01134278EA0000000883
B1239105524861N01134460EA0000000886
B1239155524900N01134623EA0000000888
B1239215524989N01134711EA0000000893
B1239325525004N01134533EA0000000902
B1239385524902N01134559EA0000000902
B1239435524865N01134732EA0000000898
B1239485524912N01134889EA0000000898
B1239565525032N01135002EA0000000905
B1240045525101N01134873EA0000000889
B1240095525076N01134771EA0000000891
B1240165524992N01134653EA0000000879
B1240245524844N01134637EA0000000869
B1240295524744N01134660EA0000000883
B1240345524654N01134677EA0000000889
B1240415524532N01134783EA0000000886
B1240465524463N01134927EA0000000883
B1240515524439N01135114EA0000000873
B1240575524462N01135336EA0000000878
B1241025524497N01135506EA0000000881
B1241235524612N01135472EA0000000879
B1241285524524N01135476EA0000000875
B1241425524282N01135782EA0000000877
B1241475524266N01135960EA0000000878
B1241535524332N01136108EA0000000874
B1241585524385N01136062EA0000000872
B1242035524355N01135963EA0000000872
B1242125524197N01135972EA0000000860
B1242195524062N01136033EA0000000861
B1242485523531N01136543EA0000000814
B1242555523416N01136441EA0000000788
B1243015523351N01136295EA0000000778
B1243085523294N01136110EA0000000773
B1243155523247N01135946EA0000000778
B1243235523197N01135744EA0000000760
B1243295523163N01135604EA0000000777
B1243355523132N01135491EA0000000770
B1243405523106N01135390EA0000000759
B1243455523076N01135279EA0000000751
B1244235522744N01134458EA0000000705
B1244295522679N01134337EA0000000724
B1244345522600N01134338EA0000000737
B1244445522534N01134638EA0000000719
B1244535522663N01134634EA0000000710
B1245045522658N01134391EA0000000737
B1245345522703N01134474EA0000000722
B1245415522641N01134659EA0000000738
B1245475522717N01134713EA0000000737
B1246355522769N01135145EA0000000759
B1246425522742N01135007EA0000000751
B1246475522654N01134995EA0000000747
B1246525522591N01135126EA0000000777
B1247555522625N01135719EA0000000785
B1248025522534N01135853EA0000000803
B1248205522584N01135928EA0000000797
B1248265522502N01136071EA0000000800
B1248315522504N01136247EA0000000806
B1248435522550N01136183EA0000000797
B1248525522446N01136404EA0000000800
B1248575522480N01136554EA0000000799
B1249035522563N01136562EA0000000802
B1249115522531N01136437EA0000000798
B1249165522451N01136509EA0000000799
B1249215522414N01136673EA0000000795
B1249265522436N01136849EA0000000785
B1249335522528N01137044EA0000000766
B1249395522620N01137192EA0000000749
B1249455522720N01137344EA0000000732
B1249515522816N01137491EA0000000736
B1249575522905N01137640EA0000000741
B1250025522975N01137759EA0000000749
B1250075523043N01137871EA0000000749
B1250135523129N01138015EA0000000732
B1250195523217N01138166EA0000000722
B1250255523299N01138310EA0000000730
B1250315523371N01138452EA0000000737
B1250395523470N01138649EA0000000737
B1250465523562N01138824EA0000000733
B1250535523662N01138942EA0000000742
B1251015523606N01138850EA0000000741
B1251065523556N01139001EA0000000747
B1251135523594N01139235EA0000000745
B1251225523666N01139167EA0000000744
B1251395523414N01139044EA0000000731
B1251445523324N01139105EA0000000732
B1251535523176N01139252EA0000000749
B1251585523134N01139401EA0000000746
B1252045523209N01139478EA0000000755
B1252115523175N01139356EA0000000763
B1252165523105N01139463EA0000000771
B1252215523130N01139607EA0000000775
B1252275523187N01139544EA0000000782
B1252325523116N01139508EA0000000775
B1252385523058N01139676EA0000000794
B1252435523097N01139808EA0000000803
B1252505523170N01139756EA0000000797
B1252565523097N01139677EA0000000804
B1253025523024N01139833EA0000000802
B1253075523026N01140001EA0000000822
B1253125523087N01140040EA0000000824
B1253195523059N01139922EA0000000824
B1253265523009N01140102EA0000000841
B1253395523058N01140012EA0000000837
B1253495522976N01140261EA0000000855
B1254025523004N01140196EA0000000860
B1254115522968N01140444EA0000000867
B1254265522951N01140380EA0000000856
B1254365522914N01140667EA0000000868
B1254505522921N01140536EA0000000874
B1254555522860N01140659EA0000000870
B1255005522878N01140815EA0000000879
B1255075522969N01140873EA0000000880
B1255145522932N01140748EA0000000877
B1255195522857N01140829EA0000000875
B1255275522831N01141094EA0000000891
B1255335522905N01141155EA0000000903
B1255445522815N01141069EA0000000878
B1255525522782N01141338EA0000000897
B1256045522795N01141274EA0000000910
B1256095522743N01141414EA0000000921
B1256145522794N01141510EA0000000926
B1256195522831N01141432EA0000000925
B1256375522751N01141692EA0000000951
B1257295523197N01140749EA0000000926
B1257355523113N01140715EA0000000918
B1257435523107N01140944EA0000000934
B1257485523183N01140944EA0000000941
B1257545523242N01140847EA0000000922
B1258005523299N01140713EA0000000895
B1258075523352N01140523EA0000000872
B1258125523366N01140370EA0000000864
B1258195523368N01140149EA0000000846
B1258305523356N01139790EA0000000830
B1258375523342N01139568EA0000000821
B1258425523331N01139434EA0000000834
B1258515523309N01139207EA0000000831
B1259025523271N01138907EA0000000798
B1259095523240N01138753EA0000000848
B1259175523165N01138610EA0000000857
B1259225523112N01138739EA0000000850
B1259285523188N01138819EA0000000860
B1259425523281N01138517EA0000000852
B1259515523316N01138310EA0000000881
B1300005523328N01138098EA0000000885
B1300075523341N01137967EA0000000910
B1300175523354N01137736EA0000000941
B1300235523351N01137614EA0000000937
B1300285523365N01137537EA0000000949
B1300335523393N01137455EA0000000942
B1300435523454N01137249EA0000000935
B1300525523502N01137036EA0000000909
B1300575523531N01136902EA0000000901
B1301065523560N01136683EA0000000946
B1301445523605N01135883EA0000000959
B1301505523642N01135772EA0000000956
B1301575523693N01135639EA0000000960
B1302025523730N01135532EA0000000960
B1302075523770N01135421EA0000000959
B1302145523825N01135254EA0000000951
B1302375524028N01134744EA0000000948
B1303145524697N01135058EA0000000929
B1303225524843N01135202EA0000000906
B1303315525006N01135363EA0000000903
B1303395525149N01135517EA0000000890
B1303445525221N01135669EA0000000890
B1303535525291N01135987EA0000000885
B1303585525329N01136181EA0000000872
B1304065525385N01136502EA0000000856
B1304135525431N01136795EA0000000843
B1304205525476N01137091EA0000000840
B1304405525555N01137839EA0000000842
B1305355525883N01139803EA0000000839
B1305405525929N01139977EA0000000825
B1306355526621N01141760EA0000000757
B1306415526701N01141943EA0000000745
B1307285527068N01143683EA0000000688
B1307465526659N01143845EA0000000657
B1307545526483N01143747EA0000000657
B1308055526257N01143580EA0000000666
B1308485526399N01142372EA0000000610
B1308545526429N01142189EA0000000610
B1309015526466N01141971EA0000000600
B1309065526489N01141812EA0000000596
B1309115526498N01141646EA0000000587
B1309195526465N01141381EA0000000575
B1309265526425N01141155EA0000000563
B1309315526393N01140996EA0000000550
B1309385526351N01140778EA0000000538
B1309445526323N01140596EA0000000529
B1309545526329N01140311EA0000000516
B1310035526330N01140055EA0000000503
B1310115526318N01139827EA0000000488
B1310205526304N01139566EA0000000465
B1310265526296N01139393EA0000000453
B1310345526288N01139162EA0000000442
B1310405526282N01138983EA0000000434
B1310465526278N01138803EA0000000441
B1310525526280N01138619EA0000000432
B1310575526295N01138465EA0000000421
B1311235526386N01137628EA0000000365
B1311385526249N01137255EA0000000372
B1311435526161N01137319EA0000000392
B1311485526134N01137483EA0000000379
B1311535526180N01137616EA0000000359
B1312005526284N01137730EA0000000340
B1312055526362N01137801EA0000000334
B1312125526475N01137883EA0000000329
B1312175526556N01137931EA0000000323
B1312225526630N01137930EA0000000321
B1312285526674N01137828EA0000000303
B1312335526685N01137710EA0000000290
B1312385526697N01137590EA0000000277
B1312445526714N01137438EA0000000273
B1312515526731N01137259EA0000000267
B1312565526770N01137140EA0000000267
B1313015526846N01137092EA0000000265
B1313065526934N01137180EA0000000262
B1313275526793N01138049EA0000000233
B1313325526772N01138262EA0000000238
B1313375526756N01138465EA0000000235
B1313425526740N01138667EA0000000224
B1313495526739N01138946EA0000000225
B1314275527061N01139940EA0000000178
B1314335527142N01139873EA0000000176
B1314405527172N01139717EA0000000165
B1314475527169N01139540EA0000000125
B1314545527164N01139349EA0000000095
B1315015527152N01139157EA0000000068
B1315065527149N01139023EA0000000049
B1315195527149N01138675EA0000000031
B1315245527146N01138553EA0000000030
B1316085527121N01138351EA0000000032
