AOGNOGN
HFDTE240825
HFFXA050
HFPLTPILOTINCHARGE:
HFGTYGLIDERTYPE:Duo Discus xlt
HFGIDGLIDERID:OY-MXF
HFDTM100GPSDATUM:WGS-1984
HFRFWFIRMWAREVERSION:
HFRHWHARDWAREVERSION:
HFFTYFRTYPE:OGN-FLIGHTBOOK
HFGPSGENERIC
HFPRSPRESSALTSENSOR:
HFCIDCOMPETITIONID:MF
B1126175527180N01138971EA0000000031
B1126185527179N01138947EA0000000039
B1126265527178N01138793EA0000000177
B1126315527181N01138706EA0000000252
B1126365527187N01138613EA0000000308
B1126445527206N01138432EA0000000357
B1126495527218N01138309EA0000000371
B1126545527239N01138229EA0000000381
B1127005527265N01138136EA0000000378
B1127055527251N01138051EA0000000369
B1127105527179N01138004EA0000000349
B1127175527038N01138054EA0000000352
B1127225526945N01138109EA0000000363
B1127285526839N01138169EA0000000349
B1127345526730N01138240EA0000000343
B1127405526631N01138320EA0000000343
B1127455526547N01138389EA0000000339
B1127515526447N01138483EA0000000332
B1127565526367N01138583EA0000000330
B1128015526318N01138735EA0000000331
B1128145526376N01139151EA0000000321
B1128225526481N01139281EA0000000307
B1128275526550N01139327EA0000000303
B1128345526644N01139378EA0000000294
B1128435526758N01139394EA0000000285
B1128485526812N01139370EA0000000273
B1128545526856N01139287EA0000000261
B1129005526881N01139179EA0000000259
B1129065526890N01139055EA0000000248
B1129125526894N01138939EA0000000252
B1129175526859N01138852EA0000000248
B1129225526775N01138852EA0000000240
B1129275526705N01138991EA0000000236
B1129325526714N01139174EA0000000235
B1129375526779N01139287EA0000000226
B1129425526859N01139318EA0000000223
B1129495526926N01139240EA0000000220
B1130005526940N01139019EA0000000235
B1130065526943N01138912EA0000000227
B1130135526934N01138769EA0000000240
B1130185526921N01138672EA0000000240
B1130235526863N01138614EA0000000241
B1130295526768N01138717EA0000000238
B1130345526757N01138892EA0000000230
B1130405526826N01139017EA0000000234
B1130455526892N01139026EA0000000234
B1130505526932N01138951EA0000000232
B1130575526890N01138826EA0000000238
B1131025526809N01138860EA0000000242
B1131075526779N01139034EA0000000228
B1131145526865N01139162EA0000000244
B1131355526824N01139269EA0000000242
B1131405526902N01139259EA0000000249
B1131455526891N01139159EA0000000263
B1131505526815N01139204EA0000000271
B1131555526806N01139380EA0000000266
B1132005526872N01139444EA0000000288
B1132055526904N01139379EA0000000281
B1132105526856N01139317EA0000000287
B1132155526787N01139419EA0000000286
B1132225526831N01139611EA0000000295
B1132275526883N01139557EA0000000291
B1132325526852N01139475EA0000000303
B1132465526817N01139773EA0000000309
B1132515526861N01139710EA0000000314
B1132565526817N01139657EA0000000322
B1133015526748N01139757EA0000000317
B1133065526765N01139920EA0000000321
B1133135526846N01139895EA0000000328
B1133185526806N01139825EA0000000330
B1133235526732N01139902EA0000000335
B1133305526744N01140123EA0000000338
B1133355526809N01140140EA0000000357
B1133405526816N01140062EA0000000351
B1133475526725N01140048EA0000000365
B1133525526679N01140182EA0000000351
B1133585526710N01140373EA0000000367
B1134045526785N01140381EA0000000372
B1134095526779N01140292EA0000000372
B1134155526696N01140279EA0000000374
B1134215526633N01140438EA0000000381
B1134265526653N01140591EA0000000389
B1134315526718N01140658EA0000000384
B1134385526766N01140579EA0000000378
B1134435526723N01140489EA0000000385
B1134495526635N01140473EA0000000378
B1134555526555N01140603EA0000000382
B1135015526556N01140808EA0000000371
B1135085526640N01140971EA0000000379
B1135155526734N01141016EA0000000379
B1135205526788N01140983EA0000000363
B1135295526851N01140838EA0000000337
B1135385526890N01140651EA0000000310
B1135465526929N01140479EA0000000299
B1135515526952N01140367EA0000000291
B1135585526982N01140218EA0000000296
B1136055527014N01140086EA0000000284
B1136105527041N01139988EA0000000275
B1136195527085N01139816EA0000000280
B1136245527113N01139732EA0000000278
B1136295527155N01139679EA0000000280
B1136365527245N01139687EA0000000273
B1136415527304N01139789EA0000000289
B1136465527301N01139955EA0000000294
B1136545527170N01140074EA0000000304
B1136595527117N01139991EA0000000301
B1137045527149N01139917EA0000000307
B1137105527225N01140012EA0000000312
B1137155527218N01140184EA0000000317
B1137205527135N01140294EA0000000317
B1137275527025N01140269EA0000000337
B1137325527040N01140195EA0000000323
B1137375527115N01140224EA0000000315
B1137445527158N01140440EA0000000338
B1137495527091N01140578EA0000000336
B1137545527011N01140555EA0000000352
B1138015527057N01140486EA0000000337
B1138065527117N01140602EA0000000348
B1138155527042N01140861EA0000000370
B1138205526958N01140881EA0000000369
B1138255526906N01140819EA0000000379
B1138305526909N01140737EA0000000375
B1138365526980N01140726EA0000000367
B1138415527031N01140852EA0000000379
B1138465526989N01141005EA0000000386
B1138555526879N01140948EA0000000392
B1139015526920N01140878EA0000000380
B1139065526959N01140807EA0000000385
B1139135526964N01140679EA0000000394
B1139195526950N01140583EA0000000420
B1139265526934N01140469EA0000000420
B1139345526922N01140324EA0000000424
B1139405526909N01140213EA0000000413
B1139475526906N01140100EA0000000442
B1139525526909N01140035EA0000000436
B1140005526918N01139911EA0000000444
B1140055526927N01139845EA0000000432
B1140105526936N01139752EA0000000407
B1140175526945N01139597EA0000000382
B1140245526949N01139431EA0000000357
B1140295526951N01139303EA0000000338
B1140345526950N01139174EA0000000331
B1140405526950N01139030EA0000000326
B1140515526963N01138761EA0000000300
B1140565526970N01138641EA0000000296
B1141025526980N01138498EA0000000297
B1141085526992N01138380EA0000000312
B1141135526984N01138290EA0000000302
B1141255526988N01138057EA0000000272
B1141335527017N01137896EA0000000263
B1141455527065N01137684EA0000000244
B1141505527108N01137605EA0000000241
B1141555527177N01137606EA0000000240
B1142015527243N01137761EA0000000230
B1142065527216N01137932EA0000000223
B1142115527134N01138047EA0000000200
B1142165527043N01138146EA0000000206
B1142235526924N01138259EA0000000201
B1142285526848N01138382EA0000000186
B1142345526792N01138582EA0000000189
B1142395526778N01138757EA0000000187
B1142445526773N01138941EA0000000180
B1142495526795N01139106EA0000000205
B1142545526865N01139165EA0000000179
B1142595526926N01139107EA0000000168
B1143065526910N01138964EA0000000154
B1143165526773N01139124EA0000000132
B1143255526872N01139402EA0000000120
B1143315526970N01139462EA0000000106
B1143405527114N01139427EA0000000094
B1143455527151N01139337EA0000000085
B1143505527143N01139200EA0000000068
B1144045527136N01138860EA0000000026
B1144115527135N01138732EA0000000025
