AOGNOGN
HFDTE240825
HFFXA050
HFPLTPILOTINCHARGE:
HFGTYGLIDERTYPE:LS-8
HFGIDGLIDERID:OY-TNX
HFDTM100GPSDATUM:WGS-1984
HFRFWFIRMWAREVERSION:
HFRHWHARDWAREVERSION:
HFFTYFRTYPE:OGN-FLIGHTBOOK
HFGPSGENERIC
HFPRSPRESSALTSENSOR:
HFCIDCOMPETITIONID:X
B1333445527174N01138964EA0000000035
B1333485527173N01138876EA0000000102
B1333545527169N01138750EA0000000210
B1333595527163N01138650EA0000000278
B1334045527159N01138535EA0000000331
B1334105527154N01138388EA0000000365
B1334195527159N01138218EA0000000393
B1334275527166N01138088EA0000000387
B1334355527171N01137952EA0000000382
B1334445527169N01137767EA0000000374
B1334515527171N01137627EA0000000390
B1334575527191N01137542EA0000000403
B1335025527236N01137607EA0000000413
B1335075527202N01137730EA0000000405
B1335125527129N01137720EA0000000407
B1335185527108N01137637EA0000000419
B1335235527161N01137660EA0000000429
B1335285527160N01137792EA0000000447
B1335355527069N01137815EA0000000440
B1335405527047N01137747EA0000000463
B1335455527050N01137695EA0000000464
B1335525527117N01137738EA0000000463
B1335575527126N01137877EA0000000475
B1336025527069N01137974EA0000000495
B1336095527004N01137922EA0000000501
B1336145527039N01137901EA0000000512
B1336195527077N01137998EA0000000519
B1336265527025N01138165EA0000000524
B1336315526951N01138155EA0000000542
B1336375526937N01138080EA0000000559
B1336435526978N01138071EA0000000554
B1336485527012N01138161EA0000000557
B1336535527003N01138303EA0000000552
B1337005526913N01138445EA0000000569
B1337055526841N01138427EA0000000574
B1337115526810N01138338EA0000000582
B1337175526831N01138284EA0000000568
B1337225526885N01138292EA0000000557
B1337275526928N01138381EA0000000556
B1337345526911N01138570EA0000000554
B1337395526839N01138643EA0000000555
B1338145526709N01138186EA0000000503
B1338195526734N01138103EA0000000495
B1338265526772N01137987EA0000000483
B1338315526796N01137906EA0000000476
B1338455526865N01137670EA0000000452
B1338505526897N01137589EA0000000440
B1338595526958N01137436EA0000000428
B1339085527010N01137280EA0000000418
B1339135527038N01137199EA0000000413
B1339215527090N01137067EA0000000398
B1339265527116N01136980EA0000000390
B1339345527085N01136836EA0000000381
B1339395527033N01136765EA0000000377
B1339455526968N01136687EA0000000370
B1339555526857N01136542EA0000000364
B1340005526805N01136477EA0000000366
B1340065526752N01136404EA0000000369
B1340145526688N01136306EA0000000364
B1340255526611N01136163EA0000000351
B1340305526556N01136127EA0000000353
B1340365526469N01136199EA0000000352
B1340415526419N01136333EA0000000349
B1340465526397N01136489EA0000000347
B1340515526393N01136659EA0000000333
B1340575526405N01136876EA0000000317
B1341045526408N01137141EA0000000314
B1341105526394N01137360EA0000000312
B1341185526368N01137653EA0000000304
B1341405526313N01138419EA0000000288
B1341455526325N01138567EA0000000292
B1342125526437N01139393EA0000000272
B1342195526449N01139605EA0000000275
B1342245526464N01139749EA0000000274
B1342315526497N01139939EA0000000260
B1342365526504N01140090EA0000000247
B1342415526442N01140126EA0000000219
B1342465526463N01140038EA0000000209
B1342525526517N01139942EA0000000193
B1343005526582N01139802EA0000000188
B1343065526616N01139685EA0000000183
B1343135526627N01139545EA0000000180
B1343185526617N01139455EA0000000180
B1343255526597N01139336EA0000000172
B1343305526616N01139258EA0000000168
B1343355526685N01139269EA0000000150
B1343405526768N01139316EA0000000142
B1343475526877N01139408EA0000000145
B1343525526948N01139489EA0000000144
B1343575527019N01139557EA0000000144
B1344045527107N01139542EA0000000128
B1344105527136N01139410EA0000000116
B1344155527136N01139287EA0000000089
B1344225527136N01139102EA0000000055
B1344285527134N01138943EA0000000034
B1344415527135N01138665EA0000000030
