AOGNOGN
HFDTE240825
HFFXA050
HFPLTPILOTINCHARGE:
HFGTYGLIDERTYPE:ASK-23
HFGIDGLIDERID:OY-XVB
HFDTM100GPSDATUM:WGS-1984
HFRFWFIRMWAREVERSION:
HFRHWHARDWAREVERSION:
HFFTYFRTYPE:OGN-FLIGHTBOOK
HFGPSGENERIC
HFPRSPRESSALTSENSOR:
HFCIDCOMPETITIONID:M4
B1350535527178N01139012EA0000000032
B1350545527178N01138994EA0000000035
B1351005527175N01138887EA0000000139
B1351055527171N01138796EA0000000231
B1351155527172N01138610EA0000000381
B1351205527172N01138510EA0000000438
B1351255527172N01138402EA0000000468
B1351315527171N01138317EA0000000485
B1352265527086N01138422EA0000000463
B1352325527059N01138586EA0000000435
B1352375527005N01138728EA0000000425
B1352425526949N01138876EA0000000435
B1352495526897N01139071EA0000000466
B1352545526936N01139146EA0000000468
B1352595526946N01139087EA0000000476
B1353105526817N01139164EA0000000496
B1353155526827N01139299EA0000000498
B1353235526909N01139292EA0000000512
B1353285526929N01139224EA0000000523
B1353335526896N01139163EA0000000536
B1353405526805N01139226EA0000000533
B1353455526788N01139368EA0000000546
B1353505526825N01139462EA0000000551
B1353575526887N01139448EA0000000561
B1354025526909N01139378EA0000000572
B1354085526880N01139293EA0000000583
B1354145526804N01139354EA0000000581
B1354195526808N01139491EA0000000573
B1354255526848N01139474EA0000000569
B1354315526858N01139411EA0000000566
B1354365526893N01139420EA0000000553
B1354505526793N01139808EA0000000541
B1354565526712N01139926EA0000000571
B1355055526625N01140126EA0000000580
B1355105526665N01140211EA0000000574
B1355155526688N01140163EA0000000574
B1355355526475N01140302EA0000000583
B1355405526519N01140354EA0000000573
B1355455526549N01140300EA0000000561
B1355525526579N01140185EA0000000562
B1355575526599N01140106EA0000000562
B1356045526623N01139991EA0000000546
B1356095526644N01139904EA0000000532
B1356155526673N01139804EA0000000521
B1356245526715N01139649EA0000000502
B1356315526737N01139528EA0000000490
B1356395526765N01139389EA0000000483
B1356445526787N01139304EA0000000487
B1356505526812N01139205EA0000000481
B1356555526833N01139127EA0000000475
B1357015526859N01139031EA0000000466
B1357085526883N01138907EA0000000453
B1357145526903N01138791EA0000000448
B1357215526934N01138661EA0000000436
B1357265526957N01138572EA0000000429
B1357315526977N01138480EA0000000418
B1357385527006N01138348EA0000000403
B1357435527026N01138253EA0000000398
B1357555527069N01138031EA0000000379
B1358015527102N01137936EA0000000371
B1358065527139N01137868EA0000000362
B1358125527179N01137772EA0000000354
B1358185527219N01137671EA0000000349
B1358255527261N01137552EA0000000341
B1358325527288N01137429EA0000000332
B1358375527305N01137344EA0000000325
B1358425527356N01137327EA0000000320
B1358485527386N01137496EA0000000309
B1358555527293N01137654EA0000000299
B1359135527014N01137978EA0000000268
B1359195526930N01138105EA0000000263
B1359275526895N01138358EA0000000253
B1359325526858N01138509EA0000000247
B1401135527136N01139197EA0000000067
B1401185527136N01139103EA0000000051
B1401245527135N01138994EA0000000037
B1401355527135N01138820EA0000000032
B1401455527134N01138687EA0000000032
