AOGNOGN
HFDTE240825
HFFXA050
HFPLTPILOTINCHARGE:
HFGTYGLIDERTYPE:Duo Discus
HFGIDGLIDERID:OY-RMX
HFDTM100GPSDATUM:WGS-1984
HFRFWFIRMWAREVERSION:
HFRHWHARDWAREVERSION:
HFFTYFRTYPE:OGN-FLIGHTBOOK
HFGPSGENERIC
HFPRSPRESSALTSENSOR:
HFCIDCOMPETITIONID:MX
B1050465527179N01138988EA0000000035
B1050515527177N01138863EA0000000123
B1050565527182N01138753EA0000000234
B1051015527186N01138646EA0000000326
B1051065527201N01138536EA0000000390
B1051115527225N01138439EA0000000434
B1051165527249N01138358EA0000000425
B1051235527219N01138243EA0000000417
B1051325527060N01138239EA0000000400
B1051375526971N01138254EA0000000391
B1051445526842N01138294EA0000000388
B1051515526725N01138361EA0000000384
B1051575526626N01138443EA0000000372
B1052035526525N01138536EA0000000358
B1052085526438N01138585EA0000000347
B1052155526354N01138497EA0000000322
B1052205526349N01138387EA0000000315
B1052255526358N01138285EA0000000311
B1052315526368N01138166EA0000000309
B1052375526373N01138052EA0000000298
B1052425526381N01137955EA0000000293
B1052485526437N01137870EA0000000288
B1052555526519N01137781EA0000000282
B1053055526625N01137646EA0000000282
B1053135526702N01137554EA0000000272
B1053225526802N01137459EA0000000254
B1053275526879N01137504EA0000000247
B1053325526926N01137668EA0000000237
B1053395526913N01137944EA0000000230
B1053445526891N01138143EA0000000222
B1053495526865N01138329EA0000000224
B1053565526770N01138502EA0000000200
B1054015526696N01138466EA0000000193
B1054065526695N01138368EA0000000189
B1054145526802N01138375EA0000000176
B1054195526849N01138532EA0000000165
B1054255526858N01138769EA0000000155
B1054305526857N01138967EA0000000152
B1054405526860N01139346EA0000000143
B1054475526924N01139567EA0000000129
B1054525527003N01139632EA0000000123
B1054585527094N01139616EA0000000111
B1055045527170N01139548EA0000000105
B1055095527167N01139441EA0000000086
B1055155527153N01139294EA0000000069
B1055245527154N01139105EA0000000050
B1055295527158N01138997EA0000000036
B1055385527161N01138820EA0000000031
B1055435527158N01138735EA0000000032
