AOGNOGN
HFDTE200625
HFFXA050
HFPLTPILOTINCHARGE:
HFGTYGLIDERTYPE:SF-25
HFGIDGLIDERID:OY-TKX
HFDTM100GPSDATUM:WGS-1984
HFRFWFIRMWAREVERSION:
HFRHWHARDWAREVERSION:
HFFTYFRTYPE:OGN-FLIGHTBOOK
HFGPSGENERIC
HFPRSPRESSALTSENSOR:
HFCIDCOMPETITIONID:
B1148545720662N01024815EA0000000041
B1148575720675N01024761EA0000000044
B1149025720700N01024658EA0000000060
B1149085720733N01024538EA0000000087
B1149145720766N01024424EA0000000113
B1149215720794N01024282EA0000000141
B1149265720809N01024176EA0000000169
B1149325720799N01024061EA0000000188
B1149395720734N01023963EA0000000200
B1149465720645N01023908EA0000000220
B1149515720572N01023911EA0000000229
B1149575720481N01023990EA0000000233
B1150095720311N01024277EA0000000214
B1150175720214N01024475EA0000000200
B1150225720184N01024645EA0000000185
B1150275720189N01024829EA0000000176
B1150335720205N01025038EA0000000169
B1150385720238N01025194EA0000000158
B1150445720308N01025323EA0000000155
B1150495720367N01025415EA0000000143
B1150555720450N01025450EA0000000135
B1151005720496N01025381EA0000000121
B1151085720541N01025231EA0000000090
B1151135720568N01025137EA0000000077
B1151195720598N01025031EA0000000059
B1151305720651N01024836EA0000000032
B1151375720674N01024745EA0000000034
