AOGNOGN
HFDTE250625
HFFXA050
HFPLTPILOTINCHARGE:
HFGTYGLIDERTYPE:ASK-21
HFGIDGLIDERID:OY-XPL
HFDTM100GPSDATUM:WGS-1984
HFRFWFIRMWAREVERSION:
HFRHWHARDWAREVERSION:
HFFTYFRTYPE:OGN-FLIGHTBOOK
HFGPSGENERIC
HFPRSPRESSALTSENSOR:
HFCIDCOMPETITIONID:PL
B1828235527179N01138970EA0000000046
B1828285527176N01138861EA0000000133
B1828335527170N01138759EA0000000217
B1828415527166N01138592EA0000000332
B1828475527165N01138463EA0000000391
B1828565527166N01138292EA0000000412
B1829035527167N01138167EA0000000400
B1829135527166N01137993EA0000000395
B1829205527158N01137872EA0000000390
B1829255527116N01137813EA0000000386
B1829305527041N01137835EA0000000383
B1829395526904N01137897EA0000000373
B1829515526716N01137967EA0000000359
B1829565526665N01137923EA0000000354
B1830015526696N01137870EA0000000344
B1830065526748N01137948EA0000000341
B1830125526745N01138132EA0000000337
B1830215526707N01138405EA0000000323
B1830265526640N01138449EA0000000318
B1830325526629N01138364EA0000000304
B1830385526656N01138266EA0000000299
B1830445526678N01138163EA0000000294
B1830505526694N01138064EA0000000291
B1830555526708N01137980EA0000000288
B1831015526724N01137876EA0000000280
B1831065526734N01137786EA0000000277
B1831145526750N01137653EA0000000271
B1831205526765N01137556EA0000000264
B1831255526815N01137531EA0000000255
B1831305526855N01137646EA0000000250
B1831405526815N01137957EA0000000241
B1831465526777N01138131EA0000000234
B1831515526707N01138166EA0000000226
B1831565526684N01138086EA0000000221
B1832025526696N01137990EA0000000212
B1832075526756N01138001EA0000000203
B1832145526764N01138209EA0000000198
B1832215526746N01138441EA0000000185
B1832295526728N01138719EA0000000173
B1832415526704N01139151EA0000000157
B1832465526727N01139315EA0000000154
B1832545526823N01139513EA0000000140
B1832595526889N01139622EA0000000135
B1833045526962N01139672EA0000000132
B1833125527083N01139681EA0000000121
B1833175527132N01139609EA0000000117
B1833235527129N01139471EA0000000101
B1833295527126N01139329EA0000000081
B1833355527124N01139186EA0000000061
B1833405527121N01139065EA0000000047
B1833455527119N01138952EA0000000034
