AOGNOGN
HFDTE100825
HFFXA050
HFPLTPILOTINCHARGE:
HFGTYGLIDERTYPE:ASK-23
HFGIDGLIDERID:OY-CXL
HFDTM100GPSDATUM:WGS-1984
HFRFWFIRMWAREVERSION:
HFRHWHARDWAREVERSION:
HFFTYFRTYPE:OGN-FLIGHTBOOK
HFGPSGENERIC
HFPRSPRESSALTSENSOR:
HFCIDCOMPETITIONID:CL
B1034005553096N01213983EA0000000027
B1034065553100N01213878EA0000000137
B1034125553108N01213774EA0000000235
B1034185553121N01213651EA0000000315
B1034235553130N01213538EA0000000376
B1034295553141N01213395EA0000000413
B1034345553147N01213300EA0000000424
B1034415553118N01213194EA0000000417
B1034485553040N01213128EA0000000409
B1034545552970N01213090EA0000000402
B1035015552890N01213053EA0000000409
B1035065552831N01213020EA0000000411
B1035115552762N01213021EA0000000406
B1035165552705N01213124EA0000000391
B1035215552714N01213261EA0000000383
B1035265552766N01213285EA0000000398
B1035325552787N01213214EA0000000410
B1035375552757N01213155EA0000000416
B1035435552740N01213076EA0000000410
B1035495552792N01213065EA0000000412
B1035545552824N01213168EA0000000417
B1035595552799N01213298EA0000000430
B1036065552708N01213334EA0000000430
B1036115552687N01213262EA0000000426
B1036165552726N01213236EA0000000429
B1036225552774N01213350EA0000000436
B1036285552741N01213490EA0000000454
B1036335552673N01213522EA0000000451
B1036395552633N01213451EA0000000448
B1036445552661N01213407EA0000000452
B1036495552709N01213459EA0000000444
B1036565552713N01213647EA0000000458
B1037015552653N01213730EA0000000454
B1037065552589N01213698EA0000000456
B1037145552590N01213577EA0000000451
B1037215552615N01213490EA0000000460
B1037305552627N01213372EA0000000443
B1037355552601N01213289EA0000000428
B1037415552623N01213213EA0000000417
B1037475552682N01213263EA0000000403
B1037525552702N01213401EA0000000394
B1037585552669N01213572EA0000000401
B1038045552592N01213656EA0000000404
B1038105552525N01213612EA0000000398
B1038155552529N01213541EA0000000383
B1038215552589N01213570EA0000000374
B1038265552610N01213690EA0000000369
B1038315552575N01213821EA0000000366
B1038405552464N01213816EA0000000356
B1038465552455N01213724EA0000000340
B1038515552485N01213678EA0000000329
B1038565552494N01213614EA0000000321
B1039025552436N01213550EA0000000305
B1039075552371N01213519EA0000000296
B1039125552308N01213482EA0000000283
B1039175552278N01213412EA0000000269
B1039245552303N01213321EA0000000261
B1039295552335N01213271EA0000000256
B1039345552384N01213253EA0000000247
B1039425552473N01213253EA0000000230
B1039475552533N01213270EA0000000223
B1039525552586N01213358EA0000000218
B1039585552620N01213525EA0000000208
B1040105552611N01213924EA0000000185
B1040195552608N01214222EA0000000182
B1040285552668N01214482EA0000000182
B1040365552757N01214616EA0000000166
B1040415552817N01214647EA0000000152
B1040505552929N01214669EA0000000142
B1040565552990N01214606EA0000000133
B1041025553013N01214494EA0000000113
B1041075553025N01214403EA0000000094
B1041145553039N01214267EA0000000068
B1041215553059N01214136EA0000000040
B1041275553074N01214028EA0000000023
B1041325553082N01213949EA0000000018
