AOGNOGN
HFDTE100825
HFFXA050
HFPLTPILOTINCHARGE:
HFGTYGLIDERTYPE:ASK-21
HFGIDGLIDERID:OY-XKI
HFDTM100GPSDATUM:WGS-1984
HFRFWFIRMWAREVERSION:
HFRHWHARDWAREVERSION:
HFFTYFRTYPE:OGN-FLIGHTBOOK
HFGPSGENERIC
HFPRSPRESSALTSENSOR:
HFCIDCOMPETITIONID:KI
B0822375553127N01213919EA0000000015
B0822425553133N01213813EA0000000016
B0822425553133N01213813EA0000000016
B0822475553142N01213684EA0000000019
B0822525553147N01213538EA0000000026
B0822595553162N01213343EA0000000060
B0823045553161N01213214EA0000000090
B0823115553158N01213038EA0000000121
B0823165553134N01212916EA0000000141
B0823225553075N01212795EA0000000164
B0823275553017N01212704EA0000000180
B0823325552943N01212621EA0000000192
B0823375552857N01212556EA0000000204
B0823425552773N01212496EA0000000218
B0823495552654N01212413EA0000000236
B0823555552564N01212316EA0000000271
B0824005552505N01212213EA0000000293
B0824125552419N01211944EA0000000332
B0824195552375N01211787EA0000000353
B0824265552337N01211632EA0000000373
B0824315552312N01211521EA0000000385
B0824365552286N01211406EA0000000394
B0824455552241N01211198EA0000000417
B0824515552190N01211068EA0000000430
B0824595552148N01210879EA0000000445
B0825075552162N01210679EA0000000465
B0825145552205N01210510EA0000000481
B0825225552262N01210329EA0000000505
B0825275552301N01210218EA0000000512
B0825335552352N01210088EA0000000536
B0825395552396N01209950EA0000000567
B0825515552467N01209660EA0000000636
B0826055552408N01209417EA0000000653
B0826105552318N01209445EA0000000645
B0826185552206N01209647EA0000000653
B0826235552185N01209820EA0000000650
B0826295552200N01210026EA0000000643
B0826365552233N01210258EA0000000646
B0826455552295N01210522EA0000000661
B0826505552363N01210562EA0000000661
B0827005552352N01210407EA0000000664
B0827065552257N01210384EA0000000674
B0827135552160N01210363EA0000000679
B0827215552104N01210249EA0000000678
B0827305552148N01210122EA0000000669
B0827355552205N01210094EA0000000658
B0827415552280N01210047EA0000000658
B0827495552371N01209976EA0000000676
B0828125552460N01210419EA0000000674
B0828175552383N01210478EA0000000676
B0828345552259N01210325EA0000000696
B0828425552341N01210358EA0000000696
B0828485552388N01210501EA0000000699
B0828555552382N01210717EA0000000697
B0829035552344N01210974EA0000000707
B0829085552300N01211102EA0000000713
B0829135552232N01211136EA0000000729
B0829185552185N01211089EA0000000743
B0829235552188N01211009EA0000000757
B0829295552245N01210983EA0000000765
B0829345552295N01211075EA0000000770
B0829395552306N01211229EA0000000777
B0829465552238N01211416EA0000000768
B0829515552158N01211424EA0000000774
B0830025552055N01211197EA0000000772
B0830075552016N01211072EA0000000770
B0830535551731N01209928EA0000000699
B0831065551656N01209621EA0000000681
B0831365551399N01208960EA0000000658
B0831585551237N01208573EA0000000670
B0832045551235N01208463EA0000000663
B0832105551248N01208345EA0000000654
B0832185551291N01208205EA0000000655
B0832275551347N01208057EA0000000641
B0832365551408N01207910EA0000000632
B0832435551456N01207807EA0000000625
B0832525551516N01207679EA0000000616
B0832575551551N01207609EA0000000613
B0833065551619N01207506EA0000000612
B0833125551671N01207452EA0000000613
B0833175551718N01207412EA0000000617
B0833235551772N01207368EA0000000620
B0833295551826N01207324EA0000000611
B0833345551877N01207288EA0000000605
B0833435551975N01207229EA0000000597
B0833505552054N01207186EA0000000601
B0834005552162N01207125EA0000000602
B0834065552225N01207086EA0000000592
B0834175552339N01207010EA0000000583
B0834235552405N01206967EA0000000578
B0834345552514N01206875EA0000000577
B0834435552595N01206808EA0000000591
B0834535552688N01206741EA0000000588
B0834585552732N01206699EA0000000582
B0835055552799N01206642EA0000000573
B0835115552864N01206600EA0000000569
B0835185552939N01206548EA0000000567
B0835265553025N01206499EA0000000566
B0835315553086N01206520EA0000000567
B0835385553159N01206652EA0000000562
B0835545553205N01207129EA0000000548
B0836005553184N01207326EA0000000553
B0836095553160N01207600EA0000000558
B0836165553141N01207813EA0000000551
B0836225553119N01207996EA0000000543
B0836325553086N01208332EA0000000533
B0836385553068N01208534EA0000000537
B0836455553050N01208765EA0000000545
B0836555553036N01209097EA0000000546
B0837015553028N01209304EA0000000549
B0837095552998N01209567EA0000000558
B0837145552943N01209696EA0000000562
B0837195552863N01209753EA0000000560
B0837285552805N01209625EA0000000561
B0837365552893N01209650EA0000000555
B0837415552900N01209807EA0000000546
B0837545552784N01210214EA0000000545
B0838035552697N01210464EA0000000548
B0838085552648N01210605EA0000000543
B0838185552545N01210881EA0000000533
B0838255552471N01211071EA0000000520
B0838315552403N01211248EA0000000503
B0838365552345N01211405EA0000000522
B0838415552289N01211537EA0000000531
B0838585552200N01211429EA0000000524
B0839055552274N01211520EA0000000520
B0839145552266N01211808EA0000000526
B0839195552204N01211926EA0000000538
B0839265552113N01211904EA0000000532
B0839315552123N01211823EA0000000530
B0839365552181N01211835EA0000000532
B0839425552233N01211976EA0000000537
B0839495552233N01212186EA0000000543
B0840015552107N01212194EA0000000542
B0840075552157N01212157EA0000000543
B0840155552208N01212339EA0000000544
B0840205552182N01212481EA0000000551
B0840255552119N01212568EA0000000549
B0840305552054N01212553EA0000000541
B0840355552040N01212473EA0000000539
B0840405552080N01212429EA0000000539
B0840475552155N01212508EA0000000537
B0840525552207N01212607EA0000000537
B0840585552268N01212742EA0000000540
B0841045552339N01212875EA0000000526
B0841105552409N01213020EA0000000519
B0841155552466N01213140EA0000000515
B0841275552612N01213427EA0000000490
B0841345552699N01213595EA0000000482
B0841405552763N01213751EA0000000482
B0841455552767N01213920EA0000000484
B0841525552737N01214158EA0000000475
B0841585552712N01214360EA0000000474
B0842055552683N01214588EA0000000474
B0842125552654N01214815EA0000000464
B0842195552635N01215046EA0000000453
B0842245552615N01215210EA0000000445
B0842295552557N01215340EA0000000436
B0842355552468N01215407EA0000000426
B0842405552408N01215373EA0000000410
B0842465552386N01215272EA0000000398
B0842525552376N01215150EA0000000382
B0843025552370N01214950EA0000000370
B0843075552374N01214860EA0000000363
B0843145552380N01214734EA0000000348
B0843225552379N01214582EA0000000341
B0843275552375N01214484EA0000000329
B0843365552365N01214302EA0000000317
B0843435552354N01214165EA0000000309
B0843505552343N01214032EA0000000298
B0843575552325N01213902EA0000000292
B0844045552305N01213772EA0000000281
B0844105552286N01213653EA0000000278
B0844175552261N01213523EA0000000279
B0844235552245N01213411EA0000000278
B0844315552226N01213255EA0000000272
B0844385552217N01213126EA0000000271
B0844495552216N01212917EA0000000252
B0844555552225N01212801EA0000000237
B0845025552296N01212727EA0000000229
B0845085552369N01212707EA0000000235
B0845135552426N01212678EA0000000239
B0845185552482N01212646EA0000000234
B0845235552547N01212691EA0000000228
B0845295552586N01212874EA0000000216
B0845365552590N01213133EA0000000198
B0845425552592N01213363EA0000000193
B0845525552579N01213745EA0000000183
B0846005552568N01214049EA0000000168
B0846065552566N01214276EA0000000160
B0846115552602N01214433EA0000000153
B0846175552677N01214559EA0000000146
B0846235552755N01214667EA0000000136
B0846295552839N01214697EA0000000125
B0846355552923N01214703EA0000000112
B0846405552967N01214640EA0000000099
B0846475552986N01214493EA0000000076
B0846545553010N01214347EA0000000054
B0847005553030N01214223EA0000000038
B0847055553043N01214122EA0000000027
B0847115553053N01214012EA0000000017
B0847175553061N01213937EA0000000016
