AOGNOGN
HFDTE100825
HFFXA050
HFPLTPILOTINCHARGE:
HFGTYGLIDERTYPE:Discus
HFGIDGLIDERID:OY-XRS
HFDTM100GPSDATUM:WGS-1984
HFRFWFIRMWAREVERSION:
HFRHWHARDWAREVERSION:
HFFTYFRTYPE:OGN-FLIGHTBOOK
HFGPSGENERIC
HFPRSPRESSALTSENSOR:
HFCIDCOMPETITIONID:27
B0848055553098N01213984EA0000000024
B0848105553108N01213881EA0000000085
B0848155553117N01213775EA0000000162
B0848215553123N01213649EA0000000253
B0848265553130N01213534EA0000000319
B0848325553143N01213400EA0000000345
B0848375553142N01213316EA0000000350
B0848425553099N01213253EA0000000345
B0848485553033N01213183EA0000000338
B0848555552962N01213087EA0000000332
B0849015552969N01212990EA0000000312
B0849065553004N01212917EA0000000303
B0849115553043N01212846EA0000000290
B0849165553085N01212770EA0000000283
B0849215553125N01212701EA0000000283
B0849285553175N01212598EA0000000272
B0849375553242N01212463EA0000000258
B0849435553286N01212381EA0000000252
B0849555553369N01212215EA0000000237
B0850005553426N01212176EA0000000240
B0850065553487N01212301EA0000000253
B0850115553452N01212434EA0000000253
B0850185553407N01212372EA0000000264
B0850245553465N01212455EA0000000276
B0850295553425N01212575EA0000000280
B0850355553382N01212517EA0000000289
B0850405553439N01212537EA0000000285
B0850455553437N01212688EA0000000298
B0850505553369N01212716EA0000000301
B0850575553411N01212674EA0000000305
B0851025553425N01212816EA0000000321
B0851105553342N01212820EA0000000323
B0851155553392N01212805EA0000000332
B0851215553405N01212968EA0000000347
B0851265553338N01213018EA0000000351
B0851315553330N01212954EA0000000358
B0851365553384N01213016EA0000000366
B0851415553353N01213147EA0000000375
B0851485553312N01213080EA0000000380
B0851535553367N01213120EA0000000391
B0851585553351N01213261EA0000000397
B0852065553288N01213224EA0000000406
B0852115553342N01213269EA0000000416
B0852165553338N01213416EA0000000428
B0852225553260N01213482EA0000000437
B0852275553249N01213417EA0000000439
B0852325553300N01213471EA0000000441
B0852395553242N01213633EA0000000462
B0852445553217N01213575EA0000000457
B0852495553272N01213603EA0000000468
B0852565553247N01213789EA0000000480
B0853015553184N01213772EA0000000485
B0853085553232N01213735EA0000000491
B0853165553216N01213949EA0000000509
B0853215553149N01213942EA0000000514
B0853275553171N01213864EA0000000518
B0853325553218N01213953EA0000000528
B0853375553185N01214093EA0000000539
B0853425553119N01214093EA0000000546
B0853475553133N01214029EA0000000544
B0853525553178N01214118EA0000000552
B0853575553126N01214232EA0000000554
B0854045553071N01214163EA0000000565
B0854115553136N01214233EA0000000565
B0854165553094N01214360EA0000000575
B0854225553046N01214301EA0000000579
B0854285553103N01214356EA0000000580
B0854335553060N01214486EA0000000587
B0854385553008N01214443EA0000000589
B0854435553051N01214421EA0000000593
B0854485553053N01214560EA0000000597
B0854555552975N01214544EA0000000602
B0855005553012N01214506EA0000000605
B0855055553038N01214629EA0000000610
B0855125552948N01214708EA0000000613
B0855175552945N01214632EA0000000617
B0855295552941N01214845EA0000000622
B0855345552888N01214794EA0000000623
B0855395552923N01214758EA0000000623
B0855465552914N01214938EA0000000622
B0855515552845N01214938EA0000000625
B0855565552853N01214871EA0000000625
B0856035552898N01215012EA0000000624
B0856095552822N01215104EA0000000631
B0856145552800N01215028EA0000000622
B0856205552864N01215064EA0000000623
B0856285552812N01215279EA0000000628
B0856375552679N01215431EA0000000631
B0857325551958N01216552EA0000000564
B0857375551910N01216491EA0000000554
B0857515551985N01216301EA0000000528
B0857565552048N01216273EA0000000518
B0858015552109N01216248EA0000000511
B0858095552195N01216200EA0000000503
B0858155552254N01216163EA0000000492
B0858315552411N01216052EA0000000462
B0858385552470N01215994EA0000000461
B0858435552508N01215948EA0000000449
B0858495552540N01215866EA0000000444
B0858565552581N01215770EA0000000433
B0859095552673N01215608EA0000000422
B0859155552717N01215542EA0000000412
B0859225552769N01215465EA0000000401
B0859295552827N01215391EA0000000388
B0859355552878N01215332EA0000000383
B0859405552917N01215277EA0000000377
B0859455552950N01215209EA0000000371
B0859505552985N01215144EA0000000368
B0859555553020N01215081EA0000000360
B0900005553057N01215018EA0000000360
B0900055553095N01214967EA0000000365
B0900175553086N01215201EA0000000366
B0900235553051N01215140EA0000000371
B0900295553104N01215227EA0000000359
B0900355553033N01215327EA0000000366
B0900405553016N01215259EA0000000365
B0900465553073N01215338EA0000000361
B0900515553025N01215455EA0000000354
B0900585552953N01215363EA0000000343
B0901045552913N01215265EA0000000340
B0901145552858N01215099EA0000000319
B0901195552835N01215016EA0000000313
B0901255552814N01214910EA0000000304
B0901315552794N01214803EA0000000301
B0901365552781N01214715EA0000000303
B0901425552769N01214610EA0000000310
B0901495552760N01214510EA0000000320
B0901545552702N01214490EA0000000310
B0901595552668N01214630EA0000000314
B0902045552721N01214671EA0000000311
B0902095552695N01214596EA0000000320
B0902165552634N01214743EA0000000321
B0902235552703N01214773EA0000000325
B0902285552666N01214711EA0000000328
B0902335552610N01214814EA0000000329
B0902385552645N01214935EA0000000326
B0902455552655N01214861EA0000000326
B0902525552575N01214976EA0000000326
B0902575552618N01215079EA0000000325
B0903035552656N01215021EA0000000340
B0903105552580N01215031EA0000000336
B0903155552587N01215173EA0000000333
B0903205552639N01215175EA0000000340
B0903255552646N01215098EA0000000343
B0903305552647N01215015EA0000000345
B0903365552656N01214907EA0000000355
B0903455552669N01214769EA0000000357
B0903515552668N01214677EA0000000345
B0903575552657N01214575EA0000000331
B0904045552649N01214455EA0000000332
B0904145552645N01214308EA0000000332
B0904205552648N01214215EA0000000330
B0904315552671N01214062EA0000000343
B0904365552695N01214005EA0000000344
B0904425552747N01214093EA0000000347
B0904485552690N01214213EA0000000359
B0904535552662N01214157EA0000000356
B0904585552712N01214199EA0000000360
B0905055552649N01214326EA0000000369
B0905105552645N01214258EA0000000367
B0905155552689N01214345EA0000000382
B0905225552615N01214442EA0000000384
B0905275552622N01214378EA0000000386
B0905325552655N01214494EA0000000388
B0905405552581N01214502EA0000000396
B0905455552633N01214542EA0000000398
B0905505552594N01214670EA0000000411
B0905565552559N01214608EA0000000407
B0906035552614N01214720EA0000000418
B0906095552541N01214799EA0000000418
B0906145552542N01214730EA0000000423
B0906215552577N01214876EA0000000425
B0906265552512N01214905EA0000000429
B0906315552536N01214854EA0000000428
B0906395552528N01215051EA0000000436
B0906445552482N01215015EA0000000436
B0906495552532N01215032EA0000000430
B0906545552515N01215181EA0000000439
B0906595552455N01215183EA0000000437
B0907045552478N01215107EA0000000432
B0907115552505N01215006EA0000000442
B0907165552516N01214933EA0000000441
B0907215552534N01214858EA0000000437
B0907275552562N01214763EA0000000438
B0907325552612N01214754EA0000000444
B0907385552606N01214912EA0000000439
B0907435552550N01214899EA0000000437
B0907495552592N01214853EA0000000436
B0907555552607N01215010EA0000000432
B0908015552534N01215021EA0000000431
B0908065552542N01214946EA0000000430
B0908125552562N01214864EA0000000434
B0908225552591N01214731EA0000000442
B0908315552628N01214627EA0000000436
B0908375552660N01214545EA0000000428
B0908425552703N01214504EA0000000442
B0908475552736N01214618EA0000000436
B0908525552674N01214695EA0000000439
B0908575552664N01214627EA0000000441
B0909025552724N01214679EA0000000450
B0909085552692N01214833EA0000000443
B0909135552643N01214799EA0000000450
B0909195552698N01214790EA0000000449
B0909255552695N01214956EA0000000447
B0909315552634N01214950EA0000000447
B0909365552681N01214930EA0000000442
B0909425552694N01215094EA0000000440
B0909475552633N01215128EA0000000440
B0909535552637N01215047EA0000000434
B0909595552640N01214949EA0000000433
B0910045552644N01214879EA0000000432
B0910105552665N01214794EA0000000423
B0910175552696N01214692EA0000000423
B0910235552727N01214615EA0000000419
B0910285552752N01214556EA0000000416
B0910345552784N01214492EA0000000416
B0910415552823N01214417EA0000000416
B0910465552854N01214377EA0000000420
B0910515552899N01214439EA0000000402
B0910565552869N01214589EA0000000415
B0911015552813N01214572EA0000000412
B0911065552855N01214554EA0000000414
B0911115552856N01214695EA0000000419
B0911185552784N01214698EA0000000414
B0911235552831N01214694EA0000000416
B0911285552834N01214833EA0000000423
B0911355552761N01214834EA0000000419
B0911405552805N01214827EA0000000416
B0911455552805N01214961EA0000000426
B0911525552744N01214938EA0000000416
B0911585552797N01214963EA0000000421
B0912035552766N01215088EA0000000415
B0912095552714N01215044EA0000000425
B0912145552758N01215039EA0000000419
B0912195552765N01215172EA0000000422
B0912265552689N01215183EA0000000416
B0912315552731N01215151EA0000000413
B0912375552749N01215300EA0000000422
B0912435552678N01215321EA0000000417
B0912485552695N01215267EA0000000417
B0912545552732N01215391EA0000000410
B0913015552656N01215423EA0000000412
B0913065552687N01215373EA0000000407
B0913115552742N01215377EA0000000408
B0913175552793N01215330EA0000000403
B0913225552834N01215284EA0000000404
B0913285552882N01215223EA0000000409
B0913345552932N01215176EA0000000419
B0913395552983N01215182EA0000000423
B0913455552994N01215345EA0000000417
B0913515552924N01215370EA0000000409
B0913565552933N01215314EA0000000419
B0914035552979N01215445EA0000000404
B0914095552907N01215530EA0000000403
B0914145552889N01215480EA0000000413
B0914265552976N01215391EA0000000408
B0914335553035N01215353EA0000000425
B0914395553082N01215316EA0000000421
B0914465553146N01215273EA0000000403
B0914535553219N01215225EA0000000397
B0914595553276N01215196EA0000000414
B0915045553316N01215189EA0000000409
B0915115553385N01215173EA0000000407
B0915195553418N01215319EA0000000415
B0915245553354N01215329EA0000000420
B0915335553389N01215421EA0000000429
B0915385553328N01215448EA0000000429
B0915465553374N01215507EA0000000437
B0915515553320N01215595EA0000000433
B0915565553315N01215541EA0000000434
B0916025553338N01215670EA0000000426
B0916075553276N01215700EA0000000432
B0916155553321N01215746EA0000000419
B0916205553260N01215826EA0000000423
B0916255553251N01215775EA0000000423
B0916315553280N01215897EA0000000417
B0916365553221N01215915EA0000000405
B0916415553224N01215841EA0000000414
B0916465553260N01215813EA0000000419
B0916535553335N01215819EA0000000424
B0917005553408N01215846EA0000000443
B0917075553479N01215881EA0000000443
B0917145553566N01215911EA0000000449
B0917245553674N01215953EA0000000458
B0917335553774N01216000EA0000000459
B0917385553793N01215957EA0000000450
B0917455553709N01215907EA0000000438
B0917505553645N01215868EA0000000432
B0917575553567N01215786EA0000000431
B0918055553497N01215683EA0000000425
B0918135553521N01215568EA0000000403
B0918225553553N01215424EA0000000388
B0918275553575N01215344EA0000000379
B0918335553605N01215244EA0000000369
B0918405553649N01215142EA0000000364
B0918465553687N01215059EA0000000357
B0918535553729N01214967EA0000000350
B0918585553754N01214905EA0000000342
B0919045553787N01214821EA0000000327
B0919095553821N01214751EA0000000328
B0919185553877N01214651EA0000000329
B0919245553914N01214588EA0000000324
B0919305553951N01214531EA0000000315
B0919365553983N01214472EA0000000310
B0919415553993N01214409EA0000000301
B0919475554006N01214317EA0000000282
B0919535554029N01214222EA0000000275
B0920045554078N01214067EA0000000283
B0920095554126N01214074EA0000000281
B0920145554136N01214212EA0000000275
B0920215554067N01214217EA0000000268
B0920285554089N01214102EA0000000266
B0920345554117N01214002EA0000000272
B0920405554166N01213953EA0000000276
B0920465554193N01214091EA0000000267
B0920515554129N01214128EA0000000259
B0920575554146N01214046EA0000000271
B0921025554173N01214154EA0000000250
B0921075554108N01214216EA0000000265
B0921125554072N01214156EA0000000272
B0921175554079N01214075EA0000000264
B0921245554058N01213952EA0000000260
B0921305554048N01213855EA0000000259
B0921385554042N01213730EA0000000247
B0921475554043N01213588EA0000000231
B0921545554048N01213478EA0000000223
B0921595554021N01213406EA0000000212
B0922075553932N01213324EA0000000206
B0922125553888N01213256EA0000000212
B0922195553938N01213232EA0000000218
B0922245553931N01213381EA0000000221
B0922295553867N01213401EA0000000225
B0922365553914N01213376EA0000000230
B0922415553911N01213520EA0000000237
B0922465553852N01213531EA0000000237
B0922535553908N01213523EA0000000238
B0922585553901N01213667EA0000000244
B0923035553840N01213679EA0000000248
B0923105553888N01213645EA0000000243
B0923155553898N01213788EA0000000246
B0923205553832N01213816EA0000000247
B0923285553890N01213808EA0000000247
B0923345553858N01213963EA0000000258
B0923465553892N01213984EA0000000254
B0923515553851N01214106EA0000000260
B0923575553808N01214062EA0000000260
B0924025553863N01214090EA0000000251
B0924075553844N01214243EA0000000258
B0924125553780N01214260EA0000000264
B0924205553832N01214234EA0000000262
B0924255553843N01214379EA0000000269
B0924315553773N01214457EA0000000273
B0924365553760N01214399EA0000000265
B0924435553824N01214510EA0000000269
B0924485553784N01214628EA0000000271
B0924535553738N01214600EA0000000266
B0924585553779N01214578EA0000000261
B0925035553809N01214697EA0000000269
B0925095553754N01214796EA0000000259
B0925145553738N01214725EA0000000249
B0925225553780N01214609EA0000000247
B0925275553808N01214537EA0000000252
B0925325553833N01214472EA0000000260
B0925375553858N01214412EA0000000264
B0925435553891N01214349EA0000000267
B0925505553919N01214266EA0000000263
B0925555553935N01214191EA0000000254
B0926025553959N01214088EA0000000252
B0926085553978N01214002EA0000000242
B0926135553995N01213937EA0000000240
B0926195554035N01213886EA0000000235
B0926245554049N01213824EA0000000224
B0926315554018N01213728EA0000000210
B0926375553990N01213640EA0000000209
B0926425553965N01213564EA0000000212
B0926515553937N01213434EA0000000218
B0926565553931N01213355EA0000000220
B0927015553934N01213284EA0000000221
B0927085553994N01213339EA0000000222
B0927135553972N01213472EA0000000230
B0927185553920N01213463EA0000000208
B0927255553976N01213483EA0000000211
B0927305553941N01213607EA0000000217
B0927355553893N01213579EA0000000201
B0927425553851N01213464EA0000000195
B0927475553819N01213384EA0000000192
B0927535553794N01213284EA0000000194
B0927595553775N01213193EA0000000195
B0928055553728N01213129EA0000000186
B0928105553655N01213200EA0000000167
B0928165553593N01213389EA0000000149
B0928215553552N01213548EA0000000146
B0928275553516N01213741EA0000000133
B0928345553468N01213976EA0000000126
B0928395553424N01214130EA0000000125
B0928455553347N01214269EA0000000120
B0928505553281N01214379EA0000000118
B0928555553202N01214418EA0000000115
B0929005553120N01214432EA0000000106
B0929065553066N01214346EA0000000108
B0929115553055N01214254EA0000000092
B0929235553058N01214036EA0000000031
B0929285553066N01213937EA0000000020
B0929345553073N01213847EA0000000020
