AOGNOGN
HFDTE100825
HFFXA050
HFPLTPILOTINCHARGE:
HFGTYGLIDERTYPE:ASK-21
HFGIDGLIDERID:OY-XPL
HFDTM100GPSDATUM:WGS-1984
HFRFWFIRMWAREVERSION:
HFRHWHARDWAREVERSION:
HFFTYFRTYPE:OGN-FLIGHTBOOK
HFGPSGENERIC
HFPRSPRESSALTSENSOR:
HFCIDCOMPETITIONID:PL
B1137325527190N01138993EA0000000046
B1137375527183N01138874EA0000000140
B1137375527183N01138874EA0000000140
B1137425527172N01138789EA0000000230
B1137475527161N01138692EA0000000306
B1137535527153N01138554EA0000000368
B1137595527151N01138414EA0000000388
B1138055527149N01138303EA0000000386
B1138105527173N01138231EA0000000379
B1138155527199N01138156EA0000000368
B1138205527184N01138069EA0000000361
B1138295527054N01138036EA0000000350
B1138355526952N01138067EA0000000351
B1138405526869N01138097EA0000000353
B1138465526779N01138206EA0000000357
B1138535526731N01138428EA0000000360
B1138585526730N01138593EA0000000356
B1139035526787N01138675EA0000000346
B1139085526822N01138610EA0000000343
B1139135526787N01138521EA0000000345
B1139195526693N01138512EA0000000346
B1139245526622N01138622EA0000000348
B1139305526600N01138819EA0000000340
B1139355526637N01138954EA0000000342
B1139405526695N01138992EA0000000336
B1139455526729N01138930EA0000000328
B1139585526730N01138683EA0000000324
B1140055526732N01138549EA0000000323
B1140135526729N01138408EA0000000315
B1140185526758N01138341EA0000000310
B1140235526819N01138350EA0000000304
B1140285526866N01138467EA0000000301
B1140345526844N01138670EA0000000296
B1140405526800N01138876EA0000000303
B1140455526755N01139030EA0000000309
B1140505526685N01139109EA0000000312
B1140555526619N01139077EA0000000305
B1141005526591N01138989EA0000000301
B1141125526594N01138775EA0000000284
B1141215526607N01138620EA0000000274
B1141275526606N01138518EA0000000266
B1141375526627N01138347EA0000000252
B1141425526659N01138271EA0000000249
B1141475526715N01138256EA0000000251
B1141525526776N01138321EA0000000245
B1141575526814N01138457EA0000000239
B1142055526811N01138733EA0000000224
B1142105526775N01138888EA0000000222
B1142155526706N01138977EA0000000216
B1142205526644N01138968EA0000000209
B1142255526626N01138898EA0000000202
B1142315526666N01138835EA0000000194
B1142365526726N01138852EA0000000188
B1142425526786N01138987EA0000000176
B1142485526799N01139188EA0000000170
B1142545526812N01139388EA0000000171
B1143005526861N01139550EA0000000178
B1143065526915N01139678EA0000000163
B1143135526993N01139714EA0000000142
B1143205527065N01139694EA0000000133
B1143255527114N01139662EA0000000122
B1143305527143N01139584EA0000000111
B1143365527147N01139470EA0000000095
B1143435527158N01139350EA0000000080
B1143495527153N01139247EA0000000067
B1143545527150N01139160EA0000000058
B1143595527148N01139070EA0000000045
B1144065527154N01138959EA0000000039
