AOGNOGN
HFDTE290625
HFFXA050
HFPLTPILOTINCHARGE:
HFGTYGLIDERTYPE:Duo Discus xlt
HFGIDGLIDERID:OY-MXF
HFDTM100GPSDATUM:WGS-1984
HFRFWFIRMWAREVERSION:
HFRHWHARDWAREVERSION:
HFFTYFRTYPE:OGN-FLIGHTBOOK
HFGPSGENERIC
HFPRSPRESSALTSENSOR:
HFCIDCOMPETITIONID:MF
B1355365527188N01138681EA0000000276
B1355385527192N01138643EA0000000298
B1355435527206N01138543EA0000000349
B1355485527221N01138463EA0000000372
B1355535527235N01138390EA0000000373
B1355595527258N01138308EA0000000362
B1356055527286N01138224EA0000000355
B1356105527315N01138172EA0000000379
B1356165527350N01138113EA0000000382
B1356265527400N01138015EA0000000392
B1356335527435N01137955EA0000000397
B1356425527474N01137876EA0000000408
B1356485527499N01137820EA0000000424
B1356555527527N01137750EA0000000435
B1357025527558N01137668EA0000000451
B1357085527585N01137610EA0000000444
B1357575528030N01137313EA0000000379
B1358035528104N01137323EA0000000352
B1358085528168N01137329EA0000000344
B1358145528245N01137335EA0000000346
B1358205528319N01137339EA0000000345
B1358255528370N01137307EA0000000332
B1358325528400N01137201EA0000000315
B1358375528413N01137122EA0000000309
B1359275528213N01136456EA0000000254
B1359325528130N01136435EA0000000236
B1359375528035N01136455EA0000000233
B1359425527939N01136533EA0000000224
B1359495527814N01136729EA0000000203
B1359555527730N01136955EA0000000204
B1400015527674N01137213EA0000000203
B1400095527626N01137569EA0000000198
B1400205527589N01138060EA0000000175
B1400265527578N01138337EA0000000159
B1400355527539N01138763EA0000000141
B1400415527501N01139046EA0000000134
B1400465527435N01139259EA0000000132
B1400515527338N01139424EA0000000126
B1400565527226N01139493EA0000000122
B1401015527123N01139482EA0000000110
B1401065527103N01139349EA0000000093
B1401125527111N01139181EA0000000055
B1401195527118N01138999EA0000000023
B1401275527125N01138841EA0000000024
