AOGNOGN
HFDTE290625
HFFXA050
HFPLTPILOTINCHARGE:
HFGTYGLIDERTYPE:ASK-21
HFGIDGLIDERID:OY-XPL
HFDTM100GPSDATUM:WGS-1984
HFRFWFIRMWAREVERSION:
HFRHWHARDWAREVERSION:
HFFTYFRTYPE:OGN-FLIGHTBOOK
HFGPSGENERIC
HFPRSPRESSALTSENSOR:
HFCIDCOMPETITIONID:PL
B1341085527186N01138987EA0000000043
B1341085527186N01138987EA0000000043
B1341155527186N01138854EA0000000168
B1341205527176N01138771EA0000000254
B1341255527175N01138678EA0000000314
B1341325527177N01138525EA0000000374
B1341395527170N01138357EA0000000402
B1341455527162N01138278EA0000000431
B1341535527156N01138179EA0000000413
B1341595527152N01138117EA0000000413
B1342065527145N01138036EA0000000397
B1342115527133N01137975EA0000000390
B1342195527031N01137933EA0000000362
B1342265526928N01137899EA0000000347
B1342365526808N01137792EA0000000339
B1342435526732N01137728EA0000000359
B1342485526660N01137768EA0000000356
B1342535526626N01137938EA0000000343
B1342595526684N01138059EA0000000335
B1343045526695N01138009EA0000000338
B1343105526612N01138026EA0000000345
B1343155526577N01138190EA0000000332
B1343205526623N01138306EA0000000331
B1343275526639N01138270EA0000000330
B1343325526569N01138297EA0000000336
B1343385526537N01138484EA0000000320
B1343445526596N01138586EA0000000319
B1343495526595N01138539EA0000000311
B1343545526526N01138554EA0000000323
B1344015526499N01138762EA0000000299
B1344065526548N01138903EA0000000290
B1344115526606N01138912EA0000000290
B1344185526657N01138863EA0000000317
B1344305526719N01138784EA0000000309
B1344355526739N01138743EA0000000313
B1344435526762N01138674EA0000000308
B1344485526764N01138620EA0000000320
B1344565526782N01138545EA0000000337
B1345045526803N01138486EA0000000355
B1345095526817N01138445EA0000000350
B1345155526838N01138384EA0000000342
B1345205526855N01138333EA0000000340
B1345265526875N01138264EA0000000331
B1345315526888N01138201EA0000000328
B1345365526897N01138139EA0000000322
B1346345526991N01137402EA0000000308
B1346505526995N01137234EA0000000283
B1346555526997N01137179EA0000000276
B1347045526967N01137080EA0000000266
B1347135526836N01137233EA0000000242
B1348045526640N01139091EA0000000153
B1348115526731N01139289EA0000000136
B1348195526837N01139481EA0000000149
B1348245526898N01139579EA0000000143
B1348335527009N01139620EA0000000132
B1348395527074N01139604EA0000000128
B1348455527108N01139536EA0000000124
B1348535527126N01139411EA0000000102
B1348595527129N01139303EA0000000084
B1349055527130N01139181EA0000000070
B1349105527135N01139084EA0000000058
B1349175527135N01138939EA0000000036
