AOGNOGN
HFDTE290625
HFFXA050
HFPLTPILOTINCHARGE:
HFGTYGLIDERTYPE:ASK-21
HFGIDGLIDERID:OY-XPL
HFDTM100GPSDATUM:WGS-1984
HFRFWFIRMWAREVERSION:
HFRHWHARDWAREVERSION:
HFFTYFRTYPE:OGN-FLIGHTBOOK
HFGPSGENERIC
HFPRSPRESSALTSENSOR:
HFCIDCOMPETITIONID:PL
B0933015527187N01138975EA0000000038
B0933075527188N01138850EA0000000146
B0933125527191N01138771EA0000000238
B0933185527194N01138667EA0000000313
B0933235527199N01138575EA0000000362
B0933295527222N01138466EA0000000394
B0933345527231N01138376EA0000000411
B0933415527245N01138265EA0000000405
B0933505527259N01138124EA0000000394
B0933565527226N01138043EA0000000388
B0934015527146N01138053EA0000000372
B0934065527059N01138087EA0000000369
B0934135526941N01138130EA0000000361
B0934235526778N01138179EA0000000359
B0934305526713N01138115EA0000000368
B0934355526732N01138047EA0000000369
B0934405526788N01138060EA0000000377
B0934475526828N01138247EA0000000378
B0934525526770N01138373EA0000000377
B0934575526706N01138361EA0000000381
B0935045526734N01138274EA0000000379
B0935095526797N01138324EA0000000394
B0935145526816N01138472EA0000000392
B0935215526731N01138617EA0000000393
B0935265526682N01138581EA0000000395
B0935335526621N01138508EA0000000399
B0935385526576N01138453EA0000000398
B0935445526534N01138374EA0000000396
B0935515526500N01138269EA0000000376
B0935575526483N01138179EA0000000370
B0936025526473N01138109EA0000000365
B0936075526468N01138039EA0000000353
B0936125526475N01137970EA0000000340
B0936205526494N01137861EA0000000321
B0936295526523N01137736EA0000000306
B0936365526548N01137645EA0000000299
B0936425526565N01137572EA0000000293
B0936475526584N01137518EA0000000285
B0936525526633N01137534EA0000000278
B0936575526667N01137672EA0000000269
B0937025526662N01137848EA0000000258
B0937075526652N01138029EA0000000248
B0937145526632N01138289EA0000000236
B0937195526618N01138475EA0000000232
B0937245526647N01138624EA0000000240
B0937295526704N01138633EA0000000235
B0937365526688N01138530EA0000000231
B0937415526607N01138572EA0000000240
B0937485526566N01138817EA0000000232
B0937535526566N01139002EA0000000242
B0937595526607N01139189EA0000000244
B0938065526659N01139394EA0000000241
B0938125526704N01139559EA0000000237
B0938185526752N01139718EA0000000227
B0938275526830N01139948EA0000000214
B0938345526910N01140045EA0000000202
B0938455527038N01140092EA0000000192
B0938535527124N01140072EA0000000195
B0939015527139N01139966EA0000000192
B0939105527133N01139782EA0000000176
B0939155527128N01139668EA0000000156
B0939245527124N01139495EA0000000119
B0939315527122N01139379EA0000000099
B0939365527121N01139303EA0000000076
B0939445527119N01139180EA0000000057
B0939495527119N01139093EA0000000045
B0939545527119N01139003EA0000000038
B0939595527120N01138922EA0000000034
