AOGNOGN
HFDTE290625
HFFXA050
HFPLTPILOTINCHARGE:
HFGTYGLIDERTYPE:Duo Discus
HFGIDGLIDERID:OY-RMX
HFDTM100GPSDATUM:WGS-1984
HFRFWFIRMWAREVERSION:
HFRHWHARDWAREVERSION:
HFFTYFRTYPE:OGN-FLIGHTBOOK
HFGPSGENERIC
HFPRSPRESSALTSENSOR:
HFCIDCOMPETITIONID:MX
B0904505527175N01138940EA0000000048
B0904555527170N01138846EA0000000148
B0905005527161N01138761EA0000000236
B0905065527150N01138644EA0000000330
B0905125527150N01138520EA0000000404
B0905195527154N01138368EA0000000439
B0905255527158N01138265EA0000000466
B0905325527167N01138144EA0000000462
B0905415527182N01137988EA0000000462
B0905465527170N01137905EA0000000447
B0905595527026N01137730EA0000000422
B0906055526950N01137657EA0000000416
B0906105526887N01137598EA0000000414
B0906175526804N01137512EA0000000410
B0906265526762N01137355EA0000000399
B0906315526772N01137265EA0000000394
B0906375526805N01137168EA0000000395
B0906425526839N01137102EA0000000386
B0906485526880N01137021EA0000000378
B0906535526914N01136953EA0000000371
B0906585526957N01136903EA0000000362
B0907065527060N01136909EA0000000349
B0907145527168N01136970EA0000000343
B0907195527236N01137026EA0000000336
B0907255527319N01137101EA0000000343
B0907315527398N01137140EA0000000351
B0907365527433N01137077EA0000000344
B0907415527398N01136990EA0000000355
B0907465527323N01137000EA0000000358
B0907515527269N01137137EA0000000352
B0907565527272N01137307EA0000000360
B0908015527320N01137421EA0000000361
B0908065527387N01137440EA0000000357
B0908135527464N01137387EA0000000361
B0908185527450N01137301EA0000000362
B0908235527379N01137291EA0000000376
B0908325527313N01137535EA0000000383
B0908375527359N01137654EA0000000393
B0908425527423N01137668EA0000000378
B0908475527477N01137628EA0000000388
B0908525527507N01137567EA0000000375
B0908595527489N01137448EA0000000359
B0909055527453N01137343EA0000000352
B0909125527410N01137220EA0000000359
B0909175527379N01137136EA0000000360
B0909245527260N01137148EA0000000344
B0909295527168N01137179EA0000000345
B0909345527082N01137201EA0000000335
B0909435526924N01137237EA0000000320
B0909505526806N01137268EA0000000318
B0909555526720N01137296EA0000000310
B0910025526606N01137330EA0000000327
B0910075526539N01137298EA0000000328
B0910125526530N01137209EA0000000328
B0910185526592N01137145EA0000000333
B0910235526664N01137189EA0000000345
B0910295526696N01137369EA0000000346
B0910345526662N01137530EA0000000337
B0910395526596N01137636EA0000000341
B0910465526487N01137674EA0000000351
B0910515526453N01137598EA0000000337
B0910565526476N01137516EA0000000338
B0911035526550N01137442EA0000000340
B0911085526610N01137402EA0000000348
B0911135526682N01137431EA0000000344
B0911195526750N01137582EA0000000345
B0911245526759N01137759EA0000000339
B0911295526722N01137934EA0000000322
B0911365526614N01138068EA0000000309
B0911415526550N01138018EA0000000287
B0911505526544N01137842EA0000000301
B0911555526558N01137762EA0000000300
B0912005526536N01137681EA0000000285
B0912055526532N01137581EA0000000274
B0912105526560N01137491EA0000000284
B0912155526595N01137421EA0000000290
B0912205526659N01137430EA0000000288
B0912275526707N01137625EA0000000287
B0912325526676N01137795EA0000000282
B0912375526605N01137911EA0000000275
B0912445526513N01137887EA0000000273
B0912525526507N01137756EA0000000283
B0912585526497N01137669EA0000000294
B0913045526496N01137585EA0000000298
B0913095526500N01137522EA0000000301
B0913185526509N01137400EA0000000303
B0913235526513N01137332EA0000000308
B0913315526517N01137225EA0000000307
B0913365526519N01137154EA0000000307
B0913435526534N01137055EA0000000299
B0913525526556N01136913EA0000000285
B0914005526578N01136782EA0000000286
B0914065526593N01136688EA0000000285
B0914115526612N01136613EA0000000286
B0914175526634N01136518EA0000000303
B0914225526639N01136455EA0000000316
B0914275526620N01136380EA0000000306
B0914325526546N01136369EA0000000319
B0914375526479N01136482EA0000000320
B0914435526467N01136690EA0000000313
B0914485526512N01136821EA0000000320
B0914545526591N01136858EA0000000319
B0915005526651N01136810EA0000000329
B0915065526676N01136737EA0000000333
B0915125526697N01136654EA0000000326
B0915175526703N01136578EA0000000322
B0915225526679N01136495EA0000000312
B0915295526609N01136391EA0000000335
B0915345526530N01136412EA0000000334
B0915405526500N01136606EA0000000333
B0915455526558N01136733EA0000000320
B0915515526645N01136746EA0000000342
B0915565526668N01136675EA0000000347
B0916015526610N01136626EA0000000341
B0916085526488N01136699EA0000000359
B0916135526440N01136847EA0000000358
B0916185526458N01137012EA0000000359
B0916255526540N01137142EA0000000363
B0916305526604N01137198EA0000000371
B0916385526686N01137170EA0000000360
B0916475526728N01137052EA0000000348
B0916545526711N01136940EA0000000342
B0916595526687N01136868EA0000000340
B0917055526659N01136778EA0000000330
B0917105526628N01136704EA0000000334
B0917165526595N01136626EA0000000337
B0917225526566N01136551EA0000000325
B0917285526545N01136482EA0000000331
B0917335526537N01136422EA0000000328
B0917385526542N01136364EA0000000327
B0917435526582N01136334EA0000000322
B0917495526655N01136338EA0000000316
B0917575526747N01136357EA0000000312
B0918025526810N01136421EA0000000307
B0918075526843N01136583EA0000000296
B0918125526806N01136772EA0000000290
B0918175526740N01136918EA0000000288
B0918255526626N01137130EA0000000274
B0918325526516N01137293EA0000000268
B0918375526464N01137455EA0000000265
B0918425526473N01137628EA0000000258
B0918475526530N01137727EA0000000244
B0918535526613N01137758EA0000000232
B0919015526716N01137783EA0000000227
B0919065526774N01137788EA0000000220
B0919115526819N01137761EA0000000204
B0919165526785N01137695EA0000000184
B0919215526700N01137790EA0000000176
B0919265526689N01138004EA0000000175
B0919315526689N01138210EA0000000170
B0919375526682N01138475EA0000000151
B0919435526671N01138743EA0000000146
B0919485526692N01138952EA0000000141
B0919535526745N01139125EA0000000133
B0919595526826N01139310EA0000000132
B0920055526910N01139478EA0000000133
B0920105526992N01139564EA0000000124
B0920155527073N01139561EA0000000107
B0920225527109N01139384EA0000000089
B0920275527114N01139263EA0000000069
B0920335527117N01139118EA0000000044
B0920395527119N01138977EA0000000035
B0920445527121N01138887EA0000000035
