AOGNOGN
HFDTE290625
HFFXA050
HFPLTPILOTINCHARGE:
HFGTYGLIDERTYPE:Duo Discus
HFGIDGLIDERID:OY-RMX
HFDTM100GPSDATUM:WGS-1984
HFRFWFIRMWAREVERSION:
HFRHWHARDWAREVERSION:
HFFTYFRTYPE:OGN-FLIGHTBOOK
HFGPSGENERIC
HFPRSPRESSALTSENSOR:
HFCIDCOMPETITIONID:MX
B0952085527176N01139013EA0000000036
B0952105527175N01138978EA0000000038
B0952155527165N01138886EA0000000103
B0952205527156N01138808EA0000000174
B0952255527153N01138720EA0000000247
B0952305527149N01138624EA0000000315
B0952355527148N01138522EA0000000368
B0952405527154N01138423EA0000000403
B0952455527160N01138360EA0000000427
B0952545527181N01138248EA0000000430
B0953025527198N01138154EA0000000449
B0953095527214N01138074EA0000000437
B0953155527224N01138004EA0000000455
B0953225527236N01137927EA0000000453
B0953275527240N01137865EA0000000451
B0953335527246N01137792EA0000000445
B0953385527255N01137737EA0000000442
B0953435527265N01137689EA0000000443
B0953485527273N01137638EA0000000432
B0953555527274N01137536EA0000000412
B0954005527239N01137456EA0000000401
B0954065527176N01137383EA0000000396
B0954135527096N01137311EA0000000382
B0954235526987N01137204EA0000000381
B0954285526941N01137144EA0000000378
B0954345526892N01137074EA0000000378
B0954395526851N01137024EA0000000374
B0954445526813N01136963EA0000000381
B0954515526767N01136882EA0000000394
B0954565526736N01136820EA0000000397
B0955025526705N01136746EA0000000412
B0955085526678N01136673EA0000000419
B0955165526648N01136578EA0000000437
B0955225526630N01136509EA0000000431
B0955295526620N01136435EA0000000419
B0955365526626N01136344EA0000000412
B0955425526637N01136277EA0000000407
B0955475526660N01136221EA0000000394
B0955525526696N01136174EA0000000399
B0955595526752N01136152EA0000000396
B0956045526810N01136204EA0000000399
B0956095526851N01136327EA0000000395
B0956175526856N01136607EA0000000393
B0956225526834N01136776EA0000000386
B0956325526730N01137100EA0000000367
B0956385526653N01137288EA0000000377
B0956435526598N01137419EA0000000407
B0956495526540N01137578EA0000000404
B0956555526518N01137771EA0000000413
B0957015526504N01137961EA0000000430
B0957065526490N01138124EA0000000427
B0957125526474N01138327EA0000000433
B0957195526458N01138565EA0000000444
B0957255526444N01138754EA0000000459
B0957335526422N01139021EA0000000460
B0957405526400N01139252EA0000000463
B0957465526355N01139449EA0000000467
B0957515526337N01139617EA0000000471
B0957585526406N01139737EA0000000465
B0958035526417N01139662EA0000000450
B0958095526408N01139557EA0000000458
B0958165526418N01139443EA0000000463
B0958215526434N01139363EA0000000469
B0958275526447N01139270EA0000000467
B0958375526456N01139111EA0000000479
B0958455526463N01138990EA0000000488
B0958535526468N01138878EA0000000499
B0958585526474N01138813EA0000000500
B0959075526476N01138682EA0000000487
B0959195526458N01138486EA0000000488
B0959255526455N01138396EA0000000511
B0959325526447N01138312EA0000000517
B0959395526443N01138218EA0000000526
B0959465526439N01138128EA0000000530
B0959515526435N01138057EA0000000532
B0959565526431N01137982EA0000000541
B1000095526431N01137816EA0000000559
B1000195526432N01137688EA0000000559
B1000305526451N01137546EA0000000554
B1000365526466N01137455EA0000000539
B1000425526488N01137361EA0000000533
B1000485526514N01137279EA0000000542
B1000555526544N01137187EA0000000542
B1001045526575N01137056EA0000000539
B1001105526590N01136971EA0000000547
B1001165526610N01136891EA0000000546
B1001235526637N01136808EA0000000542
B1001325526661N01136668EA0000000536
B1001385526659N01136572EA0000000553
B1001465526650N01136471EA0000000553
B1001525526653N01136394EA0000000562
B1001585526661N01136317EA0000000559
B1002045526664N01136231EA0000000571
B1002095526671N01136167EA0000000579
B1002145526682N01136108EA0000000587
B1002205526696N01136032EA0000000594
B1002265526716N01135962EA0000000608
B1002335526740N01135884EA0000000618
B1002395526760N01135832EA0000000627
B1002465526781N01135771EA0000000611
B1002545526814N01135672EA0000000592
B1002595526824N01135587EA0000000592
B1003045526847N01135520EA0000000604
B1003095526903N01135515EA0000000610
B1003145526967N01135624EA0000000606
B1003195527019N01135780EA0000000622
B1003275527106N01136027EA0000000617
B1003335527168N01136208EA0000000622
B1003385527226N01136356EA0000000613
B1003435527296N01136458EA0000000609
B1003485527369N01136546EA0000000592
B1003535527447N01136639EA0000000586
B1004045527627N01136805EA0000000589
B1004105527728N01136895EA0000000597
B1004155527798N01137007EA0000000600
B1004205527858N01137159EA0000000589
B1004275527892N01137445EA0000000567
B1004335527892N01137716EA0000000560
B1004445527871N01138172EA0000000559
B1004495527862N01138380EA0000000553
B1004555527845N01138629EA0000000528
B1005015527782N01138890EA0000000506
B1005065527703N01139062EA0000000516
B1005125527606N01139238EA0000000506
B1005195527483N01139410EA0000000491
B1005255527374N01139531EA0000000485
B1005315527269N01139622EA0000000474
B1005375527166N01139670EA0000000477
B1005425527089N01139656EA0000000469
B1005525526953N01139557EA0000000453
B1005595526892N01139442EA0000000434
B1006095526870N01139232EA0000000418
B1006145526867N01139127EA0000000416
B1006205526861N01139008EA0000000421
B1006265526860N01138887EA0000000422
B1006315526862N01138772EA0000000417
B1006365526860N01138659EA0000000416
B1006435526853N01138512EA0000000401
B1006485526850N01138404EA0000000391
B1006535526846N01138301EA0000000390
B1007005526854N01138171EA0000000392
B1007095526871N01138011EA0000000379
B1007185526889N01137863EA0000000364
B1007255526927N01137768EA0000000350
B1007315526954N01137676EA0000000331
B1007375526941N01137560EA0000000312
B1007435526914N01137438EA0000000304
B1007515526905N01137289EA0000000291
B1007575526939N01137192EA0000000288
B1008035526979N01137115EA0000000288
B1008085527008N01137046EA0000000271
B1008145527056N01136954EA0000000258
B1008195527085N01136873EA0000000254
B1008255527051N01136763EA0000000239
B1008305526989N01136698EA0000000232
B1008355526904N01136682EA0000000227
B1008425526781N01136824EA0000000231
B1008485526744N01137055EA0000000223
B1008555526730N01137353EA0000000210
B1009015526714N01137602EA0000000205
B1009085526694N01137903EA0000000205
B1009165526664N01138241EA0000000186
B1009235526637N01138536EA0000000174
B1009285526615N01138746EA0000000165
B1009355526648N01139017EA0000000161
B1009405526704N01139166EA0000000156
B1009455526768N01139293EA0000000145
B1009505526840N01139411EA0000000128
B1009555526924N01139501EA0000000112
B1010005527012N01139520EA0000000104
B1010065527075N01139423EA0000000102
B1010155527115N01139219EA0000000057
B1010205527117N01139097EA0000000044
B1010275527122N01138932EA0000000034
B1010335527121N01138831EA0000000034
