AOGNOGN
HFDTE210625
HFFXA050
HFPLTPILOTINCHARGE:
HFGTYGLIDERTYPE:ASK-21
HFGIDGLIDERID:OY-XKO
HFDTM100GPSDATUM:WGS-1984
HFRFWFIRMWAREVERSION:
HFRHWHARDWAREVERSION:
HFFTYFRTYPE:OGN-FLIGHTBOOK
HFGPSGENERIC
HFPRSPRESSALTSENSOR:
HFCIDCOMPETITIONID:R2
B1313385515102N01204120EA0000000074
B1313395515102N01204100EA0000000092
B1313435515105N01204029EA0000000171
B1313485515113N01203942EA0000000259
B1313535515107N01203849EA0000000332
B1313585515097N01203748EA0000000393
B1314035515093N01203636EA0000000435
B1314085515091N01203526EA0000000454
B1314135515072N01203447EA0000000454
B1314205514984N01203449EA0000000442
B1314255514916N01203480EA0000000428
B1314315514833N01203536EA0000000413
B1314375514750N01203628EA0000000401
B1314445514680N01203801EA0000000387
B1314495514653N01203960EA0000000374
B1314565514606N01204168EA0000000379
B1315015514557N01204282EA0000000372
B1315065514489N01204337EA0000000366
B1315125514432N01204275EA0000000349
B1315175514442N01204194EA0000000357
B1315225514476N01204147EA0000000348
B1315285514512N01204063EA0000000343
B1315355514546N01203949EA0000000330
B1315405514606N01203893EA0000000318
B1315455514680N01203952EA0000000327
B1315525514672N01204175EA0000000328
B1316005514600N01204376EA0000000308
B1316065514541N01204537EA0000000298
B1316125514482N01204700EA0000000292
B1316185514398N01204715EA0000000278
B1316255514419N01204570EA0000000268
B1316365514488N01204393EA0000000279
B1316465514540N01204257EA0000000283
B1316545514583N01204180EA0000000276
B1316595514609N01204137EA0000000270
B1317045514637N01204089EA0000000249
B1317105514682N01204005EA0000000227
B1317175514704N01203854EA0000000225
B1317225514700N01203750EA0000000223
B1317275514714N01203657EA0000000220
B1317325514779N01203646EA0000000218
B1317375514835N01203757EA0000000214
B1317425514838N01203919EA0000000197
B1317505514796N01204205EA0000000192
B1317565514782N01204423EA0000000194
B1318035514783N01204676EA0000000182
B1318125514819N01205013EA0000000165
B1318175514873N01205176EA0000000161
B1319525515099N01204207EA0000000037
