AOGNOGN
HFDTE210625
HFFXA050
HFPLTPILOTINCHARGE:
HFGTYGLIDERTYPE:LS-4
HFGIDGLIDERID:OY-XMO
HFDTM100GPSDATUM:WGS-1984
HFRFWFIRMWAREVERSION:
HFRHWHARDWAREVERSION:
HFFTYFRTYPE:OGN-FLIGHTBOOK
HFGPSGENERIC
HFPRSPRESSALTSENSOR:
HFCIDCOMPETITIONID:L7
B1332555515087N01204137EA0000000045
B1332565515088N01204116EA0000000051
B1333015515093N01204012EA0000000105
B1333065515098N01203914EA0000000177
B1333115515099N01203812EA0000000240
B1333165515094N01203705EA0000000304
B1333235515091N01203548EA0000000353
B1333375515092N01203298EA0000000394
B1333425515097N01203222EA0000000383
B1333475515122N01203141EA0000000378
B1333545515190N01203054EA0000000383
B1333595515224N01202990EA0000000380
B1334045515203N01202916EA0000000371
B1334095515142N01202931EA0000000377
B1334145515096N01203042EA0000000369
B1334195515103N01203195EA0000000357
B1334245515164N01203289EA0000000353
B1334295515227N01203290EA0000000345
B1334345515260N01203221EA0000000333
B1334405515247N01203131EA0000000332
B1334455515199N01203107EA0000000335
B1334505515136N01203129EA0000000319
B1334575515084N01203288EA0000000332
B1335025515108N01203418EA0000000316
B1335095515194N01203572EA0000000306
B1335145515266N01203602EA0000000297
B1335205515340N01203565EA0000000284
B1335255515400N01203524EA0000000281
B1335305515449N01203475EA0000000275
B1335355515460N01203392EA0000000274
B1335405515426N01203336EA0000000273
B1335455515366N01203348EA0000000269
B1335505515315N01203445EA0000000269
B1335555515303N01203590EA0000000271
B1336015515352N01203740EA0000000255
B1336065515425N01203783EA0000000251
B1336115515474N01203739EA0000000247
B1336175515471N01203636EA0000000243
B1336225515424N01203600EA0000000244
B1336275515367N01203654EA0000000239
B1336335515353N01203824EA0000000233
B1336395515375N01204019EA0000000219
B1336465515410N01204242EA0000000215
B1336525515449N01204424EA0000000202
B1336575515482N01204590EA0000000190
B1337035515485N01204789EA0000000189
B1337085515450N01204937EA0000000178
B1337135515390N01205022EA0000000183
B1337185515333N01205002EA0000000177
B1337245515304N01204887EA0000000159
B1337315515272N01204743EA0000000139
B1337395515241N01204569EA0000000117
B1337445515223N01204466EA0000000098
B1337495515207N01204360EA0000000082
B1337555515189N01204231EA0000000062
B1338025515166N01204095EA0000000041
