AOGNOGN
HFDTE210625
HFFXA050
HFPLTPILOTINCHARGE:
HFGTYGLIDERTYPE:LS-4
HFGIDGLIDERID:OY-XMO
HFDTM100GPSDATUM:WGS-1984
HFRFWFIRMWAREVERSION:
HFRHWHARDWAREVERSION:
HFFTYFRTYPE:OGN-FLIGHTBOOK
HFGPSGENERIC
HFPRSPRESSALTSENSOR:
HFCIDCOMPETITIONID:L7
B1134305515098N01204146EA0000000045
B1134355515102N01204035EA0000000118
B1134405515107N01203928EA0000000198
B1134455515113N01203820EA0000000261
B1134505515113N01203707EA0000000321
B1134555515109N01203599EA0000000365
B1135035515108N01203468EA0000000388
B1135085515112N01203393EA0000000379
B1135135515124N01203314EA0000000369
B1135195515169N01203247EA0000000365
B1135245515226N01203218EA0000000357
B1135295515280N01203170EA0000000345
B1135345515287N01203079EA0000000340
B1135395515254N01203018EA0000000337
B1135445515200N01203029EA0000000333
B1135505515151N01203147EA0000000331
B1135555515146N01203288EA0000000330
B1136005515159N01203421EA0000000328
B1136065515212N01203563EA0000000326
B1136125515282N01203621EA0000000318
B1136175515328N01203573EA0000000312
B1136225515327N01203504EA0000000305
B1136275515280N01203482EA0000000295
B1136325515230N01203568EA0000000285
B1136385515229N01203727EA0000000293
B1136435515277N01203820EA0000000279
B1136485515341N01203833EA0000000276
B1136555515381N01203736EA0000000269
B1137015515390N01203636EA0000000262
B1137065515391N01203555EA0000000253
B1137115515351N01203524EA0000000241
B1137165515306N01203602EA0000000235
B1137235515314N01203787EA0000000227
B1137285515331N01203926EA0000000219
B1137345515359N01204108EA0000000221
B1137425515398N01204353EA0000000206
B1137485515414N01204547EA0000000210
B1137545515397N01204731EA0000000199
B1137595515351N01204856EA0000000197
B1138045515295N01204940EA0000000195
B1138095515234N01204940EA0000000178
B1138145515227N01204837EA0000000162
B1138195515226N01204734EA0000000146
B1138255515221N01204616EA0000000125
B1138315515211N01204495EA0000000105
B1138385515198N01204354EA0000000084
B1138465515182N01204204EA0000000057
B1138545515159N01204054EA0000000037
