AOGNOGN
HFDTE240825
HFFXA050
HFPLTPILOTINCHARGE:
HFGTYGLIDERTYPE:LS-1 f
HFGIDGLIDERID:OY-OXK
HFDTM100GPSDATUM:WGS-1984
HFRFWFIRMWAREVERSION:
HFRHWHARDWAREVERSION:
HFFTYFRTYPE:OGN-FLIGHTBOOK
HFGPSGENERIC
HFPRSPRESSALTSENSOR:
HFCIDCOMPETITIONID:OK
B1157385600689N00901504EA0000000041
B1157445600682N00901379EA0000000041
B1157495600671N00901259EA0000000059
B1157545600658N00901141EA0000000075
B1158005600642N00900988EA0000000089
B1158055600624N00900852EA0000000105
B1158105600611N00900718EA0000000128
B1158165600607N00900564EA0000000156
B1158215600621N00900448EA0000000174
B1158305600690N00900285EA0000000211
B1158365600766N00900218EA0000000226
B1158435600868N00900184EA0000000251
B1158505600976N00900177EA0000000274
B1158555601054N00900185EA0000000292
B1159015601151N00900194EA0000000305
B1159075601251N00900204EA0000000326
B1159125601334N00900204EA0000000349
B1159185601432N00900204EA0000000379
B1159295601604N00900204EA0000000422
B1159345601680N00900192EA0000000442
B1159395601752N00900165EA0000000470
B1159465601858N00900108EA0000000502
B1159515601916N00900044EA0000000539
B1159565601858N00859978EA0000000547
B1200015601772N00900057EA0000000537
B1200065601721N00900220EA0000000551
B1200115601761N00900336EA0000000566
B1200165601779N00900275EA0000000567
B1200215601710N00900323EA0000000592
B1200265601733N00900453EA0000000601
B1200315601768N00900410EA0000000607
B1200365601701N00900406EA0000000624
B1200415601692N00900550EA0000000635
B1200465601738N00900547EA0000000647
B1200515601683N00900508EA0000000661
B1200565601641N00900641EA0000000670
B1201025601700N00900708EA0000000674
B1201075601694N00900628EA0000000688
B1201125601618N00900656EA0000000693
B1201175601605N00900799EA0000000701
B1201225601654N00900821EA0000000711
B1201275601621N00900757EA0000000718
B1201325601559N00900856EA0000000724
B1201375601591N00900950EA0000000734
B1201425601609N00900886EA0000000742
B1201485601527N00900875EA0000000750
B1201535601491N00901012EA0000000763
B1201595601543N00901096EA0000000762
B1202045601552N00901023EA0000000780
B1202105601468N00901011EA0000000789
B1202155601435N00901156EA0000000796
B1202205601476N00901196EA0000000806
B1202255601454N00901118EA0000000814
B1202305601376N00901153EA0000000825
B1202355601364N00901298EA0000000831
B1202405601405N00901315EA0000000833
B1202455601387N00901230EA0000000844
B1202505601311N00901256EA0000000856
B1202555601294N00901406EA0000000851
B1203005601341N00901448EA0000000859
B1203055601353N00901366EA0000000869
B1203105601352N00901278EA0000000883
B1203155601395N00901319EA0000000881
B1203205601364N00901467EA0000000876
B1203255601284N00901503EA0000000887
B1203305601275N00901422EA0000000891
B1203355601321N00901499EA0000000888
B1203405601271N00901655EA0000000876
B1203465601169N00901847EA0000000878
B1203525601071N00902023EA0000000887
B1203575600989N00902157EA0000000888
B1204025600894N00902243EA0000000892
B1204075600795N00902298EA0000000894
B1204145600655N00902364EA0000000897
B1204195600567N00902469EA0000000901
B1204245600544N00902637EA0000000907
B1204295600592N00902705EA0000000898
B1204345600635N00902641EA0000000876
B1204425600717N00902512EA0000000869
B1204485600774N00902420EA0000000875
B1204555600841N00902313EA0000000865
B1205015600898N00902222EA0000000868
B1205075600948N00902124EA0000000871
B1205125600989N00902051EA0000000876
B1205175601030N00901985EA0000000869
B1205225601084N00901925EA0000000849
B1205285601167N00901873EA0000000842
B1205345601250N00901834EA0000000838
B1205395601319N00901806EA0000000831
B1205475601426N00901757EA0000000823
B1205525601468N00901680EA0000000822
B1205575601463N00901558EA0000000815
B1206035601460N00901396EA0000000798
B1206085601476N00901266EA0000000799
B1206145601494N00901119EA0000000797
B1206205601532N00900995EA0000000791
B1206255601568N00900897EA0000000783
B1206345601641N00900720EA0000000775
B1206425601712N00900572EA0000000762
B1206495601760N00900418EA0000000749
B1206545601756N00900288EA0000000742
B1206595601685N00900188EA0000000728
B1207045601585N00900122EA0000000697
B1207115601434N00900032EA0000000694
B1207205601253N00859919EA0000000683
B1207255601155N00859855EA0000000675
B1207325601014N00859764EA0000000660
B1207385600891N00859687EA0000000649
B1207455600743N00859622EA0000000649
B1207505600640N00859588EA0000000671
B1207555600581N00859516EA0000000699
B1208005600622N00859497EA0000000713
B1208055600604N00859629EA0000000715
B1208105600541N00859595EA0000000724
B1208155600578N00859597EA0000000741
B1208205600535N00859715EA0000000744
B1208255600499N00859650EA0000000752
B1208305600535N00859709EA0000000769
B1208355600476N00859803EA0000000772
B1208405600442N00859721EA0000000779
B1208455600480N00859739EA0000000793
B1208505600436N00859863EA0000000801
B1208555600380N00859814EA0000000816
B1209005600418N00859805EA0000000822
B1209055600402N00859937EA0000000832
B1209105600322N00859942EA0000000838
B1209155600321N00859867EA0000000846
B1209225600340N00900015EA0000000856
B1209275600259N00900043EA0000000858
B1209335600261N00859954EA0000000861
B1209385600304N00900035EA0000000867
B1209435600290N00900183EA0000000881
B1209485600212N00900224EA0000000882
B1209535600186N00900125EA0000000874
B1209585600233N00900107EA0000000888
B1210045600240N00900263EA0000000891
B1210095600159N00900323EA0000000886
B1210145600132N00900230EA0000000882
B1210195600180N00900234EA0000000892
B1210245600186N00900371EA0000000893
B1210305600092N00900446EA0000000892
B1210355600052N00900355EA0000000882
B1210405600000N00900275EA0000000876
B1210465559899N00900380EA0000000858
B1210515559816N00900528EA0000000840
B1210585559698N00900756EA0000000818
B1211035559627N00900949EA0000000797
B1211095559594N00901219EA0000000798
B1211145559586N00901428EA0000000791
B1211205559606N00901650EA0000000797
B1211255559625N00901832EA0000000796
B1211305559655N00901994EA0000000814
B1211385559745N00902108EA0000000831
B1211435559720N00902243EA0000000848
B1211485559653N00902213EA0000000843
B1211545559697N00902136EA0000000847
B1211595559736N00902213EA0000000870
B1212045559680N00902326EA0000000869
B1212095559623N00902265EA0000000857
B1212155559673N00902186EA0000000868
B1212205559723N00902183EA0000000870
B1212265559743N00902357EA0000000854
B1212335559757N00902620EA0000000820
B1212415559763N00902938EA0000000806
B1212465559753N00903140EA0000000798
B1212525559741N00903377EA0000000802
B1212595559728N00903646EA0000000821
B1213045559737N00903809EA0000000829
B1213095559785N00903898EA0000000834
B1213145559842N00903907EA0000000830
B1213195559901N00903882EA0000000808
B1213255559981N00903840EA0000000802
B1213305600053N00903793EA0000000783
B1213365600137N00903731EA0000000780
B1213415600203N00903682EA0000000776
B1213465600267N00903640EA0000000769
B1213515600327N00903595EA0000000756
B1213585600424N00903551EA0000000737
B1214035600499N00903533EA0000000724
B1214085600576N00903523EA0000000710
B1214145600663N00903491EA0000000708
B1214195600732N00903452EA0000000703
B1214265600822N00903397EA0000000695
B1214315600883N00903353EA0000000690
B1214375600958N00903306EA0000000678
B1214445601058N00903279EA0000000660
B1214495601128N00903257EA0000000640
B1214545601204N00903249EA0000000625
B1214595601276N00903228EA0000000617
B1215045601317N00903147EA0000000609
B1215115601311N00902986EA0000000598
B1215165601281N00902862EA0000000578
B1215225601232N00902707EA0000000565
B1215295601144N00902538EA0000000542
B1215355601054N00902401EA0000000532
B1215415600961N00902270EA0000000521
B1215465600874N00902179EA0000000514
B1215545600719N00902069EA0000000496
B1215595600625N00901991EA0000000487
B1216075600492N00901840EA0000000484
B1216125600414N00901736EA0000000487
B1216225600273N00901546EA0000000491
B1216275600233N00901445EA0000000516
B1216325600272N00901485EA0000000530
B1216375600214N00901602EA0000000539
B1216425600187N00901543EA0000000547
B1216475600227N00901615EA0000000560
B1216525600176N00901741EA0000000567
B1216585600122N00901677EA0000000574
B1217035600165N00901650EA0000000586
B1217085600173N00901783EA0000000602
B1217135600095N00901809EA0000000603
B1217185600110N00901748EA0000000617
B1217235600144N00901856EA0000000633
B1217285600073N00901946EA0000000638
B1217335600040N00901879EA0000000648
B1217395600090N00901961EA0000000662
B1217445600024N00902053EA0000000670
B1217495600007N00901983EA0000000680
B1217545600062N00902013EA0000000686
B1217595600025N00902145EA0000000697
B1218045559978N00902092EA0000000698
B1218095600026N00902050EA0000000714
B1218145600054N00902171EA0000000721
B1218195559979N00902218EA0000000731
B1218245559970N00902138EA0000000747
B1218295600014N00902211EA0000000758
B1218345559956N00902312EA0000000760
B1218405559922N00902231EA0000000777
B1218455559971N00902282EA0000000782
B1218515559916N00902415EA0000000791
B1218565559889N00902343EA0000000799
B1219025559950N00902395EA0000000808
B1219075559915N00902532EA0000000808
B1219125559847N00902514EA0000000823
B1219175559863N00902441EA0000000824
B1219225559918N00902502EA0000000838
B1219275559892N00902643EA0000000840
B1219325559826N00902631EA0000000851
B1219385559862N00902572EA0000000865
B1219435559887N00902699EA0000000868
B1219485559818N00902795EA0000000870
B1219535559792N00902726EA0000000886
B1219595559848N00902775EA0000000895
B1220045559819N00902925EA0000000897
B1220095559749N00902937EA0000000915
B1220145559767N00902890EA0000000923
B1220195559811N00902989EA0000000924
B1220245559869N00903082EA0000000908
B1220305559958N00903053EA0000000902
B1220355600032N00903015EA0000000896
B1220405600108N00902971EA0000000888
B1220455600183N00902909EA0000000879
B1220545600337N00902892EA0000000879
B1220595600422N00902901EA0000000871
B1221045600503N00902888EA0000000865
B1221095600510N00902776EA0000000869
B1221145600482N00902653EA0000000847
B1221195600455N00902511EA0000000840
B1221255600420N00902352EA0000000838
B1221325600388N00902176EA0000000831
B1221395600370N00902007EA0000000827
B1221455600356N00901868EA0000000833
B1221515600347N00901739EA0000000843
B1221575600342N00901613EA0000000827
B1222035600332N00901478EA0000000826
B1222085600313N00901377EA0000000828
B1222145600289N00901246EA0000000826
B1222195600272N00901133EA0000000827
B1222245600256N00901022EA0000000837
B1222295600242N00900922EA0000000849
B1222345600233N00900828EA0000000860
B1222395600239N00900742EA0000000860
B1222455600263N00900642EA0000000856
B1222505600291N00900561EA0000000856
B1222565600323N00900469EA0000000851
B1223035600357N00900344EA0000000836
B1223085600349N00900233EA0000000839
B1223135600297N00900143EA0000000835
B1223185600254N00900050EA0000000843
B1223235600256N00859956EA0000000841
B1223285600229N00859853EA0000000835
B1223335600146N00859817EA0000000855
B1223385600071N00859920EA0000000876
B1223435600079N00900069EA0000000888
B1223485600132N00900090EA0000000894
B1223545600149N00900004EA0000000903
B1224015600094N00859889EA0000000898
B1224065600015N00859840EA0000000902
B1224115559931N00859802EA0000000903
B1224165559846N00859773EA0000000916
B1224215559799N00859697EA0000000915
B1224265559831N00859634EA0000000913
B1224315559887N00859689EA0000000916
B1224385559887N00859897EA0000000906
B1224435559806N00900034EA0000000898
B1224485559712N00900119EA0000000912
B1224535559633N00900081EA0000000921
B1224585559631N00859998EA0000000930
B1225035559678N00900035EA0000000925
B1225095559684N00900220EA0000000922
B1225155559676N00900427EA0000000928
B1225205559715N00900522EA0000000943
B1225255559762N00900519EA0000000941
B1225305559791N00900458EA0000000939
B1225355559783N00900367EA0000000954
B1225405559703N00900363EA0000000959
B1225465559639N00900530EA0000000964
B1225515559647N00900679EA0000000951
B1225585559705N00900825EA0000000956
B1226035559753N00900802EA0000000953
B1226085559755N00900720EA0000000969
B1226135559689N00900682EA0000000973
B1226195559600N00900805EA0000000982
B1226245559604N00900952EA0000000968
B1226295559673N00900984EA0000000952
B1226345559739N00900926EA0000000951
B1226405559827N00900850EA0000000951
B1226465559917N00900774EA0000000951
B1226525600006N00900695EA0000000937
B1226585600091N00900609EA0000000933
B1227035600155N00900531EA0000000931
B1227095600225N00900431EA0000000937
B1227145600265N00900331EA0000000929
B1227225600291N00900137EA0000000911
B1227275600303N00900014EA0000000904
B1227335600320N00859867EA0000000898
B1227395600333N00859726EA0000000899
B1227475600340N00859541EA0000000894
B1227535600349N00859405EA0000000897
B1227595600361N00859282EA0000000903
B1228045600372N00859179EA0000000904
B1228105600399N00859087EA0000000908
B1228155600447N00859066EA0000000909
B1228205600500N00859135EA0000000914
B1228255600507N00859290EA0000000924
B1228315600422N00859393EA0000000917
B1228365600382N00859312EA0000000909
B1228425600385N00859196EA0000000907
B1228475600422N00859132EA0000000899
B1228525600485N00859124EA0000000890
B1228575600554N00859151EA0000000882
B1229055600667N00859209EA0000000886
B1229105600737N00859236EA0000000903
B1229165600822N00859257EA0000000876
B1229215600903N00859268EA0000000867
B1229265600983N00859278EA0000000865
B1229345601108N00859302EA0000000852
B1229405601200N00859320EA0000000848
B1229465601290N00859332EA0000000844
B1229515601363N00859345EA0000000842
B1229565601435N00859364EA0000000840
B1230025601520N00859391EA0000000836
B1230095601612N00859417EA0000000838
B1230175601711N00859443EA0000000834
B1230245601799N00859466EA0000000837
B1230295601853N00859433EA0000000841
B1230345601902N00859395EA0000000851
B1230395601936N00859499EA0000000852
B1230445601870N00859616EA0000000863
B1230505601822N00859535EA0000000870
B1230555601869N00859535EA0000000867
B1231005601912N00859647EA0000000865
B1231065601880N00859841EA0000000872
B1231115601795N00859867EA0000000878
B1231165601779N00859776EA0000000882
B1231215601830N00859802EA0000000890
B1231265601835N00859955EA0000000898
B1231315601762N00900059EA0000000898
B1231365601696N00900007EA0000000902
B1231415601721N00859933EA0000000897
B1231465601779N00859981EA0000000902
B1231515601790N00900145EA0000000900
B1231585601765N00900405EA0000000897
B1232035601760N00900593EA0000000895
B1232085601756N00900782EA0000000884
B1232145601749N00901013EA0000000870
B1232215601737N00901287EA0000000861
B1232265601726N00901484EA0000000865
B1232315601706N00901657EA0000000891
B1232365601635N00901741EA0000000897
B1232425601569N00901661EA0000000901
B1232475601602N00901611EA0000000913
B1232525601645N00901708EA0000000911
B1232575601611N00901843EA0000000918
B1233035601527N00901826EA0000000922
B1233085601539N00901754EA0000000931
B1233135601591N00901805EA0000000925
B1233185601588N00901953EA0000000925
B1233235601506N00902047EA0000000914
B1233285601408N00902108EA0000000909
B1233335601337N00902051EA0000000915
B1233395601333N00901935EA0000000921
B1233465601347N00901794EA0000000918
B1233515601396N00901741EA0000000922
B1233575601483N00901812EA0000000919
B1234025601564N00901905EA0000000903
B1234075601651N00901980EA0000000900
B1234125601738N00902056EA0000000896
B1234185601839N00902151EA0000000891
B1234235601922N00902227EA0000000887
B1234295602019N00902315EA0000000881
B1234365602133N00902404EA0000000871
B1234425602232N00902481EA0000000861
B1234485602330N00902561EA0000000854
B1234555602446N00902643EA0000000844
B1235005602530N00902699EA0000000832
B1235065602630N00902773EA0000000821
B1235125602727N00902849EA0000000817
B1235185602815N00902916EA0000000822
B1235235602887N00902964EA0000000811
B1235285602966N00903008EA0000000799
B1235335603045N00903053EA0000000797
B1235385603119N00903120EA0000000794
B1235445603206N00903196EA0000000796
B1235495603269N00903225EA0000000809
B1235545603297N00903167EA0000000814
B1235595603250N00903087EA0000000804
B1236045603157N00903071EA0000000792
B1236205602812N00903065EA0000000761
B1236265602686N00903057EA0000000753
B1236335602536N00903040EA0000000739
B1236395602414N00903025EA0000000738
B1236445602314N00903011EA0000000723
B1236505602192N00902975EA0000000708
B1236565602068N00902957EA0000000719
B1237015601977N00902909EA0000000716
B1237075601869N00902834EA0000000706
B1237145601744N00902734EA0000000687
B1237205601631N00902654EA0000000674
B1237275601495N00902564EA0000000661
B1237335601387N00902473EA0000000654
B1237385601298N00902397EA0000000646
B1237445601189N00902312EA0000000631
B1237555600976N00902178EA0000000616
B1238015600859N00902101EA0000000627
B1238065600780N00902040EA0000000653
B1238115600754N00901944EA0000000665
B1238165600802N00901953EA0000000667
B1238215600797N00902099EA0000000670
B1238265600717N00902126EA0000000675
B1238315600707N00902039EA0000000676
B1238365600755N00902095EA0000000674
B1238415600711N00902226EA0000000677
B1238465600618N00902266EA0000000680
B1238515600544N00902235EA0000000693
B1238565600541N00902157EA0000000698
B1239015600590N00902202EA0000000700
B1239065600561N00902348EA0000000695
B1239115600475N00902353EA0000000699
B1239185600388N00902274EA0000000702
B1239235600347N00902185EA0000000682
B1239295600355N00902047EA0000000649
B1239345600375N00901917EA0000000631
B1239435600404N00901676EA0000000624
B1239485600418N00901545EA0000000624
B1239545600429N00901408EA0000000647
B1239595600474N00901367EA0000000666
B1240045600485N00901503EA0000000679
B1240105600411N00901498EA0000000668
B1240165600448N00901447EA0000000691
B1240215600471N00901581EA0000000694
B1240265600403N00901645EA0000000692
B1240315600380N00901567EA0000000703
B1240375600429N00901526EA0000000717
B1240425600443N00901658EA0000000726
B1240475600375N00901687EA0000000724
B1240525600363N00901594EA0000000735
B1240575600414N00901595EA0000000746
B1241025600395N00901734EA0000000755
B1241085600352N00901676EA0000000758
B1241135600405N00901730EA0000000774
B1241185600366N00901856EA0000000784
B1241245600321N00901791EA0000000793
B1241295600376N00901808EA0000000804
B1241355600359N00901977EA0000000814
B1241405600295N00901957EA0000000824
B1241455600312N00901882EA0000000833
B1241505600365N00901930EA0000000845
B1241555600348N00902076EA0000000847
B1242005600272N00902105EA0000000855
B1242055600243N00902033EA0000000866
B1242105600290N00902015EA0000000869
B1242155600315N00902145EA0000000874
B1242205600254N00902255EA0000000874
B1242255600200N00902209EA0000000884
B1242305600231N00902151EA0000000885
B1242355600291N00902191EA0000000896
B1242405600313N00902322EA0000000898
B1242455600263N00902453EA0000000899
B1242505600198N00902442EA0000000906
B1242555600215N00902370EA0000000906
B1243005600282N00902383EA0000000901
B1243055600361N00902415EA0000000882
B1243105600451N00902441EA0000000877
B1243155600542N00902469EA0000000864
B1243225600671N00902489EA0000000843
B1243285600777N00902504EA0000000838
B1243345600877N00902511EA0000000839
B1243395600956N00902512EA0000000839
B1243445601033N00902525EA0000000836
B1243495601112N00902542EA0000000816
B1243545601203N00902559EA0000000805
B1243595601290N00902572EA0000000818
B1244045601372N00902573EA0000000817
B1244105601474N00902606EA0000000796
B1244165601585N00902648EA0000000775
B1244225601696N00902695EA0000000770
B1244285601802N00902744EA0000000762
B1244345601908N00902797EA0000000755
B1244415602029N00902863EA0000000746
B1244485602149N00902926EA0000000739
B1244585602320N00903009EA0000000728
B1245065602451N00903063EA0000000719
B1245125602550N00903109EA0000000705
B1245205602684N00903172EA0000000689
B1245255602767N00903203EA0000000682
B1245325602889N00903236EA0000000695
B1245375602945N00903200EA0000000718
B1245425602941N00903110EA0000000718
B1245475602977N00903087EA0000000712
B1245525602995N00903226EA0000000704
B1245595602897N00903393EA0000000693
B1246055602796N00903511EA0000000695
B1246105602769N00903662EA0000000704
B1246155602828N00903718EA0000000699
B1246205602888N00903683EA0000000675
B1246265602971N00903613EA0000000649
B1246335603062N00903517EA0000000641
B1246385603123N00903445EA0000000633
B1246435603182N00903373EA0000000622
B1246515603278N00903253EA0000000601
B1246565603339N00903178EA0000000587
B1247045603452N00903089EA0000000576
B1247145603605N00903024EA0000000559
B1247195603684N00902996EA0000000550
B1247245603763N00902963EA0000000547
B1247295603830N00902930EA0000000571
B1247345603886N00902889EA0000000564
B1247395603950N00902848EA0000000547
B1247445604025N00902834EA0000000542
B1247515604135N00902868EA0000000533
B1247575604231N00902905EA0000000534
B1248025604294N00902988EA0000000561
B1248085604268N00903150EA0000000579
B1248145604200N00903106EA0000000579
B1248205604231N00902995EA0000000586
B1248255604282N00902993EA0000000594
B1248305604263N00903137EA0000000597
B1248365604163N00903213EA0000000601
B1248415604082N00903191EA0000000609
B1248465604084N00903120EA0000000618
B1248515604121N00903219EA0000000617
B1248565604062N00903327EA0000000630
B1249015604016N00903266EA0000000630
B1249065604058N00903292EA0000000634
B1249115604038N00903444EA0000000647
B1249165603964N00903487EA0000000647
B1249215603948N00903404EA0000000635
B1249275604009N00903378EA0000000634
B1249325604064N00903469EA0000000626
B1249375604091N00903618EA0000000631
B1249425604041N00903742EA0000000635
B1249475603951N00903759EA0000000639
B1249525603857N00903764EA0000000637
B1249575603792N00903681EA0000000630
B1250025603788N00903567EA0000000627
B1250085603830N00903480EA0000000632
B1250135603884N00903494EA0000000640
B1250185603937N00903586EA0000000643
B1250235603971N00903705EA0000000649
B1250285603915N00903830EA0000000635
B1250345603798N00903898EA0000000618
B1250405603679N00903925EA0000000614
B1250455603595N00903876EA0000000599
B1250515603488N00903788EA0000000573
B1250575603386N00903677EA0000000565
B1251065603244N00903500EA0000000557
B1251115603169N00903407EA0000000557
B1251165603124N00903296EA0000000555
B1251215603133N00903198EA0000000554
B1251265603173N00903124EA0000000530
B1251335603268N00903083EA0000000533
B1251385603333N00903075EA0000000525
B1251435603399N00903118EA0000000524
B1251485603450N00903248EA0000000511
B1251565603523N00903514EA0000000492
B1252025603563N00903734EA0000000495
B1252085603561N00903963EA0000000508
B1252135603511N00904115EA0000000519
B1252185603435N00904121EA0000000519
B1252235603428N00904046EA0000000508
B1252285603486N00904085EA0000000503
B1252335603528N00904212EA0000000504
B1252385603494N00904366EA0000000516
B1252435603417N00904384EA0000000524
B1252485603385N00904306EA0000000518
B1252535603331N00904235EA0000000503
B1252595603232N00904158EA0000000477
B1253045603144N00904088EA0000000468
B1253105603028N00904045EA0000000460
B1253175602914N00903958EA0000000471
B1253235602832N00903884EA0000000461
B1253305602721N00903791EA0000000450
B1253355602633N00903729EA0000000450
B1253415602545N00903651EA0000000463
B1253465602499N00903569EA0000000459
B1253535602409N00903449EA0000000426
B1254035602264N00903255EA0000000411
B1254105602163N00903121EA0000000399
B1254155602091N00903028EA0000000402
B1254225601986N00902899EA0000000399
B1254285601903N00902796EA0000000417
B1254355601880N00902669EA0000000429
B1254405601914N00902608EA0000000428
B1254455601971N00902635EA0000000431
B1254505601965N00902772EA0000000435
B1254555601887N00902814EA0000000429
B1255025601793N00902721EA0000000407
B1255105601679N00902573EA0000000373
B1255175601571N00902449EA0000000351
B1255225601488N00902374EA0000000335
B1255275601405N00902296EA0000000320
B1255345601286N00902187EA0000000300
B1255395601189N00902126EA0000000294
B1255445601091N00902069EA0000000295
B1255495601011N00902007EA0000000323
B1255545601003N00901925EA0000000333
B1255595601049N00901977EA0000000331
B1256045601025N00902116EA0000000325
B1256105600928N00902124EA0000000314
B1256155600871N00902045EA0000000315
B1256215600844N00901926EA0000000306
B1256265600843N00901819EA0000000286
B1256335600856N00901647EA0000000278
B1256395600855N00901500EA0000000287
B1256475600863N00901335EA0000000290
B1256535600850N00901205EA0000000286
B1256595600832N00901065EA0000000275
B1257045600843N00900959EA0000000278
B1257095600875N00900882EA0000000278
B1257145600912N00900820EA0000000279
B1257195600960N00900803EA0000000267
B1257245600980N00900719EA0000000261
B1257295600964N00900608EA0000000262
B1257375600921N00900435EA0000000258
B1257425600902N00900327EA0000000255
B1257475600864N00900221EA0000000252
B1257525600806N00900131EA0000000255
B1257575600813N00900039EA0000000254
B1258025600861N00900043EA0000000260
B1258075600885N00900164EA0000000256
B1258145600893N00900377EA0000000243
B1258195600913N00900528EA0000000234
B1258255600931N00900717EA0000000228
B1258305600944N00900875EA0000000223
B1258375600985N00901073EA0000000209
B1258435601021N00901245EA0000000200
B1258525601078N00901515EA0000000181
B1258585601107N00901716EA0000000170
B1259035601100N00901895EA0000000167
B1259085601054N00902058EA0000000164
B1259145600963N00902205EA0000000159
B1259195600876N00902247EA0000000157
B1259245600820N00902182EA0000000141
B1259305600794N00902040EA0000000110
B1259365600771N00901868EA0000000083
B1259425600747N00901687EA0000000063
B1259475600725N00901542EA0000000039
B1259545600693N00901374EA0000000037
B1300005600674N00901295EA0000000037
