AOGNOGN
HFDTE280625
HFFXA050
HFPLTPILOTINCHARGE:
HFGTYGLIDERTYPE:ASK-21
HFGIDGLIDERID:OY-TRX
HFDTM100GPSDATUM:WGS-1984
HFRFWFIRMWAREVERSION:
HFRHWHARDWAREVERSION:
HFFTYFRTYPE:OGN-FLIGHTBOOK
HFGPSGENERIC
HFPRSPRESSALTSENSOR:
HFCIDCOMPETITIONID:TR
B1015205610634N01005005EA0000000075
B1015215610638N01004984EA0000000078
B1015265610665N01004876EA0000000147
B1015315610688N01004779EA0000000233
B1015365610706N01004679EA0000000317
B1015415610718N01004576EA0000000394
B1015465610733N01004479EA0000000446
B1015535610732N01004364EA0000000443
B1016005610740N01004240EA0000000425
B1016055610793N01004169EA0000000425
B1016105610879N01004176EA0000000423
B1016175611008N01004287EA0000000406
B1016245611113N01004399EA0000000428
B1016295611188N01004477EA0000000415
B1016345611258N01004584EA0000000410
B1016405611269N01004786EA0000000405
B1016465611229N01004975EA0000000394
B1016515611187N01005114EA0000000389
B1016565611124N01005133EA0000000376
B1017025611103N01005036EA0000000368
B1017085611132N01004930EA0000000360
B1017155611166N01004818EA0000000359
B1017255611223N01004675EA0000000349
B1017305611249N01004606EA0000000344
B1017365611277N01004524EA0000000339
B1017415611312N01004464EA0000000328
B1017465611384N01004509EA0000000322
B1017515611401N01004675EA0000000310
B1017565611383N01004843EA0000000305
B1018015611366N01005019EA0000000289
B1018065611356N01005206EA0000000283
B1018115611342N01005382EA0000000283
B1018165611287N01005486EA0000000273
B1018215611217N01005513EA0000000263
B1018275611133N01005520EA0000000258
B1018325611072N01005511EA0000000257
B1018385611008N01005478EA0000000245
B1018445610941N01005440EA0000000237
B1018515610853N01005421EA0000000228
B1018595610758N01005384EA0000000224
B1019045610751N01005308EA0000000213
B1019135610753N01005130EA0000000143
B1019225610737N01004952EA0000000092
B1019305610744N01004792EA0000000071
