AOGNOGN
HFDTE250625
HFFXA050
HFPLTPILOTINCHARGE:
HFGTYGLIDERTYPE:Duo Discus t
HFGIDGLIDERID:OY-RRX
HFDTM100GPSDATUM:WGS-1984
HFRFWFIRMWAREVERSION:
HFRHWHARDWAREVERSION:
HFFTYFRTYPE:OGN-FLIGHTBOOK
HFGPSGENERIC
HFPRSPRESSALTSENSOR:
HFCIDCOMPETITIONID:RR
B1824495515087N01204266EA0000000038
B1824525515088N01204219EA0000000038
B1825005515090N01204063EA0000000039
B1825055515092N01203942EA0000000040
B1825115515092N01203779EA0000000044
B1825165515077N01203646EA0000000055
B1825225515040N01203496EA0000000067
B1825305514960N01203312EA0000000075
B1825385514844N01203177EA0000000089
B1825485514662N01203111EA0000000101
B1825565514509N01203117EA0000000121
B1826015514414N01203135EA0000000129
B1826065514315N01203164EA0000000131
B1826145514162N01203257EA0000000148
B1826205514067N01203402EA0000000151
B1826255514020N01203568EA0000000158
B1826335514001N01203851EA0000000175
B1826385514003N01204024EA0000000187
B1826465514019N01204307EA0000000191
B1826555514058N01204628EA0000000209
B1827015514112N01204808EA0000000227
B1827075514190N01204947EA0000000236
B1827145514299N01205026EA0000000252
B1827195514375N01205058EA0000000266
B1827255514463N01205085EA0000000278
B1827305514537N01205105EA0000000288
B1827385514653N01205124EA0000000301
B1827475514789N01205135EA0000000318
B1827545514893N01205150EA0000000327
B1828005514984N01205154EA0000000336
B1828085515111N01205154EA0000000351
B1828155515221N01205152EA0000000358
B1828215515313N01205149EA0000000371
B1828295515434N01205128EA0000000381
B1828355515525N01205113EA0000000392
B1828405515598N01205102EA0000000404
B1828455515674N01205089EA0000000407
B1828505515749N01205067EA0000000415
B1828555515817N01205035EA0000000428
B1829015515891N01204971EA0000000436
B1829065515947N01204902EA0000000442
B1829115515996N01204819EA0000000449
B1829185516053N01204690EA0000000461
B1829245516092N01204567EA0000000469
B1829315516126N01204413EA0000000479
B1829375516142N01204271EA0000000488
B1829465516143N01204043EA0000000503
B1829535516135N01203875EA0000000519
B1829595516121N01203730EA0000000529
B1830065516097N01203564EA0000000542
B1830195516048N01203269EA0000000567
B1830275516011N01203092EA0000000580
B1830345515979N01202944EA0000000591
B1830445515935N01202718EA0000000602
B1830505515915N01202581EA0000000616
B1830555515906N01202462EA0000000623
B1831035515916N01202285EA0000000643
B1831095515936N01202159EA0000000649
B1831145515957N01202042EA0000000646
B1831195515980N01201917EA0000000650
B1831265516009N01201749EA0000000666
B1831325516034N01201615EA0000000683
B1831385516054N01201479EA0000000692
B1831435516066N01201361EA0000000698
B1831525516088N01201147EA0000000711
B1832005516096N01200959EA0000000727
B1832065516093N01200822EA0000000737
B1832115516078N01200706EA0000000744
B1832175516030N01200581EA0000000757
B1832245515945N01200465EA0000000768
B1832315515828N01200418EA0000000783
B1832365515736N01200441EA0000000790
B1832415515650N01200493EA0000000792
B1832465515568N01200565EA0000000790
B1832515515491N01200640EA0000000789
B1832595515377N01200769EA0000000784
B1833075515269N01200912EA0000000773
B1833125515201N01201004EA0000000766
B1833195515104N01201147EA0000000746
B1833255515014N01201287EA0000000730
B1833335514901N01201489EA0000000719
B1833415514819N01201723EA0000000716
B1833465514780N01201868EA0000000714
B1833515514746N01202011EA0000000706
B1833585514696N01202220EA0000000698
B1834055514650N01202425EA0000000690
B1834115514617N01202607EA0000000680
B1834205514580N01202896EA0000000664
B1834255514564N01203061EA0000000657
B1834305514549N01203220EA0000000656
B1834355514535N01203370EA0000000650
B1834405514521N01203522EA0000000642
B1834505514495N01203835EA0000000627
B1834575514476N01204062EA0000000614
B1835045514460N01204290EA0000000608
B1835095514453N01204446EA0000000601
B1835155514448N01204635EA0000000591
B1835255514444N01204967EA0000000568
B1835315514442N01205161EA0000000569
B1835405514443N01205427EA0000000559
B1835465514446N01205605EA0000000551
B1835525514454N01205782EA0000000544
B1835575514478N01205917EA0000000539
B1836025514525N01206006EA0000000535
B1836105514614N01206039EA0000000526
B1836175514674N01205988EA0000000517
B1836245514712N01205897EA0000000512
B1836345514726N01205731EA0000000503
B1836425514702N01205586EA0000000497
B1836515514660N01205424EA0000000488
B1836595514611N01205287EA0000000484
B1837055514566N01205186EA0000000479
B1837205514433N01204901EA0000000450
B1837265514373N01204776EA0000000440
B1837365514273N01204556EA0000000432
B1837425514220N01204423EA0000000431
B1837525514138N01204207EA0000000427
B1837595514093N01204052EA0000000422
B1838065514059N01203897EA0000000418
B1838115514038N01203794EA0000000420
B1838185514010N01203661EA0000000419
B1838265513982N01203516EA0000000411
B1838345513969N01203356EA0000000399
B1838395513961N01203253EA0000000397
B1838455513951N01203131EA0000000393
B1838535513952N01202964EA0000000382
B1838595513971N01202840EA0000000375
B1839045513999N01202748EA0000000373
B1839145514068N01202573EA0000000362
B1839245514158N01202428EA0000000352
B1839295514215N01202376EA0000000348
B1839345514278N01202350EA0000000347
B1839395514346N01202362EA0000000344
B1839455514423N01202436EA0000000343
B1839525514495N01202585EA0000000339
B1839585514534N01202747EA0000000336
B1840045514557N01202927EA0000000328
B1840135514574N01203222EA0000000315
B1840205514579N01203468EA0000000302
B1840295514581N01203799EA0000000286
B1840345514587N01203991EA0000000279
B1840425514609N01204294EA0000000263
B1840505514647N01204612EA0000000244
B1841035514747N01205119EA0000000216
B1841085514816N01205280EA0000000207
B1841145514931N01205370EA0000000201
B1841205515050N01205404EA0000000195
B1841275515186N01205419EA0000000186
B1841325515282N01205412EA0000000175
B1841385515376N01205335EA0000000179
B1841485515363N01205044EA0000000149
B1841565515309N01204794EA0000000101
B1842035515255N01204558EA0000000067
B1842085515218N01204384EA0000000050
B1842155515172N01204150EA0000000039
B1842205515144N01204000EA0000000036
B1842275515108N01203835EA0000000035
B1842345515079N01203735EA0000000036
