AOGNOGN
HFDTE210625
HFFXA050
HFPLTPILOTINCHARGE:
HFGTYGLIDERTYPE:WT9 Dynamic
HFGIDGLIDERID:OY-9397
HFDTM100GPSDATUM:WGS-1984
HFRFWFIRMWAREVERSION:
HFRHWHARDWAREVERSION:
HFFTYFRTYPE:OGN-FLIGHTBOOK
HFGPSGENERIC
HFPRSPRESSALTSENSOR:
HFCIDCOMPETITIONID:
B1305415527141N01138882EA0000000035
B1305415527141N01138882EA0000000035
B1305465527142N01138767EA0000000062
B1305515527149N01138668EA0000000100
B1305595527163N01138508EA0000000137
B1306045527173N01138397EA0000000156
B1306125527187N01138204EA0000000196
B1306175527194N01138086EA0000000231
B1306225527201N01137970EA0000000254
B1306295527210N01137794EA0000000279
B1306345527217N01137665EA0000000306
B1306405527226N01137518EA0000000337
B1306465527210N01137363EA0000000351
B1306515527164N01137237EA0000000361
B1307045526929N01137092EA0000000398
B1307135526732N01137087EA0000000421
B1307195526602N01137098EA0000000427
B1307245526497N01137118EA0000000445
B1307295526396N01137140EA0000000469
B1307365526246N01137187EA0000000489
B1307415526139N01137233EA0000000505
B1307475526015N01137302EA0000000525
B1307535525896N01137372EA0000000535
B1308015525734N01137430EA0000000545
B1308105525542N01137488EA0000000557
B1308165525410N01137536EA0000000560
B1308225525271N01137585EA0000000561
B1308275525154N01137637EA0000000564
B1308335525016N01137705EA0000000570
B1308385524901N01137760EA0000000566
B1308455524743N01137795EA0000000571
B1308515524608N01137815EA0000000570
B1308585524447N01137855EA0000000574
B1309045524307N01137881EA0000000577
B1309095524193N01137896EA0000000587
B1309195523963N01137926EA0000000593
B1309255523829N01137931EA0000000610
B1309325523675N01137936EA0000000608
B1309385523537N01137943EA0000000610
B1309435523423N01137948EA0000000617
B1309545523175N01137951EA0000000630
B1310025522999N01137957EA0000000649
B1310095522846N01137963EA0000000657
B1310175522668N01137975EA0000000656
B1310235522523N01137994EA0000000632
B1310285522390N01138026EA0000000625
B1310335522262N01138067EA0000000641
B1310385522136N01138108EA0000000643
B1310435522008N01138151EA0000000644
B1310485521880N01138197EA0000000647
B1310545521733N01138247EA0000000664
B1311005521596N01138300EA0000000685
B1311085521413N01138379EA0000000678
B1311145521266N01138442EA0000000679
B1311195521144N01138491EA0000000688
B1311255520997N01138543EA0000000695
B1311345520778N01138615EA0000000696
B1311435520553N01138678EA0000000682
B1311515520350N01138737EA0000000682
B1311565520224N01138765EA0000000680
B1312035520040N01138814EA0000000662
B1312085519908N01138845EA0000000669
B1312165519700N01138904EA0000000670
B1312215519573N01138943EA0000000676
B1312275519423N01139002EA0000000669
B1312325519297N01139033EA0000000675
B1312385519159N01139014EA0000000692
B1312455519007N01138962EA0000000688
B1312515518873N01138909EA0000000690
B1312575518746N01138845EA0000000701
B1313025518641N01138781EA0000000699
B1313075518536N01138719EA0000000702
B1313125518428N01138655EA0000000695
B1313175518315N01138587EA0000000687
B1313225518208N01138501EA0000000690
B1313285518079N01138403EA0000000690
B1313375517876N01138268EA0000000681
B1313445517721N01138160EA0000000683
B1313495517610N01138078EA0000000679
B1313545517496N01138003EA0000000681
B1314025517314N01137887EA0000000681
B1314095517156N01137782EA0000000683
B1314145517043N01137714EA0000000686
B1314215516881N01137632EA0000000686
B1314265516766N01137564EA0000000683
B1314325516634N01137475EA0000000688
B1314415516433N01137341EA0000000679
B1314505516231N01137217EA0000000686
B1314565516092N01137137EA0000000682
B1315015515979N01137074EA0000000687
B1315085515822N01136991EA0000000690
B1315155515663N01136913EA0000000688
B1315205515549N01136863EA0000000690
B1315275515389N01136796EA0000000689
B1315325515273N01136747EA0000000688
B1315375515156N01136705EA0000000691
B1315425515037N01136668EA0000000689
B1315485514895N01136624EA0000000693
B1315545514748N01136599EA0000000698
B1316015514576N01136632EA0000000712
B1316105514383N01136557EA0000000730
B1316195514194N01136465EA0000000739
B1316245514087N01136411EA0000000737
B1316295513974N01136354EA0000000733
B1316345513858N01136294EA0000000735
B1316395513744N01136235EA0000000742
B1316465513586N01136158EA0000000750
B1316555513375N01136065EA0000000751
B1317015513238N01135981EA0000000757
B1317065513129N01135903EA0000000769
B1317135512984N01135781EA0000000776
B1317335512524N01135480EA0000000790
B1317475512201N01135285EA0000000809
B1318045511793N01135064EA0000000821
B1318135511578N01134935EA0000000830
B1318355511044N01134678EA0000000853
B1318455510803N01134559EA0000000877
B1318585510488N01134403EA0000000891
B1319095510214N01134298EA0000000912
B1319225509892N01134165EA0000000931
B1319355509561N01134065EA0000000948
B1319425509377N01134028EA0000000956
B1319585508952N01133965EA0000000973
B1320045508791N01133946EA0000000983
B1320095508658N01133932EA0000000995
B1320165508474N01133913EA0000001007
B1320275508177N01133900EA0000001023
B1320325508044N01133907EA0000001039
B1320515507552N01133975EA0000001079
B1320565507424N01133997EA0000001096
B1321165506916N01134111EA0000001132
B1321215506787N01134140EA0000001146
B1321315506534N01134197EA0000001167
B1321385506354N01134242EA0000001177
B1321435506226N01134251EA0000001183
B1321485506105N01134217EA0000001190
B1321535505991N01134165EA0000001201
B1322025505791N01134079EA0000001226
B1322095505638N01134016EA0000001235
B1322145505528N01133965EA0000001245
B1322195505419N01133913EA0000001259
B1322325505147N01133789EA0000001291
B1322415504962N01133682EA0000001303
B1322525504734N01133562EA0000001333
B1323205504158N01133284EA0000001385
B1323445503641N01132966EA0000001403
B1323505503512N01132871EA0000001407
B1324025503254N01132678EA0000001418
B1324095503107N01132547EA0000001422
B1324225502833N01132303EA0000001427
B1324275502730N01132198EA0000001429
B1324445502345N01131932EA0000001442
B1324595501976N01131753EA0000001445
B1325445500778N01131534EA0000001463
B1325495500636N01131525EA0000001457
B1326035500236N01131476EA0000001451
B1326105500034N01131463EA0000001446
B1326585458691N01131039EA0000001408
B1327095458385N01130907EA0000001397
B1327585457147N01130180EA0000001376
B1328565455528N01129682EA0000001289
B1329135455044N01129510EA0000001164
B1329185454895N01129453EA0000001120
B1329275454651N01129316EA0000001089
B1329325454523N01129254EA0000001068
B1329375454393N01129198EA0000001033
B1330195453274N01129032EA0000000886
B1330255453116N01129053EA0000000863
B1331325451424N01129133EA0000000813
B1331495451020N01129019EA0000000792
B1332045450666N01128930EA0000000788
B1332145450417N01128898EA0000000768
B1332275450093N01128866EA0000000761
B1332445449678N01128811EA0000000736
B1332585449341N01128757EA0000000728
B1333175448896N01128671EA0000000723
B1333255448710N01128638EA0000000718
B1333445448304N01128524EA0000000714
B1334035447896N01128383EA0000000699
B1334165447619N01128278EA0000000669
B1334235447466N01128226EA0000000659
B1334295447331N01128207EA0000000655
B1334435447002N01128245EA0000000637
B1335345445867N01128814EA0000000593
B1335395445758N01128888EA0000000589
B1335475445584N01129014EA0000000579
B1336025445261N01129247EA0000000562
B1336275444724N01129622EA0000000530
B1336335444593N01129705EA0000000522
B1336545444131N01129961EA0000000492
B1336595444023N01130015EA0000000480
B1337125443738N01130122EA0000000454
B1337205443565N01130161EA0000000448
B1337255443459N01130173EA0000000445
B1337525442889N01130197EA0000000415
B1338075442640N01130226EA0000000426
B1338175442486N01130248EA0000000413
B1338465441994N01130270EA0000000370
B1338525441898N01130249EA0000000359
B1338595441806N01130189EA0000000342
B1339045441759N01130119EA0000000325
B1339505441773N01129252EA0000000177
B1340015441791N01129053EA0000000145
B1340065441799N01128960EA0000000132
B1341135441874N01127727EA0000000071
B1341245441892N01127460EA0000000055
B1341495441930N01126865EA0000000010
B1342055441947N01126634EA0000000008
