AOGNOGN
HFDTE210625
HFFXA050
HFPLTPILOTINCHARGE:
HFGTYGLIDERTYPE:ASK-21
HFGIDGLIDERID:OY-XPL
HFDTM100GPSDATUM:WGS-1984
HFRFWFIRMWAREVERSION:
HFRHWHARDWAREVERSION:
HFFTYFRTYPE:OGN-FLIGHTBOOK
HFGPSGENERIC
HFPRSPRESSALTSENSOR:
HFCIDCOMPETITIONID:PL
B1226385527183N01138955EA0000000057
B1226395527182N01138933EA0000000071
B1226445527175N01138832EA0000000164
B1226495527166N01138744EA0000000252
B1226555527158N01138630EA0000000340
B1227005527143N01138531EA0000000393
B1227055527114N01138444EA0000000414
B1227125527064N01138361EA0000000415
B1227175527007N01138357EA0000000418
B1227255526911N01138383EA0000000416
B1227325526825N01138416EA0000000404
B1227375526765N01138473EA0000000402
B1227435526705N01138586EA0000000404
B1227485526648N01138643EA0000000416
B1227535526612N01138592EA0000000420
B1227585526649N01138532EA0000000422
B1228035526708N01138601EA0000000433
B1228085526708N01138728EA0000000430
B1228135526650N01138778EA0000000441
B1228195526619N01138709EA0000000447
B1228245526670N01138683EA0000000442
B1228295526691N01138821EA0000000437
B1228365526614N01138869EA0000000451
B1228415526618N01138791EA0000000451
B1228465526679N01138796EA0000000452
B1228535526682N01138975EA0000000453
B1228585526628N01138989EA0000000460
B1229035526634N01138915EA0000000456
B1229105526715N01138953EA0000000466
B1229155526713N01139085EA0000000457
B1229205526656N01139108EA0000000466
B1229275526651N01139005EA0000000471
B1229345526731N01138979EA0000000481
B1229395526792N01139057EA0000000477
B1229445526795N01139199EA0000000476
B1229495526739N01139247EA0000000476
B1229565526713N01139148EA0000000476
B1230065526716N01138969EA0000000476
B1230115526719N01138885EA0000000475
B1230185526727N01138764EA0000000466
B1230235526735N01138672EA0000000465
B1230315526773N01138535EA0000000453
B1230405526831N01138381EA0000000450
B1230465526855N01138275EA0000000443
B1230545526882N01138130EA0000000444
B1231015526914N01138007EA0000000449
B1231065526939N01137930EA0000000433
B1231115526970N01137848EA0000000403
B1231165527002N01137763EA0000000377
B1231235527047N01137646EA0000000366
B1231315527063N01137516EA0000000364
B1231395527064N01137393EA0000000367
B1231445527052N01137317EA0000000361
B1231495527004N01137293EA0000000348
B1231545526944N01137364EA0000000340
B1232005526911N01137525EA0000000337
B1232065526882N01137696EA0000000336
B1232135526855N01137901EA0000000341
B1232185526838N01138048EA0000000343
B1232255526812N01138255EA0000000349
B1232345526777N01138533EA0000000350
B1232415526744N01138748EA0000000355
B1232465526746N01138897EA0000000364
B1232515526800N01138993EA0000000369
B1232565526861N01138978EA0000000367
B1233025526889N01138867EA0000000370
B1233115526918N01138700EA0000000371
B1233205526925N01138528EA0000000356
B1233265526921N01138413EA0000000356
B1233315526887N01138342EA0000000361
B1233365526825N01138379EA0000000369
B1233425526811N01138532EA0000000374
B1233475526865N01138615EA0000000368
B1233525526911N01138559EA0000000369
B1233595526851N01138513EA0000000385
B1234045526809N01138618EA0000000384
B1234095526827N01138750EA0000000385
B1234165526914N01138787EA0000000388
B1234215526942N01138716EA0000000398
B1234265526909N01138661EA0000000399
B1234335526832N01138759EA0000000402
B1234385526823N01138899EA0000000403
B1234435526874N01138995EA0000000406
B1234495526941N01138956EA0000000409
B1234545526937N01138871EA0000000419
B1234595526888N01138840EA0000000419
B1235065526803N01138945EA0000000423
B1235115526806N01139094EA0000000423
B1235165526870N01139177EA0000000419
B1235235526945N01139110EA0000000434
B1235285526938N01139032EA0000000441
B1235355526872N01138988EA0000000431
B1235405526805N01139001EA0000000433
B1235455526743N01139086EA0000000432
B1235505526718N01139232EA0000000429
B1235575526773N01139405EA0000000430
B1236025526832N01139415EA0000000423
B1236075526873N01139346EA0000000417
B1236145526907N01139211EA0000000418
B1236195526914N01139103EA0000000411
B1236255526925N01138969EA0000000388
B1236315526967N01138834EA0000000372
B1236375527000N01138695EA0000000380
B1236455527001N01138528EA0000000383
B1236515526992N01138412EA0000000384
B1236565526984N01138325EA0000000375
B1237015526970N01138234EA0000000360
B1237085526968N01138095EA0000000326
B1237175526980N01137905EA0000000308
B1237225526979N01137801EA0000000300
B1237285526973N01137682EA0000000288
B1237335526928N01137617EA0000000286
B1237395526856N01137695EA0000000275
B1237445526847N01137860EA0000000268
B1237515526844N01138106EA0000000264
B1237565526837N01138276EA0000000268
B1238095526812N01138688EA0000000270
B1238175526798N01138941EA0000000280
B1238245526799N01139160EA0000000282
B1238305526839N01139336EA0000000283
B1238385526900N01139577EA0000000293
B1238445526943N01139748EA0000000309
B1238495526986N01139878EA0000000317
B1238545527055N01139939EA0000000322
B1238595527122N01139915EA0000000316
B1239045527145N01139822EA0000000310
B1239095527126N01139729EA0000000310
B1239145527066N01139700EA0000000309
B1239215526980N01139805EA0000000302
B1239285526954N01140011EA0000000301
B1239335526988N01140147EA0000000306
B1239385527058N01140212EA0000000306
B1239435527121N01140177EA0000000303
B1239485527141N01140079EA0000000294
B1239555527152N01139939EA0000000256
B1240025527156N01139797EA0000000207
B1240095527165N01139647EA0000000160
B1240165527154N01139493EA0000000119
B1240225527147N01139370EA0000000103
B1240295527144N01139241EA0000000079
B1240385527142N01139086EA0000000050
B1240465527135N01138952EA0000000033
