AOGNOGN
HFDTE200625
HFFXA050
HFPLTPILOTINCHARGE:
HFGTYGLIDERTYPE:Duo Discus
HFGIDGLIDERID:OY-RMX
HFDTM100GPSDATUM:WGS-1984
HFRFWFIRMWAREVERSION:
HFRHWHARDWAREVERSION:
HFFTYFRTYPE:OGN-FLIGHTBOOK
HFGPSGENERIC
HFPRSPRESSALTSENSOR:
HFCIDCOMPETITIONID:MX
B1024425527162N01138989EA0000000035
B1024435527162N01138967EA0000000040
B1024485527161N01138841EA0000000124
B1024545527157N01138688EA0000000231
B1024595527154N01138551EA0000000294
B1025045527156N01138389EA0000000315
B1025095527159N01138221EA0000000331
B1025145527167N01138080EA0000000336
B1025195527177N01137942EA0000000334
B1025265527264N01137891EA0000000330
B1025325527294N01138055EA0000000322
B1025385527237N01138214EA0000000326
B1025445527165N01138349EA0000000329
B1025495527118N01138472EA0000000322
B1025545527147N01138593EA0000000322
B1026005527221N01138585EA0000000308
B1026075527244N01138442EA0000000313
B1026135527221N01138318EA0000000307
B1026195527168N01138206EA0000000303
B1026255527080N01138145EA0000000294
B1026305527001N01138141EA0000000292
B1026355526924N01138196EA0000000278
B1026405526879N01138332EA0000000266
B1026475526896N01138543EA0000000269
B1026535526920N01138710EA0000000257
B1027015526954N01138938EA0000000260
B1027085526993N01139128EA0000000254
B1027135527047N01139229EA0000000249
B1027185527114N01139246EA0000000238
B1027255527168N01139124EA0000000221
B1027305527150N01139008EA0000000213
B1027375527098N01138862EA0000000210
B1027425527058N01138765EA0000000213
B1027485526975N01138721EA0000000212
B1027535526922N01138835EA0000000205
B1027595526968N01138978EA0000000198
B1028045527035N01138956EA0000000200
B1028095527053N01138852EA0000000203
B1028165526977N01138774EA0000000210
B1028215526928N01138893EA0000000199
B1028265526968N01139019EA0000000198
B1028325527047N01138989EA0000000202
B1028375527060N01138877EA0000000203
B1028425526995N01138826EA0000000209
B1028495526937N01139002EA0000000200
B1028545526994N01139106EA0000000200
B1028595527059N01139072EA0000000206
B1029065527070N01138916EA0000000195
B1029125526983N01138868EA0000000206
B1029175526929N01138983EA0000000202
B1029235526979N01139135EA0000000198
B1029285527053N01139115EA0000000203
B1029335527072N01138997EA0000000204
B1029405526987N01138894EA0000000205
B1029455526914N01138987EA0000000201
B1029505526916N01139145EA0000000201
B1029575527015N01139231EA0000000203
B1030025527053N01139133EA0000000202
B1030075527006N01139037EA0000000201
B1030145526909N01139146EA0000000200
B1030195526931N01139296EA0000000198
B1030245527010N01139336EA0000000201
B1030315527086N01139227EA0000000194
B1030365527069N01139102EA0000000186
B1030415526988N01139043EA0000000169
B1030485526859N01139131EA0000000154
B1030535526837N01139308EA0000000142
B1030585526889N01139457EA0000000134
B1031055527002N01139587EA0000000134
B1031105527087N01139617EA0000000123
B1031155527158N01139542EA0000000099
B1031225527186N01139347EA0000000066
B1031275527182N01139211EA0000000048
B1031325527181N01139074EA0000000035
B1031395527178N01138915EA0000000031
